,Conditions,Datestamp,Dew Point,Events,Gust Speed,Heat Index,Humidity,Precip,Pressure,Temp.,Time (HKT),Visibility,Wind Dir,Wind Speed,Mlabels
0,[Scattered Clouds],1996-7-1,[25.0 °C],[],[-],[36.0 °C],[74%],[N/A],[1008 hPa],[30.0 °C],[8:00 AM],[10.0 km],[SSW],"[14.8 km/h
		/ 4.1 m/s]",METAR VHHH 010000Z 20008KT 160V240 9999 FEW012 SCT020 30/25 Q1008 TEMPO 4000 SHRA
0,[Scattered Clouds],1996-7-1,[26.0 °C],[],[-],[37.4 °C],[79%],[N/A],[1009 hPa],[30.0 °C],[9:00 AM],[10.0 km],[South],"[22.2 km/h
		/ 6.2 m/s]",METAR VHHH 010100Z 18012KT 140V240 9999 FEW014 SCT020 30/26 Q1009 TEMPO 4000 SHRA
0,[Scattered Clouds],1996-7-1,[26.0 °C],[],[-],[37.4 °C],[79%],[N/A],[1009 hPa],[30.0 °C],[10:00 AM],[10.0 km],[South],"[24.1 km/h
		/ 6.7 m/s]",METAR VHHH 010200Z 18013KT 110V220 9999 FEW013 SCT020 30/26 Q1009 WS LDG RWY 13 TEMPO 4000 SHRA
0,[Scattered Clouds],1996-7-1,[26.0 °C],[],[-],[37.4 °C],[79%],[N/A],[1008 hPa],[30.0 °C],[11:00 AM],[10.0 km],[SSW],"[25.9 km/h
		/ 7.2 m/s]",METAR VHHH 010300Z 20014KT 130V260 9999 FEW014 SCT022 30/26 Q1008 WS LDG RWY 13 TEMPO 4000 SHRA
0,[Scattered Clouds],1996-7-1,[26.0 °C],[],"[42.6 km/h
		/ 11.8 m/s]",[37.4 °C],[79%],[N/A],[1008 hPa],[30.0 °C],[12:00 PM],[10.0 km],[South],"[22.2 km/h
		/ 6.2 m/s]",METAR VHHH 010400Z 18012G23KT 120V260 9999 FEW014 SCT022 30/26 Q1008 WS LDG RWY 13 TEMPO 4000 SHRA
0,[Scattered Clouds],1996-7-1,[26.0 °C],[],[-],[39.2 °C],[75%],[N/A],[1008 hPa],[31.0 °C],[2:00 PM],[10.0 km],[North],[-],METAR VHHH 010600Z 19010G20 KT 150V260 9999 FEW014 SCT020 31/26 Q1008 WS LDG RWY 13 NOSIG
0,[Scattered Clouds],1996-7-1,[26.0 °C],[],[-],[37.4 °C],[79%],[N/A],[1007 hPa],[30.0 °C],[3:00 PM],[10.0 km],[South],"[24.1 km/h
		/ 6.7 m/s]",METAR VHHH 010700Z 18013KT 140V240 9999 FEW016 SCT022 30/26 Q1007 WS LDG RWY 13 TEMPO 4000 SHRA
0,[Scattered Clouds],1996-7-1,[26.0 °C],[],[-],[37.4 °C],[79%],[N/A],[1007 hPa],[30.0 °C],[4:00 PM],[10.0 km],[South],"[22.2 km/h
		/ 6.2 m/s]",METAR VHHH 010800Z 18012KT 110V300 9999 FEW016 SCT022 30/26 Q1007 WS LDG RWY 13 TEMPO 4000 SHRA
0,[Scattered Clouds],1996-7-1,[26.0 °C],[],[-],[37.4 °C],[79%],[N/A],[1007 hPa],[30.0 °C],[5:00 PM],[10.0 km],[South],"[22.2 km/h
		/ 6.2 m/s]",METAR VHHH 010900Z 19012KT 130V230 9999 FEW016 SCT022 30/26 Q1007 WS LDG RWY 13 TEMPO 4000 SHRA
0,[Mostly Cloudy],1996-7-1,[26.0 °C],[],[-],[37.4 °C],[79%],[N/A],[1007 hPa],[30.0 °C],[6:00 PM],[10.0 km],[South],"[18.5 km/h
		/ 5.1 m/s]",METAR VHHH 011000Z 19010KT 140V250 9999 FEW015 SCT020 BKN300 30/26 Q1007 WS LDG RWY 13 TEMPO 4000 SHRA
0,[Light Rain Showers],1996-7-1,[26.0 °C],[Rain],[-],[35.6 °C],[84%],[N/A],[1007 hPa],[29.0 °C],[7:00 PM],[10.0 km],[South],"[18.5 km/h
		/ 5.1 m/s]",METAR VHHH 011100Z 19010KT 150V240 9999 -SHRA FEW015 SCT020 BKN300 29/26 Q1007 WS LDG RWY 13 TEMPO 4000 SHRA
0,[Mostly Cloudy],1996-7-1,[26.0 °C],[],[-],[35.6 °C],[84%],[N/A],[1007 hPa],[29.0 °C],[8:00 PM],[10.0 km],[South],"[18.5 km/h
		/ 5.1 m/s]",METAR VHHH 011200Z 18010KT 120V240 9999 FEW014 SCT020 BKN300 29/26 Q1007 WS LDG RWY 13 TEMPO 4000 SHRA
0,[Scattered Clouds],1996-7-1,[26.0 °C],[],[-],[35.6 °C],[84%],[N/A],[1008 hPa],[29.0 °C],[9:00 PM],[10.0 km],[South],"[16.7 km/h
		/ 4.6 m/s]",METAR VHHH 011300Z 19009KT 140V240 9999 FEW014 SCT020 29/26 Q1008 WS LDG RWY 13 TEMPO 4000 SHRA
0,[Scattered Clouds],1996-7-1,[26.0 °C],[],[-],[35.6 °C],[84%],[N/A],[1009 hPa],[29.0 °C],[10:00 PM],[10.0 km],[SSW],"[14.8 km/h
		/ 4.1 m/s]",METAR VHHH 011400Z 20008KT 140V270 9999 FEW014 SCT020 29/26 Q1009 WS LDG RWY 13/31 TEMPO 4000 SHRA
0,[Scattered Clouds],1996-7-1,[26.0 °C],[],[-],[35.6 °C],[84%],[N/A],[1009 hPa],[29.0 °C],[11:00 PM],[10.0 km],[South],"[14.8 km/h
		/ 4.1 m/s]",METAR VHHH 011500Z 18008KT 140V220 9999 FEW014 SCT022 29/26 Q1009 TEMPO 4000 SHRA
0,[Scattered Clouds],1996-7-2,[25.0 °C],[],[-],[34.5 °C],[79%],[N/A],[1009 hPa],[29.0 °C],[12:00 AM],[10.0 km],[South],"[14.8 km/h
		/ 4.1 m/s]",METAR VHHH 011600Z 19008KT 140V220 9999 FEW014 SCT022 29/25 Q1009 TEMPO 4000 SHRA
0,[Scattered Clouds],1996-7-2,[26.0 °C],[],[-],[35.6 °C],[84%],[N/A],[1009 hPa],[29.0 °C],[1:00 AM],[10.0 km],[South],"[16.7 km/h
		/ 4.6 m/s]",METAR VHHH 011700Z 18009KT 140V230 9999 FEW014 SCT022 29/26 Q1009 TEMPO 4000 SHRA
0,[Scattered Clouds],1996-7-2,[25.0 °C],[],[-],[34.5 °C],[79%],[N/A],[1009 hPa],[29.0 °C],[2:00 AM],[10.0 km],[South],"[18.5 km/h
		/ 5.1 m/s]",METAR VHHH 011800Z 17010KT 140V210 9999 FEW014 SCT022 29/25 Q1009 TEMPO 4000 SHRA
0,[Scattered Clouds],1996-7-2,[26.0 °C],[],[-],[33.6 °C],[89%],[N/A],[1008 hPa],[28.0 °C],[3:00 AM],[10.0 km],[South],"[14.8 km/h
		/ 4.1 m/s]",METAR VHHH 011900Z 18008KT 140V220 9999 FEW014 SCT020 28/26 Q1008 TEMPO 4000 SHRA
0,[Scattered Clouds],1996-7-2,[25.0 °C],[],[-],[34.5 °C],[79%],[N/A],[1009 hPa],[29.0 °C],[4:00 AM],[10.0 km],[South],"[13.0 km/h
		/ 3.6 m/s]",METAR VHHH 012000Z 18007KT 130V250 9999 FEW014 SCT022 29/25 Q1009 TEMPO 4000 SHRA
0,[Scattered Clouds],1996-7-2,[25.0 °C],[],[-],[34.5 °C],[79%],[N/A],[1009 hPa],[29.0 °C],[7:00 AM],[10.0 km],[SSW],"[3.7 km/h
		/ 1.0 m/s]",METAR VHHH 012300 21002KT 160V250 9999 FEW018 SCT025 29/25 Q1009 NOSIG
0,[Scattered Clouds],1996-7-2,[24.0 °C],[],[-],[35.0 °C],[70%],[N/A],[1011 hPa],[30.0 °C],[9:00 AM],[10.0 km],[SSW],"[16.7 km/h
		/ 4.6 m/s]",METAR VHHH 020100Z 21009KT 170V250 9999 FEW020 SCT025 30/24 Q1011 NOSIG
0,[Scattered Clouds],1996-7-2,[25.0 °C],[],"[38.9 km/h
		/ 10.8 m/s]",[37.6 °C],[70%],[N/A],[1011 hPa],[31.0 °C],[10:00 AM],[10.0 km],[SW],"[16.7 km/h
		/ 4.6 m/s]",METAR VHHH 020200Z 22009G21KT 160V260 9999 FEW020 SCT025 31/25 Q1011 WS LDG RWY 13 NOSIG
0,[Scattered Clouds],1996-7-2,[24.0 °C],[],"[40.7 km/h
		/ 11.3 m/s]",[36.4 °C],[66%],[N/A],[1011 hPa],[31.0 °C],[11:00 AM],[10.0 km],[SSW],"[14.8 km/h
		/ 4.1 m/s]",METAR VHHH 020300Z 21008G22KT 140V260 9999 FEW020 SCT030 31/24 Q1011 WS LDG RWY 13 NOSIG
0,[Scattered Clouds],1996-7-2,[25.0 °C],[],[-],[37.6 °C],[70%],[N/A],[1011 hPa],[31.0 °C],[12:00 PM],[10.0 km],[SSE],"[18.5 km/h
		/ 5.1 m/s]",METAR VHHH 020400Z 16010KT 130V250 9999 FEW025 SCT030 31/25 Q1011 WS LDG RWY 13 NOSIG
0,[Scattered Clouds],1996-7-2,[25.0 °C],[],[-],[40.6 °C],[63%],[N/A],[1011 hPa],[33.0 °C],[1:00 PM],[10.0 km],[SSW],"[16.7 km/h
		/ 4.6 m/s]",METAR VHHH 020500Z 21009KT 180V270 9999 FEW025 SCT030 33/25 Q1011 WS LDG RWY 13 NOSIG
0,[Scattered Clouds],1996-7-2,[24.0 °C],[],[-],[37.7 °C],[62%],[N/A],[1010 hPa],[32.0 °C],[2:00 PM],[10.0 km],[SW],"[20.4 km/h
		/ 5.7 m/s]",METAR VHHH 020600Z 22011KT 140V280 9999 FEW020 SCT030 32/24 Q1010 WS LDG RWY 13/31 NOSIG
0,[Scattered Clouds],1996-7-2,[25.0 °C],[],"[48.2 km/h
		/ 13.4 m/s]",[37.6 °C],[70%],[N/A],[1010 hPa],[31.0 °C],[3:00 PM],[10.0 km],[South],"[18.5 km/h
		/ 5.1 m/s]",METAR VHHH 020700Z 17010G26KT 110V230 9999 FEW017 SCT030 31/25 Q1010 WS LDG RWY 13/31 NOSIG
0,[Scattered Clouds],1996-7-2,[25.0 °C],[],[-],[39.0 °C],[66%],[N/A],[1010 hPa],[32.0 °C],[4:00 PM],[10.0 km],[South],"[13.0 km/h
		/ 3.6 m/s]",METAR VHHH 020800Z 18007KT 110V240 9999 FEW020 SCT030 32/25 Q1010 WS LDG RWY 13/31 NOSIG
0,[Mostly Cloudy],1996-7-2,[25.0 °C],[],[-],[39.0 °C],[66%],[N/A],[1009 hPa],[32.0 °C],[5:00 PM],[10.0 km],[SE],"[13.0 km/h
		/ 3.6 m/s]",METAR VHHH 020900Z 13007KT 080V170 9999 FEW020 SCT030 BKN300 32/25 Q1009 NOSIG
0,[Mostly Cloudy],1996-7-2,[24.0 °C],[],[-],[36.4 °C],[66%],[N/A],[1010 hPa],[31.0 °C],[6:00 PM],[10.0 km],[SSE],"[14.8 km/h
		/ 4.1 m/s]",METAR VHHH 021000Z 15008KT 100V180 9999 FEW020 SCT030 BKN300 31/24 Q1010 NOSIG
0,[Mostly Cloudy],1996-7-2,[25.0 °C],[],[-],[36.0 °C],[74%],[N/A],[1010 hPa],[30.0 °C],[7:00 PM],[10.0 km],[ESE],"[11.1 km/h
		/ 3.1 m/s]",METAR VHHH 021100Z 12006KT 090V150 9999 FEW016 BKN300 30/25 Q1010 NOSIG
0,[Mostly Cloudy],1996-7-2,[25.0 °C],[],[-],[34.5 °C],[79%],[N/A],[1010 hPa],[29.0 °C],[8:00 PM],[10.0 km],[ESE],"[7.4 km/h
		/ 2.1 m/s]",METAR VHHH 021200Z 12004KT 9999 FEW015 BKN300 29/25 Q1010 NOSIG
0,[Scattered Clouds],1996-7-2,[26.0 °C],[],[-],[35.6 °C],[84%],[N/A],[1011 hPa],[29.0 °C],[9:00 PM],[10.0 km],[ESE],"[13.0 km/h
		/ 3.6 m/s]",METAR VHHH 021300Z 11007KT 100V160 9999 FEW014 SCT020 29/26 Q1011 NOSIG
0,[Scattered Clouds],1996-7-2,[25.0 °C],[],[-],[34.5 °C],[79%],[N/A],[1012 hPa],[29.0 °C],[10:00 PM],[10.0 km],[ESE],"[13.0 km/h
		/ 3.6 m/s]",METAR VHHH 021400Z 12007KT 9999 FEW014 SCT020 29/25 Q1012 NOSIG
0,[Scattered Clouds],1996-7-2,[26.0 °C],[],[-],[35.6 °C],[84%],[N/A],[1012 hPa],[29.0 °C],[11:00 PM],[10.0 km],[ESE],"[16.7 km/h
		/ 4.6 m/s]",METAR VHHH 021500Z 12009KT 9999 FEW014 SCT020 29/26 Q1012 NOSIG
0,[Scattered Clouds],1996-7-3,[25.0 °C],[],[-],[36.0 °C],[74%],[N/A],[1012 hPa],[30.0 °C],[12:00 AM],[10.0 km],[SE],"[18.5 km/h
		/ 5.1 m/s]",METAR VHHH 021600Z 13010KT 110V170 9999 FEW015 SCT020 30/25 Q1012 NOSIG
0,[Scattered Clouds],1996-7-3,[25.0 °C],[],[-],[32.7 °C],[84%],[N/A],[1012 hPa],[28.0 °C],[1:00 AM],[10.0 km],[SSE],"[13.0 km/h
		/ 3.6 m/s]",METAR VHHH 021700Z 15007KT 120V180 9999 FEW018 SCT025 28/25 Q1012 NOSIG
0,[Scattered Clouds],1996-7-3,[25.0 °C],[],[-],[32.7 °C],[84%],[N/A],[1011 hPa],[28.0 °C],[2:00 AM],[10.0 km],[SSE],"[11.1 km/h
		/ 3.1 m/s]",METAR VHHH 021800Z 16006KT 100V200 9999 FEW016 SCT025 28/25 Q1011 NOSIG
0,[Scattered Clouds],1996-7-3,[26.0 °C],[],[-],[33.6 °C],[89%],[N/A],[1011 hPa],[28.0 °C],[3:00 AM],[10.0 km],[SE],"[14.8 km/h
		/ 4.1 m/s]",METAR VHHH 021900Z 13008KT 9999 FEW016 SCT022 28/26 Q1011 NOSIG
0,[Scattered Clouds],1996-7-3,[25.0 °C],[],[-],[32.7 °C],[84%],[N/A],[1011 hPa],[28.0 °C],[4:00 AM],[10.0 km],[SSE],"[14.8 km/h
		/ 4.1 m/s]",METAR VHHH 022000Z 16008KT 110V190 9999 FEW016 SCT022 28/25 Q1011 NOSIG
0,[Scattered Clouds],1996-7-3,[25.0 °C],[],[-],[32.7 °C],[84%],[N/A],[1011 hPa],[28.0 °C],[5:00 AM],[10.0 km],[South],"[13.0 km/h
		/ 3.6 m/s]",METAR VHHH 022100Z 17007KT 120V210 9999 FEW014 SCT020 28/25 Q1011 NOSIG
0,[Scattered Clouds],1996-7-3,[26.0 °C],[],[-],[33.6 °C],[89%],[N/A],[1012 hPa],[28.0 °C],[6:00 AM],[10.0 km],[ESE],"[9.3 km/h
		/ 2.6 m/s]",METAR VHHH 022200Z 11005KT 090V160 9999 FEW014 FEW018CB SCT025 28/26 Q1012 RETSRA CB 15KM TO SW WS LDG RWY 13/31 TEMPO 4000 TSRA FEW012 FEW012CB BKN080
0,[Scattered Clouds],1996-7-3,[24.0 °C],[],[-],[30.1 °C],[84%],[N/A],[1012 hPa],[27.0 °C],[7:00 AM],[10.0 km],[SE],"[3.7 km/h
		/ 1.0 m/s]",METAR VHHH 022300Z 13002KT 9999 FEW016 SCT300 27/24 Q1012 WS LDG RWY 13/31 TEMPO 4000 TSRA FEW010 FEW012CB BKN080
0,[Scattered Clouds],1996-7-3,[25.0 °C],[],[-],[34.5 °C],[79%],[N/A],[1012 hPa],[29.0 °C],[8:00 AM],[10.0 km],[North],"[1.9 km/h
		/ 0.5 m/s]",METAR VHHH 030000Z 35001KT 9999 FEW014CB FEW016 SCT025 29/25 Q1012 CB 12KM TO S WS LDG RWY 13/31 TEMPO 4000 SHRA
0,[Scattered Clouds],1996-7-3,[25.0 °C],[],[-],[36.0 °C],[74%],[N/A],[1013 hPa],[30.0 °C],[9:00 AM],[10.0 km],[South],"[1.9 km/h
		/ 0.5 m/s]",METAR VHHH 030100Z 19001KT 9999 FEW018 SCT025 30/25 Q1013 WS LDG RWY 13/31 TEMPO 4000 SHRA
0,[Scattered Clouds],1996-7-3,[25.0 °C],[],[-],[37.6 °C],[70%],[N/A],[1013 hPa],[31.0 °C],[10:00 AM],[8.0 km],[ESE],"[9.3 km/h
		/ 2.6 m/s]",METAR VHHH 030200Z 12005KT 090V160 8000 FEW018 SCT025 31/25 Q1013 WS LDG RWY 13/31 TEMPO 4000 SHRA
0,[Scattered Clouds],1996-7-3,[25.0 °C],[],[-],[37.6 °C],[70%],[N/A],[1013 hPa],[31.0 °C],[11:00 AM],[10.0 km],[ESE],"[7.4 km/h
		/ 2.1 m/s]",METAR VHHH 030300Z 12004KT 9999 FEW016 SCT025 31/25 Q1013 NOSIG
0,[Scattered Clouds],1996-7-3,[25.0 °C],[],[-],[39.0 °C],[66%],[N/A],[1013 hPa],[32.0 °C],[12:00 PM],[10.0 km],[SE],"[18.5 km/h
		/ 5.1 m/s]",METAR VHHH 030400Z 13010KT 100V160 9999 FEW020 SCT025TCU 32/25 Q1013 NOSIG
0,[Scattered Clouds],1996-7-3,[25.0 °C],[],[-],[40.6 °C],[63%],[N/A],[1013 hPa],[33.0 °C],[1:00 PM],[10.0 km],[SE],"[16.7 km/h
		/ 4.6 m/s]",METAR VHHH 030500Z 14009KT 100V170 9999 FEW025 SCT030TCU 33/25 Q1013 NOSIG
0,[Scattered Clouds],1996-7-3,[25.0 °C],[],[-],[40.6 °C],[63%],[N/A],[1012 hPa],[33.0 °C],[2:00 PM],[10.0 km],[SE],"[20.4 km/h
		/ 5.7 m/s]",METAR VHHH 030600Z 14011KT 110V170 9999 FEW020 SCT030 33/25 Q1012 NOSIG
0,[Scattered Clouds],1996-7-3,[24.0 °C],[],[-],[36.4 °C],[66%],[N/A],[1011 hPa],[31.0 °C],[3:00 PM],[10.0 km],[SE],"[16.7 km/h
		/ 4.6 m/s]",METAR VHHH 030700Z 13009KT 100V180 9999 FEW020 SCT030 31/24 Q1011 NOSIG
0,[Scattered Clouds],1996-7-3,[25.0 °C],[],[-],[39.0 °C],[66%],[N/A],[1011 hPa],[32.0 °C],[4:00 PM],[10.0 km],[SE],"[18.5 km/h
		/ 5.1 m/s]",METAR VHHH 030800Z 13010KT 100V180 9999 FEW020 SCT025 32/25 Q1011 NOSIG
0,[Scattered Clouds],1996-7-3,[24.0 °C],[],[-],[36.4 °C],[66%],[N/A],[1010 hPa],[31.0 °C],[5:00 PM],[10.0 km],[SE],"[16.7 km/h
		/ 4.6 m/s]",METAR VHHH 030900Z 13009KT 9999 FEW020 SCT025 31/24 Q1010 NOSIG
0,[Mostly Cloudy],1996-7-3,[25.0 °C],[],[-],[34.5 °C],[79%],[N/A],[1011 hPa],[29.0 °C],[7:00 PM],[10.0 km],[SE],"[13.0 km/h
		/ 3.6 m/s]",METAR VHHH 031100Z 13007KT 9999 FEW015 BKN300 29/25 Q1011 NOSIG
0,[Mostly Cloudy],1996-7-3,[25.0 °C],[],[-],[34.5 °C],[79%],[N/A],[1011 hPa],[29.0 °C],[8:00 PM],[10.0 km],[SE],"[13.0 km/h
		/ 3.6 m/s]",METAR VHHH 031200Z 13007KT 9999 FEW015 BKN300 29/25 Q1011 NOSIG
0,[Mostly Cloudy],1996-7-3,[26.0 °C],[],[-],[35.6 °C],[84%],[N/A],[1011 hPa],[29.0 °C],[9:00 PM],[10.0 km],[ESE],"[18.5 km/h
		/ 5.1 m/s]",METAR VHHH 031300Z 12010KT 9999 FEW014 BKN300 29/26 Q1011 NOSIG
0,[Mostly Cloudy],1996-7-3,[25.0 °C],[],[-],[34.5 °C],[79%],[N/A],[1012 hPa],[29.0 °C],[10:00 PM],[10.0 km],[SE],"[9.3 km/h
		/ 2.6 m/s]",METAR VHHH 031400Z 13005KT 9999 FEW014 BKN300 29/25 Q1012 NOSIG
0,[Mostly Cloudy],1996-7-3,[25.0 °C],[],[-],[34.5 °C],[79%],[N/A],[1012 hPa],[29.0 °C],[11:00 PM],[10.0 km],[SE],"[9.3 km/h
		/ 2.6 m/s]",METAR VHHH 031500Z 14005KT 100V180 9999 FEW014 BKN300 29/25 Q1012 NOSIG
0,[Scattered Clouds],1996-7-4,[25.0 °C],[],[-],[34.5 °C],[79%],[N/A],[1012 hPa],[29.0 °C],[12:00 AM],[10.0 km],[SE],"[11.1 km/h
		/ 3.1 m/s]",METAR VHHH 031600Z 14006KT 110V180 9999 FEW014 SCT020 29/25 Q1012 NOSIG
0,[Partly Cloudy],1996-7-4,[26.0 °C],[],[-],[33.6 °C],[89%],[N/A],[1012 hPa],[28.0 °C],[1:00 AM],[10.0 km],[East],"[3.7 km/h
		/ 1.0 m/s]",METAR VHHH 031700Z 10002KT 9999 FEW013 28/26 Q1012 TEMPO 5000 -SHRA NOSIG
0,[Partly Cloudy],1996-7-4,[26.0 °C],[],[-],[33.6 °C],[89%],[N/A],[1012 hPa],[28.0 °C],[2:00 AM],[10.0 km],[East],"[5.6 km/h
		/ 1.5 m/s]",METAR VHHH 031800Z 10003KT 9999 FEW013 28/26 Q1012 TEMPO 5000 -SHRA
0,[Partly Cloudy],1996-7-4,[25.0 °C],[],[-],[30.6 °C],[89%],[N/A],[1011 hPa],[27.0 °C],[3:00 AM],[10.0 km],[ESE],"[5.6 km/h
		/ 1.5 m/s]",METAR VHHH 031900Z 11003KT 9999 FEW013 27/25 Q1011 TEMPO 5000 -SHRA
0,[Scattered Clouds],1996-7-4,[25.0 °C],[],[-],[30.6 °C],[89%],[N/A],[1011 hPa],[27.0 °C],[4:00 AM],[10.0 km],[East],"[1.9 km/h
		/ 0.5 m/s]",METAR VHHH 032000Z 09001KT 9999 FEW015 SCT020 27/25 Q1011 TEMPO 5000 -SHRA
0,[Scattered Clouds],1996-7-4,[25.0 °C],[],[-],[32.7 °C],[84%],[N/A],[1011 hPa],[28.0 °C],[5:00 AM],[10.0 km],[South],"[1.9 km/h
		/ 0.5 m/s]",METAR VHHH 032100Z 17001KT 9999 FEW015 SCT020 28/25 Q1011 TEMPO 5000 -SHRA
0,[Mostly Cloudy],1996-7-4,[25.0 °C],[],[-],[32.7 °C],[84%],[N/A],[1011 hPa],[28.0 °C],[6:00 AM],[10.0 km],[East],"[5.6 km/h
		/ 1.5 m/s]",METAR VHHH 032200Z 10003KT 9999 FEW014 BKN300 28/25 Q1011 NOSIG
0,[Partly Cloudy],1996-7-4,[26.0 °C],[],[-],[35.6 °C],[84%],[N/A],[1012 hPa],[29.0 °C],[7:00 AM],[10.0 km],[ESE],"[1.9 km/h
		/ 0.5 m/s]",METAR VHHH 032300Z 12001KT 9999 FEW013 29/26 Q1012 NOSIG
0,[Partly Cloudy],1996-7-4,[25.0 °C],[],[-],[34.5 °C],[79%],[N/A],[1012 hPa],[29.0 °C],[8:00 AM],[10.0 km],[ESE],"[1.9 km/h
		/ 0.5 m/s]",METAR VHHH 040000Z 12001KT 9999 FEW014 29/25 Q1012 NOSIG
0,[Partly Cloudy],1996-7-4,[26.0 °C],[],[-],[39.2 °C],[75%],[N/A],[1012 hPa],[31.0 °C],[9:00 AM],[10.0 km],[SE],"[11.1 km/h
		/ 3.1 m/s]",METAR VHHH 040100Z 13006KT 9999 FEW015 31/26 Q1012 NOSIG
0,[Partly Cloudy],1996-7-4,[26.0 °C],[],[-],[40.4 °C],[70%],[N/A],[1011 hPa],[32.0 °C],[10:00 AM],[10.0 km],[ESE],"[16.7 km/h
		/ 4.6 m/s]",METAR VHHH 040200Z 12009KT 9999 FEW015 32/26 Q1011 NOSIG
0,[Scattered Clouds],1996-7-4,[25.0 °C],[],[-],[39.0 °C],[66%],[N/A],[1011 hPa],[32.0 °C],[11:00 AM],[10.0 km],[ESE],"[16.7 km/h
		/ 4.6 m/s]",METAR VHHH 040300Z 12009KT 9999 FEW016 SCT025TCU 32/25 Q1011 NOSIG
0,[Scattered Clouds],1996-7-4,[26.0 °C],[],[-],[39.2 °C],[75%],[N/A],[1011 hPa],[31.0 °C],[12:00 PM],[10.0 km],[ESE],"[18.5 km/h
		/ 5.1 m/s]",METAR VHHH 040400Z 12010KT 9999 FEW020 SCT030 31/26 Q1011 WS LDG RWY 13 NOSIG
0,[Scattered Clouds],1996-7-4,[26.0 °C],[],[-],[41.8 °C],[66%],[N/A],[1010 hPa],[33.0 °C],[1:00 PM],[10.0 km],[ESE],"[22.2 km/h
		/ 6.2 m/s]",METAR VHHH 040500Z 12012KT 9999 FEW025 SCT030 33/26 Q1010 WS LDG RWY 13 NOSIG
0,[Scattered Clouds],1996-7-4,[25.0 °C],[],[-],[39.0 °C],[66%],[N/A],[1010 hPa],[32.0 °C],[2:00 PM],[10.0 km],[SE],"[22.2 km/h
		/ 6.2 m/s]",METAR VHHH 040600Z 13012KT 9999 FEW022 SCT030 32/25 Q1010 NOSIG
0,[Scattered Clouds],1996-7-4,[24.0 °C],[],[-],[37.7 °C],[62%],[N/A],[1009 hPa],[32.0 °C],[3:00 PM],[10.0 km],[SE],"[18.5 km/h
		/ 5.1 m/s]",METAR VHHH 040700Z 13010KT 100V160 9999 FEW022 SCT030 32/24 Q1009 NOSIG
0,[Scattered Clouds],1996-7-4,[24.0 °C],[],[-],[39.2 °C],[59%],[N/A],[1009 hPa],[33.0 °C],[4:00 PM],[10.0 km],[SE],"[20.4 km/h
		/ 5.7 m/s]",METAR VHHH 040800Z 14011KT 100V180 9999 FEW020 SCT030 33/24 Q1009 NOSIG
0,[Scattered Clouds],1996-7-4,[24.0 °C],[],[-],[36.4 °C],[66%],[N/A],[1009 hPa],[31.0 °C],[5:00 PM],[10.0 km],[ESE],"[16.7 km/h
		/ 4.6 m/s]",METAR VHHH 040900Z 12009KT 100V170 9999 FEW020 SCT030 31/24 Q1009 NOSIG
0,[Scattered Clouds],1996-7-4,[24.0 °C],[],[-],[36.4 °C],[66%],[N/A],[1009 hPa],[31.0 °C],[6:00 PM],[10.0 km],[SE],"[9.3 km/h
		/ 2.6 m/s]",METAR VHHH 041000Z 13005KT 090V150 9999 FEW020 SCT030 31/24 Q1009 NOSIG
0,[Mostly Cloudy],1996-7-4,[24.0 °C],[],[-],[35.0 °C],[70%],[N/A],[1009 hPa],[30.0 °C],[7:00 PM],[10.0 km],[SE],"[11.1 km/h
		/ 3.1 m/s]",METAR VHHH 041100Z 14006KT 9999 FEW020 BKN300 30/24 Q1009 NOSIG
0,[Scattered Clouds],1996-7-4,[25.0 °C],[],[-],[34.5 °C],[79%],[N/A],[1010 hPa],[29.0 °C],[8:00 PM],[10.0 km],[SE],"[11.1 km/h
		/ 3.1 m/s]",METAR VHHH 041200Z 14006KT 100V230 9999 FEW020 SCT300 29/25 Q1010 NOSIG
0,[Scattered Clouds],1996-7-4,[24.0 °C],[],[-],[33.5 °C],[74%],[N/A],[1010 hPa],[29.0 °C],[9:00 PM],[10.0 km],[SE],"[14.8 km/h
		/ 4.1 m/s]",METAR VHHH 041300Z 13008KT 110V170 9999 FEW020 SCT300 29/24 Q1010 NOSIG
0,[Scattered Clouds],1996-7-4,[25.0 °C],[],[-],[34.5 °C],[79%],[N/A],[1010 hPa],[29.0 °C],[10:00 PM],[10.0 km],[SE],"[1.9 km/h
		/ 0.5 m/s]",METAR VHHH 041400Z 13001KT 9999 FEW020 SCT300 29/25 Q1010 NOSIG
0,[Scattered Clouds],1996-7-5,[25.0 °C],[],[-],[32.7 °C],[84%],[N/A],[1010 hPa],[28.0 °C],[12:00 AM],[10.0 km],[SSW],"[1.9 km/h
		/ 0.5 m/s]",METAR VHHH 041600Z 20001KT 9999 FEW020 SCT300 28/25 Q1010 NOSIG
0,[Mostly Cloudy],1996-7-5,[25.0 °C],[],[-],[34.5 °C],[79%],[N/A],[1010 hPa],[29.0 °C],[1:00 AM],[10.0 km],[SE],"[1.9 km/h
		/ 0.5 m/s]",METAR VHHH 041700Z 14001KT 9999 FEW020 BKN300 29/25 Q1010 NOSIG
0,[Mostly Cloudy],1996-7-5,[25.0 °C],[],[-],[32.7 °C],[84%],[N/A],[1009 hPa],[28.0 °C],[2:00 AM],[10.0 km],[WSW],"[3.7 km/h
		/ 1.0 m/s]",METAR VHHH 041800Z 24002KT 9999 FEW022 BKN300 28/25 Q1009 NOSIG
0,[Mostly Cloudy],1996-7-5,[25.0 °C],[],[-],[32.7 °C],[84%],[N/A],[1009 hPa],[28.0 °C],[3:00 AM],[10.0 km],[SW],"[5.6 km/h
		/ 1.5 m/s]",METAR VHHH 041900Z 23003KT 9999 FEW016 BKN300 28/25 Q1009 NOSIG
0,[Scattered Clouds],1996-7-5,[25.0 °C],[],[-],[32.7 °C],[84%],[N/A],[1009 hPa],[28.0 °C],[4:00 AM],[10.0 km],[Calm],[Calm],METAR VHHH 042000Z 00000KT 9999 FEW016 SCT300 28/25 Q1009 NOSIG
0,[Scattered Clouds],1996-7-5,[24.0 °C],[],[-],[31.9 °C],[79%],[N/A],[1008 hPa],[28.0 °C],[5:00 AM],[10.0 km],[Calm],[Calm],METAR VHHH 042100Z 00000KT 9999 SCT016 SCT300 28/24 Q1008 NOSIG
0,[Mostly Cloudy],1996-7-5,[25.0 °C],[],[-],[32.7 °C],[84%],[N/A],[1009 hPa],[28.0 °C],[6:00 AM],[10.0 km],[Calm],[Calm],METAR VHHH 042200Z 00000KT 9999 FEW015 BKN300 28/25 Q1009 NOSIG
0,[Mostly Cloudy],1996-7-5,[25.0 °C],[],[-],[34.5 °C],[79%],[N/A],[1009 hPa],[29.0 °C],[7:00 AM],[10.0 km],[Calm],[Calm],METAR VHHH 042300Z 00000KT 9999 FEW020 BKN300 29/25 Q1009 NOSIG
0,[Scattered Clouds],1996-7-5,[24.0 °C],[],[-],[35.0 °C],[70%],[N/A],[1009 hPa],[30.0 °C],[8:00 AM],[10.0 km],[SE],"[3.7 km/h
		/ 1.0 m/s]",METAR VHHH 050000Z 13002KT 9999 FEW020 SCT300 30/24 Q1009 NOSIG
0,[Scattered Clouds],1996-7-5,[24.0 °C],[],[-],[35.0 °C],[70%],[N/A],[1009 hPa],[30.0 °C],[9:00 AM],[10.0 km],[SSE],"[9.3 km/h
		/ 2.6 m/s]",METAR VHHH 050100Z 15005KT 100V240 9999 FEW020 SCT300 30/24 Q1009 NOSIG
0,[Scattered Clouds],1996-7-5,[23.0 °C],[],[-],[35.4 °C],[62%],[N/A],[1009 hPa],[31.0 °C],[10:00 AM],[10.0 km],[SE],"[13.0 km/h
		/ 3.6 m/s]",METAR VHHH 050200Z 14007KT 9999 FEW022 SCT300 31/23 Q1009 NOSIG
0,[Scattered Clouds],1996-7-5,[21.0 °C],[],[-],[33.7 °C],[55%],[N/A],[1009 hPa],[31.0 °C],[11:00 AM],[10.0 km],[SE],"[16.7 km/h
		/ 4.6 m/s]",METAR VHHH 050300Z 13009KT 100V170 9999 FEW023 SCT300 31/21 Q1009 NOSIG
0,[Mostly Cloudy],1996-7-5,[21.0 °C],[],[-],[34.9 °C],[52%],[N/A],[1008 hPa],[32.0 °C],[1:00 PM],[10.0 km],[SW],"[13.0 km/h
		/ 3.6 m/s]",METAR VHHH 050500Z 23007KT 190V270 9999 FEW022 BKN300 32/21 Q1008 WS LDG RWY 13 NOSIG
0,[Scattered Clouds],1996-7-5,[22.0 °C],[],[-],[35.6 °C],[55%],[N/A],[1007 hPa],[32.0 °C],[2:00 PM],[10.0 km],[SW],"[11.1 km/h
		/ 3.1 m/s]",METAR VHHH 050600Z 22006KT 160V260 9999 FEW025 SCT300 32/22 Q1007 WS LDG RWY 13 NOSIG
0,[Scattered Clouds],1996-7-5,[23.0 °C],[],[-],[36.8 °C],[59%],[N/A],[1006 hPa],[32.0 °C],[4:00 PM],[10.0 km],[SW],"[11.1 km/h
		/ 3.1 m/s]",METAR VHHH 050800Z 22006KT 050V360 9999 FEW025 SCT300 32/23 Q1006 NOSIG
0,[Scattered Clouds],1996-7-5,[24.0 °C],[],[-],[37.7 °C],[62%],[N/A],[1006 hPa],[32.0 °C],[5:00 PM],[10.0 km],[SW],"[11.1 km/h
		/ 3.1 m/s]",METAR VHHH 050900Z 221006KT 060V270 9999 FEW025 SCT300 32/24 Q1006 NOSIG
0,[Scattered Clouds],1996-7-5,[23.0 °C],[],[-],[35.4 °C],[62%],[N/A],[1006 hPa],[31.0 °C],[6:00 PM],[10.0 km],[WSW],"[14.8 km/h
		/ 4.1 m/s]",METAR VHHH 051000Z 24008KT 060V270 9999 FEW025 SCT300 31/23 Q1006 NOSIG
0,[Mostly Cloudy],1996-7-5,[24.0 °C],[],[-],[35.0 °C],[70%],[N/A],[1006 hPa],[30.0 °C],[7:00 PM],[10.0 km],[SSW],"[11.1 km/h
		/ 3.1 m/s]",METAR VHHH 051100Z 20006KT 160V250 9999 FEW025 BKN300 30/24 Q1006 NOSIG
0,[Scattered Clouds],1996-7-5,[24.0 °C],[],[-],[35.0 °C],[70%],[N/A],[1006 hPa],[30.0 °C],[8:00 PM],[10.0 km],[SSW],"[5.6 km/h
		/ 1.5 m/s]",METAR VHHH 051200Z 20003KT 9999 FEW025 SCT300 30/24 Q1006 NOSIG
0,[Scattered Clouds],1996-7-5,[25.0 °C],[],[-],[36.0 °C],[74%],[N/A],[1007 hPa],[30.0 °C],[9:00 PM],[10.0 km],[South],"[9.3 km/h
		/ 2.6 m/s]",METAR VHHH 051300Z 19005KT 140V250 9999 FEW020 SCT025 30/25 Q1007 NOSIG
0,[Scattered Clouds],1996-7-5,[24.0 °C],[],[-],[35.0 °C],[70%],[N/A],[1007 hPa],[30.0 °C],[10:00 PM],[10.0 km],[South],"[7.4 km/h
		/ 2.1 m/s]",METAR VHHH 051400Z 19004KT 150V290 9999 FEW018 SCT025 30/24 Q1007 NOSIG
0,[Scattered Clouds],1996-7-5,[25.0 °C],[],[-],[36.0 °C],[74%],[N/A],[1007 hPa],[30.0 °C],[11:00 PM],[10.0 km],[SSE],"[9.3 km/h
		/ 2.6 m/s]",METAR VHHH 051500Z 16005KT 110V270 9999 FEW018 SCT025 30/25 Q1007 NOSIG
0,[Scattered Clouds],1996-7-6,[25.0 °C],[],[-],[34.5 °C],[79%],[N/A],[1007 hPa],[29.0 °C],[12:00 AM],[10.0 km],[South],"[7.4 km/h
		/ 2.1 m/s]",METAR VHHH 051600Z 17004KT 150V210 9999 FEW018 SCT025 29/25 Q1007 NOSIG
0,[Scattered Clouds],1996-7-6,[25.0 °C],[],[-],[32.7 °C],[84%],[N/A],[1006 hPa],[28.0 °C],[1:00 AM],[10.0 km],[SSE],"[7.4 km/h
		/ 2.1 m/s]",METAR VHHH 051700Z 16004KT 120V200 9999 FEW018 SCT025 28/25 Q1006 NOSIG
0,[Scattered Clouds],1996-7-6,[25.0 °C],[],[-],[32.7 °C],[84%],[N/A],[1006 hPa],[28.0 °C],[2:00 AM],[10.0 km],[SW],"[7.4 km/h
		/ 2.1 m/s]",METAR VHHH 051800Z 23004KT 160V250 9999 FEW018 SCT025 28/25 Q1006 NOSIG
0,[Scattered Clouds],1996-7-6,[25.0 °C],[],[-],[32.7 °C],[84%],[N/A],[1006 hPa],[28.0 °C],[3:00 AM],[10.0 km],[West],"[7.4 km/h
		/ 2.1 m/s]",METAR VHHH 051900Z 28004KT 240V300 9999 FEW018 SCT023 28/25 Q1006 NOSIG
0,[Partly Cloudy],1996-7-6,[25.0 °C],[],[-],[32.7 °C],[84%],[N/A],[1006 hPa],[28.0 °C],[4:00 AM],[10.0 km],[West],"[11.1 km/h
		/ 3.1 m/s]",METAR VHHH 052000Z 27006KT 9999 FEW016 28/25 Q1006 NOSIG
0,[Partly Cloudy],1996-7-6,[25.0 °C],[],[-],[32.7 °C],[84%],[N/A],[1006 hPa],[28.0 °C],[5:00 AM],[10.0 km],[West],"[5.6 km/h
		/ 1.5 m/s]",METAR VHHH 052100Z 28003KT 9999 FEW015 28/25 Q1006 NOSIG
0,[Partly Cloudy],1996-7-6,[25.0 °C],[],[-],[32.7 °C],[84%],[N/A],[1006 hPa],[28.0 °C],[6:00 AM],[10.0 km],[West],"[1.9 km/h
		/ 0.5 m/s]",METAR VHHH 052200Z 26001KT 9999 FEW015 28/25 Q1006 NOSIG
0,[Partly Cloudy],1996-7-6,[25.0 °C],[],[-],[32.7 °C],[84%],[N/A],[1007 hPa],[28.0 °C],[7:00 AM],[10.0 km],[WNW],"[1.9 km/h
		/ 0.5 m/s]",METAR VHHH 052300Z 29001KT 9999 FEW015 28/25 Q1007 NOSIG
0,[Scattered Clouds],1996-7-6,[25.0 °C],[],[-],[34.5 °C],[79%],[N/A],[1007 hPa],[29.0 °C],[8:00 AM],[10.0 km],[West],"[13.0 km/h
		/ 3.6 m/s]",METAR VHHH 060000Z 28007KT 260V320 9999 FEW015 SCT020 29/25 Q1007 NOSIG
0,[Partly Cloudy],1996-7-6,[24.0 °C],[],[-],[36.4 °C],[66%],[N/A],[1007 hPa],[31.0 °C],[9:00 AM],[10.0 km],[WSW],"[13.0 km/h
		/ 3.6 m/s]",METAR VHHH 060100Z 24007KT 180V290 9999 FEW025 31/24 Q1007 NOSIG
0,[Partly Cloudy],1996-7-6,[24.0 °C],[],[-],[37.7 °C],[62%],[N/A],[1007 hPa],[32.0 °C],[10:00 AM],[10.0 km],[WSW],"[14.8 km/h
		/ 4.1 m/s]",METAR VHHH 060200Z 24008KT 110V280 9999 FEW025 32/24 Q1007 NOSIG
0,[Partly Cloudy],1996-7-6,[24.0 °C],[],[-],[37.7 °C],[62%],[N/A],[1007 hPa],[32.0 °C],[11:00 AM],[10.0 km],[WSW],"[14.8 km/h
		/ 4.1 m/s]",METAR VHHH 060300Z 25008KT 210V310 9999 FEW025 32/24 Q1007 NOSIG
0,[Partly Cloudy],1996-7-6,[23.0 °C],[],[-],[36.8 °C],[59%],[N/A],[1006 hPa],[32.0 °C],[12:00 PM],[10.0 km],[WSW],"[16.7 km/h
		/ 4.6 m/s]",METAR VHHH 060400Z 24009KT 210V280 9999 FEW025 32/23 Q1006 NOSIG
0,[Partly Cloudy],1996-7-6,[24.0 °C],[],[-],[37.7 °C],[62%],[N/A],[1006 hPa],[32.0 °C],[2:00 PM],[10.0 km],[WSW],"[14.8 km/h
		/ 4.1 m/s]",METAR VHHH 060600Z 25008KT 140V320 9999 FEW025 32/24 Q1006 NOSIG
0,[Partly Cloudy],1996-7-6,[25.0 °C],[],"[35.2 km/h
		/ 9.8 m/s]",[39.0 °C],[66%],[N/A],[1005 hPa],[32.0 °C],[3:00 PM],[10.0 km],[SSW],"[16.7 km/h
		/ 4.6 m/s]",METAR VHHH 060700Z 21009G19KT 170V310 9999 FEW025 32/25 Q1005 NOSIG
0,[Partly Cloudy],1996-7-6,[24.0 °C],[],[-],[37.7 °C],[62%],[N/A],[1005 hPa],[32.0 °C],[4:00 PM],[10.0 km],[SW],"[13.0 km/h
		/ 3.6 m/s]",METAR VHHH 060800Z 23007KT 170V300 9999 FEW025 32/24 Q1005 NOSIG
0,[Partly Cloudy],1996-7-6,[25.0 °C],[],"[42.6 km/h
		/ 11.8 m/s]",[39.0 °C],[66%],[N/A],[1005 hPa],[32.0 °C],[5:00 PM],[10.0 km],[SW],"[14.8 km/h
		/ 4.1 m/s]",METAR VHHH 060900Z 22008G23KT 130V270 9999 FEW025 32/25 Q1005 NOSIG
0,[Partly Cloudy],1996-7-6,[25.0 °C],[],[-],[37.6 °C],[70%],[N/A],[1004 hPa],[31.0 °C],[6:00 PM],[10.0 km],[WSW],"[14.8 km/h
		/ 4.1 m/s]",METAR VHHH 061000Z 24008KT 200V280 9999 FEW025 31/25 Q1004 NOSIG
0,[Partly Cloudy],1996-7-6,[25.0 °C],[],[-],[36.0 °C],[74%],[N/A],[1005 hPa],[30.0 °C],[7:00 PM],[10.0 km],[SW],"[13.0 km/h
		/ 3.6 m/s]",METAR VHHH 061100Z 23007KT 040V270 9999 FEW018 30/25 Q1005 NOSIG
0,[Partly Cloudy],1996-7-6,[25.0 °C],[],[-],[36.0 °C],[74%],[N/A],[1005 hPa],[30.0 °C],[8:00 PM],[10.0 km],[WSW],"[13.0 km/h
		/ 3.6 m/s]",METAR VHHH 061200Z 24007KT 210V280 9999 FEW018 30/25 Q1005 NOSIG
0,[Partly Cloudy],1996-7-6,[25.0 °C],[],[-],[36.0 °C],[74%],[N/A],[1006 hPa],[30.0 °C],[9:00 PM],[10.0 km],[WSW],"[11.1 km/h
		/ 3.1 m/s]",METAR VHHH 061300Z 24006KT 140V340 9999 FEW020 30/25 Q1006 NOSIG
0,[Partly Cloudy],1996-7-6,[25.0 °C],[],[-],[36.0 °C],[74%],[N/A],[1006 hPa],[30.0 °C],[10:00 PM],[10.0 km],[WSW],"[5.6 km/h
		/ 1.5 m/s]",METAR VHHH 061400Z 24003KT 9999 FEW020 30/25 Q1006 NOSIG
0,[Partly Cloudy],1996-7-6,[25.0 °C],[],[-],[36.0 °C],[74%],[N/A],[1006 hPa],[30.0 °C],[11:00 PM],[10.0 km],[West],"[3.7 km/h
		/ 1.0 m/s]",METAR VHHH 061500Z 26002KT 9999 FEW020 30/25 Q1006 NOSIG
0,[Partly Cloudy],1996-7-7,[25.0 °C],[],[-],[34.5 °C],[79%],[N/A],[1006 hPa],[29.0 °C],[12:00 AM],[10.0 km],[WSW],"[9.3 km/h
		/ 2.6 m/s]",METAR VHHH 061600Z 25005KT 200V270 9999 FEW020 29/25 Q1006 NOSIG
0,[Partly Cloudy],1996-7-7,[25.0 °C],[],[-],[34.5 °C],[79%],[N/A],[1006 hPa],[29.0 °C],[1:00 AM],[10.0 km],[WSW],"[13.0 km/h
		/ 3.6 m/s]",METAR VHHH 061700Z 24007KT 9999 FEW020 29/25 Q1006 NOSIG
0,[Partly Cloudy],1996-7-7,[25.0 °C],[],[-],[34.5 °C],[79%],[N/A],[1006 hPa],[29.0 °C],[2:00 AM],[10.0 km],[WSW],"[7.4 km/h
		/ 2.1 m/s]",METAR VHHH 061800Z 25004KT 220V290 9999 FEW018 29/25 Q1006 NOSIG
0,[Partly Cloudy],1996-7-7,[25.0 °C],[],[-],[32.7 °C],[84%],[N/A],[1006 hPa],[28.0 °C],[3:00 AM],[10.0 km],[WSW],"[14.8 km/h
		/ 4.1 m/s]",METAR VHHH 061900Z 24008KT 9999 FEW018 28/25 Q1006 NOSIG
0,[Partly Cloudy],1996-7-7,[25.0 °C],[],[-],[32.7 °C],[84%],[N/A],[1006 hPa],[28.0 °C],[4:00 AM],[10.0 km],[West],"[14.8 km/h
		/ 4.1 m/s]",METAR VHHH 062000Z 28008KT 240V310 9999 FEW018 28/25 Q1006 NOSIG
0,[Partly Cloudy],1996-7-7,[25.0 °C],[],[-],[32.7 °C],[84%],[N/A],[1006 hPa],[28.0 °C],[5:00 AM],[10.0 km],[West],"[14.8 km/h
		/ 4.1 m/s]",METAR VHHH 062100Z 28008KT 9999 FEW018 28/25 Q1006 NOSIG
0,[Scattered Clouds],1996-7-7,[25.0 °C],[],[-],[32.7 °C],[84%],[N/A],[1007 hPa],[28.0 °C],[6:00 AM],[10.0 km],[West],"[14.8 km/h
		/ 4.1 m/s]",METAR VHHH 062200Z 26008KT 230V300 9999 FEW015 SCT022 28/25 Q1007 NOSIG
0,[Partly Cloudy],1996-7-7,[25.0 °C],[],[-],[34.5 °C],[79%],[N/A],[1008 hPa],[29.0 °C],[7:00 AM],[10.0 km],[West],"[14.8 km/h
		/ 4.1 m/s]",METAR VHHH 062300Z 27008KT 240V310 9999 FEW018 29/25 Q1008 NOSIG
0,[Partly Cloudy],1996-7-7,[25.0 °C],[],[-],[36.0 °C],[74%],[N/A],[1008 hPa],[30.0 °C],[8:00 AM],[10.0 km],[West],"[11.1 km/h
		/ 3.1 m/s]",METAR VHHH 070000Z 28006KT 240V300 9999 FEW017 30/25 Q1008 NOSIG
0,[Partly Cloudy],1996-7-7,[25.0 °C],[],[-],[37.6 °C],[70%],[N/A],[1008 hPa],[31.0 °C],[9:00 AM],[10.0 km],[West],"[13.0 km/h
		/ 3.6 m/s]",METAR VHHH 070100Z 28007KT 240V310 9999 FEW020 31/25 Q1008 NOSIG
0,[Partly Cloudy],1996-7-7,[24.0 °C],[],[-],[36.4 °C],[66%],[N/A],[1008 hPa],[31.0 °C],[10:00 AM],[10.0 km],[SW],"[9.3 km/h
		/ 2.6 m/s]",METAR VHHH 070200Z 23005KT 190V280 9999 FEW020 31/24 Q1008 NOSIG
0,[Partly Cloudy],1996-7-7,[24.0 °C],[],[-],[37.7 °C],[62%],[N/A],[1008 hPa],[32.0 °C],[11:00 AM],[10.0 km],[West],"[13.0 km/h
		/ 3.6 m/s]",METAR VHHH 070300Z 27007KT 180V340 9999 FEW025 32/24 Q1008 NOSIG
0,[Partly Cloudy],1996-7-7,[24.0 °C],[],[-],[37.7 °C],[62%],[N/A],[1008 hPa],[32.0 °C],[12:00 PM],[10.0 km],[WSW],"[11.1 km/h
		/ 3.1 m/s]",METAR VHHH 070400Z 25006KT 200V300 9999 FEW025 32/24 Q1008 NOSIG
0,[Partly Cloudy],1996-7-7,[23.0 °C],[],[-],[37.8 °C],[55%],[N/A],[1007 hPa],[33.0 °C],[1:00 PM],[10.0 km],[West],"[16.7 km/h
		/ 4.6 m/s]",METAR VHHH 070500Z 27009KT 240V320 9999 FEW025 33/23 Q1007 NOSIG
0,[Scattered Clouds],1996-7-7,[24.0 °C],[],[-],[39.2 °C],[59%],[N/A],[1007 hPa],[33.0 °C],[2:00 PM],[10.0 km],[West],"[18.5 km/h
		/ 5.1 m/s]",METAR VHHH 070600Z 26010KT 230V290 9999 SCT025 33/24 Q1007 NOSIG
0,[Scattered Clouds],1996-7-7,[24.0 °C],[],[-],[39.2 °C],[59%],[N/A],[1006 hPa],[33.0 °C],[3:00 PM],[10.0 km],[West],"[18.5 km/h
		/ 5.1 m/s]",METAR VHHH 070700Z 26010KT 230V290 9999 SCT025 33/24 Q1006 NOSIG
0,[Partly Cloudy],1996-7-7,[24.0 °C],[],[-],[39.2 °C],[59%],[N/A],[1006 hPa],[33.0 °C],[5:00 PM],[10.0 km],[SW],"[13.0 km/h
		/ 3.6 m/s]",METAR VHHH 070900Z 22007KT 170V310 9999 FEW025 33/24 Q1006 NOSIG
0,[Scattered Clouds],1996-7-7,[25.0 °C],[],[-],[37.6 °C],[70%],[N/A],[1006 hPa],[31.0 °C],[6:00 PM],[10.0 km],[SW],"[13.0 km/h
		/ 3.6 m/s]",METAR VHHH 071000Z 23007KT 200V270 9999 FEW025 SCT300 31/25 Q1006 NOSIG
0,[Scattered Clouds],1996-7-7,[25.0 °C],[],[-],[37.6 °C],[70%],[N/A],[1006 hPa],[31.0 °C],[7:00 PM],[10.0 km],[SW],"[14.8 km/h
		/ 4.1 m/s]",METAR VHHH 071100Z 23008KT 200V280 9999 FEW025 SCT300 31/25 Q1006 NOSIG
0,[Scattered Clouds],1996-7-7,[25.0 °C],[],[-],[36.0 °C],[74%],[N/A],[1007 hPa],[30.0 °C],[8:00 PM],[10.0 km],[WSW],"[11.1 km/h
		/ 3.1 m/s]",METAR VHHH 071200Z 24006KT 120V060 9999 FEW020 SCT300 30/25 Q1007 NOSIG
0,[Scattered Clouds],1996-7-7,[25.0 °C],[],[-],[36.0 °C],[74%],[N/A],[1008 hPa],[30.0 °C],[9:00 PM],[10.0 km],[WSW],"[7.4 km/h
		/ 2.1 m/s]",METAR VHHH 071300Z 24004KT 9999 FEW020 SCT300 30/25 Q1008 NOSIG
0,[Scattered Clouds],1996-7-7,[25.0 °C],[],[-],[36.0 °C],[74%],[N/A],[1008 hPa],[30.0 °C],[10:00 PM],[10.0 km],[WSW],"[11.1 km/h
		/ 3.1 m/s]",METAR VHHH 071400Z 24006KT 210V290 9999 FEW020 SCT300 30/25 Q1008 NOSIG
0,[Scattered Clouds],1996-7-7,[25.0 °C],[],[-],[36.0 °C],[74%],[N/A],[1008 hPa],[30.0 °C],[11:00 PM],[10.0 km],[WSW],"[7.4 km/h
		/ 2.1 m/s]",METAR VHHH 071500Z 25004KT 180V330 9999 FEW020 SCT300 30/25 Q1008 NOSIG
0,[Scattered Clouds],1996-7-8,[25.0 °C],[],[-],[34.5 °C],[79%],[N/A],[1008 hPa],[29.0 °C],[1:00 AM],[10.0 km],[WSW],"[7.4 km/h
		/ 2.1 m/s]",METAR VHHH 071700Z 25004KT 9999 FEW020 SCT300 29/25 Q1008 NOSIG
0,[Scattered Clouds],1996-7-8,[25.0 °C],[],[-],[34.5 °C],[79%],[N/A],[1008 hPa],[29.0 °C],[2:00 AM],[10.0 km],[West],"[13.0 km/h
		/ 3.6 m/s]",METAR VHHH 071800Z 28007KT 9999 FEW018 SCT300 29/25 Q1008 NOSIG
0,[Scattered Clouds],1996-7-8,[26.0 °C],[],[-],[33.6 °C],[89%],[N/A],[1008 hPa],[28.0 °C],[3:00 AM],[10.0 km],[West],"[9.3 km/h
		/ 2.6 m/s]",METAR VHHH 071900Z 26005KT 230V300 9999 FEW015 SCT300 28/26 Q1008 NOSIG
0,[Scattered Clouds],1996-7-8,[25.0 °C],[],[-],[34.5 °C],[79%],[N/A],[1008 hPa],[29.0 °C],[4:00 AM],[10.0 km],[West],"[13.0 km/h
		/ 3.6 m/s]",METAR VHHH 072000Z 28007KT 9999 FEW015 SCT300 29/25 Q1008 NOSIG
0,[Scattered Clouds],1996-7-8,[25.0 °C],[],[-],[32.7 °C],[84%],[N/A],[1008 hPa],[28.0 °C],[5:00 AM],[10.0 km],[West],"[13.0 km/h
		/ 3.6 m/s]",METAR VHHH 072100Z 28007KT 9999 FEW020 SCT300 28/25 Q1008 NOSIG
0,[Scattered Clouds],1996-7-8,[25.0 °C],[],[-],[34.5 °C],[79%],[N/A],[1008 hPa],[29.0 °C],[6:00 AM],[10.0 km],[WNW],"[7.4 km/h
		/ 2.1 m/s]",METAR VHHH 072200Z 29004KT 260V350 9999 FEW020 SCT300 29/25 Q1008 NOSIG
0,[Scattered Clouds],1996-7-8,[25.0 °C],[],[-],[36.0 °C],[74%],[N/A],[1009 hPa],[30.0 °C],[7:00 AM],[10.0 km],[West],"[11.1 km/h
		/ 3.1 m/s]",METAR VHHH 072300Z 27006KT 9999 SCT018 30/25 Q1009 NOSIG
0,[Partly Cloudy],1996-7-8,[25.0 °C],[],[-],[36.0 °C],[74%],[N/A],[1009 hPa],[30.0 °C],[8:00 AM],[10.0 km],[West],"[18.5 km/h
		/ 5.1 m/s]",METAR VHHH 080000Z 27010KT 9999 FEW020 30/25 Q1009 NOSIG
0,[Partly Cloudy],1996-7-8,[25.0 °C],[],[-],[36.0 °C],[74%],[N/A],[1009 hPa],[30.0 °C],[9:00 AM],[10.0 km],[West],"[14.8 km/h
		/ 4.1 m/s]",METAR VHHH 080100Z 26008KT 200V300 9999 FEW020 30/25 Q1009 NOSIG
0,[Scattered Clouds],1996-7-8,[25.0 °C],[],[-],[37.6 °C],[70%],[N/A],[1009 hPa],[31.0 °C],[10:00 AM],[10.0 km],[WSW],"[11.1 km/h
		/ 3.1 m/s]",METAR VHHH 080200Z 25006KT 170V330 9999 FEW020 SCT150 31/25 Q1009 NOSIG
0,[Scattered Clouds],1996-7-8,[24.0 °C],[],[-],[37.7 °C],[62%],[N/A],[1009 hPa],[32.0 °C],[11:00 AM],[10.0 km],[SW],"[20.4 km/h
		/ 5.7 m/s]",METAR VHHH 080300Z 22011KT 190V260 9999 FEW020 SCT025 32/24 Q1009 NOSIG
0,[Scattered Clouds],1996-7-8,[25.0 °C],[],[-],[40.6 °C],[63%],[N/A],[1008 hPa],[33.0 °C],[12:00 PM],[10.0 km],[WNW],"[16.7 km/h
		/ 4.6 m/s]",METAR VHHH 080400Z 29009KT 9999 FEW020 SCT150 33/25 Q1008 NOSIG
0,[Partly Cloudy],1996-7-8,[24.0 °C],[],[-],[37.7 °C],[62%],[N/A],[1008 hPa],[32.0 °C],[1:00 PM],[10.0 km],[West],"[18.5 km/h
		/ 5.1 m/s]",METAR VHHH 080500Z 28010KT 250V330 9999 FEW025 32/24 Q1008 NOSIG
0,[Scattered Clouds],1996-7-8,[24.0 °C],[],[-],[37.7 °C],[62%],[N/A],[1006 hPa],[32.0 °C],[3:00 PM],[10.0 km],[WSW],"[13.0 km/h
		/ 3.6 m/s]",METAR VHHH 080700Z 25007KT 210V290 9999 FEW025 SCT100 32/24 Q1006 NOSIG
0,[Mostly Cloudy],1996-7-8,[25.0 °C],[],[-],[39.0 °C],[66%],[N/A],[1006 hPa],[32.0 °C],[4:00 PM],[10.0 km],[SW],"[14.8 km/h
		/ 4.1 m/s]",METAR VHHH 080800Z 23008KT 160V310 9999 FEW025 BKN100 32/25 Q1006 NOSIG
0,[Mostly Cloudy],1996-7-8,[24.0 °C],[],[-],[36.4 °C],[66%],[N/A],[1006 hPa],[31.0 °C],[5:00 PM],[10.0 km],[SW],"[20.4 km/h
		/ 5.7 m/s]",METAR VHHH 080900Z 23011KT 160V290 9999 FEW025 BKN120 31/24 Q1006 NOSIG
0,[Mostly Cloudy],1996-7-8,[25.0 °C],[],[-],[36.0 °C],[74%],[N/A],[1006 hPa],[30.0 °C],[6:00 PM],[10.0 km],[WSW],"[14.8 km/h
		/ 4.1 m/s]",METAR VHHH 081000Z 24008KT 190V270 9999 FEW025 SCT100 BKN300 30/25 Q1006 NOSIG
0,[Mostly Cloudy],1996-7-8,[24.0 °C],[],[-],[35.0 °C],[70%],[N/A],[1006 hPa],[30.0 °C],[7:00 PM],[10.0 km],[SW],"[14.8 km/h
		/ 4.1 m/s]",METAR VHHH 081100Z 23008KT 180V340 9999 FEW025 SCT100 BKN300 30/24 Q1006 NOSIG
0,[Mostly Cloudy],1996-7-8,[25.0 °C],[],[-],[36.0 °C],[74%],[N/A],[1007 hPa],[30.0 °C],[8:00 PM],[10.0 km],[WSW],"[13.0 km/h
		/ 3.6 m/s]",METAR VHHH 081200Z 24007KT 180V280 9999 FEW025 BKN100 30/25 Q1007 NOSIG
0,[Scattered Clouds],1996-7-8,[25.0 °C],[],[-],[36.0 °C],[74%],[N/A],[1007 hPa],[30.0 °C],[9:00 PM],[10.0 km],[WSW],"[9.3 km/h
		/ 2.6 m/s]",METAR VHHH 081300Z 25005KT 150V280 9999 FEW025 SCT100 30/25 Q1007 NOSIG
0,[Scattered Clouds],1996-7-8,[25.0 °C],[],[-],[36.0 °C],[74%],[N/A],[1008 hPa],[30.0 °C],[10:00 PM],[10.0 km],[WSW],"[11.1 km/h
		/ 3.1 m/s]",METAR VHHH 081400Z 25006KT 220V280 9999 FEW025 SCT100 30/25 Q1008 NOSIG
0,[Scattered Clouds],1996-7-8,[24.0 °C],[],[-],[33.5 °C],[74%],[N/A],[1008 hPa],[29.0 °C],[11:00 PM],[10.0 km],[WSW],"[13.0 km/h
		/ 3.6 m/s]",METAR VHHH 081500Z 24007KT 210V270 9999 FEW025 SCT100 29/24 Q1008 NOSIG
0,[Scattered Clouds],1996-7-9,[25.0 °C],[],[-],[34.5 °C],[79%],[N/A],[1008 hPa],[29.0 °C],[1:00 AM],[10.0 km],[WSW],"[13.0 km/h
		/ 3.6 m/s]",METAR VHHH 081700Z 24007KT 9999 FEW020 SCT100 29/25 Q1008 NOSIG
0,[Scattered Clouds],1996-7-9,[25.0 °C],[],[-],[34.5 °C],[79%],[N/A],[1007 hPa],[29.0 °C],[2:00 AM],[10.0 km],[WSW],"[7.4 km/h
		/ 2.1 m/s]",METAR VHHH 081800Z 25004KT 9999 FEW016 SCT100 29/25 Q1007 NOSIG
0,[Scattered Clouds],1996-7-9,[25.0 °C],[],[-],[34.5 °C],[79%],[N/A],[1007 hPa],[29.0 °C],[3:00 AM],[10.0 km],[WSW],"[11.1 km/h
		/ 3.1 m/s]",METAR VHHH 081900Z 24006KT 9999 FEW016 SCT100 29/25 Q1007 NOSIG
0,[Scattered Clouds],1996-7-9,[25.0 °C],[],[-],[32.7 °C],[84%],[N/A],[1007 hPa],[28.0 °C],[4:00 AM],[10.0 km],[WSW],"[9.3 km/h
		/ 2.6 m/s]",METAR VHHH 082000Z 24005KT 9999 FEW015 SCT100 28/25 Q1007 NOSIG
0,[Scattered Clouds],1996-7-9,[25.0 °C],[],[-],[32.7 °C],[84%],[N/A],[1007 hPa],[28.0 °C],[5:00 AM],[10.0 km],[West],"[3.7 km/h
		/ 1.0 m/s]",METAR VHHH 082100Z 26002KT 9999 FEW015 SCT100 28/25 Q1007 NOSIG
0,[Scattered Clouds],1996-7-9,[25.0 °C],[],[-],[32.7 °C],[84%],[N/A],[1007 hPa],[28.0 °C],[6:00 AM],[10.0 km],[West],"[1.9 km/h
		/ 0.5 m/s]",METAR VHHH 082200Z 28001KT 9999 FEW014 SCT100 28/25 Q1007 NOSIG
0,[Scattered Clouds],1996-7-9,[25.0 °C],[],[-],[36.0 °C],[74%],[N/A],[1007 hPa],[30.0 °C],[8:00 AM],[10.0 km],[WSW],"[7.4 km/h
		/ 2.1 m/s]",METAR VHHH 090000Z 25004KT 200V270 9999 FEW016 SCT020 30/25 Q1007 NOSIG
0,[Scattered Clouds],1996-7-9,[25.0 °C],[],[-],[36.0 °C],[74%],[N/A],[1007 hPa],[30.0 °C],[9:00 AM],[10.0 km],[West],"[18.5 km/h
		/ 5.1 m/s]",METAR VHHH 090100Z 27010KT 240V360 9999 FEW016 SCT022 30/25 Q1007 NOSIG
0,[Scattered Clouds],1996-7-9,[23.0 °C],[],[-],[35.4 °C],[62%],[N/A],[1007 hPa],[31.0 °C],[10:00 AM],[10.0 km],[West],"[16.7 km/h
		/ 4.6 m/s]",METAR VHHH 090200Z 26009KT 230V310 9999 FEW016 SCT022 31/23 Q1007 NOSIG
0,[Scattered Clouds],1996-7-9,[24.0 °C],[],[-],[37.7 °C],[62%],[N/A],[1007 hPa],[32.0 °C],[11:00 AM],[10.0 km],[WSW],"[13.0 km/h
		/ 3.6 m/s]",METAR VHHH 090300Z 24007KT 200V310 9999 FEW016 SCT022 32/24 Q1007 NOSIG
0,[Scattered Clouds],1996-7-9,[24.0 °C],[],[-],[37.7 °C],[62%],[N/A],[1006 hPa],[32.0 °C],[12:00 PM],[10.0 km],[SW],"[14.8 km/h
		/ 4.1 m/s]",METAR VHHH 090400Z 22008KT 190V270 9999 FEW016 SCT022 32/24 Q1006 NOSIG
0,[Scattered Clouds],1996-7-9,[24.0 °C],[],[-],[37.7 °C],[62%],[N/A],[1006 hPa],[32.0 °C],[1:00 PM],[10.0 km],[WSW],"[16.7 km/h
		/ 4.6 m/s]",METAR VHHH 090500Z 24009KT 150V040 9999 SCT025 32/24 Q1006 NOSIG
0,[Scattered Clouds],1996-7-9,[24.0 °C],[],[-],[37.7 °C],[62%],[N/A],[1005 hPa],[32.0 °C],[2:00 PM],[10.0 km],[WSW],"[16.7 km/h
		/ 4.6 m/s]",METAR VHHH 090600Z 25009KT 200V350 9999 SCT025 32/24 Q1005 NOSIG
0,[Partly Cloudy],1996-7-9,[25.0 °C],[],[-],[39.0 °C],[66%],[N/A],[1004 hPa],[32.0 °C],[3:00 PM],[10.0 km],[SW],"[20.4 km/h
		/ 5.7 m/s]",METAR VHHH 090700Z 23011KT 9999 FEW025 32/25 Q1004 WS LDG RWY 13 NOSIG
0,[Partly Cloudy],1996-7-9,[25.0 °C],[],"[38.9 km/h
		/ 10.8 m/s]",[40.6 °C],[63%],[N/A],[1004 hPa],[33.0 °C],[4:00 PM],[10.0 km],[SW],"[16.7 km/h
		/ 4.6 m/s]",METAR VHHH 090800Z 23009G21KT 030V360 9999 FEW025 33/25 Q1004 WS LDG RWY 13 NOSIG
0,[Partly Cloudy],1996-7-9,[24.0 °C],[],"[37.0 km/h
		/ 10.3 m/s]",[36.4 °C],[66%],[N/A],[1004 hPa],[31.0 °C],[5:00 PM],[10.0 km],[WSW],"[14.8 km/h
		/ 4.1 m/s]",METAR VHHH 090900Z 24008G20KT 200V010 9999 FEW025 31/24 Q1004 WS LDG RWY 13 NOSIG
0,[Partly Cloudy],1996-7-9,[25.0 °C],[],[-],[37.6 °C],[70%],[N/A],[1004 hPa],[31.0 °C],[6:00 PM],[10.0 km],[WSW],"[14.8 km/h
		/ 4.1 m/s]",METAR VHHH 091000Z 24008KT 200V290 9999 FEW025 31/25 Q1004 WS LDG RWY 13 NOSIG
0,[Partly Cloudy],1996-7-9,[23.0 °C],[],"[37.0 km/h
		/ 10.3 m/s]",[34.1 °C],[66%],[N/A],[1004 hPa],[30.0 °C],[7:00 PM],[10.0 km],[WSW],"[14.8 km/h
		/ 4.1 m/s]",METAR VHHH 091100Z 25008G20KT 200V290 9999 FEW025 30/23 Q1004 WS LDG RWY 13 NOSIG
0,[Scattered Clouds],1996-7-9,[23.0 °C],[],[-],[34.1 °C],[66%],[N/A],[1004 hPa],[30.0 °C],[8:00 PM],[10.0 km],[WSW],"[7.4 km/h
		/ 2.1 m/s]",METAR VHHH 091200Z 24004KT 170V290 9999 FEW022 SCT300 30/23 Q1004 WS LDG RWY 13 NOSIG
0,[Scattered Clouds],1996-7-9,[24.0 °C],[],[-],[35.0 °C],[70%],[N/A],[1005 hPa],[30.0 °C],[9:00 PM],[10.0 km],[WSW],"[11.1 km/h
		/ 3.1 m/s]",METAR VHHH 091300Z 25006KT 200V290 9999 FEW022 SCT300 30/24 Q1005 WS LDG RWY 13 NOSIG
0,[Scattered Clouds],1996-7-9,[25.0 °C],[],[-],[36.0 °C],[74%],[N/A],[1005 hPa],[30.0 °C],[10:00 PM],[10.0 km],[WSW],"[13.0 km/h
		/ 3.6 m/s]",METAR VHHH 091400Z 25007KT 190V310 9999 FEW018 SCT025 30/25 Q1005 WS LDG RWY 13 NOSIG
0,[Scattered Clouds],1996-7-10,[25.0 °C],[],[-],[34.5 °C],[79%],[N/A],[1005 hPa],[29.0 °C],[12:00 AM],[10.0 km],[WSW],"[9.3 km/h
		/ 2.6 m/s]",METAR VHHH 091600Z 24005KT 200V320 9999 FEW018 SCT025 29/25 Q1005 WS LDG RWY 13 NOSIG
0,[Scattered Clouds],1996-7-10,[26.0 °C],[],[-],[35.6 °C],[84%],[N/A],[1005 hPa],[29.0 °C],[1:00 AM],[10.0 km],[WSW],"[9.3 km/h
		/ 2.6 m/s]",METAR VHHH 091700Z 25005KT 180V280 9999 FEW018 SCT025 29/26 Q1005 WS LDG RWY 13 NOSIG
0,[Scattered Clouds],1996-7-10,[25.0 °C],[],[-],[34.5 °C],[79%],[N/A],[1004 hPa],[29.0 °C],[2:00 AM],[10.0 km],[SW],"[14.8 km/h
		/ 4.1 m/s]",METAR VHHH 091800Z 23008KT 180V270 9999 FEW018 SCT025 29/25 Q1004 WS LDG RWY 13 NOSIG
0,[Light Rain],1996-7-10,[25.0 °C],[Rain],[-],[34.5 °C],[79%],[N/A],[1004 hPa],[29.0 °C],[3:00 AM],[10.0 km],[South],"[7.4 km/h
		/ 2.1 m/s]",METAR VHHH 091900Z 19004KT 160V280 9999 -RA FEW016 SCT025 29/25 Q1004 WS LDG RWY 13 NOSIG
0,[Light Rain Showers],1996-7-10,[25.0 °C],[Rain],[-],[32.7 °C],[84%],[N/A],[1004 hPa],[28.0 °C],[4:00 AM],[10.0 km],[West],"[11.1 km/h
		/ 3.1 m/s]",METAR VHHH 092000Z 27006KT 9999 -SHRA FEW015 SCT025 28/25 Q1004 WS LDG RWY 13
0,[Scattered Clouds],1996-7-10,[25.0 °C],[],[-],[34.5 °C],[79%],[N/A],[1004 hPa],[29.0 °C],[5:00 AM],[10.0 km],[SW],"[18.5 km/h
		/ 5.1 m/s]",METAR VHHH 092100Z 23010KT 180V270 9999 FEW015 SCT020 29/25 Q1004 TEMPO 5000 SHRA
0,[Partly Cloudy],1996-7-10,[25.0 °C],[],[-],[34.5 °C],[79%],[N/A],[1004 hPa],[29.0 °C],[6:00 AM],[10.0 km],[WSW],"[16.7 km/h
		/ 4.6 m/s]",METAR VHHH 092200Z 24009KT 210V270 9999 FEW017 FEW020 TCU SCT025 29/25 Q1004 TEMPO 5000 SHRA
0,[Scattered Clouds],1996-7-10,[25.0 °C],[],[-],[34.5 °C],[79%],[N/A],[1005 hPa],[29.0 °C],[8:00 AM],[10.0 km],[WSW],"[20.4 km/h
		/ 5.7 m/s]",METAR VHHH 100000Z 25011KT 210V270 9999 FEW018 SCT022 29/25 Q1005 TEMPO 5000 SHRA
0,[Partly Cloudy],1996-7-10,[25.0 °C],[],[-],[37.6 °C],[70%],[N/A],[1004 hPa],[31.0 °C],[9:00 AM],[10.0 km],[WSW],"[20.4 km/h
		/ 5.7 m/s]",METAR VHHH 100100Z 24011KT 220V300 9999 FEW022 31/25 Q1004 TEMPO 5000 SHRA
0,[Partly Cloudy],1996-7-10,[25.0 °C],[],"[40.7 km/h
		/ 11.3 m/s]",[37.6 °C],[70%],[N/A],[1004 hPa],[31.0 °C],[10:00 AM],[10.0 km],[WSW],"[18.5 km/h
		/ 5.1 m/s]",METAR VHHH 100200Z 24010G22KT 200V310 9999 FEW025 31/25 Q1004 TEMPO 5000 SHRA
0,[Partly Cloudy],1996-7-10,[24.0 °C],[],[-],[36.4 °C],[66%],[N/A],[1004 hPa],[31.0 °C],[11:00 AM],[10.0 km],[SSW],"[14.8 km/h
		/ 4.1 m/s]",METAR VHHH 100300Z 21008KT 200V350 9999 FEW025 31/24 Q1004 WS LDG RWY 13 TEMPO 5000 SHRA
0,[Partly Cloudy],1996-7-10,[25.0 °C],[],"[37.0 km/h
		/ 10.3 m/s]",[39.0 °C],[66%],[N/A],[1004 hPa],[32.0 °C],[12:00 PM],[10.0 km],[WSW],"[13.0 km/h
		/ 3.6 m/s]",METAR VHHH 100400Z 24007G20KT 210V310 9999 FEW025 32/25 Q1004 WS LDG RWY 13 TEMPO 5000 SHRA
0,[Scattered Clouds],1996-7-10,[24.0 °C],[],"[44.4 km/h
		/ 12.3 m/s]",[37.7 °C],[62%],[N/A],[1003 hPa],[32.0 °C],[1:00 PM],[10.0 km],[SW],"[20.4 km/h
		/ 5.7 m/s]",METAR VHHH 100500Z 22011G24KT 200V270 9999 FEW025 SCT300 32/24 Q1003 WS LDG RWY 13 TEMPO 5000 SHRA
0,[Scattered Clouds],1996-7-10,[24.0 °C],[],"[46.3 km/h
		/ 12.9 m/s]",[39.2 °C],[59%],[N/A],[1003 hPa],[33.0 °C],[2:00 PM],[10.0 km],[SW],"[18.5 km/h
		/ 5.1 m/s]",METAR VHHH 100600Z 23010G25KT 180V270 9999 SCT025 SCT300 33/24 Q1003 WS LDG RWY 13/31 NOSIG
0,[Scattered Clouds],1996-7-10,[25.0 °C],[],"[42.6 km/h
		/ 11.8 m/s]",[39.0 °C],[66%],[N/A],[1003 hPa],[32.0 °C],[3:00 PM],[10.0 km],[WSW],"[16.7 km/h
		/ 4.6 m/s]",METAR VHHH 100700Z 24009G23KT 150V280 9999 SCT022 SCT300 32/25 Q1003 WS LDG RWY 13/31 NOSIG
0,[Scattered Clouds],1996-7-10,[25.0 °C],[],[-],[39.0 °C],[66%],[N/A],[1002 hPa],[32.0 °C],[4:00 PM],[10.0 km],[SSW],"[18.5 km/h
		/ 5.1 m/s]",METAR VHHH 100800Z 20010KT 160V290 9999 FEW020 SCT025 32/25 Q1002 WS LDG RWY 13/31 NOSIG
0,[Scattered Clouds],1996-7-10,[25.0 °C],[],"[37.0 km/h
		/ 10.3 m/s]",[39.0 °C],[66%],[N/A],[1002 hPa],[32.0 °C],[5:00 PM],[10.0 km],[South],"[18.5 km/h
		/ 5.1 m/s]",METAR VHHH 100900Z 19010G20KT 060V280 9999 FEW022 SCT300 32/25 Q1002 WS LDG RWY 13/31 NOSIG
0,[Scattered Clouds],1996-7-10,[25.0 °C],[],[-],[37.6 °C],[70%],[N/A],[1002 hPa],[31.0 °C],[6:00 PM],[10.0 km],[South],"[18.5 km/h
		/ 5.1 m/s]",METAR VHHH 101000Z 19010KT 150V240 9999 FEW022 SCT030 31/25 Q1002 WS LDG RWY 13/31 NOSIG
0,[Scattered Clouds],1996-7-10,[25.0 °C],[],[-],[36.0 °C],[74%],[N/A],[1002 hPa],[30.0 °C],[7:00 PM],[10.0 km],[SW],"[18.5 km/h
		/ 5.1 m/s]",METAR VHHH 101100Z 22010KT 180V260 9999 FEW020 SCT300 30/25 Q1002 WS LDG RWY 13/31 NOSIG
0,[Scattered Clouds],1996-7-10,[25.0 °C],[],[-],[36.0 °C],[74%],[N/A],[1003 hPa],[30.0 °C],[8:00 PM],[10.0 km],[SW],"[11.1 km/h
		/ 3.1 m/s]",METAR VHHH 101200Z 22006KT 180V310 9999 FEW018 SCT025 30/25 Q1003 NOSIG
0,[Partly Cloudy],1996-7-10,[25.0 °C],[],[-],[36.0 °C],[74%],[N/A],[1004 hPa],[30.0 °C],[10:00 PM],[10.0 km],[SW],"[14.8 km/h
		/ 4.1 m/s]",METAR VHHH 101400Z 23008KT 180V260 9999 FEW018 30/25 Q1004 NOSIG
0,[Scattered Clouds],1996-7-10,[25.0 °C],[],[-],[36.0 °C],[74%],[N/A],[1004 hPa],[30.0 °C],[11:00 PM],[10.0 km],[South],"[13.0 km/h
		/ 3.6 m/s]",METAR VHHH 101500Z 19007KT 080V230 9999 FEW018 SCT025 30/25 Q1004 NOSIG
0,[Scattered Clouds],1996-7-11,[25.0 °C],[],[-],[36.0 °C],[74%],[N/A],[1004 hPa],[30.0 °C],[12:00 AM],[10.0 km],[SSW],"[9.3 km/h
		/ 2.6 m/s]",METAR VHHH 101600Z 21005KT 140V260 9999 FEW018 SCT025 30/25 Q1004 NOSIG
0,[Scattered Clouds],1996-7-11,[25.0 °C],[],[-],[34.5 °C],[79%],[N/A],[1004 hPa],[29.0 °C],[1:00 AM],[10.0 km],[SW],"[9.3 km/h
		/ 2.6 m/s]",METAR VHHH 101700Z 22005KT 150V270 9999 FEW018 SCT025 29/25 Q1004 NOSIG
0,[Scattered Clouds],1996-7-11,[25.0 °C],[],[-],[34.5 °C],[79%],[N/A],[1004 hPa],[29.0 °C],[2:00 AM],[10.0 km],[SSW],"[18.5 km/h
		/ 5.1 m/s]",METAR VHHH 101800Z 20010KT 160V290 9999 FEW018 SCT025 29/25 Q1004 NOSIG
0,[Scattered Clouds],1996-7-11,[25.0 °C],[],[-],[34.5 °C],[79%],[N/A],[1003 hPa],[29.0 °C],[3:00 AM],[10.0 km],[SW],"[13.0 km/h
		/ 3.6 m/s]",METAR VHHH 101900Z 23007KT 170V280 9999 FEW018 SCT025 29/25 Q1003 NOSIG
0,[Scattered Clouds],1996-7-11,[24.0 °C],[],[-],[33.5 °C],[74%],[N/A],[1003 hPa],[29.0 °C],[4:00 AM],[10.0 km],[SSW],"[13.0 km/h
		/ 3.6 m/s]",METAR VHHH 102000Z 20007KT 150V310 9999 FEW017 SCT025 29/24 Q1003 NOSIG
0,[Scattered Clouds],1996-7-11,[25.0 °C],[],[-],[34.5 °C],[79%],[N/A],[1003 hPa],[29.0 °C],[5:00 AM],[10.0 km],[SE],"[18.5 km/h
		/ 5.1 m/s]",METAR VHHH 102100Z 14010KT 180V260 9999 FEW017 SCT025 29/25 Q1003 WS LDG RWY 13 NOSIG
0,[Mostly Cloudy],1996-7-11,[25.0 °C],[],"[42.6 km/h
		/ 11.8 m/s]",[34.5 °C],[79%],[N/A],[1003 hPa],[29.0 °C],[6:00 AM],[10.0 km],[SSW],"[14.8 km/h
		/ 4.1 m/s]",METAR VHHH 102200Z 21008G23KT 170V250 9999 FEW016 SCT025 BKN300 29/25 Q1003 WS LDG RWY 13 NOSIG
0,[Mostly Cloudy],1996-7-11,[25.0 °C],[],[-],[36.0 °C],[74%],[N/A],[1003 hPa],[30.0 °C],[7:00 AM],[10.0 km],[SW],"[14.8 km/h
		/ 4.1 m/s]",METAR VHHH 102300Z 23008KT 170V290 9999 FEW017 SCT025 BKN300 30/25 Q1003 WS LDG RWY 13 NOSIG
0,[Mostly Cloudy],1996-7-11,[25.0 °C],[],[-],[34.5 °C],[79%],[N/A],[1004 hPa],[29.0 °C],[8:00 AM],[10.0 km],[SSW],"[22.2 km/h
		/ 6.2 m/s]",METAR VHHH 110000Z 20012KT 160V240 9999 FEW017 BKN025 BKN300 29/25 Q1004 WS LDG RWY 13 TEMPO 4000 SHRA
0,[Mostly Cloudy],1996-7-11,[25.0 °C],[],[-],[36.0 °C],[74%],[N/A],[1004 hPa],[30.0 °C],[9:00 AM],[10.0 km],[SSW],"[18.5 km/h
		/ 5.1 m/s]",METAR VHHH 110100Z 21010KT 120V320 9999 FEW017 BKN025 BKN300 30/25 Q1004 WS LDG RWY 13/31 TEMPO 4000 SHRA
0,[Mostly Cloudy],1996-7-11,[25.0 °C],[],"[33.3 km/h
		/ 9.3 m/s]",[37.6 °C],[70%],[N/A],[1004 hPa],[31.0 °C],[10:00 AM],[10.0 km],[SSW],"[14.8 km/h
		/ 4.1 m/s]",METAR VHHH 110200Z 20008G18KT 170V270 9999 FEW018 SCT025 BKN300 31/25 Q1004 WS LDG RWY 13/31 NOSIG
0,[Light Rain Showers],1996-7-11,[25.0 °C],[Rain],[-],[37.6 °C],[70%],[N/A],[1004 hPa],[31.0 °C],[11:00 AM],[10.0 km],[WSW],"[22.2 km/h
		/ 6.2 m/s]",METAR VHHH 110300Z 24012KT 160V280 9999 -SHRA FEW018 SCT025 BKN300 31/25 Q1004 WS LDG RWY 13/31 NOSIG
0,[Scattered Clouds],1996-7-11,[25.0 °C],[],"[55.6 km/h
		/ 15.4 m/s]",[39.0 °C],[66%],[N/A],[1003 hPa],[32.0 °C],[1:00 PM],[10.0 km],[SW],"[29.6 km/h
		/ 8.2 m/s]",METAR VHHH 110500Z 23016G30KT 170V270 9999 FEW020 SCT025 32/25 Q1003 WS LDG RWY 13/31 NOSIG
0,[Scattered Clouds],1996-7-11,[25.0 °C],[],"[61.1 km/h
		/ 17.0 m/s]",[39.0 °C],[66%],[N/A],[1003 hPa],[32.0 °C],[2:00 PM],[10.0 km],[SW],"[29.6 km/h
		/ 8.2 m/s]",METAR VHHH 110600Z 23016G33KT 170V290 9999 FEW020 SCT025 32/25 Q1003 WS LDG RWY 13/31 TEMPO 4000 SHRA
0,[Scattered Clouds],1996-7-11,[26.0 °C],[],"[63.0 km/h
		/ 17.5 m/s]",[40.4 °C],[70%],[N/A],[1003 hPa],[32.0 °C],[3:00 PM],[10.0 km],[SW],"[29.6 km/h
		/ 8.2 m/s]",METAR VHHH 110700Z 23016G34KT 180V270 9999 FEW016 SCT025 32/26 Q1003 WS LDG RWY 13/31 TEMPO 4000M SHRA
0,[Mostly Cloudy],1996-7-11,[26.0 °C],[],"[50.0 km/h
		/ 13.9 m/s]",[39.2 °C],[75%],[N/A],[1003 hPa],[31.0 °C],[4:00 PM],[10.0 km],[SW],"[25.9 km/h
		/ 7.2 m/s]",METAR VHHH 110800Z 23014G27KT 180V270 9999 FEW015 SCT025CB BKN100 31/26 Q1003 CB 8 KM TO W WS LDG RWY 13/31 TEMPO 25016G36KT 2500 TSRA FEW010 SCT012CB BKN080
0,[Mostly Cloudy],1996-7-11,[25.0 °C],[],"[44.4 km/h
		/ 12.3 m/s]",[34.5 °C],[79%],[N/A],[1004 hPa],[29.0 °C],[5:00 PM],[10.0 km],[WSW],"[18.5 km/h
		/ 5.1 m/s]",METAR VHHH 110900Z 25010G24KT 190V310 9999 FEW018 SCT025 BKN100 29/25 Q1004 RERA WS LDG RWY 13/31 TEMPO 25016G36KT 2500 TSRA FEW010 SCT012CB BKN080
0,[Mostly Cloudy],1996-7-11,[26.0 °C],[],[-],[37.4 °C],[79%],[N/A],[1003 hPa],[30.0 °C],[6:00 PM],[10.0 km],[WSW],"[18.5 km/h
		/ 5.1 m/s]",METAR VHHH 111000Z 25010KT 220V290 9999 FEW014 SCT020 BKN100 30/26 Q1003 WS LDG RWY 13/31 TEMPO 4000 SHRA
0,[Mostly Cloudy],1996-7-11,[25.0 °C],[],[-],[34.5 °C],[79%],[N/A],[1004 hPa],[29.0 °C],[7:00 PM],[10.0 km],[WSW],"[20.4 km/h
		/ 5.7 m/s]",METAR VHHH 111100Z 24011KT 200V290 9999 FEW014 SCT020 BKN100 29/25 Q1004 WS LDG RWY 13/31 TEMPO 4000 SHRA
0,[Mostly Cloudy],1996-7-11,[25.0 °C],[],"[37.0 km/h
		/ 10.3 m/s]",[34.5 °C],[79%],[N/A],[1004 hPa],[29.0 °C],[8:00 PM],[10.0 km],[SW],"[16.7 km/h
		/ 4.6 m/s]",METAR VHHH 111200Z 23009G20KT 150V340 9999 FEW014 SCT020 BKN100 29/25 Q1004 TEMPO 4000 SHRA
0,[Mostly Cloudy],1996-7-11,[25.0 °C],[],[-],[34.5 °C],[79%],[N/A],[1005 hPa],[29.0 °C],[9:00 PM],[10.0 km],[SSW],"[14.8 km/h
		/ 4.1 m/s]",METAR VHHH 111300Z 20008KT 150V270 9999 FEW015 SCT025 BKN100 29/25 Q1005 TEMPO 4000 SHRA
0,[Scattered Clouds],1996-7-11,[26.0 °C],[],"[35.2 km/h
		/ 9.8 m/s]",[37.4 °C],[79%],[N/A],[1006 hPa],[30.0 °C],[10:00 PM],[10.0 km],[SW],"[13.0 km/h
		/ 3.6 m/s]",METAR VHHH 111400Z 22007G19KT 180V360 9999 FEW015 SCT025 30/26 Q1006 TEMPO 4000 SHRA
0,[Mostly Cloudy],1996-7-11,[25.0 °C],[],[-],[34.5 °C],[79%],[N/A],[1006 hPa],[29.0 °C],[11:00 PM],[10.0 km],[SW],"[16.7 km/h
		/ 4.6 m/s]",METAR VHHH 111500Z 22009KT 190V280 9999 FEW015 SCT025 BKN100 29/25 Q1006 TEMPO 4000 SHRA
0,[Light Rain Showers],1996-7-12,[25.0 °C],[Rain],[-],[34.5 °C],[79%],[N/A],[1006 hPa],[29.0 °C],[12:00 AM],[10.0 km],[SSE],"[9.3 km/h
		/ 2.6 m/s]",METAR VHHH 111600Z 16005KT 100V210 9999 -SHRA FEW015 BKN025 29/25 Q1006 WS LDG RWY 13/31 TEMPO VRB16G30KT 2500 TSRA FEW010 FEW012CB BKN080
0,[Mostly Cloudy],1996-7-12,[26.0 °C],[],[-],[35.6 °C],[84%],[N/A],[1005 hPa],[29.0 °C],[2:00 AM],[10.0 km],[SSW],"[14.8 km/h
		/ 4.1 m/s]",METAR VHHH 111800Z 21008KT 140V250 9999 FEW015 SCT025 BKN100 29/26 Q1005 WS LDG RWY 13/31 TEMPO VRB16G30KT 2500 TSRA FEW010 FEW012CB BKN080
0,[Light Thunderstorms and Rain],1996-7-12,[26.0 °C],"[Rain
	,
Thunderstorm]",[-],[35.6 °C],[84%],[N/A],[1005 hPa],[29.0 °C],[3:00 AM],[10.0 km],[SSW],"[16.7 km/h
		/ 4.6 m/s]",METAR VHHH 111900Z 21009KT 150V250 9999 -TSRA FEW015 FEW018CB SCT025 BKN100 29/26 Q1005 TS 6 KM TO N WS LDG RWY 13/31 TEMPO VRB16G30KT 2500 TSRA FEW010 FEW012CB BKN080
0,[Light Rain Showers],1996-7-12,[27.0 °C],[Rain],[-],[34.5 °C],[94%],[N/A],[1005 hPa],[28.0 °C],[4:00 AM],[10.0 km],[SW],"[16.7 km/h
		/ 4.6 m/s]",METAR VHHH 112000Z 23009KT 150V260 9999 -SHRA FEW013 BKN022 28/27 Q1005 RE TS WS LDG RWY 13/31 TEMPO VRB16G30KT 2500 TSRA FEW010 FEW012CB BKN080
0,[Light Rain Showers],1996-7-12,[23.0 °C],[Rain],[-],[29.6 °C],[79%],[N/A],[1009 hPa],[27.0 °C],[11:00 AM],[10.0 km],[West],"[5.6 km/h
		/ 1.5 m/s]",METAR VHHH 120300Z 26003KT 9999 -SHRA FEW018 SCT025 BKN080 27/23 Q1009 TEMPO 4000 SHRA
0,[Mostly Cloudy],1996-7-12,[24.0 °C],[],[-],[31.9 °C],[79%],[N/A],[1009 hPa],[28.0 °C],[12:00 PM],[10.0 km],[West],"[1.9 km/h
		/ 0.5 m/s]",METAR VHHH 120400Z 28001KT 9999 FEW018 SCT025 BKN080 28/24 Q1009 TEMPO 4000 SHRA
0,[Light Rain Showers],1996-7-12,[25.0 °C],[Rain],"[31.5 km/h
		/ 8.7 m/s]",[32.7 °C],[84%],[N/A],[1008 hPa],[28.0 °C],[1:00 PM],[10.0 km],[South],"[13.0 km/h
		/ 3.6 m/s]",METAR VHHH 120500Z 18007G17KT 140V250 9999 -SHRA FEW012 SCT020 BKN080 28/25 Q1008 TEMPO 4000 SHRA
0,[Mostly Cloudy],1996-7-12,[25.0 °C],[],[-],[34.5 °C],[79%],[N/A],[1008 hPa],[29.0 °C],[2:00 PM],[10.0 km],[SE],"[3.7 km/h
		/ 1.0 m/s]",METAR VHHH 120600Z 13002KT 9999 FEW012 SCT020 BKN080 29/25 Q1008 TEMPO 4000 SHRA
0,[Mostly Cloudy],1996-7-12,[25.0 °C],[],[-],[34.5 °C],[79%],[N/A],[1007 hPa],[29.0 °C],[3:00 PM],[10.0 km],[WSW],"[5.6 km/h
		/ 1.5 m/s]",METAR VHHH 120700Z 24003KT 9999 FEW016 SCT020 BKN080 29/25 Q1007 TEMPO 4000 SHRA
0,[Mostly Cloudy],1996-7-12,[25.0 °C],[],[-],[34.5 °C],[79%],[N/A],[1007 hPa],[29.0 °C],[4:00 PM],[10.0 km],[SW],"[13.0 km/h
		/ 3.6 m/s]",METAR VHHH 120800Z 22007KT 080V300 9999 FEW012 SCT025 BKN080 29/25 Q1007 TEMPO 4000 SHRA
0,[Mostly Cloudy],1996-7-12,[25.0 °C],[],[-],[34.5 °C],[79%],[N/A],[1007 hPa],[29.0 °C],[5:00 PM],[10.0 km],[WNW],"[7.4 km/h
		/ 2.1 m/s]",METAR VHHH 120900Z 29004KT 9999 FEW012 SCT025 BKN080 29/25 Q1007 TEMPO 4000 SHRA
0,[Mostly Cloudy],1996-7-12,[25.0 °C],[],[-],[34.5 °C],[79%],[N/A],[1007 hPa],[29.0 °C],[6:00 PM],[10.0 km],[West],"[7.4 km/h
		/ 2.1 m/s]",METAR VHHH 121000Z 28004KT 250V310 9999 FEW016 SCT025 BKN045 29/25 Q1007 TEMPO 4000 SHRA
0,[Mostly Cloudy],1996-7-12,[25.0 °C],[],[-],[34.5 °C],[79%],[N/A],[1008 hPa],[29.0 °C],[7:00 PM],[10.0 km],[West],"[14.8 km/h
		/ 4.1 m/s]",METAR VHHH 121100Z 28008KT 9999 FEW014 SCT025 BKN090 29/25 Q1008 TEMPO 4000 SHRA
0,[Mostly Cloudy],1996-7-12,[25.0 °C],[],[-],[32.7 °C],[84%],[N/A],[1008 hPa],[28.0 °C],[8:00 PM],[10.0 km],[WNW],"[11.1 km/h
		/ 3.1 m/s]",METAR VHHH 121200Z 29006KT 9999 FEW014 SCT025 BKN090 28/25 Q1008 TEMPO 4000 SHRA
0,[Mostly Cloudy],1996-7-12,[25.0 °C],[],[-],[32.7 °C],[84%],[N/A],[1009 hPa],[28.0 °C],[9:00 PM],[10.0 km],[ESE],"[1.9 km/h
		/ 0.5 m/s]",METAR VHHH 121300Z 12001KT 9999 FEW020 BKN090 28/25 Q1009 NOSIG
0,[Mostly Cloudy],1996-7-12,[25.0 °C],[],[-],[36.0 °C],[74%],[N/A],[1010 hPa],[30.0 °C],[11:00 PM],[10.0 km],[SSE],"[7.4 km/h
		/ 2.1 m/s]",METAR VHHH 121500Z 15004KT 110V180 9999 FEW020 SCT030 BKN090 30/25 Q1010 NOSIG
0,[Mostly Cloudy],1996-7-13,[25.0 °C],[],[-],[32.7 °C],[84%],[N/A],[1010 hPa],[28.0 °C],[12:00 AM],[10.0 km],[SE],"[3.7 km/h
		/ 1.0 m/s]",METAR VHHH 121600Z 13002KT 9999 FEW018 BKN090 28/25 Q1010 NOSIG
0,[Mostly Cloudy],1996-7-13,[26.0 °C],[],[-],[31.2 °C],[94%],[N/A],[1010 hPa],[27.0 °C],[1:00 AM],[10.0 km],[SE],"[11.1 km/h
		/ 3.1 m/s]",METAR VHHH 121700Z 13006KT 9999 FEW016 SCT020 BKN090 27/26 Q1010 NOSIG
0,[Mostly Cloudy],1996-7-13,[26.0 °C],[],[-],[31.2 °C],[94%],[N/A],[1009 hPa],[27.0 °C],[2:00 AM],[10.0 km],[SE],"[11.1 km/h
		/ 3.1 m/s]",METAR VHHH 121800Z 13006KT 9999 FEW016 SCT020 BKN090 27/26 Q1009 NOSIG
0,[Mostly Cloudy],1996-7-13,[25.0 °C],[],[-],[-],[94%],[N/A],[1009 hPa],[26.0 °C],[3:00 AM],[10.0 km],[SE],"[18.5 km/h
		/ 5.1 m/s]",METAR VHHH 121900Z 13010KT 9999 FEW016 SCT020 BKN090 26/25 Q1009 NOSIG
0,[Mostly Cloudy],1996-7-13,[25.0 °C],[],[-],[30.6 °C],[89%],[N/A],[1009 hPa],[27.0 °C],[4:00 AM],[10.0 km],[ESE],"[18.5 km/h
		/ 5.1 m/s]",METAR VHHH 122000Z 11010KT 9999 FEW014 SCT020 BKN090 27/25 Q1009 NOSIG
0,[Mostly Cloudy],1996-7-13,[25.0 °C],[],[-],[30.6 °C],[89%],[N/A],[1010 hPa],[27.0 °C],[5:00 AM],[10.0 km],[ESE],"[7.4 km/h
		/ 2.1 m/s]",METAR VHHH 122100Z 11004KT 070V130 9999 FEW014 SCT020 BKN080 27/25 Q1010 NOSIG
0,[Mostly Cloudy],1996-7-13,[24.0 °C],[],[-],[30.1 °C],[84%],[N/A],[1010 hPa],[27.0 °C],[6:00 AM],[10.0 km],[NNW],"[1.9 km/h
		/ 0.5 m/s]",METAR VHHH 122200Z 33001KT 320V160 9999 FEW016 SCT024 BKN080 27/24 Q1010 NOSIG
0,[Mostly Cloudy],1996-7-13,[24.0 °C],[],[-],[31.9 °C],[79%],[N/A],[1010 hPa],[28.0 °C],[7:00 AM],[10.0 km],[WSW],"[1.9 km/h
		/ 0.5 m/s]",METAR VHHH 122300Z 24001KT 210V290 9999 SCT020 BKN080 28/24 Q1010 NOSIG
0,[Mostly Cloudy],1996-7-13,[25.0 °C],[],[-],[36.0 °C],[74%],[N/A],[1010 hPa],[30.0 °C],[8:00 AM],[10.0 km],[SSW],"[1.9 km/h
		/ 0.5 m/s]",METAR VHHH 130000Z 21001KT 9999 FEW020 BKN100 30/25 Q1010 NOSIG
0,[Scattered Clouds],1996-7-13,[25.0 °C],[],[-],[37.6 °C],[70%],[N/A],[1011 hPa],[31.0 °C],[9:00 AM],[10.0 km],[WSW],"[3.7 km/h
		/ 1.0 m/s]",METAR VHHH 130100Z 24002KT 9999 SCT020 SCT300 31/25 Q1011 NOSIG
0,[Scattered Clouds],1996-7-13,[25.0 °C],[],[-],[39.0 °C],[66%],[N/A],[1011 hPa],[32.0 °C],[10:00 AM],[10.0 km],[WSW],"[7.4 km/h
		/ 2.1 m/s]",METAR VHHH 130200Z 24004KT 200V300 9999 SCT025 SCT300 32/25 Q1011 NOSIG
0,[Scattered Clouds],1996-7-13,[25.0 °C],[],[-],[37.6 °C],[70%],[N/A],[1011 hPa],[31.0 °C],[11:00 AM],[10.0 km],[South],"[13.0 km/h
		/ 3.6 m/s]",METAR VHHH 130300Z 19007KT 110V260 9999 SCT025 SCT300 31/25 Q1011 NOSIG
0,[Mostly Cloudy],1996-7-13,[25.0 °C],[],[-],[39.0 °C],[66%],[N/A],[1010 hPa],[32.0 °C],[12:00 PM],[10.0 km],[SE],"[13.0 km/h
		/ 3.6 m/s]",METAR VHHH 130400Z 13007KT 100V210 9999 SCT025 BKN300 32/25 Q1010 NOSIG
0,[Mostly Cloudy],1996-7-13,[25.0 °C],[],[-],[37.6 °C],[70%],[N/A],[1010 hPa],[31.0 °C],[1:00 PM],[10.0 km],[South],"[18.5 km/h
		/ 5.1 m/s]",METAR VHHH 130500Z 19010KT 150V250 9999 SCT025 BKN300 31/25 Q1010 NOSIG
0,[Mostly Cloudy],1996-7-13,[25.0 °C],[],"[37.0 km/h
		/ 10.3 m/s]",[37.6 °C],[70%],[N/A],[1010 hPa],[31.0 °C],[2:00 PM],[10.0 km],[SSW],"[16.7 km/h
		/ 4.6 m/s]",METAR VHHH 130600Z 20009G20KT 070V250 9999 FEW020 SCT025 BKN300 31/25 Q1010 NOSIG
0,[Mostly Cloudy],1996-7-13,[25.0 °C],[],[-],[39.0 °C],[66%],[N/A],[1009 hPa],[32.0 °C],[3:00 PM],[10.0 km],[South],"[13.0 km/h
		/ 3.6 m/s]",METAR VHHH 130700Z 19007KT 090V260 9999 FEW018 SCT028 BKN300 32/25 Q1009 NOSIG
0,[Light Rain Showers],1996-7-13,[26.0 °C],[Rain],[-],[37.4 °C],[79%],[N/A],[1009 hPa],[30.0 °C],[4:00 PM],[10.0 km],[South],"[14.8 km/h
		/ 4.1 m/s]",METAR VHHH 130800Z 19008KT 120V250 9999 -SHRA FEW018 SCT025 BKN100 30/26 Q1009 NOSIG
0,[Mostly Cloudy],1996-7-13,[25.0 °C],[],"[33.3 km/h
		/ 9.3 m/s]",[37.6 °C],[70%],[N/A],[1009 hPa],[31.0 °C],[5:00 PM],[10.0 km],[SSW],"[14.8 km/h
		/ 4.1 m/s]",METAR VHHH 130900Z 20008G18KT 090V290 9999 FEW018 SCT025 BKN100 31/25 Q1009 NOSIG
0,[Mostly Cloudy],1996-7-13,[24.0 °C],[],[-],[35.0 °C],[70%],[N/A],[1009 hPa],[30.0 °C],[6:00 PM],[10.0 km],[South],"[9.3 km/h
		/ 2.6 m/s]",METAR VHHH 131000Z 19005KT 160V270 9999 FEW018 SCT025 BKN100 30/24 Q1009 NOSIG
0,[Mostly Cloudy],1996-7-13,[25.0 °C],[],[-],[36.0 °C],[74%],[N/A],[1009 hPa],[30.0 °C],[7:00 PM],[10.0 km],[South],"[9.3 km/h
		/ 2.6 m/s]",METAR VHHH 131100Z 18005KT 120V270 9999 FEW016 SCT025 BKN100 30/25 Q1009 NOSIG
0,[Mostly Cloudy],1996-7-13,[25.0 °C],[],[-],[36.0 °C],[74%],[N/A],[1010 hPa],[30.0 °C],[8:00 PM],[10.0 km],[South],"[9.3 km/h
		/ 2.6 m/s]",METAR VHHH 131200Z 18005KT 080V240 9999 FEW016 SCT025 BKN100 30/25 Q1010 NOSIG
0,[Mostly Cloudy],1996-7-13,[26.0 °C],[],[-],[35.6 °C],[84%],[N/A],[1010 hPa],[29.0 °C],[9:00 PM],[10.0 km],[SE],"[11.1 km/h
		/ 3.1 m/s]",METAR VHHH 131300Z 14006KT 100V190 9999 FEW014 BKN100 29/26 Q1010 NOSIG
0,[Mostly Cloudy],1996-7-13,[26.0 °C],[],[-],[35.6 °C],[84%],[N/A],[1010 hPa],[29.0 °C],[10:00 PM],[10.0 km],[ESE],"[13.0 km/h
		/ 3.6 m/s]",METAR VHHH 131400Z 12007KT 9999 FEW016 BKN100 29/26 Q1010 NOSIG
0,[Mostly Cloudy],1996-7-13,[26.0 °C],[],[-],[33.6 °C],[89%],[N/A],[1011 hPa],[28.0 °C],[11:00 PM],[10.0 km],[SE],"[13.0 km/h
		/ 3.6 m/s]",METAR VHHH 131500Z 14007KT 110V170 9999 FEW016 BKN100 28/26 Q1011 NOSIG
0,[Mostly Cloudy],1996-7-14,[26.0 °C],[],[-],[35.6 °C],[84%],[N/A],[1011 hPa],[29.0 °C],[12:00 AM],[10.0 km],[SE],"[14.8 km/h
		/ 4.1 m/s]",METAR VHHH 131600Z 13008KT 100V170 9999 FEW016 BKN100 29/26 Q1011 NOSIG
0,[Mostly Cloudy],1996-7-14,[26.0 °C],[],[-],[33.6 °C],[89%],[N/A],[1011 hPa],[28.0 °C],[1:00 AM],[10.0 km],[SE],"[5.6 km/h
		/ 1.5 m/s]",METAR VHHH 131700Z 13003KT 9999 FEW016 SCT030 BKN100 28/26 Q1011 NOSIG
0,[Mostly Cloudy],1996-7-14,[25.0 °C],[],[-],[32.7 °C],[84%],[N/A],[1011 hPa],[28.0 °C],[2:00 AM],[10.0 km],[SSE],"[1.9 km/h
		/ 0.5 m/s]",METAR VHHH 131800Z 16001KT 9999 FEW016 SCT030 BKN100 28/25 Q1011 NOSIG
0,[Mostly Cloudy],1996-7-14,[26.0 °C],[],[-],[33.6 °C],[89%],[N/A],[1010 hPa],[28.0 °C],[3:00 AM],[10.0 km],[ESE],"[1.9 km/h
		/ 0.5 m/s]",METAR VHHH 131900Z 12001KT 9999 FEW016 SCT025 BKN100 28/26 Q1010 NOSIG
0,[Scattered Clouds],1996-7-14,[25.0 °C],[],[-],[32.7 °C],[84%],[N/A],[1010 hPa],[28.0 °C],[4:00 AM],[10.0 km],[NNE],"[1.9 km/h
		/ 0.5 m/s]",METAR VHHH 132000Z 03001KT 9999 FEW014 SCT020 28/25 Q1010 NOSIG
0,[Scattered Clouds],1996-7-14,[25.0 °C],[],[-],[32.7 °C],[84%],[N/A],[1010 hPa],[28.0 °C],[5:00 AM],[10.0 km],[NNW],"[1.9 km/h
		/ 0.5 m/s]",METAR VHHH 132100Z 34001KT 9999 FEW016 SCT025 28/25 Q1010 NOSIG
0,[Scattered Clouds],1996-7-14,[26.0 °C],[],[-],[33.6 °C],[89%],[N/A],[1010 hPa],[28.0 °C],[6:00 AM],[10.0 km],[Variable],"[1.9 km/h
		/ 0.5 m/s]",METAR VHHH 132200Z VRB01KT 9999 FEW014 SCT020 28/26 Q1010 NOSIG
0,[Scattered Clouds],1996-7-14,[26.0 °C],[],[-],[35.6 °C],[84%],[N/A],[1010 hPa],[29.0 °C],[7:00 AM],[10.0 km],[SSW],"[1.9 km/h
		/ 0.5 m/s]",METAR VHHH 132300Z 20001KT 9999 FEW014 SCT020 29/26 Q1010 NOSIG
0,[Scattered Clouds],1996-7-14,[25.0 °C],[],[-],[36.0 °C],[74%],[N/A],[1010 hPa],[30.0 °C],[8:00 AM],[10.0 km],[SE],"[3.7 km/h
		/ 1.0 m/s]",METAR VHHH 140000Z 13002KT 9999 FEW010 SCT018 30/25 Q1010 NOSIG
0,[Mostly Cloudy],1996-7-14,[25.0 °C],[],[-],[37.6 °C],[70%],[N/A],[1010 hPa],[31.0 °C],[9:00 AM],[10.0 km],[South],"[14.8 km/h
		/ 4.1 m/s]",METAR VHHH 140100Z 17008KT 120V260 9999 FEW014 SCT022 BKN300 31/25 Q1010 NOSIG
0,[Mostly Cloudy],1996-7-14,[24.0 °C],[],[-],[36.4 °C],[66%],[N/A],[1011 hPa],[31.0 °C],[10:00 AM],[10.0 km],[SSW],"[14.8 km/h
		/ 4.1 m/s]",METAR VHHH 140200Z 20008KT 170V250 9999 FEW016 SCT023 BKN300 31/24 Q1011 NOSIG
0,[Mostly Cloudy],1996-7-14,[25.0 °C],[],"[31.5 km/h
		/ 8.7 m/s]",[39.0 °C],[66%],[N/A],[1011 hPa],[32.0 °C],[11:00 AM],[10.0 km],[SSW],"[13.0 km/h
		/ 3.6 m/s]",METAR VHHH 140300Z 20007G17KT 120V260 9999 FEW017 SCT023 BKN300 32/25 Q1011 NOSIG
0,[Mostly Cloudy],1996-7-14,[25.0 °C],[],[-],[39.0 °C],[66%],[N/A],[1011 hPa],[32.0 °C],[12:00 PM],[10.0 km],[SSW],"[22.2 km/h
		/ 6.2 m/s]",METAR VHHH 140400Z 20012KT 100V270 9999 FEW018 SCT025 BKN300 32/25 Q1011 NOSIG
0,[Mostly Cloudy],1996-7-14,[25.0 °C],[],[-],[39.0 °C],[66%],[N/A],[1010 hPa],[32.0 °C],[1:00 PM],[10.0 km],[SSW],"[22.2 km/h
		/ 6.2 m/s]",METAR VHHH 140500Z 20012KT 160V240 9999 SCT020 BKN300 32/25 Q1010 NOSIG
0,[Mostly Cloudy],1996-7-14,[26.0 °C],[],"[40.7 km/h
		/ 11.3 m/s]",[39.2 °C],[75%],[N/A],[1010 hPa],[31.0 °C],[2:00 PM],[10.0 km],[SSW],"[22.2 km/h
		/ 6.2 m/s]",METAR VHHH 140600Z 21012G22KT 140V250 9999 FEW020 SCT025 BKN300 31/26 Q1010 WS LDG RWY 13 NOSIG
0,[Mostly Cloudy],1996-7-14,[25.0 °C],[],[-],[39.0 °C],[66%],[N/A],[1009 hPa],[32.0 °C],[3:00 PM],[10.0 km],[SSW],"[20.4 km/h
		/ 5.7 m/s]",METAR VHHH 140700Z 20011KT 170V250 9999 SCT025 BKN300 32/25 Q1009 WS LDG RWY 13 NOSIG
0,[Mostly Cloudy],1996-7-14,[25.0 °C],[],"[37.0 km/h
		/ 10.3 m/s]",[37.6 °C],[70%],[N/A],[1009 hPa],[31.0 °C],[4:00 PM],[10.0 km],[SSW],"[16.7 km/h
		/ 4.6 m/s]",METAR VHHH 140800Z 20009G20KT 120V230 9999 SCT025 BKN300 31/25 Q1009 WS LDG RWY 13 NOSIG
0,[Mostly Cloudy],1996-7-14,[26.0 °C],[],[-],[39.2 °C],[75%],[N/A],[1008 hPa],[31.0 °C],[6:00 PM],[10.0 km],[South],"[14.8 km/h
		/ 4.1 m/s]",METAR VHHH 141000Z 18008KT 150V240 9999 FEW020 BKN300 31/26 Q1008 NOSIG
0,[Mostly Cloudy],1996-7-14,[25.0 °C],[],[-],[36.0 °C],[74%],[N/A],[1008 hPa],[30.0 °C],[7:00 PM],[10.0 km],[South],"[13.0 km/h
		/ 3.6 m/s]",METAR VHHH 141100Z 19007KT 160V260 9999 FEW016 BKN300 30/25 Q1008 NOSIG
0,[Mostly Cloudy],1996-7-14,[25.0 °C],[],[-],[36.0 °C],[74%],[N/A],[1009 hPa],[30.0 °C],[8:00 PM],[10.0 km],[SSE],"[9.3 km/h
		/ 2.6 m/s]",METAR VHHH 141200Z 16005KT 110V210 9999 FEW016 SCT022 BKN300 30/25 Q1009 NOSIG
0,[Mostly Cloudy],1996-7-14,[25.0 °C],[],[-],[34.5 °C],[79%],[N/A],[1009 hPa],[29.0 °C],[9:00 PM],[10.0 km],[South],"[9.3 km/h
		/ 2.6 m/s]",METAR VHHH 141300Z 17005KT 090V240 9999 FEW016 SCT022 BKN300 29/25 Q1009 NOSIG
0,[Scattered Clouds],1996-7-14,[25.0 °C],[],[-],[34.5 °C],[79%],[N/A],[1010 hPa],[29.0 °C],[10:00 PM],[10.0 km],[SE],"[11.1 km/h
		/ 3.1 m/s]",METAR VHHH 141400Z 13006KT 100V180 9999 FEW015 SCT020 29/25 Q1010 NOSIG
0,[Scattered Clouds],1996-7-14,[26.0 °C],[],[-],[35.6 °C],[84%],[N/A],[1010 hPa],[29.0 °C],[11:00 PM],[10.0 km],[SE],"[11.1 km/h
		/ 3.1 m/s]",METAR VHHH 141500Z 14006KT 100V180 9999 FEW015 SCT020 29/26 Q1010 NOSIG
0,[Scattered Clouds],1996-7-15,[26.0 °C],[],[-],[35.6 °C],[84%],[N/A],[1010 hPa],[29.0 °C],[12:00 AM],[10.0 km],[SE],"[9.3 km/h
		/ 2.6 m/s]",METAR VHHH 141600Z 13005KT 100V190 9999 FEW015 SCT020 29/26 Q1010 NOSIG
0,[Scattered Clouds],1996-7-15,[26.0 °C],[],[-],[35.6 °C],[84%],[N/A],[1009 hPa],[29.0 °C],[1:00 AM],[10.0 km],[ESE],"[3.7 km/h
		/ 1.0 m/s]",METAR VHHH 141700Z 12002KT 9999 FEW014 SCT022 29/26 Q1009 NOSIG
0,[Scattered Clouds],1996-7-15,[26.0 °C],[],[-],[35.6 °C],[84%],[N/A],[1009 hPa],[29.0 °C],[2:00 AM],[10.0 km],[South],"[7.4 km/h
		/ 2.1 m/s]",METAR VHHH 141800Z 17004KT 120V210 9999 FEW015 SCT022 29/26 Q1009 NOSIG
0,[Scattered Clouds],1996-7-15,[25.0 °C],[],[-],[34.5 °C],[79%],[N/A],[1009 hPa],[29.0 °C],[3:00 AM],[10.0 km],[South],"[9.3 km/h
		/ 2.6 m/s]",METAR VHHH 141900Z 19005KT 150V220 9999 FEW014 SCT022 29/25 Q1009 NOSIG
0,[Scattered Clouds],1996-7-15,[25.0 °C],[],[-],[34.5 °C],[79%],[N/A],[1009 hPa],[29.0 °C],[4:00 AM],[10.0 km],[SSW],"[13.0 km/h
		/ 3.6 m/s]",METAR VHHH 142000Z 20007KT 180V250 9999 FEW014 SCT020 29/25 Q1009 NOSIG
0,[Scattered Clouds],1996-7-15,[25.0 °C],[],[-],[32.7 °C],[84%],[N/A],[1009 hPa],[28.0 °C],[5:00 AM],[10.0 km],[South],"[5.6 km/h
		/ 1.5 m/s]",METAR VHHH 142100Z 18003KT 160V230 9999 FEW014 SCT020 28/25 Q1009 NOSIG
0,[Mostly Cloudy],1996-7-15,[25.0 °C],[],[-],[34.5 °C],[79%],[N/A],[1009 hPa],[29.0 °C],[6:00 AM],[10.0 km],[South],"[7.4 km/h
		/ 2.1 m/s]",METAR VHHH 142200Z 18004KT 150V220 9999 FEW014 SCT020 BKN300 29/25 Q1009 NOSIG
0,[Mostly Cloudy],1996-7-15,[25.0 °C],[],[-],[34.5 °C],[79%],[N/A],[1009 hPa],[29.0 °C],[7:00 AM],[10.0 km],[South],"[5.6 km/h
		/ 1.5 m/s]",METAR VHHH 142300Z 19003KT 9999 FEW014 BKN300 29/25 Q1009 NOSIG
0,[Mostly Cloudy],1996-7-15,[25.0 °C],[],[-],[36.0 °C],[74%],[N/A],[1009 hPa],[30.0 °C],[8:00 AM],[10.0 km],[SSW],"[11.1 km/h
		/ 3.1 m/s]",METAR VHHH 150000Z 20006KT 160V240 9999 FEW016 SCT020 BKN300 30/25 Q1009 NOSIG
0,[Scattered Clouds],1996-7-15,[24.0 °C],[],"[38.9 km/h
		/ 10.8 m/s]",[36.4 °C],[66%],[N/A],[1009 hPa],[31.0 °C],[9:00 AM],[10.0 km],[South],"[16.7 km/h
		/ 4.6 m/s]",METAR VHHH 150100Z 19009G21KT 100V240 9999 FEW022 SCT300 31/24 Q1009 NOSIG
0,[Scattered Clouds],1996-7-15,[25.0 °C],[],"[37.0 km/h
		/ 10.3 m/s]",[39.0 °C],[66%],[N/A],[1009 hPa],[32.0 °C],[10:00 AM],[10.0 km],[SSW],"[14.8 km/h
		/ 4.1 m/s]",METAR VHHH 150200Z 20008G20KT 170V250 9999 FEW022 SCT300 32/25 Q1009 NOSIG
0,[Mostly Cloudy],1996-7-15,[25.0 °C],[],"[38.9 km/h
		/ 10.8 m/s]",[37.6 °C],[70%],[N/A],[1009 hPa],[31.0 °C],[11:00 AM],[10.0 km],[SSW],"[18.5 km/h
		/ 5.1 m/s]",METAR VHHH 150300Z 20010G21KT 050V250 9999 FEW022 BKN300 31/25 Q1009 NOSIG
0,[Mostly Cloudy],1996-7-15,[25.0 °C],[],[-],[39.0 °C],[66%],[N/A],[1009 hPa],[32.0 °C],[12:00 PM],[10.0 km],[SSW],"[18.5 km/h
		/ 5.1 m/s]",METAR VHHH 150400Z 21010KT 160V280 9999 SCT025 BKN300 32/25 Q1009 WS LDG RWY 13 NOSIG
0,[Mostly Cloudy],1996-7-15,[24.0 °C],[],[-],[39.2 °C],[59%],[N/A],[1008 hPa],[33.0 °C],[1:00 PM],[10.0 km],[SSW],"[11.1 km/h
		/ 3.1 m/s]",METAR VHHH 150500Z 21006KT 170V270 9999 FEW025 BKN300 33/24 Q1008 NOSIG
0,[Mostly Cloudy],1996-7-15,[24.0 °C],[],[-],[39.2 °C],[59%],[N/A],[1007 hPa],[33.0 °C],[2:00 PM],[10.0 km],[SW],"[14.8 km/h
		/ 4.1 m/s]",METAR VHHH 150600Z 23008KT 200V270 9999 FEW025 BKN300 33/24 Q1007 WS LDG RWY 13 NOSIG
0,[Mostly Cloudy],1996-7-15,[23.0 °C],[],[-],[37.8 °C],[55%],[N/A],[1006 hPa],[33.0 °C],[3:00 PM],[10.0 km],[WSW],"[18.5 km/h
		/ 5.1 m/s]",METAR VHHH 150700Z 24010KT 190V280 9999 FEW025 BKN300 33/23 Q1006 WS LDG RWY 13 NOSIG
0,[Mostly Cloudy],1996-7-15,[24.0 °C],[],[-],[37.7 °C],[62%],[N/A],[1006 hPa],[32.0 °C],[4:00 PM],[10.0 km],[South],"[13.0 km/h
		/ 3.6 m/s]",METAR VHHH 150800Z 19007KT 120V320 9999 FEW025 BKN300 32/24 Q1006 WS LDG RWY 13 NOSIG
0,[Mostly Cloudy],1996-7-15,[24.0 °C],[],"[33.3 km/h
		/ 9.3 m/s]",[37.7 °C],[62%],[N/A],[1005 hPa],[32.0 °C],[5:00 PM],[10.0 km],[WSW],"[11.1 km/h
		/ 3.1 m/s]",METAR VHHH 150900Z 25006G18KT 170V360 9999 FEW025 BKN300 32/24 Q1005 NOSIG
0,[Mostly Cloudy],1996-7-15,[24.0 °C],[],[-],[36.4 °C],[66%],[N/A],[1005 hPa],[31.0 °C],[6:00 PM],[10.0 km],[South],"[18.5 km/h
		/ 5.1 m/s]",METAR VHHH 151000Z 18010KT 130V220 9999 FEW025 BKN300 31/24 Q1005 NOSIG
0,[Mostly Cloudy],1996-7-15,[25.0 °C],[],[-],[36.0 °C],[74%],[N/A],[1006 hPa],[30.0 °C],[7:00 PM],[10.0 km],[South],"[11.1 km/h
		/ 3.1 m/s]",METAR VHHH 151100Z 18006KT 120V270 9999 FEW022 BKN300 30/25 Q1006 NOSIG
0,[Mostly Cloudy],1996-7-15,[25.0 °C],[],[-],[36.0 °C],[74%],[N/A],[1006 hPa],[30.0 °C],[8:00 PM],[10.0 km],[South],"[11.1 km/h
		/ 3.1 m/s]",METAR VHHH 151200Z 18006KT 130V240 9999 FEW020 BKN300 30/25 Q1006 NOSIG
0,[Scattered Clouds],1996-7-15,[25.0 °C],[],[-],[34.5 °C],[79%],[N/A],[-],[29.0 °C],[9:00 PM],[10.0 km],[South],"[13.0 km/h
		/ 3.6 m/s]",METAR VHHH 151300Z 18007KT 140V240 9999 FEW017 SCT022 29/25 1007 NOSIG
0,[Scattered Clouds],1996-7-15,[25.0 °C],[],[-],[34.5 °C],[79%],[N/A],[1007 hPa],[29.0 °C],[10:00 PM],[10.0 km],[South],"[5.6 km/h
		/ 1.5 m/s]",METAR VHHH 151400Z 18003KT 9999 FEW017 SCT022 29/25 Q1007 NOSIG
0,[Scattered Clouds],1996-7-15,[25.0 °C],[],[-],[34.5 °C],[79%],[N/A],[1007 hPa],[29.0 °C],[11:00 PM],[10.0 km],[SSE],"[7.4 km/h
		/ 2.1 m/s]",METAR VHHH 151500Z 15004KT 090V190 9999 FEW016 SCT022 29/25 Q1007 NOSIG
0,[Scattered Clouds],1996-7-16,[25.0 °C],[],[-],[34.5 °C],[79%],[N/A],[1007 hPa],[29.0 °C],[12:00 AM],[10.0 km],[SE],"[7.4 km/h
		/ 2.1 m/s]",METAR VHHH 151600Z 14004KT 110V190 9999 FEW016 SCT022 29/25 Q1007 NOSIG
0,[Scattered Clouds],1996-7-16,[25.0 °C],[],[-],[34.5 °C],[79%],[N/A],[1007 hPa],[29.0 °C],[1:00 AM],[10.0 km],[South],"[7.4 km/h
		/ 2.1 m/s]",METAR VHHH 151700Z 19004KT 150V230 9999 FEW016 SCT022 29/25 Q1007 NOSIG
0,[Scattered Clouds],1996-7-16,[25.0 °C],[],[-],[34.5 °C],[79%],[N/A],[1007 hPa],[29.0 °C],[2:00 AM],[10.0 km],[South],"[7.4 km/h
		/ 2.1 m/s]",METAR VHHH 151800Z 19004KT 130V230 9999 FEW015 SCT022 29/25 Q1007 NOSIG
0,[Scattered Clouds],1996-7-16,[25.0 °C],[],[-],[34.5 °C],[79%],[N/A],[1007 hPa],[29.0 °C],[3:00 AM],[10.0 km],[ESE],"[3.7 km/h
		/ 1.0 m/s]",METAR VHHH 151900Z 12002KT 9999 FEW015 SCT025 29/25 Q1007 NOSIG
0,[Mostly Cloudy],1996-7-16,[25.0 °C],[],[-],[34.5 °C],[79%],[N/A],[1006 hPa],[29.0 °C],[4:00 AM],[10.0 km],[South],"[7.4 km/h
		/ 2.1 m/s]",METAR VHHH 152000Z 17004KT 9999 FEW017 SCT025 BKN300 29/25 Q1006 NOSIG
0,[Mostly Cloudy],1996-7-16,[25.0 °C],[],[-],[34.5 °C],[79%],[N/A],[1006 hPa],[29.0 °C],[5:00 AM],[10.0 km],[South],"[9.3 km/h
		/ 2.6 m/s]",METAR VHHH 152100Z 19005KT 150V220 9999 FEW017 SCT025 BKN300 29/25 Q1006 NOSIG
0,[Mostly Cloudy],1996-7-16,[25.0 °C],[],[-],[34.5 °C],[79%],[N/A],[1007 hPa],[29.0 °C],[6:00 AM],[10.0 km],[South],"[7.4 km/h
		/ 2.1 m/s]",METAR VHHH 152200Z 18004KT 9999 FEW015 SCT025 BKN300 29/25 Q1007 NOSIG
0,[Light Rain Showers],1996-7-16,[25.0 °C],[Rain],[-],[-],[94%],[N/A],[1007 hPa],[26.0 °C],[7:00 AM],[10.0 km],[SE],"[3.7 km/h
		/ 1.0 m/s]",METAR VHHH 152300Z 13002KT 9999 -SHRA FEW014 BKN020 26/25 Q1007 NOSIG
0,[Mostly Cloudy],1996-7-16,[25.0 °C],[],[-],[30.6 °C],[89%],[N/A],[1007 hPa],[27.0 °C],[8:00 AM],[10.0 km],[WSW],"[11.1 km/h
		/ 3.1 m/s]",METAR VHHH 160000Z 25006KT 100V300 9999 FEW014 SCT020 BKN300 27/25 Q1007 RESH WS LDG RWY 13 TEMPO 4000 SHRA
0,[Scattered Clouds],1996-7-16,[26.0 °C],[],[-],[37.4 °C],[79%],[N/A],[1007 hPa],[30.0 °C],[9:00 AM],[10.0 km],[West],"[7.4 km/h
		/ 2.1 m/s]",METAR VHHH 160100Z 26004KT 120V330 9999 FEW014 SCT022 30/26 Q1007 TEMPO 4000 SHRA
0,[Light Rain Showers],1996-7-16,[24.0 °C],[Rain],[-],[33.5 °C],[74%],[N/A],[1007 hPa],[29.0 °C],[10:00 AM],[10.0 km],[NNW],"[9.3 km/h
		/ 2.6 m/s]",METAR VHHH 160200Z 33005KT 180V330 9999 -SHRA FEW018 SCT025 29/24 Q1007 TEMPO 4000 SHRA
0,[Scattered Clouds],1996-7-16,[24.0 °C],[],[-],[36.4 °C],[66%],[N/A],[1007 hPa],[31.0 °C],[11:00 AM],[10.0 km],[South],"[18.5 km/h
		/ 5.1 m/s]",METAR VHHH 160300Z 18010KT 130V270 9999 FEW020 SCT025 31/24 Q1007 TEMPO 4000 SHRA
0,[Scattered Clouds],1996-7-16,[26.0 °C],[],[-],[40.4 °C],[70%],[N/A],[1007 hPa],[32.0 °C],[12:00 PM],[10.0 km],[SW],"[18.5 km/h
		/ 5.1 m/s]",METAR VHHH 160400Z 22010KT 190V280 9999 FEW022 SCT300 32/26 Q1007 WS LDG RWY 13 NOSIG
0,[Scattered Clouds],1996-7-16,[25.0 °C],[],[-],[37.6 °C],[70%],[N/A],[1006 hPa],[31.0 °C],[1:00 PM],[10.0 km],[SSW],"[11.1 km/h
		/ 3.1 m/s]",METAR VHHH 160500Z 21006KT 170V260 9999 SCT022 SCT300 31/25 Q1006 WS LDG RWY 13 NOSIG
0,[Mostly Cloudy],1996-7-16,[26.0 °C],[],[-],[39.2 °C],[75%],[N/A],[1006 hPa],[31.0 °C],[2:00 PM],[10.0 km],[SSW],"[13.0 km/h
		/ 3.6 m/s]",METAR VHHH 160600Z 21007KT 170V280 9999 FEW020 SCT025 BKN300 31/26 Q1006 TEMPO 4000 SHRA
0,[Mostly Cloudy],1996-7-16,[25.0 °C],[],[-],[39.0 °C],[66%],[N/A],[1005 hPa],[32.0 °C],[3:00 PM],[10.0 km],[SSW],"[14.8 km/h
		/ 4.1 m/s]",METAR VHHH 160700Z 20008KT 180V320 9999 FEW020 SCT025 BKN150 32/25 Q1005 WS LDG RWY 13/31 TEMPO 4000 SHRA
0,[Mostly Cloudy],1996-7-16,[25.0 °C],[],[-],[39.0 °C],[66%],[N/A],[1005 hPa],[32.0 °C],[4:00 PM],[10.0 km],[SSW],"[5.6 km/h
		/ 1.5 m/s]",METAR VHHH 160800Z 21003KT 9999 FEW025 SCT030 BKN100 32/25 Q1005 WS LDY RWY 13/31 TEMPO 4000 SHRA
0,[Mostly Cloudy],1996-7-16,[25.0 °C],[],[-],[34.5 °C],[79%],[N/A],[1006 hPa],[29.0 °C],[8:00 PM],[10.0 km],[ESE],"[11.1 km/h
		/ 3.1 m/s]",METAR VHHH 161200Z 12006KT 9999 FEW017 BKN100 29/25 Q1006 NOSIG
0,[Mostly Cloudy],1996-7-16,[25.0 °C],[],[-],[34.5 °C],[79%],[N/A],[1006 hPa],[29.0 °C],[9:00 PM],[10.0 km],[SSE],"[7.4 km/h
		/ 2.1 m/s]",METAR VHHH 161300Z 15004KT 110V180 9999 SCT020 BKN100 29/25 Q1006 NOSIG
0,[Mostly Cloudy],1996-7-16,[26.0 °C],[],[-],[35.6 °C],[84%],[N/A],[1007 hPa],[29.0 °C],[10:00 PM],[10.0 km],[ESE],"[7.4 km/h
		/ 2.1 m/s]",METAR VHHH 161400Z 12004KT 9999 SCT020 BKN100 29/26 Q1007 NOSIG
0,[Mostly Cloudy],1996-7-16,[26.0 °C],[],[-],[35.6 °C],[84%],[N/A],[1007 hPa],[29.0 °C],[11:00 PM],[10.0 km],[ESE],"[11.1 km/h
		/ 3.1 m/s]",METAR VHHH 161500Z 12006KT 110V180 9999 SCT018 BKN100 29/26 Q1007 NOSIG
0,[Mostly Cloudy],1996-7-17,[26.0 °C],[],[-],[35.6 °C],[84%],[N/A],[1006 hPa],[29.0 °C],[12:00 AM],[10.0 km],[ESE],"[13.0 km/h
		/ 3.6 m/s]",METAR VHHH 161600Z 12007KT 100V190 9999 SCT016 BKN100 29/26 Q1006 NOSIG
0,[Mostly Cloudy],1996-7-17,[25.0 °C],[],[-],[34.5 °C],[79%],[N/A],[1006 hPa],[29.0 °C],[1:00 AM],[10.0 km],[SE],"[13.0 km/h
		/ 3.6 m/s]",METAR VHHH 161700Z 14007KT 9999 FEW016 BKN100 29/25 Q1006 NOSIG
0,[Mostly Cloudy],1996-7-17,[25.0 °C],[],[-],[32.7 °C],[84%],[N/A],[1006 hPa],[28.0 °C],[2:00 AM],[10.0 km],[ESE],"[7.4 km/h
		/ 2.1 m/s]",METAR VHHH 161800Z 12004KT 080V150 9999 FEW016 BKN100 28/25 Q1006 NOSIG
0,[Mostly Cloudy],1996-7-17,[25.0 °C],[],[-],[34.5 °C],[79%],[N/A],[1005 hPa],[29.0 °C],[3:00 AM],[10.0 km],[ESE],"[7.4 km/h
		/ 2.1 m/s]",METAR VHHH 161900Z 12004KT 9999 FEW016 BKN100 29/25 Q1005 NOSIG
0,[Scattered Clouds],1996-7-17,[25.0 °C],[],[-],[34.5 °C],[79%],[N/A],[1006 hPa],[29.0 °C],[4:00 AM],[10.0 km],[SSE],"[7.4 km/h
		/ 2.1 m/s]",METAR VHHH 162000Z 15004KT 110V230 9999 FEW016 SCT100 29/25 Q1006 NOSIG
0,[Scattered Clouds],1996-7-17,[25.0 °C],[],[-],[32.7 °C],[84%],[N/A],[1005 hPa],[28.0 °C],[5:00 AM],[10.0 km],[South],"[3.7 km/h
		/ 1.0 m/s]",METAR VHHH 162100Z 17002KT 9999 FEW018 SCT100 28/25 Q1005 NOSIG
0,[Mostly Cloudy],1996-7-17,[25.0 °C],[],[-],[32.7 °C],[84%],[N/A],[1006 hPa],[28.0 °C],[6:00 AM],[10.0 km],[ESE],"[1.9 km/h
		/ 0.5 m/s]",METAR VHHH 162200Z 12001KT 9999 FEW014 SCT025 BKN300 28/25 Q1006 NOSIG
0,[Mostly Cloudy],1996-7-17,[25.0 °C],[],[-],[32.7 °C],[84%],[N/A],[1006 hPa],[28.0 °C],[7:00 AM],[10.0 km],[ESE],"[5.6 km/h
		/ 1.5 m/s]",METAR VHHH 162300Z 12003KT 9999 FEW014 BKN300 28/25 Q1006 NOSIG
0,[Scattered Clouds],1996-7-17,[25.0 °C],[],[-],[36.0 °C],[74%],[N/A],[1006 hPa],[30.0 °C],[8:00 AM],[10.0 km],[ESE],"[7.4 km/h
		/ 2.1 m/s]",METAR VHHH 170000Z 11004KT 080V190 9999 SCT020 30/25 Q1006 NOSIG
0,[Scattered Clouds],1996-7-17,[25.0 °C],[],[-],[37.6 °C],[70%],[N/A],[1006 hPa],[31.0 °C],[9:00 AM],[10.0 km],[ESE],"[11.1 km/h
		/ 3.1 m/s]",METAR VHHH 170100Z 12006KT 100V160 9999 FEW020 SCT025 31/25 Q1006 NOSIG
0,[Scattered Clouds],1996-7-17,[24.0 °C],[],[-],[37.7 °C],[62%],[N/A],[1006 hPa],[32.0 °C],[10:00 AM],[10.0 km],[SE],"[13.0 km/h
		/ 3.6 m/s]",METAR VHHH 170200Z 14007KT 110V180 9999 FEW020 SCT025 32/24 Q1006 NOSIG
0,[Scattered Clouds],1996-7-17,[25.0 °C],[],[-],[39.0 °C],[66%],[N/A],[1007 hPa],[32.0 °C],[11:00 AM],[10.0 km],[SSE],"[13.0 km/h
		/ 3.6 m/s]",METAR VHHH 170300Z 16007KT 090V180 9999 FEW020 SCT025 32/25 Q1007 NOSIG
0,[Scattered Clouds],1996-7-17,[23.0 °C],[],[-],[37.8 °C],[55%],[N/A],[1006 hPa],[33.0 °C],[12:00 PM],[10.0 km],[SE],"[13.0 km/h
		/ 3.6 m/s]",METAR VHHH 170400Z 13007KT 9999 FEW020 SCT025 33/23 Q1006 NOSIG
0,[Scattered Clouds],1996-7-17,[24.0 °C],[],[-],[39.2 °C],[59%],[N/A],[1006 hPa],[33.0 °C],[1:00 PM],[10.0 km],[ESE],"[14.8 km/h
		/ 4.1 m/s]",METAR VHHH 170500Z 12008KT 090V160 9999 FEW020 SCT025 33/24 Q1006 NOSIG
0,[Scattered Clouds],1996-7-17,[24.0 °C],[],[-],[39.2 °C],[59%],[N/A],[-],[33.0 °C],[2:00 PM],[10.0 km],[SE],"[13.0 km/h
		/ 3.6 m/s]",METAR VHHH 170600Z 14007KT 100V210 9999 FEW020 SCT025 33/24 QNH 1005 NOSIG
0,[Scattered Clouds],1996-7-17,[24.0 °C],[],[-],[39.2 °C],[59%],[N/A],[1005 hPa],[33.0 °C],[3:00 PM],[10.0 km],[SSE],"[13.0 km/h
		/ 3.6 m/s]",METAR VHHH 170700Z 15007KT 060V210 9999 SCT025 33/24 Q1005 NOSIG
0,[Scattered Clouds],1996-7-17,[24.0 °C],[],[-],[37.7 °C],[62%],[N/A],[1004 hPa],[32.0 °C],[4:00 PM],[10.0 km],[SE],"[18.5 km/h
		/ 5.1 m/s]",METAR VHHH 170800Z 13010KT 9999 SCT025 SCT300 32/24 Q1004 NOSIG
0,[Scattered Clouds],1996-7-17,[25.0 °C],[],[-],[37.6 °C],[70%],[N/A],[1004 hPa],[31.0 °C],[5:00 PM],[10.0 km],[SE],"[11.1 km/h
		/ 3.1 m/s]",METAR VHHH 170900Z 14006KT 110V290 9999 SCT025 SCT300 31/25 Q1004 NOSIG
0,[Mostly Cloudy],1996-7-17,[24.0 °C],[],[-],[37.7 °C],[62%],[N/A],[1004 hPa],[32.0 °C],[6:00 PM],[10.0 km],[SE],"[14.8 km/h
		/ 4.1 m/s]",METAR VHHH 171000Z 14008KT 120V180 9999 SCT025 BKN300 32/24 Q1004 NOSIG
0,[Mostly Cloudy],1996-7-17,[24.0 °C],[],[-],[36.4 °C],[66%],[N/A],[1005 hPa],[31.0 °C],[7:00 PM],[10.0 km],[SE],"[7.4 km/h
		/ 2.1 m/s]",METAR VHHH 171100Z 14004KT 110V210 9999 FEW025 BKN300 31/24 Q1005 NOSIG
0,[Mostly Cloudy],1996-7-17,[24.0 °C],[],[-],[35.0 °C],[70%],[N/A],[1006 hPa],[30.0 °C],[8:00 PM],[10.0 km],[SE],"[7.4 km/h
		/ 2.1 m/s]",METAR VHHH 171200Z 13004KT 100V170 9999 FEW025 BKN300 30/24 Q1006 NOSIG
0,[Mostly Cloudy],1996-7-17,[25.0 °C],[],[-],[36.0 °C],[74%],[N/A],[1006 hPa],[30.0 °C],[9:00 PM],[10.0 km],[SE],"[14.8 km/h
		/ 4.1 m/s]",METAR VHHH 171300Z 13008KT 9999 FEW025 BKN300 30/25 Q1006 NOSIG
0,[Mostly Cloudy],1996-7-17,[25.0 °C],[],[-],[34.5 °C],[79%],[N/A],[1007 hPa],[29.0 °C],[10:00 PM],[10.0 km],[ESE],"[9.3 km/h
		/ 2.6 m/s]",METAR VHHH 171400Z 12005KT 100V180 9999 FEW018 BKN300 29/25 Q1007 NOSIG
0,[Mostly Cloudy],1996-7-17,[26.0 °C],[],[-],[35.6 °C],[84%],[N/A],[1007 hPa],[29.0 °C],[11:00 PM],[10.0 km],[SE],"[9.3 km/h
		/ 2.6 m/s]",METAR VHHH 171500Z 14005KT 9999 FEW018 SCT025 BKN300 29/26 Q1007 NOSIG
0,[Mostly Cloudy],1996-7-18,[26.0 °C],[],[-],[35.6 °C],[84%],[N/A],[1007 hPa],[29.0 °C],[12:00 AM],[10.0 km],[ESE],"[7.4 km/h
		/ 2.1 m/s]",METAR VHHH 171600Z 12004KT 9999 FEW020 BKN300 29/26 Q1007 NOSIG
0,[Mostly Cloudy],1996-7-18,[26.0 °C],[],[-],[35.6 °C],[84%],[N/A],[1006 hPa],[29.0 °C],[2:00 AM],[10.0 km],[SE],"[5.6 km/h
		/ 1.5 m/s]",METAR VHHH 171800Z 13003KT 9999 FEW018 BKN300 29/26 Q1006 NOSIG
0,[Mostly Cloudy],1996-7-18,[25.0 °C],[],[-],[34.5 °C],[79%],[N/A],[1006 hPa],[29.0 °C],[3:00 AM],[10.0 km],[ESE],"[5.6 km/h
		/ 1.5 m/s]",METAR VHHH 171900Z 12003KT 9999 FEW020 BKN300 29/25 Q1006 NOSIG
0,[Mostly Cloudy],1996-7-18,[25.0 °C],[],[-],[34.5 °C],[79%],[N/A],[1006 hPa],[29.0 °C],[4:00 AM],[10.0 km],[ESE],"[11.1 km/h
		/ 3.1 m/s]",METAR VHHH 172000Z 11006KT 9999 FEW020 BKN300 29/25 Q1006 NOSIG
0,[Scattered Clouds],1996-7-18,[25.0 °C],[],[-],[32.7 °C],[84%],[N/A],[1005 hPa],[28.0 °C],[5:00 AM],[10.0 km],[ESE],"[11.1 km/h
		/ 3.1 m/s]",METAR VHHH 172100Z 12006KT 9999 FEW020 SCT300 28/25 Q1005 NOSIG
0,[Scattered Clouds],1996-7-18,[25.0 °C],[],[-],[32.7 °C],[84%],[N/A],[1005 hPa],[28.0 °C],[6:00 AM],[10.0 km],[ESE],"[3.7 km/h
		/ 1.0 m/s]",METAR VHHH 172200Z 12002KT 9999 SCT020 SCT300 28/25 Q1005 NOSIG
0,[Scattered Clouds],1996-7-18,[25.0 °C],[],[-],[32.7 °C],[84%],[N/A],[1006 hPa],[28.0 °C],[8:00 AM],[10.0 km],[SE],"[7.4 km/h
		/ 2.1 m/s]",METAR VHHH 180000Z 14004KT 100V160 9999 FEW017 SCT300 28/25 Q1006 RERA TEMPO 4000 SHRA
0,[Light Rain Showers],1996-7-18,[25.0 °C],[Rain],"[31.5 km/h
		/ 8.7 m/s]",[36.0 °C],[74%],[N/A],[1006 hPa],[30.0 °C],[9:00 AM],[4.0 km],[ESE],"[13.0 km/h
		/ 3.6 m/s]",METAR VHHH 180100Z 11007G17KT 4000NE -SHRA FEW014 SCT020 BKN100 30/25 Q1006 16KM TO ELSEWHERE TEMPO 4000 SHRA
0,[Scattered Clouds],1996-7-18,[25.0 °C],[],[-],[34.5 °C],[79%],[N/A],[1007 hPa],[29.0 °C],[10:00 AM],[10.0 km],[ESE],"[7.4 km/h
		/ 2.1 m/s]",METAR VHHH 180200Z 12004KT 090V150 9999 FEW018TCU SCT100 29/25 Q1007 NOSIG
0,[Scattered Clouds],1996-7-18,[25.0 °C],[],[-],[37.6 °C],[70%],[N/A],[1007 hPa],[31.0 °C],[11:00 AM],[10.0 km],[ESE],"[11.1 km/h
		/ 3.1 m/s]",METAR VHHH 180300Z 11006KT 080V150 9999 FEW018 SCT025 31/25 Q1007 NOSIG
0,[Scattered Clouds],1996-7-18,[25.0 °C],[],[-],[40.6 °C],[63%],[N/A],[1007 hPa],[33.0 °C],[12:00 PM],[10.0 km],[SE],"[20.4 km/h
		/ 5.7 m/s]",METAR VHHH 180400Z 13011KT 9999 FEW020TCU SCT025 33/25 Q1007 TEMPO 4000 SHRA
0,[Scattered Clouds],1996-7-18,[25.0 °C],[],[-],[34.5 °C],[79%],[N/A],[1007 hPa],[29.0 °C],[1:00 PM],[10.0 km],[East],"[13.0 km/h
		/ 3.6 m/s]",METAR VHHH 180500Z 09007KT 050V130 9999 FEW009 SCT020 29/25 Q1007 TEMPO 4000 SHRA
0,[Mostly Cloudy],1996-7-18,[25.0 °C],[],[-],[36.0 °C],[74%],[N/A],[1006 hPa],[30.0 °C],[2:00 PM],[10.0 km],[ESE],"[13.0 km/h
		/ 3.6 m/s]",METAR VHHH 180600Z 11007KT 9999 SCT020 BKN300 30/25 Q1006 TEMPO 4000 SHRA
0,[Mostly Cloudy],1996-7-18,[25.0 °C],[],[-],[37.6 °C],[70%],[N/A],[1005 hPa],[31.0 °C],[3:00 PM],[10.0 km],[SE],"[13.0 km/h
		/ 3.6 m/s]",METAR VHHH 180700Z 13007KT 100V160 9999 SCT020 BKN300 31/25 Q1005 TEMPO 4000 SHRA
0,[Mostly Cloudy],1996-7-18,[25.0 °C],[],[-],[37.6 °C],[70%],[N/A],[1005 hPa],[31.0 °C],[4:00 PM],[10.0 km],[SE],"[20.4 km/h
		/ 5.7 m/s]",METAR VHHH 180800Z 14011KT 9999 SCT020 BKN300 31/25 Q1005 NOSIG
0,[Mostly Cloudy],1996-7-18,[25.0 °C],[],[-],[36.0 °C],[74%],[N/A],[1005 hPa],[30.0 °C],[5:00 PM],[10.0 km],[East],"[13.0 km/h
		/ 3.6 m/s]",METAR VHHH 180900Z 08007KT 020V120 9999 FEW015 SCT080 BKN300 30/25 Q1005 NOSIG
0,[Mostly Cloudy],1996-7-18,[25.0 °C],[],[-],[34.5 °C],[79%],[N/A],[1006 hPa],[29.0 °C],[6:00 PM],[10.0 km],[ENE],"[13.0 km/h
		/ 3.6 m/s]",METAR VHHH 181000Z 07007KT 030V130 9999 FEW015 SCT025 BKN080 29/25 Q1006 NOSIG
0,[Mostly Cloudy],1996-7-18,[25.0 °C],[],[-],[34.5 °C],[79%],[N/A],[1006 hPa],[29.0 °C],[7:00 PM],[10.0 km],[ENE],"[14.8 km/h
		/ 4.1 m/s]",METAR VHHH 181100Z 07008KT 010V120 9999 FEW015 SCT080 BKN300 29/25 Q1006 NOSIG
0,[Mostly Cloudy],1996-7-18,[25.0 °C],[],[-],[34.5 °C],[79%],[N/A],[1006 hPa],[29.0 °C],[8:00 PM],[10.0 km],[East],"[13.0 km/h
		/ 3.6 m/s]",METAR VHHH 181200Z 08007KT 010V140 9999 FEW013 SCT080 BKN300 29/25 Q1006 NOSIG
0,[Scattered Clouds],1996-7-18,[25.0 °C],[],[-],[34.5 °C],[79%],[N/A],[1006 hPa],[29.0 °C],[9:00 PM],[10.0 km],[East],"[13.0 km/h
		/ 3.6 m/s]",METAR VHHH 181300Z 08007KT 030V120 9999 FEW012 SCT080 29/25 Q1006 NOSIG
0,[Partly Cloudy],1996-7-18,[25.0 °C],[],[-],[34.5 °C],[79%],[N/A],[1006 hPa],[29.0 °C],[10:00 PM],[10.0 km],[East],"[20.4 km/h
		/ 5.7 m/s]",METAR VHHH 181400Z 08011KT 040V120 9999 FEW012 29/25 Q1006 NOSIG
0,[Scattered Clouds],1996-7-18,[25.0 °C],[],"[37.0 km/h
		/ 10.3 m/s]",[34.5 °C],[79%],[N/A],[1006 hPa],[29.0 °C],[11:00 PM],[10.0 km],[East],"[18.5 km/h
		/ 5.1 m/s]",METAR VHHH 181500Z 08010G20KT 050V120 9999 FEW012 SCT018 29/25 Q1006 NOSIG
0,[Partly Cloudy],1996-7-19,[26.0 °C],[],[-],[35.6 °C],[84%],[N/A],[1006 hPa],[29.0 °C],[12:00 AM],[10.0 km],[East],"[18.5 km/h
		/ 5.1 m/s]",METAR VHHH 181600Z 09010KT 050V130 9999 FEW012 29/26 Q1006 NOSIG
0,[Scattered Clouds],1996-7-19,[25.0 °C],[],[-],[34.5 °C],[79%],[N/A],[1006 hPa],[29.0 °C],[1:00 AM],[10.0 km],[East],"[11.1 km/h
		/ 3.1 m/s]",METAR VHHH 181700Z 09006KT 030V130 9999 FEW012 SCT020 29/25 Q1006 NOSIG
0,[Scattered Clouds],1996-7-19,[26.0 °C],[],[-],[35.6 °C],[84%],[N/A],[1006 hPa],[29.0 °C],[2:00 AM],[10.0 km],[East],"[13.0 km/h
		/ 3.6 m/s]",METAR VHHH 181800Z 08007KT 010V110 9999 FEW012 SCT020 29/26 Q1006 NOSIG
0,[Scattered Clouds],1996-7-19,[26.0 °C],[],[-],[35.6 °C],[84%],[N/A],[1006 hPa],[29.0 °C],[3:00 AM],[10.0 km],[East],"[16.7 km/h
		/ 4.6 m/s]",METAR VHHH 181900Z 09009KT 050V130 9999 FEW012 SCT020 29/26 Q1006 LGTN TO SW WS LDG RWY 13/31 TEMPO VRB15G30KT 2500 TSRA FEW006 FEW012CB SCT015 BKN080
0,[Scattered Clouds],1996-7-19,[26.0 °C],[],[-],[35.6 °C],[84%],[N/A],[1006 hPa],[29.0 °C],[4:00 AM],[10.0 km],[East],"[16.7 km/h
		/ 4.6 m/s]",METAR VHHH 182000Z 08009KT 9999 FEW012 SCT020 29/26 Q1006 WS LDG RWY 13/31 TEMPO VRB15G30KT 2500 TSRA FEW006 FEW012CB SCT015 BKN080
0,[Scattered Clouds],1996-7-19,[26.0 °C],[],[-],[35.6 °C],[84%],[N/A],[1006 hPa],[29.0 °C],[5:00 AM],[10.0 km],[East],"[7.4 km/h
		/ 2.1 m/s]",METAR VHHH 182100Z 10004KT 320V160 9999 FEW012 SCT020 29/26 Q1006 WS LDG RWY 13/31 TEMPO VRB15G30KT 2500 TSRA FEW006 FEW012CB SCT015 BKN080
0,[Mostly Cloudy],1996-7-19,[25.0 °C],[],[-],[32.7 °C],[84%],[N/A],[1006 hPa],[28.0 °C],[6:00 AM],[10.0 km],[ENE],"[13.0 km/h
		/ 3.6 m/s]",METAR VHHH 182200Z 07007KT 9999 FEW010CB FEW012 SCT020 BKN080 28/25 Q1006 CB 7KM TO SW WS LDG RWY13/31 TEMPO VRB15G30KT 2500 TSRA FEW006 FEW012CB SCT015 BKN080
0,[Mostly Cloudy],1996-7-19,[26.0 °C],[],[-],[31.2 °C],[94%],[N/A],[1007 hPa],[27.0 °C],[7:00 AM],[6.0 km],[NE],"[7.4 km/h
		/ 2.1 m/s]",METAR VHHH 182300Z 04004KT 6000 FEW008 SCT020 BKN080 27/26 Q1007 WS LDG RWY 13/31 TEMPO VRB15G30KT 2500 TSRA FEW006 FEW012CB SCT015 BKN080
0,[Thunderstorms and Rain],1996-7-19,[26.0 °C],"[Rain
	,
Thunderstorm]",[-],[-],[100%],[N/A],[1007 hPa],[26.0 °C],[8:00 AM],[2.8 km],[NE],"[1.9 km/h
		/ 0.5 m/s]",METAR VHHH 190000Z 04001KT 2800W TSRA FEW008 FEW012CB SCT016 BKN080 26/26 Q1007 16KM TO ELESWHERE TS 7KM TO W WS LDG RWY 13/31 TEMPO VRB15G30KT 2500 TSRA FEW006 FEW012CB SCT015 BKN080
0,[Mostly Cloudy],1996-7-19,[25.0 °C],[],[-],[32.7 °C],[84%],[N/A],[1007 hPa],[28.0 °C],[9:00 AM],[10.0 km],[East],"[11.1 km/h
		/ 3.1 m/s]",METAR VHHH 190100Z 09006KT 350V210 9999 FEW011 SCT016 BKN080 28/25 Q1007 WS LDG RWY 13/31 TEMPO VRB15G30KT 2500 TSRA FEW006 FEW012CB SCT015 BKN080
0,[Light Rain],1996-7-19,[25.0 °C],[Rain],[-],[32.7 °C],[84%],[N/A],[1007 hPa],[28.0 °C],[10:00 AM],[10.0 km],[ENE],"[14.8 km/h
		/ 4.1 m/s]",METAR VHHH 190200Z 07008KT 020V100 9999 -RA FEW010 SCT016 BKN080 28/25 Q1007 WS LDG RWY 13/31 TEMPO VRB15G30KT 2500 TSRA FEW006 FEW012CB SCT015 BKN080
0,[Mostly Cloudy],1996-7-19,[25.0 °C],[],[-],[34.5 °C],[79%],[N/A],[1007 hPa],[29.0 °C],[11:00 AM],[10.0 km],[ENE],"[3.7 km/h
		/ 1.0 m/s]",METAR VHHH 190300Z 07002KT 9999 FEW015 SCT020 BKN080 29/25 Q1007 TEMPO 4000 SHRA
0,[Mostly Cloudy],1996-7-19,[25.0 °C],[],[-],[34.5 °C],[79%],[N/A],[1007 hPa],[29.0 °C],[12:00 PM],[10.0 km],[ESE],"[5.6 km/h
		/ 1.5 m/s]",METAR VHHH 190400Z 12003KT 9999 FEW015 SCT022 BKN080 29/25 Q1007 TEMPO 4000 SHRA
0,[Mostly Cloudy],1996-7-19,[25.0 °C],[],[-],[34.5 °C],[79%],[N/A],[1006 hPa],[29.0 °C],[1:00 PM],[10.0 km],[East],"[11.1 km/h
		/ 3.1 m/s]",METAR VHHH 190500Z 09006KT 030V120 9999 FEW015 SCT025 BKN080 29/25 Q1006 TEMPO 4000 SHRA
0,[Mostly Cloudy],1996-7-19,[25.0 °C],[],[-],[36.0 °C],[74%],[N/A],[1006 hPa],[30.0 °C],[2:00 PM],[10.0 km],[East],"[11.1 km/h
		/ 3.1 m/s]",METAR VHHH 190600Z 08006KT 340V110 9999 FEW014 BKN080 30/25 Q1006 TEMPO 4000 SHRA
0,[Mostly Cloudy],1996-7-19,[26.0 °C],[],[-],[39.2 °C],[75%],[N/A],[1005 hPa],[31.0 °C],[3:00 PM],[10.0 km],[East],"[9.3 km/h
		/ 2.6 m/s]",METAR VHHH 190700Z 09005KT 060V160 9999 FEW014 SCT025 BKN100 31/26 Q1005 TEMPO 4000 SHRA
0,[Mostly Cloudy],1996-7-19,[26.0 °C],[],[-],[39.2 °C],[75%],[N/A],[1004 hPa],[31.0 °C],[4:00 PM],[10.0 km],[East],"[13.0 km/h
		/ 3.6 m/s]",METAR VHHH 190800Z 08007KT 020V120 9999 FEW016 SCT025 BKN300 31/26 Q1004 TEMPO 4000 SHRA
0,[Mostly Cloudy],1996-7-19,[26.0 °C],[],[-],[39.2 °C],[75%],[N/A],[1004 hPa],[31.0 °C],[5:00 PM],[10.0 km],[East],"[16.7 km/h
		/ 4.6 m/s]",METAR VHHH 190900Z 08009KT 050V120 9999 FEW016 SCT025 BKN300 31/26 Q1004 TEMPO 4000 SHRA
0,[Mostly Cloudy],1996-7-19,[26.0 °C],[],[-],[37.4 °C],[79%],[N/A],[1004 hPa],[30.0 °C],[6:00 PM],[10.0 km],[ENE],"[14.8 km/h
		/ 4.1 m/s]",METAR VHHH 191000Z 07008KT 320V120 9999 FEW016 BKN300 30/26 Q1004 TEMPO 4000 SHRA
0,[Scattered Clouds],1996-7-19,[26.0 °C],[],[-],[35.6 °C],[84%],[N/A],[1005 hPa],[29.0 °C],[7:00 PM],[10.0 km],[East],"[16.7 km/h
		/ 4.6 m/s]",METAR VHHH 191100Z 08009KT 040V130 9999 FEW017 SCT300 29/26 Q1005 NOSIG
0,[Scattered Clouds],1996-7-19,[25.0 °C],[],[-],[36.0 °C],[74%],[N/A],[1005 hPa],[30.0 °C],[8:00 PM],[10.0 km],[ENE],"[16.7 km/h
		/ 4.6 m/s]",METAR VHHH 191200Z 06009KT 030V100 9999 FEW017 SCT300 30/25 Q1005 NOSIG
0,[Mostly Cloudy],1996-7-19,[26.0 °C],[],[-],[37.4 °C],[79%],[N/A],[1007 hPa],[30.0 °C],[11:00 PM],[10.0 km],[East],"[16.7 km/h
		/ 4.6 m/s]",METAR VHHH 191500Z 08009KT 9999 FEW016 BKN300 30/26 Q1007 NOSIG
0,[Mostly Cloudy],1996-7-20,[25.0 °C],[],[-],[34.5 °C],[79%],[N/A],[1007 hPa],[29.0 °C],[12:00 AM],[10.0 km],[East],"[14.8 km/h
		/ 4.1 m/s]",METAR VHHH 191600Z 08008KT 050V110 9999 FEW016 BKN300 29/25 Q1007 NOSIG
0,[Mostly Cloudy],1996-7-20,[25.0 °C],[],[-],[34.5 °C],[79%],[N/A],[1006 hPa],[29.0 °C],[1:00 AM],[10.0 km],[East],"[16.7 km/h
		/ 4.6 m/s]",METAR VHHH 191700Z 08009KT 040V120 9999 FEW015 BKN300 29/25 Q1006 NOSIG
0,[Mostly Cloudy],1996-7-20,[26.0 °C],[],[-],[35.6 °C],[84%],[N/A],[1005 hPa],[29.0 °C],[2:00 AM],[10.0 km],[East],"[18.5 km/h
		/ 5.1 m/s]",METAR VHHH 191800Z 08010KT 050V110 9999 FEW013 SCT022 BKN300 29/26 Q1005 NOSIG
0,[Scattered Clouds],1996-7-20,[26.0 °C],[],[-],[35.6 °C],[84%],[N/A],[1005 hPa],[29.0 °C],[3:00 AM],[10.0 km],[East],"[14.8 km/h
		/ 4.1 m/s]",METAR VHHH 191900Z 08008KT 9999 FEW012 SCT020 29/26 Q1005 NOSIG
0,[Scattered Clouds],1996-7-20,[26.0 °C],[],[-],[33.6 °C],[89%],[N/A],[1005 hPa],[28.0 °C],[4:00 AM],[10.0 km],[ENE],"[13.0 km/h
		/ 3.6 m/s]",METAR VHHH 192000Z 07007KT 010V130 9999 FEW014 SCT020 28/26 Q1005 NOSIG
0,[Scattered Clouds],1996-7-20,[26.0 °C],[],[-],[33.6 °C],[89%],[N/A],[1005 hPa],[28.0 °C],[5:00 AM],[10.0 km],[East],"[16.7 km/h
		/ 4.6 m/s]",METAR VHHH 192100Z 08009KT 050V120 9999 FEW013 SCT020 28/26 Q1005 NOSIG
0,[Scattered Clouds],1996-7-20,[26.0 °C],[],[-],[35.6 °C],[84%],[N/A],[1005 hPa],[29.0 °C],[6:00 AM],[10.0 km],[East],"[16.7 km/h
		/ 4.6 m/s]",METAR VHHH 192200Z 08009KT 020V120 9999 FEW014 SCT020 29/26 Q1005 NOSIG
0,[Scattered Clouds],1996-7-20,[26.0 °C],[],[-],[35.6 °C],[84%],[N/A],[1005 hPa],[29.0 °C],[7:00 AM],[10.0 km],[ENE],"[14.8 km/h
		/ 4.1 m/s]",METAR VHHH 192300Z 07008KT 030V130 9999 SCT015 SCT300 29/26 Q1005 NOSIG
0,[Scattered Clouds],1996-7-20,[26.0 °C],[],[-],[35.6 °C],[84%],[N/A],[1005 hPa],[29.0 °C],[8:00 AM],[10.0 km],[East],"[18.5 km/h
		/ 5.1 m/s]",METAR VHHH 200000Z 08010KT 320V110 9999 FEW015 SCT020 29/26 Q1005 NOSIG
0,[Scattered Clouds],1996-7-20,[26.0 °C],[],[-],[41.8 °C],[66%],[N/A],[1006 hPa],[33.0 °C],[11:00 AM],[10.0 km],[East],"[18.5 km/h
		/ 5.1 m/s]",METAR VHHH 200300Z 08010KT 010V130 9999 FEW014 SCT020 33/26 Q1006 TEMPO 4000 SHRA
0,[Scattered Clouds],1996-7-20,[26.0 °C],[],[-],[40.4 °C],[70%],[N/A],[1006 hPa],[32.0 °C],[12:00 PM],[10.0 km],[ENE],"[22.2 km/h
		/ 6.2 m/s]",METAR VHHH 200400Z 07012KT 030V120 9999 FEW017 SCT020 32/26 Q1006 WS LDG RWY 13/31 TEMPO 4000 SHRA
0,[Scattered Clouds],1996-7-20,[25.0 °C],[],[-],[40.6 °C],[63%],[N/A],[1005 hPa],[33.0 °C],[1:00 PM],[10.0 km],[East],"[16.7 km/h
		/ 4.6 m/s]",METAR VHHH 200500Z 08009KT 030V110 9999 FEW018 SCT025 33/25 Q1005 WS LDG RWY 13/31 TEMPO 4000 SHRA
0,[Mostly Cloudy],1996-7-20,[26.0 °C],[],[-],[41.8 °C],[66%],[N/A],[1005 hPa],[33.0 °C],[2:00 PM],[10.0 km],[ENE],"[22.2 km/h
		/ 6.2 m/s]",METAR VHHH 200600Z 07012KT 030V140 9999 FEW018 SCT025 BKN300 33/26 Q1005 WS LDG RWY 13/31 TEMPO 4000 SHRA
0,[Mostly Cloudy],1996-7-20,[26.0 °C],[],[-],[40.4 °C],[70%],[N/A],[1004 hPa],[32.0 °C],[3:00 PM],[10.0 km],[ENE],"[22.2 km/h
		/ 6.2 m/s]",METAR VHHH 200700Z 07012KT 010V120 9999 FEW017 SCT025 BKN300 32/26 Q1004 WS LDG RWY 13/31 TEMPO 4000 SHRA
0,[Light Rain Showers],1996-7-20,[26.0 °C],[Rain],[-],[39.2 °C],[75%],[N/A],[1004 hPa],[31.0 °C],[4:00 PM],[10.0 km],[East],"[24.1 km/h
		/ 6.7 m/s]",METAR VHHH 200800Z 08013KT 040V130 9999 -SHRA FEW014 SCT025 BKN100 31/26 Q1004 WS LDG RWY 13/31 TEMPO 4000 SHRA
0,[Mostly Cloudy],1996-7-20,[25.0 °C],[],"[40.7 km/h
		/ 11.3 m/s]",[37.6 °C],[70%],[N/A],[1004 hPa],[31.0 °C],[6:00 PM],[10.0 km],[ENE],"[22.2 km/h
		/ 6.2 m/s]",METAR VHHH 201000Z 07012G22KT 010V130 9999 FEW018 SCT025 BKN300 31/25 Q1004 WS LDG RWY 13/31 TEMPO 4000 SHRA
0,[Mostly Cloudy],1996-7-20,[25.0 °C],[],"[42.6 km/h
		/ 11.8 m/s]",[37.6 °C],[70%],[N/A],[1005 hPa],[31.0 °C],[7:00 PM],[10.0 km],[ENE],"[22.2 km/h
		/ 6.2 m/s]",METAR VHHH 201100Z 07012G23KT 020V120 9999 SCT020 BKN300 31/25 Q1005 WS LDG RWY 13/31 TEMPO 4000 SHRA
0,[Mostly Cloudy],1996-7-20,[25.0 °C],[],[-],[37.6 °C],[70%],[N/A],[1005 hPa],[31.0 °C],[8:00 PM],[10.0 km],[East],"[20.4 km/h
		/ 5.7 m/s]",METAR VHHH 201200Z 08011KT 030V130 9999 SCT020 BKN080 31/25 Q1005 WS LDG RWY 13/31 TEMPO 4000 SHRA
0,[Mostly Cloudy],1996-7-20,[25.0 °C],[],[-],[36.0 °C],[74%],[N/A],[1006 hPa],[30.0 °C],[9:00 PM],[10.0 km],[East],"[20.4 km/h
		/ 5.7 m/s]",METAR VHHH 201300Z 09011KT 040V150 9999 FEW017 BKN025 30/25 Q1006 WS LDG RWY 13/31 NOSIG
0,[Mostly Cloudy],1996-7-20,[25.0 °C],[],"[46.3 km/h
		/ 12.9 m/s]",[37.6 °C],[70%],[N/A],[1006 hPa],[31.0 °C],[10:00 PM],[10.0 km],[East],"[20.4 km/h
		/ 5.7 m/s]",METAR VHHH 201400Z 08011G25KT 030V120 9999 SCT018 BKN300 31/25 Q1006 WS LDG RWY 13/31 NOSIG
0,[Mostly Cloudy],1996-7-20,[25.0 °C],[],[-],[36.0 °C],[74%],[N/A],[1006 hPa],[30.0 °C],[11:00 PM],[10.0 km],[East],"[24.1 km/h
		/ 6.7 m/s]",METAR VHHH 201500Z 08013KT 360V130 9999 SCT020 BKN300 30/25 Q1006 WS LDG RWY 13/31 NOSIG
0,[Scattered Clouds],1996-7-21,[25.0 °C],[],[-],[36.0 °C],[74%],[N/A],[1006 hPa],[30.0 °C],[12:00 AM],[10.0 km],[East],"[22.2 km/h
		/ 6.2 m/s]",METAR VHHH 201600Z 09012KT 360V120 9999 FEW020 SCT300 30/25 Q1006 WS LDG RWY 13/31 NOSIG
0,[Scattered Clouds],1996-7-21,[25.0 °C],[],"[44.4 km/h
		/ 12.3 m/s]",[36.0 °C],[74%],[N/A],[1005 hPa],[30.0 °C],[1:00 AM],[10.0 km],[East],"[24.1 km/h
		/ 6.7 m/s]",METAR VHHH 201700Z 08013G24KT 040V120 9999 FEW020 SCT300 30/25 Q1005 WS LDG RWY 13/31 NOSIG
0,[Scattered Clouds],1996-7-21,[25.0 °C],[],[-],[36.0 °C],[74%],[N/A],[1005 hPa],[30.0 °C],[2:00 AM],[10.0 km],[East],"[27.8 km/h
		/ 7.7 m/s]",METAR VHHH 201800Z 08015KT 050V130 9999 SCT018 SCT300 30/25 Q1005 WS LDG RWY 13/31 NOSIG
0,[Scattered Clouds],1996-7-21,[25.0 °C],[],[-],[34.5 °C],[79%],[N/A],[1004 hPa],[29.0 °C],[3:00 AM],[10.0 km],[East],"[24.1 km/h
		/ 6.7 m/s]",METAR VHHH 201900Z 08013KT 050V120 9999 FEW018 SCT300 29/25 Q1004 WS LDG RWY 13/31 NOSIG
0,[Scattered Clouds],1996-7-21,[25.0 °C],[],[-],[36.0 °C],[74%],[N/A],[1004 hPa],[30.0 °C],[4:00 AM],[10.0 km],[East],"[22.2 km/h
		/ 6.2 m/s]",METAR VHHH 202000Z 08012KT 040V130 9999 FEW015 SCT025 30/25 Q1004 WS LDG RWY 13/31 NOSIG
0,[Scattered Clouds],1996-7-21,[26.0 °C],[],"[42.6 km/h
		/ 11.8 m/s]",[37.4 °C],[79%],[N/A],[1004 hPa],[30.0 °C],[5:00 AM],[10.0 km],[East],"[20.4 km/h
		/ 5.7 m/s]",METAR VHHH 202100Z 09011G23KT 060V130 9999 FEW015 SCT022 30/26 Q1004 WS LDG RWY 13/31 NOSIG
0,[Scattered Clouds],1996-7-21,[26.0 °C],[],[-],[37.4 °C],[79%],[N/A],[1004 hPa],[30.0 °C],[6:00 AM],[10.0 km],[East],"[20.4 km/h
		/ 5.7 m/s]",METAR VHHH 202200Z 09011KT 050V140 9999 FEW015 SCT022 30/26 Q1004 WS LDG RWY 13/31 NOSIG
0,[Scattered Clouds],1996-7-21,[26.0 °C],[],[-],[37.4 °C],[79%],[N/A],[1004 hPa],[30.0 °C],[7:00 AM],[10.0 km],[East],"[22.2 km/h
		/ 6.2 m/s]",METAR VHHH 202300Z 08012KT 030V120 9999 FEW015 SCT022 30/26 Q1004 WS LDG RWY 13/31 NOSIG
0,[Scattered Clouds],1996-7-21,[26.0 °C],[],"[44.4 km/h
		/ 12.3 m/s]",[39.2 °C],[75%],[N/A],[1004 hPa],[31.0 °C],[8:00 AM],[10.0 km],[East],"[25.9 km/h
		/ 7.2 m/s]",METAR VHHH 210000Z 08014G24KT 030V130 9999 FEW014 SCT020 31/26 Q1004 WS LDG RWY 13/31 TEMPO 4000 SHRA
0,[Scattered Clouds],1996-7-21,[26.0 °C],[],"[50.0 km/h
		/ 13.9 m/s]",[39.2 °C],[75%],[N/A],[1004 hPa],[31.0 °C],[9:00 AM],[10.0 km],[East],"[25.9 km/h
		/ 7.2 m/s]",METAR VHHH 210100Z 09014G27KT 040V130 9999 FEW015 SCT020 31/26 Q1004 WS LDG RWY 13/31 TEMPO 4000 SHRA
0,[Scattered Clouds],1996-7-21,[26.0 °C],[],"[53.7 km/h
		/ 14.9 m/s]",[40.4 °C],[70%],[N/A],[1004 hPa],[32.0 °C],[10:00 AM],[10.0 km],[East],"[25.9 km/h
		/ 7.2 m/s]",METAR VHHH 210200Z 08014G29KT 010V140 9999 FEW013 SCT020 32/26 Q1004 WS LDG RWY 13/31 TEMPO 4000 SHRA
0,[Scattered Clouds],1996-7-21,[26.0 °C],[],"[59.3 km/h
		/ 16.5 m/s]",[40.4 °C],[70%],[N/A],[1004 hPa],[32.0 °C],[11:00 AM],[10.0 km],[East],"[27.8 km/h
		/ 7.7 m/s]",METAR VHHH 210300Z 08015G32KT 030V150 9999 FEW013 SCT020 32/26 Q1004 WS LDG RWY 13/31 TEMPO 4000 SHRA
0,[Light Thunderstorms and Rain],1996-7-21,[26.0 °C],"[Rain
	,
Thunderstorm]","[79.6 km/h
		/ 22.1 m/s]",[31.2 °C],[94%],[N/A],[1004 hPa],[27.0 °C],[12:00 PM],[-],[East],"[44.4 km/h
		/ 12.3 m/s]",METAR VHHH 210400Z 08024G43KT 010V140 4600NW -TSRA FEW012 FEW014CB SCT020 27/26 Q1004 WS LDG RWY 13/31 TEMPO 08020G35KT +TSSHRA FEW010 FEW012CB BKN080
0,[Mostly Cloudy],1996-7-21,[26.0 °C],[],[-],[37.4 °C],[79%],[N/A],[1004 hPa],[30.0 °C],[1:00 PM],[10.0 km],[ENE],"[22.2 km/h
		/ 6.2 m/s]",METAR VHHH 210500Z 07012KT 020V130 9999 SCT014 SCT020 BKN080 30/26 Q1004 WS LDG RWY 13/31 TEMPO 08020G35 2000 +TSSHRA FEW010 FEW012CB BKN080
0,[Mostly Cloudy],1996-7-21,[26.0 °C],[],"[46.3 km/h
		/ 12.9 m/s]",[39.2 °C],[75%],[N/A],[1003 hPa],[31.0 °C],[2:00 PM],[10.0 km],[East],"[27.8 km/h
		/ 7.7 m/s]",METAR VHHH 210600Z 08015G25KT 030V120 9999 FEW015 SCT020 BKN080 31/26 Q1003 WS LDG RWY 13/31 TEMPO 2000 +SHRA +TSRA FEW006 FEW012CB SCT015 BKN080
0,[Mostly Cloudy],1996-7-21,[26.0 °C],[],"[48.2 km/h
		/ 13.4 m/s]",[39.2 °C],[75%],[N/A],[1003 hPa],[31.0 °C],[3:00 PM],[10.0 km],[East],"[29.6 km/h
		/ 8.2 m/s]",METAR VHHH 210700Z 09016G26KT 050V120 9999 FEW015 SCT020 BKN080 31/26 Q1003 WS LDG RWY 13/31 TEMPO 2000 +SHRA +TSRA FEW006 FEW012CB SCT015 BKN080
0,[Light Rain Showers],1996-7-21,[26.0 °C],[Rain],[-],[37.4 °C],[79%],[N/A],[1002 hPa],[30.0 °C],[4:00 PM],[10.0 km],[East],"[27.8 km/h
		/ 7.7 m/s]",METAR VHHH 210800Z 09015KT 040V130 9999 -SHRA FEW013 SCT020 BKN080 30/26 Q1002 WS LDG RWY 13/31 TEMPO 2000 +SHRA +TSRA FEW006 FEW012CB SCT015 BKN080
0,[Mostly Cloudy],1996-7-21,[26.0 °C],[],[-],[39.2 °C],[75%],[N/A],[1002 hPa],[31.0 °C],[5:00 PM],[10.0 km],[East],"[25.9 km/h
		/ 7.2 m/s]",METAR VHHH 210900Z 09014KT 040V120 9999 FEW014 SCT020 BKN100 31/26 Q1002 WS LDG RWY 13/31 TEMPO 2000 +SHRA +TSRA FEW006 FEW012CB SCT015 BKN080
0,[Heavy Rain Showers],1996-7-21,[26.0 °C],[Rain],"[44.4 km/h
		/ 12.3 m/s]",[37.4 °C],[79%],[N/A],[1003 hPa],[30.0 °C],[6:00 PM],[2.5 km],[East],"[24.1 km/h
		/ 6.7 m/s]",METAR VHHH 211000Z 09013G24KT 040V140 2500 R31/1200VP2000D R13/1900N +SHRA FEW012 SCT016 BKN080 30/26 Q1003 WS LDG RWY 13/31 TEMPO 2000 +SHRA +TSRA FEW006 FEW012CB SCT015 BKN080
0,[Mostly Cloudy],1996-7-21,[26.0 °C],[],[-],[37.4 °C],[79%],[N/A],[1002 hPa],[30.0 °C],[7:00 PM],[10.0 km],[East],"[22.2 km/h
		/ 6.2 m/s]",METAR VHHH 211100Z 09012KT 050V120 9999 FEW013 SCT020 BKN080 30/26 Q1002 WS LDG RWY 13/31 TEMPO 2000 +SHRA +TSRA FEW006 FEW012CB SCT015 BKN080
0,[Light Rain Showers],1996-7-21,[26.0 °C],[Rain],[-],[35.6 °C],[84%],[N/A],[1003 hPa],[29.0 °C],[8:00 PM],[10.0 km],[East],"[27.8 km/h
		/ 7.7 m/s]",METAR VHHH 211200Z 09015KT 040V120 9999 -SHRA FEW012 SCT020 BKN080 29/26 Q1003 WS LDG RWY 13/31 TEMPO 2000 +SHRA +TSRA FEW006 FEW012CB SCT015 BKN080
0,[Mostly Cloudy],1996-7-21,[26.0 °C],[],[-],[35.6 °C],[84%],[N/A],[1004 hPa],[29.0 °C],[9:00 PM],[10.0 km],[East],"[24.1 km/h
		/ 6.7 m/s]",METAR VHHH 211300Z 08013KT 030V110 9999 FEW013 SCT020 BKN100 29/26 Q1004 WS LDG RWY 13/31 TEMPO 08025G35KT 2000 +SHRA FEW008 FEW012CB BKN080
0,[Mostly Cloudy],1996-7-21,[26.0 °C],[],"[44.4 km/h
		/ 12.3 m/s]",[35.6 °C],[84%],[N/A],[1004 hPa],[29.0 °C],[10:00 PM],[10.0 km],[ENE],"[24.1 km/h
		/ 6.7 m/s]",METAR VHHH 211400Z 07013G24KT 020V130 9999 FEW013 SCT020 BKN100 29/26 Q1004 WS LDG RWY 13/31 TEMPO 08025G35KT 2000 +SHRA FEW008 FEW012CB BKN080
0,[Mostly Cloudy],1996-7-22,[26.0 °C],[],"[46.3 km/h
		/ 12.9 m/s]",[35.6 °C],[84%],[N/A],[1004 hPa],[29.0 °C],[12:00 AM],[10.0 km],[ENE],"[25.9 km/h
		/ 7.2 m/s]",METAR VHHH 211600Z 07014G25KT 020V120 9999 FEW012 SCT018 BKN100 29/26 Q1004 WS LDG RWY 13/31 TEMPO 08025G38KT 1500 +TSRA FEW006 FEW012CB BKN080
0,[Mostly Cloudy],1996-7-22,[26.0 °C],[],"[46.3 km/h
		/ 12.9 m/s]",[35.6 °C],[84%],[N/A],[1003 hPa],[29.0 °C],[1:00 AM],[10.0 km],[East],"[27.8 km/h
		/ 7.7 m/s]",METAR VHHH 211700Z 08015G25KT 360V120 9999 FEW014 SCT020 BKN100 29/26 Q1003 WS LDG RWY 13/31 TEMPO 08025G38KT 1500 +TSRA FEW006 FEW012CB BKN080
0,[Mostly Cloudy],1996-7-22,[26.0 °C],[],"[44.4 km/h
		/ 12.3 m/s]",[35.6 °C],[84%],[N/A],[1003 hPa],[29.0 °C],[2:00 AM],[10.0 km],[East],"[25.9 km/h
		/ 7.2 m/s]",METAR VHHH 211800Z 08014G24KT 360V140 9999 FEW014 SCT020 BKN100 29/26 Q1003 WS LDG RWY 13/31 TEMPO 08025G38KT 1500 +TSRA FEW006 FEW012CB BKN080
0,[Mostly Cloudy],1996-7-22,[25.0 °C],[],"[51.9 km/h
		/ 14.4 m/s]",[32.7 °C],[84%],[N/A],[1002 hPa],[28.0 °C],[3:00 AM],[10.0 km],[East],"[29.6 km/h
		/ 8.2 m/s]",METAR VHHH 211900Z 08016G28KT 020V130 9999 FEW013 SCT018 BKN100 28/25 Q1002 WS LDG RWY 13/31 TEMPO 08025G38KT 1500 +TSRA FEW006 FEW012CB BKN080
0,[Mostly Cloudy],1996-7-22,[25.0 °C],[],"[59.3 km/h
		/ 16.5 m/s]",[32.7 °C],[84%],[N/A],[1002 hPa],[28.0 °C],[4:00 AM],[10.0 km],[East],"[35.2 km/h
		/ 9.8 m/s]",METAR VHHH 212000Z 08019G32KT 050V130 9999 FEW013 SCT020 BKN100 28/25 Q1002 WS LDG RWY 13/31 TEMPO 08025G38KT 1500 +TSRA FEW006 FEW012CB BKN080
0,[Rain Showers],1996-7-22,[26.0 °C],[Rain],"[53.7 km/h
		/ 14.9 m/s]",[33.6 °C],[89%],[N/A],[1002 hPa],[28.0 °C],[5:00 AM],[4.0 km],[East],"[31.5 km/h
		/ 8.7 m/s]",METAR VHHH 212100Z 08017G29KT 030V130 4000 R31/1900N R13/P2000N SHRA FEW013 SCT018 BKN100 28/26 Q1002 WS LDG RWY 13/31 TEMPO 08025G38KT 1500 +TSRA FEW006 FEW012CB BKN080
0,[Light Rain Showers],1996-7-22,[25.0 °C],[Rain],"[57.4 km/h
		/ 15.9 m/s]",[32.7 °C],[84%],[N/A],[1002 hPa],[28.0 °C],[6:00 AM],[10.0 km],[East],"[31.5 km/h
		/ 8.7 m/s]",METAR VHHH 212200Z 09017G31KT 050V150 9999 -SHRA FEW012 SCT018 BKN100 28/25 Q1002 WS LDG RWY 13/31 TEMPO 08025G38KT 1500 +TSRA FEW006 FEW012CB BKN080
0,[Mostly Cloudy],1996-7-22,[25.0 °C],[],"[57.4 km/h
		/ 15.9 m/s]",[32.7 °C],[84%],[N/A],[1003 hPa],[28.0 °C],[7:00 AM],[10.0 km],[East],"[31.5 km/h
		/ 8.7 m/s]",METAR VHHH 212300Z 09017G31KT 050V140 9999 FEW015 SCT025 BKN300 28/25 Q1003 WS LDG RWY 13/31 TEMPO 08025G38KT 1500 +TSRA FEW006 FEW012CB BKN080
0,[Scattered Clouds],1996-7-22,[25.0 °C],[],"[50.0 km/h
		/ 13.9 m/s]",[34.5 °C],[79%],[N/A],[1003 hPa],[29.0 °C],[8:00 AM],[10.0 km],[ENE],"[31.5 km/h
		/ 8.7 m/s]",METAR VHHH 220000Z 06017G27KT 020V120 9999 FEW014 SCT020 29/25 Q1003 WS LDG RWY 13/31 TEMPO 08025G38KT 1500 +TSRA FEW006 FEW012CB BKN080
0,[Scattered Clouds],1996-7-22,[25.0 °C],[],"[53.7 km/h
		/ 14.9 m/s]",[36.0 °C],[74%],[N/A],[1003 hPa],[30.0 °C],[9:00 AM],[10.0 km],[East],"[35.2 km/h
		/ 9.8 m/s]",METAR VHHH 220100Z 09019G29KT 060V140 9999 FEW017 SCT025 30/25 Q1003 WS LDG RWY 13/31 TEMPO 08025G38KT 1500 +SHRA FEW005 FEW012CB SCT015 BKN080
0,[Scattered Clouds],1996-7-22,[26.0 °C],[],"[63.0 km/h
		/ 17.5 m/s]",[37.4 °C],[79%],[N/A],[1003 hPa],[30.0 °C],[10:00 AM],[10.0 km],[East],"[38.9 km/h
		/ 10.8 m/s]",METAR VHHH 220200Z 09021G34KT 050V130 9999 FEW017 SCT025 30/26 Q1003 WS LDG RWY 13/31 TEMPO 08025G38KT 1500 +SHRA FEW005 FEW012CB SCT015 BKN080
0,[Scattered Clouds],1996-7-22,[25.0 °C],[],"[64.8 km/h
		/ 18.0 m/s]",[37.6 °C],[70%],[N/A],[1003 hPa],[31.0 °C],[11:00 AM],[10.0 km],[East],"[38.9 km/h
		/ 10.8 m/s]",METAR VHHH 220300Z 09021G35KT 040V120 9999 FEW018 SCT025 31/25 Q1003 WS LDG RWY 13/31 TEMPO 08025G38KT 1500 +SHRA FEW005 FEW012CB SCT015 BKN080
0,[Scattered Clouds],1996-7-22,[25.0 °C],[],"[66.7 km/h
		/ 18.5 m/s]",[39.0 °C],[66%],[N/A],[1003 hPa],[32.0 °C],[12:00 PM],[10.0 km],[East],"[40.7 km/h
		/ 11.3 m/s]",METAR VHHH 220400Z 09022G36KT 050V140 9999 FEW018 SCT025 32/25 Q1003 WS LDG RWY 13/31 TEMPO 08025G38KT 1500 +SHRA FEW005 FEW012CB SCT015 BKN080
0,[Light Rain Showers],1996-7-22,[25.0 °C],[Rain],[-],[32.7 °C],[84%],[N/A],[1003 hPa],[28.0 °C],[2:00 PM],[10.0 km],[East],"[24.1 km/h
		/ 6.7 m/s]",METAR VHHH 220600Z 10013KT 060V140 9999 -SHRA FEW015 SCT015 BKN080 28/25 Q1003 WS LDG RWY 13/31 TEMPO 10028G44KT +SHRA/+TSRA FEW005 FEW012CB SCT015 BKN040
0,[Mostly Cloudy],1996-7-22,[25.0 °C],[],[-],[36.0 °C],[74%],[N/A],[1002 hPa],[30.0 °C],[3:00 PM],[10.0 km],[East],"[25.9 km/h
		/ 7.2 m/s]",METAR VHHH 220700Z 09014KT 020V150 9999 FEW012 SCT017 BKN080 30/25 Q1002 WS LDG RWY 13/31 TEMPO 10028G44KT +SHRA/+TSRA FEW005 FEW012CB SCT015 BKN040
0,[Mostly Cloudy],1996-7-22,[25.0 °C],[],"[55.6 km/h
		/ 15.4 m/s]",[36.0 °C],[74%],[N/A],[1002 hPa],[30.0 °C],[5:00 PM],[10.0 km],[East],"[31.5 km/h
		/ 8.7 m/s]",METAR VHHH 220900Z 10017G30KT 060V140 9999 FEW015 SCT020 BKN080 30/25 Q1002 WS LDG RWY 13/31 TEMPO 10028G44KT +SHRA/+TSRA FEW005 FEW012CB SCT015 BKN040
0,[Mostly Cloudy],1996-7-22,[25.0 °C],[],"[55.6 km/h
		/ 15.4 m/s]",[36.0 °C],[74%],[N/A],[1002 hPa],[30.0 °C],[6:00 PM],[10.0 km],[East],"[33.3 km/h
		/ 9.3 m/s]",METAR VHHH 221000Z 10018G30KT 060V150 9999 FEW015 SCT020 BKN080 30/25 Q1002 WS LDG RWY 13/31 TEMPO 10028G44KT +SHRA/+TSRA FEW005 FEW012CB SCT015 BKN040
0,[Mostly Cloudy],1996-7-22,[26.0 °C],[],[-],[35.6 °C],[84%],[N/A],[1003 hPa],[29.0 °C],[7:00 PM],[10.0 km],[East],"[24.1 km/h
		/ 6.7 m/s]",METAR VHHH 221100Z 10013KT 070V150 9999 FEW015 SCT020 BKN080 29/26 Q1003 WS LDG RWY 13/31 TEMPO 10028G44KT +SHRA/+TSRA FEW005 FEW012CB SCT015 BKN040
0,[Mostly Cloudy],1996-7-22,[25.0 °C],[],"[61.1 km/h
		/ 17.0 m/s]",[34.5 °C],[79%],[N/A],[1003 hPa],[29.0 °C],[8:00 PM],[10.0 km],[East],"[31.5 km/h
		/ 8.7 m/s]",METAR VHHH 221200Z 09017G33KT 060V120 9999 FEW015 SCT020 BKN080 29/25 Q1003 WS LDG RWY 13/31 TEMPO 10028G44KT +SHRA/+TSRA FEW005 FEW012CB SCT015 BKN040
0,[Rain Showers],1996-7-22,[25.0 °C],[Rain],"[51.9 km/h
		/ 14.4 m/s]",[-],[94%],[N/A],[1004 hPa],[26.0 °C],[9:00 PM],[4.5 km],[ESE],"[33.3 km/h
		/ 9.3 m/s]",METAR VHHH 221300Z 11018G28KT 080V140 4500 R31/1200VP2000U R13/1400VP2000D SHRA FEW006 SCT020 BKN080 26/25 Q1004 WS LDG RWY 13/31 TEMPO 10028G44KT 1500 +SHRA +TSRA FEW005 FEW012CB SCT015 BKN080
0,[Light Rain Showers],1996-7-22,[24.0 °C],[Rain],[-],[31.9 °C],[79%],[N/A],[1004 hPa],[28.0 °C],[10:00 PM],[10.0 km],[East],"[20.4 km/h
		/ 5.7 m/s]",METAR VHHH 221400Z 09011KT 070V130 9999 -SHRA FEW016 BKN080 28/24 Q1004 WS LDG RWY 13/31 TEMPO 10028G44KT 1500 +SHRA +TSRA FEW005 FEW012CB SCT015 BKN080
0,[Light Rain Showers],1996-7-22,[25.0 °C],[Rain],"[59.3 km/h
		/ 16.5 m/s]",[32.7 °C],[84%],[N/A],[1004 hPa],[28.0 °C],[11:00 PM],[10.0 km],[ESE],"[33.3 km/h
		/ 9.3 m/s]",METAR VHHH 221500Z 11018G32KT 080V150 9999 -SHRA FEW013 SCT020 BKN080 28/25 Q1004 WS LDG RWY 13/31 TEMPO 11025G38KT 1500 +SHRA +TSRA FEW005 FEW012CB SCT015 BKN080
0,[Light Rain Showers],1996-7-23,[25.0 °C],[Rain],[-],[32.7 °C],[84%],[N/A],[1004 hPa],[28.0 °C],[12:00 AM],[10.0 km],[East],"[25.9 km/h
		/ 7.2 m/s]",METAR VHHH 221600Z 09014KT 050V130 9999 -SHRA FEW016 SCT020 BKN080 28/25 Q1004 WS LDG RWY 13/31 TEMPO 11025G38KT 1500 +SHRA +TSRA FEW005 FEW012CB SCT015 BKN080
0,[Mostly Cloudy],1996-7-23,[25.0 °C],[],"[59.3 km/h
		/ 16.5 m/s]",[32.7 °C],[84%],[N/A],[1003 hPa],[28.0 °C],[1:00 AM],[10.0 km],[East],"[33.3 km/h
		/ 9.3 m/s]",METAR VHHH 221700Z 08018G32KT 040V110 9999 FEW016 SCT020 BKN080 28/25 Q1003 WS LDG RWY 13/31 TEMPO 11025G38KT 1500 +SHRA +TSRA FEW005 FEW012CB SCT015 BKN080
0,[Mostly Cloudy],1996-7-23,[24.0 °C],[],[-],[30.1 °C],[84%],[N/A],[1003 hPa],[27.0 °C],[2:00 AM],[10.0 km],[East],"[18.5 km/h
		/ 5.1 m/s]",METAR VHHH 221800Z 09010KT 060V120 9999 FEW016 SCT020 BKN080 27/24 Q1003 RERA WS LDG RWY 13/31 TEMPO 11025G38KT 1500 +SHRA +TSRA FEW005 FEW012CB SCT015 BKN080
0,[Mostly Cloudy],1996-7-23,[25.0 °C],[],[-],[32.7 °C],[84%],[N/A],[1002 hPa],[28.0 °C],[3:00 AM],[10.0 km],[East],"[18.5 km/h
		/ 5.1 m/s]",METAR VHHH 221900Z 08010KT 040V120 9999 FEW017 BKN080 28/25 Q1002 WS LDG RWY 13/31 TEMPO 11025G38KT 1500 +SHRA +TSRA FEW005 FEW012CB SCT015 BKN080
0,[Rain Showers],1996-7-23,[25.0 °C],[Rain],"[55.6 km/h
		/ 15.4 m/s]",[30.6 °C],[89%],[N/A],[1002 hPa],[27.0 °C],[4:00 AM],[7.0 km],[East],"[29.6 km/h
		/ 8.2 m/s]",METAR VHHH 222000Z 09016G30KT 040V130 7000 SHRA FEW015 SCT025 BKN080 27/25 Q1002 WS LDG RWY 13/31 TEMPO 11025G38KT 1500 +SHRA +TSRA FEW005 FEW012CB SCT015 BKN080
0,[Mostly Cloudy],1996-7-23,[25.0 °C],[],[-],[30.6 °C],[89%],[N/A],[1002 hPa],[27.0 °C],[5:00 AM],[10.0 km],[East],"[24.1 km/h
		/ 6.7 m/s]",METAR VHHH 222100Z 08013KT 030V150 9999 FEW018 SCT025 BKN080 27/25 Q1002 WS LDG RWY 13/31 TEMPO 11025G38KT 1500 +SHRA +TSRA FEW005 FEW012CB SCT015 BKN080
0,[Scattered Clouds],1996-7-23,[25.0 °C],[],[-],[32.7 °C],[84%],[N/A],[1003 hPa],[28.0 °C],[6:00 AM],[10.0 km],[East],"[29.6 km/h
		/ 8.2 m/s]",METAR VHHH 222200Z 10016KT 060V120 9999 FEW016 SCT025 28/25 Q1003 WS LDG RWY 13/31 TEMPO 11025G38KT 1500 +SHRA +TSRA FEW005 FEW012CB SCT015 BKN080
0,[Heavy Rain Showers],1996-7-23,[25.0 °C],[Rain],"[55.6 km/h
		/ 15.4 m/s]",[32.7 °C],[84%],[N/A],[1003 hPa],[28.0 °C],[7:00 AM],[2.5 km],[East],"[35.2 km/h
		/ 9.8 m/s]",METAR VHHH 222300Z 09019G30KT 050V120 2500 R31/1000VP2000D R13/P2000N +SHRA FEW014 SCT025 BKN0800 28/25 Q1003 WS LDG RWY 13/31 TEMPO 10018G28KT 1500 +SHRA +TSRA FEW005 FEW012CB SCT015 BKN080
0,[Mostly Cloudy],1996-7-23,[24.0 °C],[],[-],[31.9 °C],[79%],[N/A],[1003 hPa],[28.0 °C],[8:00 AM],[10.0 km],[East],"[20.4 km/h
		/ 5.7 m/s]",METAR VHHH 230000Z 10011KT 070V140 9999 FEW013 SCT025 BKN080 28/24 Q1003 RERA WS LDG RWY 13/31 TEMPO 10018G28KT 1500 +SHRA +TSRA FEW005 FEW012CB SCT015 BKN080
0,[Mostly Cloudy],1996-7-23,[25.0 °C],[],"[42.6 km/h
		/ 11.8 m/s]",[34.5 °C],[79%],[N/A],[1004 hPa],[29.0 °C],[9:00 AM],[10.0 km],[East],"[24.1 km/h
		/ 6.7 m/s]",METAR VHHH 230100Z 09013G23KT 060V130 9999 FEW015 SCT025 BKN080 29/25 Q1004 WS LDG RWY 13/31 TEMPO 10018G28KT 1500 +SHRA/+TSRA FEW005 FEW012CB SCT015 BKN080
0,[Mostly Cloudy],1996-7-23,[25.0 °C],[],[-],[34.5 °C],[79%],[N/A],[1004 hPa],[29.0 °C],[10:00 AM],[10.0 km],[East],"[25.9 km/h
		/ 7.2 m/s]",METAR VHHH 230200Z 09014KT 060V140 9999 FEW015 SCT025 BKN080 29/25 Q1004 WS LDG RWY 13/31 TEMPO 10018G28KT 1500 +SHRA/+TSRA FEW005 FEW012CB SCT015 BKN080
0,[Light Rain Showers],1996-7-23,[25.0 °C],[Rain],"[55.6 km/h
		/ 15.4 m/s]",[32.7 °C],[84%],[N/A],[1003 hPa],[28.0 °C],[11:00 AM],[10.0 km],[East],"[29.6 km/h
		/ 8.2 m/s]",METAR VHHH 230300Z 09016G30KT 050V150 9999 -SHRA FEW015 SCT020 BKN080 28/25 Q1003 WS LDG RWY 13/31 TEMPO 10018G28KT 1500 +SHRA/+TSRA FEW005 FEW012CB SCT015 BKN080
0,[Mostly Cloudy],1996-7-23,[25.0 °C],[],[-],[34.5 °C],[79%],[N/A],[1004 hPa],[29.0 °C],[12:00 PM],[10.0 km],[East],"[24.1 km/h
		/ 6.7 m/s]",METAR VHHH 230400Z 09013KT 050V120 9999 FEW015 SCT020 BKN080 29/25 Q1004 WS LDG RWY 13/31 TEMPO 10018G28KT 1500 +SHRA/+TSRA FEW005 FEW012CB SCT015 BKN080
0,[Mostly Cloudy],1996-7-23,[25.0 °C],[],[-],[36.0 °C],[74%],[N/A],[1003 hPa],[30.0 °C],[1:00 PM],[10.0 km],[East],"[27.8 km/h
		/ 7.7 m/s]",METAR VHHH 230500Z 09015KT 060V120 9999 FEW016 SCT022 BKN080 30/25 Q1003 WS LDG RWY 13/31 TEMPO 10018G28KT 1500 +SHRA/+TSRA FEW005 FEW012CB SCT015 BKN080
0,[Mostly Cloudy],1996-7-23,[25.0 °C],[],"[50.0 km/h
		/ 13.9 m/s]",[37.6 °C],[70%],[N/A],[1003 hPa],[31.0 °C],[2:00 PM],[10.0 km],[East],"[29.6 km/h
		/ 8.2 m/s]",METAR VHHH 230600Z 09016G27KT 9999 FEW015 SCT020 BKN080 31/25 Q1003 WS LDG RWY 13/31 TEMPO VRB18G28KT 2500 TSRA FEW010CB SCT015 OVC040
0,[Mostly Cloudy],1996-7-23,[26.0 °C],[],[-],[37.4 °C],[79%],[N/A],[1002 hPa],[30.0 °C],[4:00 PM],[10.0 km],[East],"[22.2 km/h
		/ 6.2 m/s]",METAR VHHH 230800Z 10012KT 060V140 9999 FEW016 SCT025 BKN080 30/26 Q1002 WS LDG RWY 13/31 TEMPO 4000 SHRA
0,[Mostly Cloudy],1996-7-23,[25.0 °C],[],[-],[36.0 °C],[74%],[N/A],[1002 hPa],[30.0 °C],[5:00 PM],[10.0 km],[East],"[25.9 km/h
		/ 7.2 m/s]",METAR VHHH 230900Z 09014KT 060V150 9999 FEW014 SCT025 BKN080 30/25 Q1002 WS LDG RWY 13/31 TEMPO 4000 SHRA
0,[Mostly Cloudy],1996-7-23,[25.0 °C],[],[-],[36.0 °C],[74%],[N/A],[1002 hPa],[30.0 °C],[6:00 PM],[10.0 km],[East],"[31.5 km/h
		/ 8.7 m/s]",METAR VHHH 231000Z 09017KT 060V120 9999 FEW016 SCT025 BKN080 30/25 Q1002 WS LDG RWY 13/31 TEMPO 4000 SHRA
0,[Mostly Cloudy],1996-7-23,[25.0 °C],[],[-],[36.0 °C],[74%],[N/A],[1002 hPa],[30.0 °C],[7:00 PM],[10.0 km],[East],"[29.6 km/h
		/ 8.2 m/s]",METAR VHHH 231100Z 09016KT 050V140 9999 FEW016 SCT025 BKN080 30/25 Q1002 WS LDG RWY 13/31 TEMPO 4000 SHRA
0,[Mostly Cloudy],1996-7-23,[25.0 °C],[],[-],[34.5 °C],[79%],[N/A],[1003 hPa],[29.0 °C],[8:00 PM],[10.0 km],[ESE],"[27.8 km/h
		/ 7.7 m/s]",METAR VHHH 231200Z 11015KT 070V150 9999 FEW016 SCT025 BKN080 29/25 Q1003 WS LDG RWY 13/31 TEMPO 4000 SHRA
0,[Mostly Cloudy],1996-7-23,[25.0 °C],[],[-],[36.0 °C],[74%],[N/A],[1004 hPa],[30.0 °C],[9:00 PM],[10.0 km],[East],"[22.2 km/h
		/ 6.2 m/s]",METAR VHHH 231300Z 10012KT 070V140 9999 FEW015 BKN080 30/25 Q1004 WS LDG RWY 13/31 TEMPO 4000 SHRA
0,[Mostly Cloudy],1996-7-23,[25.0 °C],[],[-],[34.5 °C],[79%],[N/A],[1004 hPa],[29.0 °C],[10:00 PM],[10.0 km],[East],"[24.1 km/h
		/ 6.7 m/s]",METAR VHHH 231400Z 10013KT 070V130 9999 FEW015 BKN080 29/25 Q1004 WS LDG RWY 13/31 TEMPO 4000 SHRA
0,[Mostly Cloudy],1996-7-23,[25.0 °C],[],[-],[34.5 °C],[79%],[N/A],[1005 hPa],[29.0 °C],[11:00 PM],[10.0 km],[East],"[22.2 km/h
		/ 6.2 m/s]",METAR VHHH 231500Z 09012KT 050V140 9999 FEW015 SCT020 BKN080 29/25 Q1005 WS LDG RWY 13/31 TEMPO 4000 SHRA
0,[Mostly Cloudy],1996-7-24,[25.0 °C],[],[-],[34.5 °C],[79%],[N/A],[1004 hPa],[29.0 °C],[1:00 AM],[10.0 km],[East],"[18.5 km/h
		/ 5.1 m/s]",METAR VHHH 231700Z 09010KT 050V130 9999 FEW015 SCT020 BKN080 29/25 Q1004 WS LDG RWY 13/31 TEMPO 4000 SHRA
0,[Mostly Cloudy],1996-7-24,[25.0 °C],[],[-],[34.5 °C],[79%],[N/A],[1003 hPa],[29.0 °C],[2:00 AM],[10.0 km],[East],"[14.8 km/h
		/ 4.1 m/s]",METAR VHHH 231800Z 10008KT 060V130 9999 FEW015 SCT020 BKN080 29/25 Q1003 WS LDG RWY 13/31 TEMPO 4000 SHRA
0,[Mostly Cloudy],1996-7-24,[25.0 °C],[],[-],[32.7 °C],[84%],[N/A],[1003 hPa],[28.0 °C],[3:00 AM],[10.0 km],[East],"[13.0 km/h
		/ 3.6 m/s]",METAR VHHH 231900Z 10007KT 060V140 9999 FEW017 BKN080 28/25 Q1003 WS LDG RWY 13/31 TEMPO 4000 SHRA
0,[Mostly Cloudy],1996-7-24,[25.0 °C],[],[-],[32.7 °C],[84%],[N/A],[1003 hPa],[28.0 °C],[4:00 AM],[10.0 km],[ESE],"[13.0 km/h
		/ 3.6 m/s]",METAR VHHH 232000Z 11007KT 070V130 9999 FEW016 BKN080 28/25 Q1003 TEMPO 4000 SHRA
0,[Scattered Clouds],1996-7-24,[24.0 °C],[],[-],[31.9 °C],[79%],[N/A],[1003 hPa],[28.0 °C],[5:00 AM],[10.0 km],[East],"[13.0 km/h
		/ 3.6 m/s]",METAR VHHH 232100Z 09007KT 030V120 9999 FEW017 SCT080 28/24 Q1003 TEMPO 4000 SHRA
0,[Mostly Cloudy],1996-7-24,[25.0 °C],[],[-],[32.7 °C],[84%],[N/A],[1003 hPa],[28.0 °C],[6:00 AM],[10.0 km],[ENE],"[11.1 km/h
		/ 3.1 m/s]",METAR VHHH 232200Z 07006KT 030V110 9999 FEW014 BKN300 28/25 Q1003 TEMPO 4000 SHRA
0,[Mostly Cloudy],1996-7-24,[25.0 °C],[],[-],[34.5 °C],[79%],[N/A],[1004 hPa],[29.0 °C],[7:00 AM],[10.0 km],[East],"[13.0 km/h
		/ 3.6 m/s]",METAR VHHH 232300Z 08007KT 040V100 9999 FEW016 SCT020 BKN300 29/25 Q1004 TEMPO 4000 SHRA
0,[Scattered Clouds],1996-7-24,[25.0 °C],[],[-],[34.5 °C],[79%],[N/A],[1004 hPa],[29.0 °C],[8:00 AM],[10.0 km],[East],"[18.5 km/h
		/ 5.1 m/s]",METAR VHHH 240000Z 09010KT 050V120 9999 FEW013 SCT020 29/25 Q1004 NOSIG
0,[Scattered Clouds],1996-7-24,[25.0 °C],[],[-],[37.6 °C],[70%],[N/A],[1004 hPa],[31.0 °C],[9:00 AM],[10.0 km],[ESE],"[16.7 km/h
		/ 4.6 m/s]",METAR VHHH 240100Z 11009KT 080V150 9999 FEW014 SCT020 31/25 Q1004 NOSIG
0,[Scattered Clouds],1996-7-24,[25.0 °C],[],[-],[37.6 °C],[70%],[N/A],[1005 hPa],[31.0 °C],[10:00 AM],[10.0 km],[ESE],"[22.2 km/h
		/ 6.2 m/s]",METAR VHHH 240200Z 12012KT 9999 FEW016 SCT025 31/25 Q1005 NOSIG
0,[Scattered Clouds],1996-7-24,[25.0 °C],[],[-],[37.6 °C],[70%],[N/A],[1004 hPa],[31.0 °C],[11:00 AM],[10.0 km],[ESE],"[18.5 km/h
		/ 5.1 m/s]",METAR VHHH 240300Z 12010KT 060V160 9999 FEW016 SCT025 31/25 Q1004 NOSIG
0,[Scattered Clouds],1996-7-24,[25.0 °C],[],[-],[39.0 °C],[66%],[N/A],[1004 hPa],[32.0 °C],[12:00 PM],[10.0 km],[SSE],"[22.2 km/h
		/ 6.2 m/s]",METAR VHHH 240400Z 15012KT 340V130 9999 FEW016 SCT025 32/25 Q1004 NOSIG
0,[Scattered Clouds],1996-7-24,[25.0 °C],[],[-],[37.6 °C],[70%],[N/A],[1004 hPa],[31.0 °C],[1:00 PM],[10.0 km],[East],"[16.7 km/h
		/ 4.6 m/s]",METAR VHHH 240500Z 10009KT 040V130 9999 FEW016 SCT025 31/25 Q1004 NOSIG
0,[Scattered Clouds],1996-7-24,[25.0 °C],[],[-],[39.0 °C],[66%],[N/A],[1003 hPa],[32.0 °C],[2:00 PM],[10.0 km],[East],"[16.7 km/h
		/ 4.6 m/s]",METAR VHHH 240600Z 09009KT 050V130 9999 FEW014 SCT025 32/25 Q1003 NOSIG
0,[Mostly Cloudy],1996-7-24,[24.0 °C],[],[-],[37.7 °C],[62%],[N/A],[1003 hPa],[32.0 °C],[3:00 PM],[10.0 km],[ENE],"[18.5 km/h
		/ 5.1 m/s]",METAR VHHH 240700Z 06010KT 010V110 9999 FEW014 SCT025 BKN300 32/24 Q1003 NOSIG
0,[Mostly Cloudy],1996-7-24,[26.0 °C],[],[-],[39.2 °C],[75%],[N/A],[1002 hPa],[31.0 °C],[5:00 PM],[10.0 km],[East],"[14.8 km/h
		/ 4.1 m/s]",METAR VHHH 240900Z 08008KT 020V120 9999 FEW014 SCT025 BKN300 31/26 Q1002 NOSIG
0,[Mostly Cloudy],1996-7-24,[25.0 °C],[],[-],[36.0 °C],[74%],[N/A],[1003 hPa],[30.0 °C],[6:00 PM],[10.0 km],[East],"[13.0 km/h
		/ 3.6 m/s]",METAR VHHH 241000Z 08007KT 040V130 9999 FEW014 SCT025 BKN300 30/25 Q1003 NOSIG
0,[Mostly Cloudy],1996-7-24,[25.0 °C],[],[-],[36.0 °C],[74%],[N/A],[1003 hPa],[30.0 °C],[7:00 PM],[10.0 km],[East],"[13.0 km/h
		/ 3.6 m/s]",METAR VHHH 241100Z 10007KT 050V160 9999 FEW014 SCT030 BKN300 30/25 Q1003 NOSIG
0,[Mostly Cloudy],1996-7-24,[25.0 °C],[],[-],[36.0 °C],[74%],[N/A],[1004 hPa],[30.0 °C],[8:00 PM],[10.0 km],[East],"[9.3 km/h
		/ 2.6 m/s]",METAR VHHH 241200Z 08005KT 050V120 9999 FEW014 SCT035 BKN300 30/25 Q1004 NOSIG
0,[Scattered Clouds],1996-7-24,[25.0 °C],[],[-],[36.0 °C],[74%],[N/A],[1004 hPa],[30.0 °C],[9:00 PM],[10.0 km],[ESE],"[11.1 km/h
		/ 3.1 m/s]",METAR VHHH 241300Z 12006KT 9999 FEW016 SCT300 30/25 Q1004 NOSIG
0,[Scattered Clouds],1996-7-24,[26.0 °C],[],[-],[35.6 °C],[84%],[N/A],[1005 hPa],[29.0 °C],[10:00 PM],[10.0 km],[SSE],"[7.4 km/h
		/ 2.1 m/s]",METAR VHHH 241400Z 15004KT 110V200 9999 FEW016 SCT300 29/26 Q1005 NOSIG
0,[Scattered Clouds],1996-7-24,[26.0 °C],[],[-],[35.6 °C],[84%],[N/A],[1005 hPa],[29.0 °C],[11:00 PM],[10.0 km],[SE],"[3.7 km/h
		/ 1.0 m/s]",METAR VHHH 241500Z 13002KT 9999 FEW016 SCT300 29/26 Q1005 NOSIG
0,[Scattered Clouds],1996-7-25,[25.0 °C],[],[-],[34.5 °C],[79%],[N/A],[1004 hPa],[29.0 °C],[12:00 AM],[10.0 km],[ESE],"[3.7 km/h
		/ 1.0 m/s]",METAR VHHH 241600Z 12002KT 9999 FEW016 SCT300 29/25 Q1004 NOSIG
0,[Scattered Clouds],1996-7-25,[26.0 °C],[],[-],[33.6 °C],[89%],[N/A],[1003 hPa],[28.0 °C],[1:00 AM],[10.0 km],[SSE],"[3.7 km/h
		/ 1.0 m/s]",METAR VHHH 241700Z 16002KT 9999 FEW020 SCT300 28/26 Q1003 NOSIG
0,[Partly Cloudy],1996-7-25,[25.0 °C],[],[-],[32.7 °C],[84%],[N/A],[1002 hPa],[28.0 °C],[2:00 AM],[10.0 km],[SW],"[7.4 km/h
		/ 2.1 m/s]",METAR VHHH 241800Z 22004KT 9999 FEW025 28/25 Q1002 NOSIG
0,[Partly Cloudy],1996-7-25,[25.0 °C],[],[-],[34.5 °C],[79%],[N/A],[1002 hPa],[29.0 °C],[3:00 AM],[10.0 km],[SW],"[7.4 km/h
		/ 2.1 m/s]",METAR VHHH 241900Z 22004KT 9999 FEW025 29/25 Q1002 NOSIG
0,[Partly Cloudy],1996-7-25,[24.0 °C],[],[-],[31.9 °C],[79%],[N/A],[1002 hPa],[28.0 °C],[4:00 AM],[10.0 km],[SSW],"[1.9 km/h
		/ 0.5 m/s]",METAR VHHH 242000Z 20001KT 9999 FEW025 28/24 Q1002 NOSIG
0,[Partly Cloudy],1996-7-25,[23.0 °C],[],[-],[31.2 °C],[74%],[N/A],[1002 hPa],[28.0 °C],[5:00 AM],[10.0 km],[WSW],"[9.3 km/h
		/ 2.6 m/s]",METAR VHHH 242100Z 24005KT 9999 FEW025 28/23 Q1002 NOSIG
0,[Clear],1996-7-25,[24.0 °C],[],[-],[31.9 °C],[79%],[N/A],[1002 hPa],[28.0 °C],[6:00 AM],[-],[SW],"[9.3 km/h
		/ 2.6 m/s]",METAR VHHH 242200Z 23005KT CAVOK 28/24 Q1002 NOSIG
0,[Clear],1996-7-25,[24.0 °C],[],[-],[33.5 °C],[74%],[N/A],[1003 hPa],[29.0 °C],[7:00 AM],[-],[WSW],"[7.4 km/h
		/ 2.1 m/s]",METAR VHHH 242300Z 25004KT CAVOK 29/24 Q1003 NOSIG
0,[Clear],1996-7-25,[23.0 °C],[],[-],[34.1 °C],[66%],[N/A],[1003 hPa],[30.0 °C],[8:00 AM],[-],[WSW],"[7.4 km/h
		/ 2.1 m/s]",METAR VHHH 250000Z 24004KT 200V270 CAVOK 30/23 Q1003 NOSIG
0,[Partly Cloudy],1996-7-25,[23.0 °C],[],[-],[35.4 °C],[62%],[N/A],[1003 hPa],[31.0 °C],[9:00 AM],[10.0 km],[WSW],"[13.0 km/h
		/ 3.6 m/s]",METAR VHHH 250100Z 25007KT 200V280 9999 FEW018 31/23 Q1003 NOSIG
0,[Partly Cloudy],1996-7-25,[23.0 °C],[],[-],[36.8 °C],[59%],[N/A],[1003 hPa],[32.0 °C],[10:00 AM],[10.0 km],[WSW],"[24.1 km/h
		/ 6.7 m/s]",METAR VHHH 250200Z 24013KT 200V290 9999 FEW020 32/23 Q1003 NOSIG
0,[Partly Cloudy],1996-7-25,[24.0 °C],[],[-],[39.2 °C],[59%],[N/A],[1002 hPa],[33.0 °C],[11:00 AM],[8.0 km],[SW],"[22.2 km/h
		/ 6.2 m/s]",METAR VHHH 250300Z 23012KT 210V300 8000 FEW020 33/24 Q1002 NOSIG
0,[Partly Cloudy],1996-7-25,[25.0 °C],[],"[57.4 km/h
		/ 15.9 m/s]",[39.0 °C],[66%],[N/A],[1001 hPa],[32.0 °C],[12:00 PM],[9.0 km],[WSW],"[27.8 km/h
		/ 7.7 m/s]",METAR VHHH 250400Z 25015G31KT 230V290 9000 FEW020 32/25 Q1001 WS LDG RWY 13 NOSIG
0,[Scattered Clouds],1996-7-25,[24.0 °C],[],[-],[39.2 °C],[59%],[N/A],[1001 hPa],[33.0 °C],[1:00 PM],[10.0 km],[West],"[29.6 km/h
		/ 8.2 m/s]",METAR VHHH 250500Z 26016KT 230V290 9999 FEW025 SCT300 33/24 Q1001 WS LDG RWY 13 NOSIG
0,[Scattered Clouds],1996-7-25,[22.0 °C],[],[-],[38.1 °C],[49%],[N/A],[1000 hPa],[34.0 °C],[2:00 PM],[9.0 km],[West],"[27.8 km/h
		/ 7.7 m/s]",METAR VHHH 250600Z 27015KT 9000 FEW025 SCT100 34/22 Q1000 WS LDG RWY 13/31 NOSIG
0,[Scattered Clouds],1996-7-25,[23.0 °C],[],[-],[40.3 °C],[49%],[N/A],[999 hPa],[35.0 °C],[3:00 PM],[8.0 km],[West],"[25.9 km/h
		/ 7.2 m/s]",METAR VHHH 250700Z 28014KT 240V330 8000 FEW025 SCT100 35/23 Q0999 WS LDG RWY 13/31 NOSIG
0,[Haze],1996-7-25,[24.0 °C],[],[-],[41.9 °C],[53%],[N/A],[999 hPa],[35.0 °C],[4:00 PM],[-],[West],"[25.9 km/h
		/ 7.2 m/s]",METAR VHHH 250800Z 28014KT 250V310 4800 HZ FEW025 35/24 Q0999 WS LDG RWY 13/31 TEMPO 4000 HZ
0,[Partly Cloudy],1996-7-25,[25.0 °C],[],[-],[41.8 °C],[59%],[N/A],[999 hPa],[34.0 °C],[5:00 PM],[6.0 km],[West],"[24.1 km/h
		/ 6.7 m/s]",METAR VHHH 250900Z 27013KT 230V300 6000 FEW025 34/25 Q0999 WS LDG RWY 13/31 TEMPO 4000 HZ
0,[Partly Cloudy],1996-7-25,[24.0 °C],[],[-],[40.6 °C],[56%],[N/A],[998 hPa],[34.0 °C],[6:00 PM],[6.0 km],[West],"[24.1 km/h
		/ 6.7 m/s]",METAR VHHH 251000Z 27013KT 6000 FEW025 34/24 Q0998 WS LDG RWY 13/31 TEMPO 4000 HZ
0,[Scattered Clouds],1996-7-25,[24.0 °C],[],[-],[39.2 °C],[59%],[N/A],[998 hPa],[33.0 °C],[7:00 PM],[6.0 km],[West],"[22.2 km/h
		/ 6.2 m/s]",METAR VHHH 251100Z 27012KT 6000 FEW025 SCT100 33/24 Q0998 WS LDG RWY 13/31 TEMPO 4000 HZ
0,[Scattered Clouds],1996-7-25,[24.0 °C],[],[-],[39.2 °C],[59%],[N/A],[998 hPa],[33.0 °C],[8:00 PM],[7.0 km],[WSW],"[14.8 km/h
		/ 4.1 m/s]",METAR VHHH 251200Z 25008KT 210V270 7000 FEW025 SCT100 33/24 Q0998 WS LDG RWY 13/31 NOSIG
0,[Scattered Clouds],1996-7-25,[24.0 °C],[],[-],[37.7 °C],[62%],[N/A],[999 hPa],[32.0 °C],[9:00 PM],[8.0 km],[West],"[13.0 km/h
		/ 3.6 m/s]",METAR VHHH 251300Z 26007KT 230V330 8000 FEW025 SCT100 32/24 Q999 NOSIG
0,[Scattered Clouds],1996-7-25,[25.0 °C],[],[-],[37.6 °C],[70%],[N/A],[1000 hPa],[31.0 °C],[10:00 PM],[9.0 km],[West],"[14.8 km/h
		/ 4.1 m/s]",METAR VHHH 251400Z 27008KT 230V310 9000 FEW025 SCT100 31/25 Q1000 NOSIG
0,[Scattered Clouds],1996-7-26,[26.0 °C],[],[-],[39.2 °C],[75%],[N/A],[999 hPa],[31.0 °C],[12:00 AM],[10.0 km],[West],"[20.4 km/h
		/ 5.7 m/s]",METAR VHHH 251600Z 28011KT 240V300 9999 FEW025 SCT100 31/26 Q0999 NOSIG
0,[Scattered Clouds],1996-7-26,[26.0 °C],[],[-],[37.4 °C],[79%],[N/A],[998 hPa],[30.0 °C],[1:00 AM],[10.0 km],[WSW],"[20.4 km/h
		/ 5.7 m/s]",METAR VHHH 251700Z 25011KT 9999 FEW025 SCT100 30/26 Q0998 NOSIG
0,[Scattered Clouds],1996-7-26,[26.0 °C],[],[-],[37.4 °C],[79%],[N/A],[998 hPa],[30.0 °C],[2:00 AM],[10.0 km],[West],"[14.8 km/h
		/ 4.1 m/s]",METAR VHHH 251800Z 27008KT 250V310 9999 FEW025 SCT100 30/26 Q0998 NOSIG
0,[Scattered Clouds],1996-7-26,[24.0 °C],[],[-],[36.4 °C],[66%],[N/A],[997 hPa],[31.0 °C],[3:00 AM],[10.0 km],[WSW],"[20.4 km/h
		/ 5.7 m/s]",METAR VHHH 251900Z 25011KT 9999 FEW025 SCT100 31/24 Q0997 NOSIG
0,[Partly Cloudy],1996-7-26,[24.0 °C],[],[-],[36.4 °C],[66%],[N/A],[997 hPa],[31.0 °C],[4:00 AM],[10.0 km],[WSW],"[27.8 km/h
		/ 7.7 m/s]",METAR VHHH 252000Z 24015KT 9999 FEW025 31/24 Q0997 NOSIG
0,[Clear],1996-7-26,[24.0 °C],[],[-],[36.4 °C],[66%],[N/A],[996 hPa],[31.0 °C],[5:00 AM],[-],[SW],"[29.6 km/h
		/ 8.2 m/s]",METAR VHHH 252100Z 23016KT CAVOK 31/24 Q0996 WS LDG RWY 13/31 NOSIG
0,[Scattered Clouds],1996-7-26,[25.0 °C],[],[-],[36.0 °C],[74%],[N/A],[997 hPa],[30.0 °C],[6:00 AM],[8.0 km],[WSW],"[22.2 km/h
		/ 6.2 m/s]",METAR VHHH 252200Z 25012KT 8000 FEW030 SCT300 30/25 Q0997 WS LDG RWY 13/31 NOSIG
0,[Mostly Cloudy],1996-7-26,[25.0 °C],[],[-],[36.0 °C],[74%],[N/A],[997 hPa],[30.0 °C],[7:00 AM],[7.0 km],[WSW],"[25.9 km/h
		/ 7.2 m/s]",METAR VHHH 252300Z 24014KT 200V270 7000 FEW030 BKN300 30/25 Q997 WS LDG RWY 13/31 NOSIG
0,[Mostly Cloudy],1996-7-26,[25.0 °C],[],[-],[37.6 °C],[70%],[N/A],[997 hPa],[31.0 °C],[8:00 AM],[8.0 km],[West],"[18.5 km/h
		/ 5.1 m/s]",METAR VHHH 260000Z 26010KT 230V290 8000 FEW030 BKN300 31/25 Q0997 WS LDG RWY 13/31 TEMPO 4000 HZ
0,[Mostly Cloudy],1996-7-26,[25.0 °C],[],[-],[37.6 °C],[70%],[N/A],[997 hPa],[31.0 °C],[9:00 AM],[6.0 km],[West],"[22.2 km/h
		/ 6.2 m/s]",METAR VHHH 260100Z 27012KT 6000 FEW035 BKN100 31/25 Q0997 WS LDG RWY 13/31 TEMPO 4000 HZ
0,[Mostly Cloudy],1996-7-26,[25.0 °C],[],[-],[39.0 °C],[66%],[N/A],[997 hPa],[32.0 °C],[10:00 AM],[7.0 km],[West],"[25.9 km/h
		/ 7.2 m/s]",METAR VHHH 260200Z 27014KT 7000 FEW035 BKN120 32/25 Q0997 WS LDG RWY 13/31 TEMPO 4000 HZ
0,[Mostly Cloudy],1996-7-26,[25.0 °C],[],[-],[41.8 °C],[59%],[N/A],[996 hPa],[34.0 °C],[11:00 AM],[6.0 km],[West],"[22.2 km/h
		/ 6.2 m/s]",METAR VHHH 260300Z 27012KT 6000 FEW025 BKN300 34/25 Q0996 WS LDG RWY 13/31 TEMPO 4000 HZ
0,[Mostly Cloudy],1996-7-26,[24.0 °C],[],[-],[41.9 °C],[53%],[N/A],[996 hPa],[35.0 °C],[12:00 PM],[6.0 km],[West],"[27.8 km/h
		/ 7.7 m/s]",METAR VHHH 260400Z 26015KT 6000 FEW020 BKN100 35/24 Q0996 WS LDG RWY 13/31 TEMPO 4000 HZ
0,[Mostly Cloudy],1996-7-26,[24.0 °C],[],[-],[41.9 °C],[53%],[N/A],[995 hPa],[35.0 °C],[1:00 PM],[6.0 km],[West],"[22.2 km/h
		/ 6.2 m/s]",METAR VHHH 260500Z 28012KT 230V310 6000 FEW025 BKN100 35/24 Q0995 WS LDG RWY 13/31 TEMPO 4000 HZ
0,[Mostly Cloudy],1996-7-26,[24.0 °C],[],[-],[41.9 °C],[53%],[N/A],[994 hPa],[35.0 °C],[2:00 PM],[7.0 km],[West],"[24.1 km/h
		/ 6.7 m/s]",METAR VHHH 260600Z 28013KT 240V330 7000 SCT022 BKN300 35/24 Q0994 WS LDG RWY 13/31 TEMPO 4000 HZ
0,[Mostly Cloudy],1996-7-26,[24.0 °C],[],[-],[43.1 °C],[50%],[N/A],[993 hPa],[36.0 °C],[3:00 PM],[7.0 km],[West],"[20.4 km/h
		/ 5.7 m/s]",METAR VHHH 260700Z 27011KT 220V290 7000 FEW022 SCT030 BKN300 36/24 Q0993 WS LDG RWY 13/31 TEMPO 4000 HZ
0,[Mostly Cloudy],1996-7-26,[24.0 °C],[],"[50.0 km/h
		/ 13.9 m/s]",[44.3 °C],[47%],[N/A],[992 hPa],[37.0 °C],[4:00 PM],[8.0 km],[West],"[25.9 km/h
		/ 7.2 m/s]",METAR VHHH 260800Z 28014G27KT 230V310 8000 FEW025 SCT030 BKN300 37/24 Q0992 WS LDG RWY 13/31 TEMPO 4000 HZ
0,[Mostly Cloudy],1996-7-26,[26.0 °C],[],[-],[43.5 °C],[63%],[N/A],[993 hPa],[34.0 °C],[5:00 PM],[8.0 km],[NW],"[9.3 km/h
		/ 2.6 m/s]",METAR VHHH 260900Z 32005KT 270V350 8000 FEW025 SCT030 BKN300 34/26 Q0993 WS LDG RWY 13/31 TEMPO VRB16G32KT 2500 SHRA OR TSSHRA FEW012 FEW015CB SCT020 BKN080
0,[Mostly Cloudy],1996-7-26,[26.0 °C],[],[-],[39.2 °C],[75%],[N/A],[993 hPa],[31.0 °C],[6:00 PM],[8.0 km],[North],"[9.3 km/h
		/ 2.6 m/s]",METAR VHHH 261000Z 01005KT 320V080 8000 FEW025 SCT030 BKN080 31/26 Q0993 WS LDG RWY 13/31 TEMPO VRB16G32KT 2500 SHRA OR TSSHRA FEW012 FEW015CB SCT020 BKN080
0,[Mostly Cloudy],1996-7-26,[27.0 °C],[],[-],[38.8 °C],[84%],[N/A],[993 hPa],[30.0 °C],[7:00 PM],[8.0 km],[ESE],"[25.9 km/h
		/ 7.2 m/s]",METAR VHHH 261100Z 12014KT 8000 FEW025 SCT035 BKN080 30/27 Q0993 WS LDG RWY 13/31 TEMPO VRB16G32KT 2500 SHRA OR TSSHRA FEW012 FEW015CB SCT020 BKN080
0,[Mostly Cloudy],1996-7-26,[26.0 °C],[],[-],[39.2 °C],[75%],[N/A],[993 hPa],[31.0 °C],[8:00 PM],[8.0 km],[ESE],"[13.0 km/h
		/ 3.6 m/s]",METAR VHHH 261200Z 11007KT 8000 FEW025 SCT035 BKN300 31/26 Q0993 WS LDG RWY 13/31 TEMPO VRB16G32KT 2500 SHRA OR TSSHRA FEW012 FEW015CB SCT020 BKN080
0,[Mostly Cloudy],1996-7-26,[25.0 °C],[],[-],[37.6 °C],[70%],[N/A],[993 hPa],[31.0 °C],[9:00 PM],[8.0 km],[SSW],"[13.0 km/h
		/ 3.6 m/s]",METAR VHHH 261300Z 21007KT 140V280 8000 FEW025 BKN080 31/25 Q0993 WS LDG RWY 13/31 TEMPO VRB16G32KT 2500 SHRA TSRA FEW012 FEW015CB SCT020 BKN080
0,[Mostly Cloudy],1996-7-26,[23.0 °C],[],"[48.2 km/h
		/ 13.4 m/s]",[36.8 °C],[59%],[N/A],[995 hPa],[32.0 °C],[10:00 PM],[9.0 km],[WSW],"[29.6 km/h
		/ 8.2 m/s]",METAR VHHH 261400Z 24016G26KT 200V260 9000 FEW030 BKN080 32/23 Q0995 WS LDG RWY 13/31 TEMPO VRB16G32KT 2500 SHRA TSRA FEW012 FEW015CB SCT020 BKN080
0,[Mostly Cloudy],1996-7-26,[24.0 °C],[],[-],[35.0 °C],[70%],[N/A],[995 hPa],[30.0 °C],[11:00 PM],[10.0 km],[SW],"[29.6 km/h
		/ 8.2 m/s]",METAR VHHH 261500Z 22016KT 9999 FEW030 BKN080 30/24 Q0995 WS LDG RWY 13/31 TEMPO VRB16G32KT 2500 SHRA TSRA FEW012 FEW015CB SCT020 BKN080
0,[Mostly Cloudy],1996-7-27,[25.0 °C],[],[-],[32.7 °C],[84%],[N/A],[995 hPa],[28.0 °C],[12:00 AM],[10.0 km],[West],"[18.5 km/h
		/ 5.1 m/s]",METAR VHHH 261600Z 26010KT 220V300 9999 FEW015 BKN080 28/25 Q0995 WS LDG RWY 13/31 TEMPO VRB16G32KT 2500 SHRA TSRA FEW012 FE015CB SCT020 BKN080
0,[Mostly Cloudy],1996-7-27,[25.0 °C],[],[-],[34.5 °C],[79%],[N/A],[995 hPa],[29.0 °C],[1:00 AM],[10.0 km],[West],"[22.2 km/h
		/ 6.2 m/s]",METAR VHHH 261700Z 27012KT 9999 FEW016 SCT035 BKN080 29/25 Q0995 WS LDG RWY 13/31 TEMPO VRB16G32KT 2500 SHRA TSRA FEW012 FEW015CB SCT020 BKN080
0,[Mostly Cloudy],1996-7-27,[25.0 °C],[],[-],[32.7 °C],[84%],[N/A],[994 hPa],[28.0 °C],[2:00 AM],[10.0 km],[West],"[18.5 km/h
		/ 5.1 m/s]",METAR VHHH 261800Z 26010KT 9999 FEW017 SCT030 BKN080 28/25 Q0994 WS LDG RWY 13/31 TEMPO VRB16G32KT 2500 SHRA TSRA FEW012 FEW015CB SCT020 BKN080
0,[Light Rain Showers],1996-7-27,[24.0 °C],[Rain],[-],[31.9 °C],[79%],[N/A],[994 hPa],[28.0 °C],[3:00 AM],[10.0 km],[WNW],"[16.7 km/h
		/ 4.6 m/s]",METAR VHHH 261900Z 29009KT 9999 -SHRA FEW016 BKN080 28/24 Q0994 WS LDG RWY 13/31 TEMPO VRB16G32KT 2500 SHRA TSRA FEW012 FEW015CB SCT020 BKN080
0,[Light Rain Showers],1996-7-27,[25.0 °C],[Rain],[-],[32.7 °C],[84%],[N/A],[994 hPa],[28.0 °C],[4:00 AM],[10.0 km],[West],"[16.7 km/h
		/ 4.6 m/s]",METAR VHHH 262000Z 27009KT 9999 -SHRA FEW022 SCT025 BKN080 28/25 Q0994 WS LDG RWY 13/31 TEMPO VRB16G32KT 2500 SHRA TSRA FEW012 FEW015CB SCT020 BKN080
0,[Mostly Cloudy],1996-7-27,[24.0 °C],[],[-],[31.9 °C],[79%],[N/A],[994 hPa],[28.0 °C],[5:00 AM],[10.0 km],[West],"[20.4 km/h
		/ 5.7 m/s]",METAR VHHH 262100Z 27011KT 9999 FEW018 SCT025 BKN080 28/24 Q0994 WS LDG RWY 13/31 TEMPO VRB16G32KT 2500 SHRA TSRA FEW012 FEW015CB SCT020 BKN080
0,[Mostly Cloudy],1996-7-27,[25.0 °C],[],[-],[32.7 °C],[84%],[N/A],[995 hPa],[28.0 °C],[6:00 AM],[9.0 km],[West],"[18.5 km/h
		/ 5.1 m/s]",METAR VHHH 262200Z 26010KT 9000 FEW015 SCT025 BKN080 28/25 Q0995 WS LDG RWY 13/31 TEMPO VRB16G32KT 2500 SHRA TSRA FEW012 FEW015CB SCT020 BKN080
0,[Mostly Cloudy],1996-7-27,[25.0 °C],[],[-],[32.7 °C],[84%],[N/A],[995 hPa],[28.0 °C],[7:00 AM],[10.0 km],[West],"[20.4 km/h
		/ 5.7 m/s]",METAR VHHH 262300Z 26011KT 9999 FEW015 SCT025 BKN080 28/25 Q0995 WS LDG RWY 13/31 TEMPO VRB16G32KT 2500 SHRA TSRA FEW012 FEW015CB SCT020 BKN080
0,[Mostly Cloudy],1996-7-27,[25.0 °C],[],[-],[34.5 °C],[79%],[N/A],[995 hPa],[29.0 °C],[8:00 AM],[10.0 km],[West],"[20.4 km/h
		/ 5.7 m/s]",METAR VHHH 270000Z 27011KT 9999 FEW016 SCT022 BKN080 29/25 Q0995 WS LDG RWY 13/31 NOSIG
0,[Mostly Cloudy],1996-7-27,[24.0 °C],[],[-],[33.5 °C],[74%],[N/A],[995 hPa],[29.0 °C],[9:00 AM],[10.0 km],[West],"[20.4 km/h
		/ 5.7 m/s]",METAR VHHH 270100Z 28011KT 250V310 9999 FEW020 SCT025 BKN080 29/24 Q0995 TEMPO 4000 SHRA WS LDG RWY 13/31
0,[Light Rain Showers],1996-7-27,[24.0 °C],[Rain],[-],[33.5 °C],[74%],[N/A],[995 hPa],[29.0 °C],[10:00 AM],[10.0 km],[NW],"[24.1 km/h
		/ 6.7 m/s]",METAR VHHH 270200Z 32013KT 270V360 9999 -SHRA FEW018 SCT025 BKN080 29/24 Q0995 TEMPO 4000 SHRA WS LDG RWY 13/31
0,[Light Rain Showers],1996-7-27,[25.0 °C],[Rain],[-],[34.5 °C],[79%],[N/A],[996 hPa],[29.0 °C],[11:00 AM],[9.0 km],[West],"[20.4 km/h
		/ 5.7 m/s]",METAR VHHH 270300Z 28011KT 250V310 9000 -SHRA FEW017 SCT025 BKN080 29/25 Q0996 WS LDG RWY 13/31 TEMPO 4000 SHRA
0,[Light Rain Showers],1996-7-27,[25.0 °C],[Rain],[-],[32.7 °C],[84%],[N/A],[995 hPa],[28.0 °C],[12:00 PM],[9.0 km],[West],"[18.5 km/h
		/ 5.1 m/s]",METAR VHHH 270400Z 27010KT 9000 -SHRA FEW012 SCT020 BKN080 28/25 Q995 WS LDG RWY 13/31 TEMPO 4000 SHRA
0,[Light Rain Showers],1996-7-27,[25.0 °C],[Rain],[-],[32.7 °C],[84%],[N/A],[996 hPa],[28.0 °C],[1:00 PM],[10.0 km],[West],"[18.5 km/h
		/ 5.1 m/s]",METAR VHHH 270500Z 26010KT 9999 -SHRA FEW010 SCT018 BKN080 28/25 Q0996 WS LDG RWY 13/31 TEMPO 4000 SHRA
0,[Mostly Cloudy],1996-7-27,[24.0 °C],[],[-],[33.5 °C],[74%],[N/A],[995 hPa],[29.0 °C],[2:00 PM],[10.0 km],[WSW],"[7.4 km/h
		/ 2.1 m/s]",METAR VHHH 270600Z 25004KT 200V300 9999 FEW012 SCT018 BKN080 29/24 Q0995 TEMPO 4000 SHRA
0,[Mostly Cloudy],1996-7-27,[24.0 °C],[],[-],[33.5 °C],[74%],[N/A],[995 hPa],[29.0 °C],[3:00 PM],[10.0 km],[West],"[11.1 km/h
		/ 3.1 m/s]",METAR VHHH 270700Z 26006KT 230V300 9999 FEW014 SCT025 BKN080 29/24 Q0995 TEMPO 4000 SHRA
0,[Light Rain Showers],1996-7-27,[24.0 °C],[Rain],[-],[33.5 °C],[74%],[N/A],[995 hPa],[29.0 °C],[4:00 PM],[10.0 km],[WSW],"[18.5 km/h
		/ 5.1 m/s]",METAR VHHH 270800Z 24010KT 180V310 9999 -SHRA FEW014 SCT018 BKN080 29/24 Q0995 TEMPO 4000 SHRA
0,[Mostly Cloudy],1996-7-27,[25.0 °C],[],"[38.9 km/h
		/ 10.8 m/s]",[34.5 °C],[79%],[N/A],[995 hPa],[29.0 °C],[5:00 PM],[10.0 km],[SW],"[14.8 km/h
		/ 4.1 m/s]",METAR VHHH 270900Z 22008G21KT 160V320 9999 FEW013 SCT020 BKN080 29/25 Q0995 TEMPO 4000 SHRA
0,[Light Rain Showers],1996-7-27,[25.0 °C],[Rain],[-],[32.7 °C],[84%],[N/A],[995 hPa],[28.0 °C],[6:00 PM],[10.0 km],[SW],"[14.8 km/h
		/ 4.1 m/s]",METAR VHHH 271000Z 22008KT 150V270 9999 -SHRA FEW012 SCT016 BKN080 28/25 Q0995 TEMPO 4000 SHRA
0,[Rain Showers],1996-7-27,[25.0 °C],[Rain],[-],[30.6 °C],[89%],[N/A],[996 hPa],[27.0 °C],[7:00 PM],[6.0 km],[West],"[25.9 km/h
		/ 7.2 m/s]",METAR VHHH 271100Z 27014KT 6000 SHRA FEW014 SCT018 BKN080 27/25 Q0996 TEMPO 2500 +SHRA
0,[Light Rain Showers],1996-7-27,[25.0 °C],[Rain],[-],[30.6 °C],[89%],[N/A],[997 hPa],[27.0 °C],[8:00 PM],[10.0 km],[WNW],"[11.1 km/h
		/ 3.1 m/s]",METAR VHHH 271200Z 29006KT 230V320 9999 -SHRA FEW016 SCT020 BKN080 27/25 Q0997 TEMPO 2500 +SHRA
0,[Mostly Cloudy],1996-7-27,[26.0 °C],[],[-],[33.6 °C],[89%],[N/A],[996 hPa],[28.0 °C],[9:00 PM],[8.0 km],[West],"[13.0 km/h
		/ 3.6 m/s]",METAR VHHH 271300Z 28007KT 250V310 8000 FEW010 SCT016 BKN080 28/26 Q996 TEMPO 2500 +SHRA
0,[Mostly Cloudy],1996-7-27,[27.0 °C],[],[-],[34.5 °C],[94%],[N/A],[997 hPa],[28.0 °C],[10:00 PM],[10.0 km],[WSW],"[24.1 km/h
		/ 6.7 m/s]",METAR VHHH 271400Z 24013KT 180V310 9999 FEW009 SCT016 BKN080 28/27 Q0997 RERA WS LDG RWY 13/31 TEMPO VRB16G32KT 2500 +SHRA/+TSRA FEW008 FEW010CB SCT015 OVC040
0,[Mostly Cloudy],1996-7-27,[26.0 °C],[],[-],[35.6 °C],[84%],[N/A],[997 hPa],[29.0 °C],[11:00 PM],[10.0 km],[SW],"[27.8 km/h
		/ 7.7 m/s]",METAR VHHH 271500Z 22015KT 200V260 9999 FEW009 SCT016 BKN080 29/26 Q0997 WS LDG RWY 13/31 TEMPO VRB16G32KT 2500 +SHRA/+TSRA FEW008 FEW010CB SCT015 OVC040
0,[Mostly Cloudy],1996-7-28,[26.0 °C],[],[-],[35.6 °C],[84%],[N/A],[997 hPa],[29.0 °C],[12:00 AM],[10.0 km],[SW],"[25.9 km/h
		/ 7.2 m/s]",METAR VHHH 271600Z 22014KT 190V280 9999 FEW010 SCT016 BKN080 29/26 Q0997 WS LDG RWY 13/31 TEMPO VRB16G32KT 2500 +SHRA/+TSRA FEW008 FEW010CB SCT015 OVC040
0,[Mostly Cloudy],1996-7-28,[25.0 °C],[],[-],[34.5 °C],[79%],[N/A],[997 hPa],[29.0 °C],[1:00 AM],[10.0 km],[SW],"[22.2 km/h
		/ 6.2 m/s]",METAR VHHH 271700Z 22012KT 190V260 9999 FEW013 SCT020 BKN080 29/25 Q0997 WS LDG RWY 13/31 TEMPO VRB16G32KT 2500 +SHRA/+TSRA FEW008 FEW010CB SCT015 OVC040
0,[Mostly Cloudy],1996-7-28,[25.0 °C],[],[-],[34.5 °C],[79%],[N/A],[997 hPa],[29.0 °C],[2:00 AM],[10.0 km],[SW],"[18.5 km/h
		/ 5.1 m/s]",METAR VHHH 271800Z 22010KT 190V260 9999 FEW011 SCT020 BKN080 29/25 Q0997 WS LDG RWY 13/31 TEMPO VRB16G32KT 2500 +SHRA/+TSRA FEW008 FEW010CB SCT015 OVC040
0,[Mostly Cloudy],1996-7-28,[24.0 °C],[],[-],[33.5 °C],[74%],[N/A],[997 hPa],[29.0 °C],[3:00 AM],[10.0 km],[South],"[14.8 km/h
		/ 4.1 m/s]",METAR VHHH 271900Z 19008KT 9999 FEW015 SCT025 BKN080 29/24 Q0997 WS LDG RWY 13/31 TEMPO VRB16G32KT 2500 +SHRA/+TSRA FEW008 FEW010CB SCT015 OCV040
0,[Mostly Cloudy],1996-7-28,[25.0 °C],[],"[40.7 km/h
		/ 11.3 m/s]",[32.7 °C],[84%],[N/A],[997 hPa],[28.0 °C],[4:00 AM],[10.0 km],[SW],"[18.5 km/h
		/ 5.1 m/s]",METAR VHHH 272000Z 22010G22KT 180V260 9999 FEW015 SCT025 BKN080 28/25 Q0997 WS LDG RWY 13/31 TEMPO VRB16G32KT 2500 +SHRA/+TSRA FEW008 FEW010CB SCT015 OVC040
0,[Rain Showers],1996-7-28,[25.0 °C],[Rain],"[35.2 km/h
		/ 9.8 m/s]",[30.6 °C],[89%],[N/A],[997 hPa],[27.0 °C],[5:00 AM],[6.0 km],[SW],"[7.4 km/h
		/ 2.1 m/s]",METAR VHHH 272100Z 23004G19KT 150V300 6000 SHRA FEW015 SCT020 BKN080 27/25 Q0997 WS LDG RWY 13/31 TEMPO VRB16G32KT 2500 +SHRA/+TSRA FEW008 FEW010CB SCT015 OVC040
0,[Mostly Cloudy],1996-7-28,[25.0 °C],[],[-],[32.7 °C],[84%],[N/A],[998 hPa],[28.0 °C],[6:00 AM],[10.0 km],[SSW],"[22.2 km/h
		/ 6.2 m/s]",METAR VHHH 272200Z 20012KT 150V260 9999 FEW013 SCT017 BKN080 28/25 Q0998 WS LDG RWY 13/31 TEMPO VRB16G32KT 2500 +SHRA/+TSRA FEW008 FEW010CB SCT015 OVC040
0,[Mostly Cloudy],1996-7-28,[26.0 °C],[],[-],[35.6 °C],[84%],[N/A],[998 hPa],[29.0 °C],[7:00 AM],[10.0 km],[SW],"[16.7 km/h
		/ 4.6 m/s]",METAR VHHH 272300Z 22009KT 190V270 9999 FEW013 SCT017 BKN080 29/26 Q0998 WS LDG RWY 13/31 TEMPO VRB16G32KT 2500 +SHRA/+TSRA FEW008 FEW010CB SCT015 OVC040
0,[Mostly Cloudy],1996-7-28,[26.0 °C],[],[-],[35.6 °C],[84%],[N/A],[999 hPa],[29.0 °C],[8:00 AM],[10.0 km],[SW],"[24.1 km/h
		/ 6.7 m/s]",METAR VHHH 280000Z 23013KT 190V260 9999 FEW011 SCT016 BKN080 29/26 Q0999 WS LDG RWY 13/31 TEMPO VRB16G32KT 2500 +SHRA/+TSRA FEW008 FEW010CB SCT015 OVC040
0,[Mostly Cloudy],1996-7-28,[24.0 °C],[],[-],[33.5 °C],[74%],[N/A],[999 hPa],[29.0 °C],[9:00 AM],[10.0 km],[West],"[18.5 km/h
		/ 5.1 m/s]",METAR VHHH 280100Z 27010KT 220V310 9999 FEW014 SCT025 BKN080 29/24 Q0999 WS LDG RWY 13/31 TEMPO VRB16G32KT 2500 +SHRA +TSRA FEW008 FEW012CB SCT015 OVC040
0,[Mostly Cloudy],1996-7-28,[25.0 °C],[],[-],[36.0 °C],[74%],[N/A],[999 hPa],[30.0 °C],[10:00 AM],[10.0 km],[WSW],"[11.1 km/h
		/ 3.1 m/s]",METAR VHHH 280200Z 25006KT 200V360 9999 FEW016 SCT025 BKN080 30/25 Q0999 WS LDG RWY 13/31 TEMPO 4000 SHRA
0,[Mostly Cloudy],1996-7-28,[25.0 °C],[],"[29.6 km/h
		/ 8.2 m/s]",[36.0 °C],[74%],[N/A],[999 hPa],[30.0 °C],[11:00 AM],[10.0 km],[SW],"[9.3 km/h
		/ 2.6 m/s]",METAR VHHH 280300Z 23005G16KT 190V280 9999 FEW020 SCT025 BKN300 30/25 Q0999 TEMPO 4000 SHRA
0,[Mostly Cloudy],1996-7-28,[25.0 °C],[],"[31.5 km/h
		/ 8.7 m/s]",[36.0 °C],[74%],[N/A],[999 hPa],[30.0 °C],[12:00 PM],[10.0 km],[SW],"[11.1 km/h
		/ 3.1 m/s]",METAR VHHH 280400Z 23006G17KT 180V340 9999 FEW020 BKN300 30/25 Q0999 TEMPO 4000 SHRA
0,[Mostly Cloudy],1996-7-28,[25.0 °C],[],[-],[37.6 °C],[70%],[N/A],[999 hPa],[31.0 °C],[1:00 PM],[10.0 km],[WSW],"[11.1 km/h
		/ 3.1 m/s]",METAR VHHH 280500Z 24006KT 170V320 9999 FEW020 SCT025 BKN300 31/25 Q0999 TEMPO 4000 SHRA
0,[Mostly Cloudy],1996-7-28,[25.0 °C],[],[-],[37.6 °C],[70%],[N/A],[999 hPa],[31.0 °C],[2:00 PM],[10.0 km],[SSW],"[14.8 km/h
		/ 4.1 m/s]",METAR VHHH 280600Z 20008KT 180V250 9999 FEW020 SCT025 BKN100 31/25 Q0999 TEMPO 4000 SHRA
0,[Mostly Cloudy],1996-7-28,[25.0 °C],[],"[40.7 km/h
		/ 11.3 m/s]",[37.6 °C],[70%],[N/A],[998 hPa],[31.0 °C],[4:00 PM],[10.0 km],[SSW],"[22.2 km/h
		/ 6.2 m/s]",METAR VHHH 280800Z 20012G22KT 160V250 9999 FEW020 SCT025 BKN300 31/25 Q0998 NOSIG
0,[Mostly Cloudy],1996-7-28,[25.0 °C],[],[-],[36.0 °C],[74%],[N/A],[998 hPa],[30.0 °C],[5:00 PM],[10.0 km],[South],"[13.0 km/h
		/ 3.6 m/s]",METAR VHHH 280900Z 18007KT 100V260 9999 FEW018 SCT025 BKN100 30/25 Q0998 TEMPO 4000 SHRA
0,[Mostly Cloudy],1996-7-28,[25.0 °C],[],[-],[36.0 °C],[74%],[N/A],[999 hPa],[30.0 °C],[6:00 PM],[10.0 km],[SSE],"[13.0 km/h
		/ 3.6 m/s]",METAR VHHH 281000Z 15007KT 090V230 9999 FEW018 SCT025 BKN100 30/25 Q0999 TEMPO NOSIG
0,[Mostly Cloudy],1996-7-28,[25.0 °C],[],[-],[34.5 °C],[79%],[N/A],[1000 hPa],[29.0 °C],[7:00 PM],[10.0 km],[East],"[13.0 km/h
		/ 3.6 m/s]",METAR VHHH 281100Z 10007KT 050V140 9999 FEW016 SCT025 BKN100 29/25 Q1000 TEMPO 4000 SHRA
0,[Mostly Cloudy],1996-7-28,[26.0 °C],[],[-],[35.6 °C],[84%],[N/A],[1001 hPa],[29.0 °C],[9:00 PM],[10.0 km],[SE],"[20.4 km/h
		/ 5.7 m/s]",METAR VHHH 281300Z 13011KT 110V190 9999 FEW014 SCT020 BKN100 29/26 Q1001 TEMPO 4000 SHRA
0,[Mostly Cloudy],1996-7-28,[25.0 °C],[],[-],[34.5 °C],[79%],[N/A],[1002 hPa],[29.0 °C],[10:00 PM],[10.0 km],[East],"[11.1 km/h
		/ 3.1 m/s]",METAR VHHH 281400Z 09006KT 060V120 9999 FEW014 SCT020 BKN100 29/25 Q1002 TEMPO 4000 SHRA
0,[Rain Showers],1996-7-28,[24.0 °C],[Rain],[-],[-],[89%],[N/A],[1002 hPa],[26.0 °C],[11:00 PM],[4.5 km],[SSW],"[16.7 km/h
		/ 4.6 m/s]",METAR VHHH 281500Z 21009KT 120V260 4500S SHRA FEW012 FEW014CB SCT020 BKN100 26/24 Q1002 WS LDG RWY 13/31 TEMPO VRB16G28KT 3000 +TSRA FEW010 SCT012CB OVC040
0,[Mostly Cloudy],1996-7-29,[25.0 °C],[],[-],[30.6 °C],[89%],[N/A],[1002 hPa],[27.0 °C],[12:00 AM],[10.0 km],[South],"[13.0 km/h
		/ 3.6 m/s]",METAR VHHH 281600Z 18007KT 110V250 9999 FEW014 SCT020 BKN100 27/25 Q1002 RERA WS LDG RWY 13/31 TEMPO VRB16G28KT 3000 +TSRA FEW010 SCT012CB OVC040
0,[Rain Showers],1996-7-29,[25.0 °C],[Rain],[-],[-],[94%],[N/A],[1002 hPa],[26.0 °C],[1:00 AM],[6.0 km],[SSE],"[22.2 km/h
		/ 6.2 m/s]",METAR VHHH 281700Z 16012KT 120V200 6000 SHRA FEW012 SCT020 BKN100 26/25 Q1002 WS LDG RWY 13/31 TEMPO VRB16G28KT 3000 +TSRA FEW010 SCT012CB OVC040
0,[Rain Showers],1996-7-29,[25.0 °C],[Rain],[-],[-],[94%],[N/A],[1001 hPa],[26.0 °C],[2:00 AM],[6.0 km],[SSW],"[5.6 km/h
		/ 1.5 m/s]",METAR VHHH 281800Z 21003KT 6000 SHRA FEW012 SCT025 BKN100 26/25 Q1001 RETS WS LDG RWY 13/31 TEMPO VRB16G28KT 3000 +TSRA FEW010 SCT012CB OVC040
0,[Mostly Cloudy],1996-7-29,[25.0 °C],[],[-],[-],[94%],[N/A],[1001 hPa],[26.0 °C],[3:00 AM],[10.0 km],[Variable],"[1.9 km/h
		/ 0.5 m/s]",METAR VHHH 281900Z VRB01KT 9999 FEW012 SCT025 BKN080 26/25 Q1001 RERA WS LDG RWY 13/31 TEMPO VRB16G28KT 3000 +TSRA FEW010 SCT012CB OVC040
0,[Mostly Cloudy],1996-7-29,[25.0 °C],[],[-],[30.6 °C],[89%],[N/A],[1001 hPa],[27.0 °C],[4:00 AM],[10.0 km],[ESE],"[1.9 km/h
		/ 0.5 m/s]",METAR VHHH 282000Z 11001KT 9999 FEW012 SCT025 BKN080 27/25 Q1001 WS LDG RWY 13/31 TEMPO VRB16G28KT 3000 +TSRA FEW010 SCT012CB OVC040
0,[Mostly Cloudy],1996-7-29,[26.0 °C],[],[-],[33.6 °C],[89%],[N/A],[1001 hPa],[28.0 °C],[5:00 AM],[10.0 km],[SSE],"[14.8 km/h
		/ 4.1 m/s]",METAR VHHH 282100Z 15008KT 9999 FEW012 SCT025 BKN080 28/26 Q1001 WS LDG RWY 13/31 TEMPO VRB16G28KT 3000 +TSRA FEW010 SCT012CB OVC040
0,[Mostly Cloudy],1996-7-29,[26.0 °C],[],[-],[33.6 °C],[89%],[N/A],[1001 hPa],[28.0 °C],[6:00 AM],[10.0 km],[SE],"[16.7 km/h
		/ 4.6 m/s]",METAR VHHH 282200Z 13009KT 9999 FEW013 SCT025 BKN080 28/26 Q1001 RERA WS LDG RWY 13/31 TEMPO VRB16G28KT 3000 +TSRA FEW010 SCT012CB OVC040
0,[Mostly Cloudy],1996-7-29,[26.0 °C],[],[-],[35.6 °C],[84%],[N/A],[1002 hPa],[29.0 °C],[7:00 AM],[10.0 km],[East],"[3.7 km/h
		/ 1.0 m/s]",METAR VHHH 282300Z 10002KT 9999 FEW014 SCT025 BKN080 29/26 Q1002 TEMPO 4000 SHRA
0,[Mostly Cloudy],1996-7-29,[26.0 °C],[],[-],[35.6 °C],[84%],[N/A],[1002 hPa],[29.0 °C],[8:00 AM],[10.0 km],[ESE],"[7.4 km/h
		/ 2.1 m/s]",METAR VHHH 290000Z 12004KT 100V160 9999 FEW014 SCT025 BKN080 29/26 Q1002 TEMPO 4000 SHRA
0,[Mostly Cloudy],1996-7-29,[26.0 °C],[],[-],[39.2 °C],[75%],[N/A],[1002 hPa],[31.0 °C],[9:00 AM],[10.0 km],[ESE],"[11.1 km/h
		/ 3.1 m/s]",METAR VHHH 290100Z 11006KT 080V150 9999 FEW014 SCT023 BKN100 31/26 Q1002 TEMPO 4000 SHRA
0,[Mostly Cloudy],1996-7-29,[26.0 °C],[],[-],[37.4 °C],[79%],[N/A],[1003 hPa],[30.0 °C],[10:00 AM],[10.0 km],[ESE],"[20.4 km/h
		/ 5.7 m/s]",METAR VHHH 290200Z 12011KT 080V150 9999 FEW012 SCT023 BKN100 30/26 Q1003 TEMPO 4000 SHRA
0,[Mostly Cloudy],1996-7-29,[26.0 °C],[],[-],[37.4 °C],[79%],[N/A],[1003 hPa],[30.0 °C],[11:00 AM],[10.0 km],[ESE],"[22.2 km/h
		/ 6.2 m/s]",METAR VHHH 290300Z 12012KT 070V150 9999 FEW010 SCT022 BKN100 30/26 Q1003 TEMPO 4000 SHRA
0,[Light Rain Showers],1996-7-29,[26.0 °C],[Rain],[-],[37.4 °C],[79%],[N/A],[1003 hPa],[30.0 °C],[12:00 PM],[9.0 km],[ESE],"[20.4 km/h
		/ 5.7 m/s]",METAR VHHH 290400Z 11011KT 070V140 9000 -SHRA FEW010 SCT022 BKN100 30/26 Q1003 TEMPO 4000 SHRA
0,[Mostly Cloudy],1996-7-29,[26.0 °C],[],[-],[39.2 °C],[75%],[N/A],[1002 hPa],[31.0 °C],[2:00 PM],[10.0 km],[ESE],"[18.5 km/h
		/ 5.1 m/s]",METAR VHHH 290600Z 11010KT 070V130 9999 FEW016 BKN100 31/26 Q1002 TEMPO 4000 SHRA
0,[Mostly Cloudy],1996-7-29,[26.0 °C],[],[-],[37.4 °C],[79%],[N/A],[1002 hPa],[30.0 °C],[3:00 PM],[10.0 km],[ESE],"[14.8 km/h
		/ 4.1 m/s]",METAR VHHH 290700Z 11008KT 080V150 9999 SCT015 BKN100 30/26 Q1002 TEMPO 4000 SHRA
0,[Mostly Cloudy],1996-7-29,[26.0 °C],[],[-],[37.4 °C],[79%],[N/A],[1002 hPa],[30.0 °C],[4:00 PM],[10.0 km],[ESE],"[13.0 km/h
		/ 3.6 m/s]",METAR VHHH 290800Z 11007KT 9999 FEW014 SCT020 BKN100 30/26 Q1002 TEMPO 4000 SHRA
0,[Mostly Cloudy],1996-7-29,[26.0 °C],[],[-],[35.6 °C],[84%],[N/A],[1001 hPa],[29.0 °C],[5:00 PM],[10.0 km],[ESE],"[14.8 km/h
		/ 4.1 m/s]",METAR VHHH 290900Z 11008KT 9999 FEW014 SCT020 BKN100 29/26 Q1001 TEMPO 4000 SHRA
0,[Mostly Cloudy],1996-7-29,[25.0 °C],[],[-],[36.0 °C],[74%],[N/A],[1001 hPa],[30.0 °C],[6:00 PM],[10.0 km],[East],"[16.7 km/h
		/ 4.6 m/s]",METAR VHHH 291000Z 10009KT 9999 FEW012 SCT020 BKN100 30/25 Q1001 TEMPO 4000 SHRA NOSIG
0,[Mostly Cloudy],1996-7-29,[26.0 °C],[],[-],[35.6 °C],[84%],[N/A],[1002 hPa],[29.0 °C],[7:00 PM],[10.0 km],[East],"[9.3 km/h
		/ 2.6 m/s]",METAR VHHH 291100Z 08005KT 050V130 9999 FEW010 SCT020 BKN100 29/26 Q1002 NOSIG
0,[Mostly Cloudy],1996-7-29,[26.0 °C],[],[-],[35.6 °C],[84%],[N/A],[1002 hPa],[29.0 °C],[8:00 PM],[10.0 km],[ENE],"[13.0 km/h
		/ 3.6 m/s]",METAR VHHH 291200Z 07007KT 340V130 9999 FEW010 SCT020 BKN100 29/26 Q1002 TEMPO 4000 SHRA
0,[Mostly Cloudy],1996-7-29,[26.0 °C],[],[-],[35.6 °C],[84%],[N/A],[1003 hPa],[29.0 °C],[9:00 PM],[10.0 km],[East],"[13.0 km/h
		/ 3.6 m/s]",METAR VHHH 291300Z 08007KT 040V120 9999 FEW010 SCT020 BKN080 29/26 Q1003 TEMPO 4000 SHRA
0,[Mostly Cloudy],1996-7-29,[26.0 °C],[],[-],[35.6 °C],[84%],[N/A],[1004 hPa],[29.0 °C],[10:00 PM],[10.0 km],[East],"[14.8 km/h
		/ 4.1 m/s]",METAR VHHH 291400Z 08008KT 020V140 9999 FEW010 SCT020 BKN080 29/26 Q1004 TEMPO 4000 SHWR
0,[Mostly Cloudy],1996-7-29,[25.0 °C],[],[-],[34.5 °C],[79%],[N/A],[1004 hPa],[29.0 °C],[11:00 PM],[10.0 km],[East],"[14.8 km/h
		/ 4.1 m/s]",METAR VHHH 291500Z 09008KT 060V120 9999 FEW010 SCT020 BKN080 29/25 Q1004 TEMPO 4000 SHRA
0,[Mostly Cloudy],1996-7-30,[25.0 °C],[],[-],[32.7 °C],[84%],[N/A],[1004 hPa],[28.0 °C],[12:00 AM],[10.0 km],[East],"[9.3 km/h
		/ 2.6 m/s]",METAR VHHH 291600Z 09005KT 290V120 9999 FEW012 BKN080 28/25 Q1004 TEMPO 4000 SHRA
0,[Mostly Cloudy],1996-7-30,[25.0 °C],[],[-],[32.7 °C],[84%],[N/A],[1003 hPa],[28.0 °C],[2:00 AM],[10.0 km],[East],"[11.1 km/h
		/ 3.1 m/s]",METAR VHHH 291800Z 08006KT 050V130 9999 FEW012 SCT020 BKN080 28/25 Q1003 TEMPO 4000 SHRA
0,[Mostly Cloudy],1996-7-30,[25.0 °C],[],[-],[32.7 °C],[84%],[N/A],[1003 hPa],[28.0 °C],[3:00 AM],[10.0 km],[East],"[5.6 km/h
		/ 1.5 m/s]",METAR VHHH 291900Z 09003KT 9999 FEW012 SCT020 BKN080 28/25 Q1003 TEMPO 4000 SHRA
0,[Thunderstorm],1996-7-30,[25.0 °C],[Thunderstorm],[-],[32.7 °C],[84%],[N/A],[1003 hPa],[28.0 °C],[4:00 AM],[10.0 km],[East],"[11.1 km/h
		/ 3.1 m/s]",METAR VHHH 292000Z 09006KT 030V120 9999 TS FEW012 FEW018CB BKN080 28/25 Q1003 TEMPO 4000 SHWR
0,[Rain Showers],1996-7-30,[25.0 °C],"[Rain
	,
Thunderstorm]",[-],[30.6 °C],[89%],[N/A],[1003 hPa],[27.0 °C],[5:00 AM],[10.0 km],[NE],"[16.7 km/h
		/ 4.6 m/s]",METAR VHHH 292100Z 05009KT 360V100 9999 TSSHRA FEW010 FEW018CB SCT022 BKN080 27/25 Q1003 TEMPO VRB15KT MAX 28 2500 TSRA OR +SHWR FEW 600FT SCT 1200FT SCT CB 1200FT BKN 8000FT
0,[Light Thunderstorms and Rain],1996-7-30,[25.0 °C],"[Rain
	,
Thunderstorm]",[-],[-],[94%],[N/A],[1003 hPa],[26.0 °C],[6:00 AM],[10.0 km],[SSE],"[13.0 km/h
		/ 3.6 m/s]",METAR VHHH 292200Z 16007KT 9999 -TSRA FEW018CB SCT022 BKN080 26/25 Q1003 TEMPO VRB15KT MAX 28 2500 TSRA OR +SHWR FEW 600FT SCT 1200FT SCT CB 1200FT BKN 8000FT
0,[Mostly Cloudy],1996-7-30,[25.0 °C],[],[-],[30.6 °C],[89%],[N/A],[1003 hPa],[27.0 °C],[7:00 AM],[10.0 km],[WNW],"[3.7 km/h
		/ 1.0 m/s]",METAR VHHH 292300Z 29002KT 9999 FEW020 SCT025 BKN080 27/25 Q1003 RETS WS LDG RWY 13/31 TEMPO VRB15G28KT 2500 +SHRA/TSRA FEW006 SCT012 SCT012CB BKN080
0,[Mostly Cloudy],1996-7-30,[25.0 °C],[],[-],[32.7 °C],[84%],[N/A],[1004 hPa],[28.0 °C],[8:00 AM],[10.0 km],[SE],"[3.7 km/h
		/ 1.0 m/s]",METAR VHHH 300000Z 13002KT 9999 FEW016 SCT025 BKN080 28/25 Q1004 TEMPO 4000 SHRA
0,[Mostly Cloudy],1996-7-30,[25.0 °C],[],[-],[34.5 °C],[79%],[N/A],[1004 hPa],[29.0 °C],[9:00 AM],[10.0 km],[ESE],"[5.6 km/h
		/ 1.5 m/s]",METAR VHHH 300100Z 12003KT 9999 FEW016 SCT025 BKN080 29/25 Q1004 TEMPO 4000 SHRA
0,[Mostly Cloudy],1996-7-30,[25.0 °C],[],[-],[34.5 °C],[79%],[N/A],[1004 hPa],[29.0 °C],[10:00 AM],[10.0 km],[East],"[7.4 km/h
		/ 2.1 m/s]",METAR VHHH 300200Z 08004KT 030V150 9999 FEW016 SCT022 BKN080 29/25 Q1004 TEMPO 4000 SHRA
0,[Mostly Cloudy],1996-7-30,[25.0 °C],[],[-],[34.5 °C],[79%],[N/A],[1005 hPa],[29.0 °C],[11:00 AM],[10.0 km],[SE],"[18.5 km/h
		/ 5.1 m/s]",METAR VHHH 300300Z 13010KT 050V150 9999 FEW012 SCT025 BKN080 29/25 Q1005 TEMPO 4000 SHRA
0,[Mostly Cloudy],1996-7-30,[25.0 °C],[],[-],[34.5 °C],[79%],[N/A],[1004 hPa],[29.0 °C],[12:00 PM],[10.0 km],[SSE],"[9.3 km/h
		/ 2.6 m/s]",METAR VHHH 300400Z 16005KT 140V220 9999 FEW020 SCT030 BKN080 29/25 Q1004 TEMPO 4000 SHRA
0,[Mostly Cloudy],1996-7-30,[25.0 °C],[],[-],[34.5 °C],[79%],[N/A],[1004 hPa],[29.0 °C],[1:00 PM],[10.0 km],[ESE],"[7.4 km/h
		/ 2.1 m/s]",METAR VHHH 300500Z 12004KT 9999 FEW018 SCT030 BKN080 29/25 Q1004 TEMPO 4000 SHRA
0,[Mostly Cloudy],1996-7-30,[24.0 °C],[],[-],[35.0 °C],[70%],[N/A],[1004 hPa],[30.0 °C],[2:00 PM],[10.0 km],[East],"[1.9 km/h
		/ 0.5 m/s]",METAR VHHH 300600Z 09001KT 9999 FEW025 SCT040 BKN100 30/24 Q1004 NOSIG
0,[Mostly Cloudy],1996-7-30,[24.0 °C],[],[-],[35.0 °C],[70%],[N/A],[1003 hPa],[30.0 °C],[3:00 PM],[10.0 km],[ENE],"[1.9 km/h
		/ 0.5 m/s]",METAR VHHH 300700Z 06001KT 9999 FEW020 BKN080 30/24 Q1003 NOSIG
0,[Mostly Cloudy],1996-7-30,[24.0 °C],[],[-],[36.4 °C],[66%],[N/A],[1002 hPa],[31.0 °C],[4:00 PM],[10.0 km],[South],"[9.3 km/h
		/ 2.6 m/s]",METAR VHHH 300800Z 18005KT 090V210 9999 FEW020 BKN100 31/24 Q1002 NOSIG
0,[Mostly Cloudy],1996-7-30,[23.0 °C],[],[-],[34.1 °C],[66%],[N/A],[1002 hPa],[30.0 °C],[5:00 PM],[10.0 km],[WSW],"[7.4 km/h
		/ 2.1 m/s]",METAR VHHH 300900Z 24004KT 190V330 9999 FEW020 BKN100 30/23 Q1002 NOSIG
0,[Mostly Cloudy],1996-7-30,[23.0 °C],[],[-],[34.1 °C],[66%],[N/A],[1002 hPa],[30.0 °C],[6:00 PM],[10.0 km],[SW],"[11.1 km/h
		/ 3.1 m/s]",METAR VHHH 301000Z 23006KT 9999 FEW020 SCT035 BKN090 30/23 Q1002 NOSIG
0,[Mostly Cloudy],1996-7-30,[24.0 °C],[],[-],[33.5 °C],[74%],[N/A],[1002 hPa],[29.0 °C],[7:00 PM],[10.0 km],[SW],"[7.4 km/h
		/ 2.1 m/s]",METAR VHHH 301100Z 23004KT 190V270 9999 FEW020 BKN100 29/24 Q1002 NOSIG
0,[Mostly Cloudy],1996-7-30,[24.0 °C],[],[-],[31.9 °C],[79%],[N/A],[1003 hPa],[28.0 °C],[8:00 PM],[10.0 km],[West],"[11.1 km/h
		/ 3.1 m/s]",METAR VHHH 301200Z 28006KT 240V320 9999 FEW020 BKN100 28/24 Q1003 NOSIG
0,[Mostly Cloudy],1996-7-30,[24.0 °C],[],[-],[31.9 °C],[79%],[N/A],[1003 hPa],[28.0 °C],[9:00 PM],[10.0 km],[West],"[11.1 km/h
		/ 3.1 m/s]",METAR VHHH 301300Z 28006KT 9999 FEW020 BKN100 28/24 Q1003 NOSIG
0,[Mostly Cloudy],1996-7-30,[25.0 °C],[],[-],[32.7 °C],[84%],[N/A],[1003 hPa],[28.0 °C],[10:00 PM],[10.0 km],[West],"[14.8 km/h
		/ 4.1 m/s]",METAR VHHH 301400Z 28008KT 050V320 9999 FEW014 BKN080 28/25 Q1003 NOSIG
0,[Mostly Cloudy],1996-7-31,[25.0 °C],[],[-],[32.7 °C],[84%],[N/A],[1003 hPa],[28.0 °C],[12:00 AM],[9.0 km],[West],"[16.7 km/h
		/ 4.6 m/s]",METAR VHHH 301600Z 27009KT 9000 FEW014 BKN100 28/25 Q1003 NOSIG
0,[Mostly Cloudy],1996-7-31,[25.0 °C],[],[-],[32.7 °C],[84%],[N/A],[1003 hPa],[28.0 °C],[1:00 AM],[8.0 km],[West],"[18.5 km/h
		/ 5.1 m/s]",METAR VHHH 301700Z 26010KT 8000 FEW016 BKN100 28/25 Q1003 NOSIG
0,[Mostly Cloudy],1996-7-31,[25.0 °C],[],[-],[32.7 °C],[84%],[N/A],[1002 hPa],[28.0 °C],[2:00 AM],[7.0 km],[West],"[16.7 km/h
		/ 4.6 m/s]",METAR VHHH 301800Z 26009KT 7000 FEW016 BKN100 28/25 Q1002 NOSIG
0,[Mostly Cloudy],1996-7-31,[24.0 °C],[],[-],[31.9 °C],[79%],[N/A],[1002 hPa],[28.0 °C],[3:00 AM],[9.0 km],[West],"[18.5 km/h
		/ 5.1 m/s]",METAR VHHH 301900Z 27010KT 9000 FEW016 BKN100 28/24 Q1002 NOSIG
0,[Mostly Cloudy],1996-7-31,[24.0 °C],[],[-],[31.9 °C],[79%],[N/A],[1002 hPa],[28.0 °C],[4:00 AM],[10.0 km],[West],"[11.1 km/h
		/ 3.1 m/s]",METAR VHHH 302000Z 26006KT 9999 FEW018 BKN100 28/24 Q1002 NOSIG
0,[Mostly Cloudy],1996-7-31,[23.0 °C],[],[-],[31.2 °C],[74%],[N/A],[1002 hPa],[28.0 °C],[5:00 AM],[9.0 km],[WSW],"[14.8 km/h
		/ 4.1 m/s]",METAR VHHH 302100Z 25008KT 9000 FEW018 BKN100 28/23 Q1002 NOSIG
0,[Haze],1996-7-31,[24.0 °C],[],[-],[31.9 °C],[79%],[N/A],[1002 hPa],[28.0 °C],[6:00 AM],[4.5 km],[West],"[20.4 km/h
		/ 5.7 m/s]",METAR VHHH 302200Z 27011KT 4500 HZ FEW018 SCT100 28/24 Q1002 TEMPO 4000 HZ
0,[Scattered Clouds],1996-7-31,[24.0 °C],[],[-],[31.9 °C],[79%],[N/A],[1002 hPa],[28.0 °C],[7:00 AM],[6.0 km],[West],"[20.4 km/h
		/ 5.7 m/s]",METAR VHHH 302300Z 26011KT 6000 FEW018 SCT100 28/24 Q1002 TEMPO 4000 HZ
0,[Scattered Clouds],1996-7-31,[24.0 °C],[],[-],[33.5 °C],[74%],[N/A],[1002 hPa],[29.0 °C],[8:00 AM],[8.0 km],[West],"[13.0 km/h
		/ 3.6 m/s]",METAR VHHH 310000Z 26007KT 8000 FEW018 SCT300 29/24 Q1002 NOSIG
0,[Scattered Clouds],1996-7-31,[24.0 °C],[],[-],[35.0 °C],[70%],[N/A],[1002 hPa],[30.0 °C],[9:00 AM],[8.0 km],[WSW],"[24.1 km/h
		/ 6.7 m/s]",METAR VHHH 310100Z 25013KT 8000 FEW020 SCT150 30/24 Q1002 NOSIG
0,[Mostly Cloudy],1996-7-31,[24.0 °C],[],[-],[36.4 °C],[66%],[N/A],[1001 hPa],[31.0 °C],[10:00 AM],[10.0 km],[West],"[24.1 km/h
		/ 6.7 m/s]",METAR VHHH 310200Z 26013KT 240V320 9999 FEW020 BKN150 31/24 Q1001 NOSIG
0,[Mostly Cloudy],1996-7-31,[24.0 °C],[],[-],[37.7 °C],[62%],[N/A],[1001 hPa],[32.0 °C],[11:00 AM],[10.0 km],[West],"[29.6 km/h
		/ 8.2 m/s]",METAR VHHH 310300Z 26016KT 9999 FEW025 BKN120 32/24 Q1001 NOSIG
0,[Mostly Cloudy],1996-7-31,[24.0 °C],[],[-],[39.2 °C],[59%],[N/A],[1001 hPa],[33.0 °C],[12:00 PM],[8.0 km],[WSW],"[31.5 km/h
		/ 8.7 m/s]",METAR VHHH 310400Z 25017KT 200V280 8000 FEW025 BKN100 33/24 Q1001 WS LDG RWY 13/31 NOSIG
0,[Mostly Cloudy],1996-7-31,[25.0 °C],[],[-],[40.6 °C],[63%],[N/A],[1000 hPa],[33.0 °C],[1:00 PM],[8.0 km],[WSW],"[24.1 km/h
		/ 6.7 m/s]",METAR VHHH 310500Z 25013KT 220V280 8000 FEW020 BKN100 33/25 Q1000 WS LDG RWY 13/31 NOSIG
0,[Scattered Clouds],1996-7-31,[24.0 °C],[],[-],[39.2 °C],[59%],[N/A],[999 hPa],[33.0 °C],[2:00 PM],[9.0 km],[West],"[27.8 km/h
		/ 7.7 m/s]",METAR VHHH 310600Z 26015KT 9000 FEW025 SCT100 33/24 Q999 WS LDG RWY 13/31 NOSIG
0,[Scattered Clouds],1996-7-31,[24.0 °C],[],[-],[40.6 °C],[56%],[N/A],[998 hPa],[34.0 °C],[3:00 PM],[10.0 km],[WSW],"[31.5 km/h
		/ 8.7 m/s]",METAR VHHH 310700Z 25017KT 190V270 9999 FEW025 SCT100 34/24 Q0998 WS LDG RWY 13/31 NOSIG
0,[Scattered Clouds],1996-7-31,[25.0 °C],[],[-],[40.6 °C],[63%],[N/A],[998 hPa],[33.0 °C],[4:00 PM],[9.0 km],[WSW],"[29.6 km/h
		/ 8.2 m/s]",METAR VHHH 310800Z 24016KT 200V280 9000 FEW025 SCT100 33/25 Q0998 WS LDG RWY 13/31 NOSIG
0,[Scattered Clouds],1996-7-31,[25.0 °C],[],[-],[40.6 °C],[63%],[N/A],[997 hPa],[33.0 °C],[5:00 PM],[10.0 km],[West],"[24.1 km/h
		/ 6.7 m/s]",METAR VHHH 310900Z 26013KT 9999 FEW025 SCT300 33/25 Q0997 WS LDG RWY 13/31 NOSIG
0,[Scattered Clouds],1996-7-31,[25.0 °C],[],[-],[40.6 °C],[63%],[N/A],[997 hPa],[33.0 °C],[6:00 PM],[10.0 km],[West],"[27.8 km/h
		/ 7.7 m/s]",METAR VHHH 311000Z 26015KT 9999 FEW025 SCT300 33/25 Q0997 WS LDG RWY 13/31 NOSIG
0,[Mostly Cloudy],1996-7-31,[24.0 °C],[],[-],[37.7 °C],[62%],[N/A],[997 hPa],[32.0 °C],[7:00 PM],[10.0 km],[West],"[20.4 km/h
		/ 5.7 m/s]",METAR VHHH 311100Z 27011KT 9999 FEW025 BKN300 32/24 Q0997 WS LDG RWY 13/31 NOSIG
0,[Mostly Cloudy],1996-7-31,[25.0 °C],[],[-],[39.0 °C],[66%],[N/A],[998 hPa],[32.0 °C],[8:00 PM],[10.0 km],[West],"[18.5 km/h
		/ 5.1 m/s]",METAR VHHH 311200Z 27010KT 9999 FEW025 BKN300 32/25 Q0998 WS LDG RWY 13/31 NOSIG
0,[Mostly Cloudy],1996-7-31,[25.0 °C],[],"[42.6 km/h
		/ 11.8 m/s]",[37.6 °C],[70%],[N/A],[998 hPa],[31.0 °C],[9:00 PM],[10.0 km],[West],"[22.2 km/h
		/ 6.2 m/s]",METAR VHHH 311300Z 28012G23KT 240V310 9999 FEW025 BKN300 31/25 Q0998 WS LDG RWY 13/31 NOSIG
0,[Mostly Cloudy],1996-7-31,[25.0 °C],[],[-],[37.6 °C],[70%],[N/A],[998 hPa],[31.0 °C],[10:00 PM],[10.0 km],[West],"[13.0 km/h
		/ 3.6 m/s]",METAR VHHH 311400Z 27007KT 9999 FEW025 BKN300 31/25 Q0998 WS LDG RWY 13/31 NOSIG
0,[Mostly Cloudy],1996-8-1,[25.0 °C],[],[-],[37.6 °C],[70%],[N/A],[997 hPa],[31.0 °C],[12:00 AM],[10.0 km],[West],"[14.8 km/h
		/ 4.1 m/s]",METAR VHHH 311600Z 27008KT 9999 FEW025 BKN300 31/25 Q0997 NOSIG
0,[Mostly Cloudy],1996-8-1,[25.0 °C],[],[-],[36.0 °C],[74%],[N/A],[997 hPa],[30.0 °C],[1:00 AM],[10.0 km],[West],"[9.3 km/h
		/ 2.6 m/s]",METAR VHHH 311700Z 27005KT 230V300 9999 FEW025 BKN300 30/25 Q0997 NOSIG
0,[Clear],1996-8-1,[25.0 °C],[],[-],[36.0 °C],[74%],[N/A],[996 hPa],[30.0 °C],[2:00 AM],[-],[West],"[13.0 km/h
		/ 3.6 m/s]",METAR VHHH 311800Z 28007KT CAVOK 30/25 Q0996 NOSIG
0,[Clear],1996-8-1,[26.0 °C],[],[-],[37.4 °C],[79%],[N/A],[996 hPa],[30.0 °C],[3:00 AM],[-],[West],"[14.8 km/h
		/ 4.1 m/s]",METAR VHHH 311900Z 27008KT CAVOK 30/26 Q0996 NOSIG
0,[Clear],1996-8-1,[24.0 °C],[],[-],[35.0 °C],[70%],[N/A],[995 hPa],[30.0 °C],[4:00 AM],[-],[WSW],"[18.5 km/h
		/ 5.1 m/s]",METAR VHHH 312000Z 25010KT 220V280 CAVOK 30/24 Q0995 NOSIG
0,[Clear],1996-8-1,[24.0 °C],[],[-],[35.0 °C],[70%],[N/A],[995 hPa],[30.0 °C],[5:00 AM],[-],[West],"[20.4 km/h
		/ 5.7 m/s]",METAR VHHH 312100Z 26011KT CAVOK 30/24 Q0995 NOSIG
0,[Mostly Cloudy],1996-8-1,[24.0 °C],[],[-],[35.0 °C],[70%],[N/A],[995 hPa],[30.0 °C],[6:00 AM],[10.0 km],[West],"[22.2 km/h
		/ 6.2 m/s]",METAR VHHH 312200Z 28012KT 9999 FEW025 BKN300 30/24 Q0995 NOSIG
0,[Mostly Cloudy],1996-8-1,[24.0 °C],[],[-],[35.0 °C],[70%],[N/A],[995 hPa],[30.0 °C],[7:00 AM],[10.0 km],[West],"[18.5 km/h
		/ 5.1 m/s]",METAR VHHH 312300Z 28010KT 9999 SCT025 BKN100 30/24 Q0995 NOSIG
0,[Mostly Cloudy],1996-8-1,[24.0 °C],[],[-],[36.4 °C],[66%],[N/A],[996 hPa],[31.0 °C],[8:00 AM],[10.0 km],[WNW],"[25.9 km/h
		/ 7.2 m/s]",METAR VHHH 010000Z 29014KT 260V320 9999 FEW030 BKN100 31/24 Q0996 NOSIG
0,[Mostly Cloudy],1996-8-1,[24.0 °C],[],[-],[36.4 °C],[66%],[N/A],[995 hPa],[31.0 °C],[9:00 AM],[10.0 km],[West],"[24.1 km/h
		/ 6.7 m/s]",METAR VHHH 010100Z 28013KT 240V310 9999 FEW030 BKN100 31/24 Q0995 NOSIG
0,[Mostly Cloudy],1996-8-1,[24.0 °C],[],[-],[37.7 °C],[62%],[N/A],[995 hPa],[32.0 °C],[10:00 AM],[10.0 km],[West],"[25.9 km/h
		/ 7.2 m/s]",METAR VHHH 010200Z 28014KT 250V320 9999 FEW030 BKN100 32/24 Q0995 WS LDG RWY 13/31 NOSIG
0,[Mostly Cloudy],1996-8-1,[24.0 °C],[],[-],[39.2 °C],[59%],[N/A],[995 hPa],[33.0 °C],[11:00 AM],[10.0 km],[West],"[18.5 km/h
		/ 5.1 m/s]",METAR VHHH 010300Z 27010KT 210V310 9999 FEW030 BKN100 33/24 Q0995 WS LDG RWY 13/31 NOSIG
0,[Mostly Cloudy],1996-8-1,[24.0 °C],[],[-],[40.6 °C],[56%],[N/A],[994 hPa],[34.0 °C],[12:00 PM],[10.0 km],[West],"[24.1 km/h
		/ 6.7 m/s]",METAR VHHH 010400Z 27013KT 240V300 9999 FEW030 BKN100 34/24 Q0994 WS LDG RWY 13/31 NOSIG
0,[Mostly Cloudy],1996-8-1,[25.0 °C],[],[-],[41.8 °C],[59%],[N/A],[994 hPa],[34.0 °C],[1:00 PM],[9.0 km],[West],"[27.8 km/h
		/ 7.7 m/s]",METAR VHHH 010500Z 26015KT 220V280 9000 FEW030 BKN100 34/25 Q0994 WS LDG RWY 13/31 NOSIG
0,[Mostly Cloudy],1996-8-1,[25.0 °C],[],[-],[41.8 °C],[59%],[N/A],[994 hPa],[34.0 °C],[2:00 PM],[9.0 km],[WSW],"[24.1 km/h
		/ 6.7 m/s]",METAR VHHH 010600Z 25013KT 200V280 9000 FEW025 BKN100 34/25 Q0994 WS LDG RWY 13/31 NOSIG
0,[Mostly Cloudy],1996-8-1,[26.0 °C],[],[-],[43.5 °C],[63%],[N/A],[994 hPa],[34.0 °C],[3:00 PM],[10.0 km],[WSW],"[20.4 km/h
		/ 5.7 m/s]",METAR VHHH 010700Z 25011KT 200V270 9999 FEW030 BKN080 34/26 Q0994 WS LDG RWY 13/31 NOSIG
0,[Mostly Cloudy],1996-8-1,[26.0 °C],[],[-],[43.5 °C],[63%],[N/A],[993 hPa],[34.0 °C],[4:00 PM],[10.0 km],[WSW],"[18.5 km/h
		/ 5.1 m/s]",METAR VHHH 010800Z 24010KT 190V280 9999 FEW020 BKN300 34/26 Q0993 WS LDG RWY 13/31 NOSIG
0,[Mostly Cloudy],1996-8-1,[27.0 °C],[],[-],[43.9 °C],[71%],[N/A],[993 hPa],[33.0 °C],[5:00 PM],[10.0 km],[WSW],"[22.2 km/h
		/ 6.2 m/s]",METAR VHHH 010900Z 24012KT 200V270 9999 FEW020 BKN300 33/27 Q0993 WS LDG RWY 13/31 NOSIG
0,[Scattered Clouds],1996-8-1,[27.0 °C],[],[-],[42.3 °C],[75%],[N/A],[993 hPa],[32.0 °C],[6:00 PM],[10.0 km],[WSW],"[13.0 km/h
		/ 3.6 m/s]",METAR VHHH 011000Z 24007KT 160V280 9999 FEW016 SCT300 32/27 Q0993 WS LDG RWY 13/31 NOSIG
0,[Mostly Cloudy],1996-8-1,[27.0 °C],[],[-],[40.5 °C],[79%],[N/A],[994 hPa],[31.0 °C],[7:00 PM],[10.0 km],[WSW],"[18.5 km/h
		/ 5.1 m/s]",METAR VHHH 011100Z 24010KT 190V260 9999 FEW016 BKN300 31/27 Q0994 WS LDG RWY 13/31 NOSIG
0,[Mostly Cloudy],1996-8-1,[27.0 °C],[],[-],[42.3 °C],[75%],[N/A],[994 hPa],[32.0 °C],[8:00 PM],[10.0 km],[West],"[16.7 km/h
		/ 4.6 m/s]",METAR VHHH 011200Z 26009KT 220V290 9999 FEW016 BKN300 32/27 Q0994 WS LDG RWY 13/31 NOSIG
0,[Mostly Cloudy],1996-8-1,[27.0 °C],[],[-],[40.5 °C],[79%],[N/A],[995 hPa],[31.0 °C],[9:00 PM],[10.0 km],[WSW],"[20.4 km/h
		/ 5.7 m/s]",METAR VHHH 011300Z 25011KT 200V280 9999 FEW020 SCT090 BKN300 31/27 Q0995 NOSIG
0,[Mostly Cloudy],1996-8-1,[27.0 °C],[],[-],[40.5 °C],[79%],[N/A],[995 hPa],[31.0 °C],[10:00 PM],[10.0 km],[WSW],"[29.6 km/h
		/ 8.2 m/s]",METAR VHHH 011400Z 24016KT 220V310 9999 FEW020 SCT090 BKN300 31/27 Q0995 WS LDG RWY 13/31 NOSIG
0,[Mostly Cloudy],1996-8-1,[27.0 °C],[],[-],[40.5 °C],[79%],[N/A],[995 hPa],[31.0 °C],[11:00 PM],[10.0 km],[WSW],"[24.1 km/h
		/ 6.7 m/s]",METAR VHHH 011500Z 25013KT 9999 FEW018 BKN090 31/27 Q0995 WS LDG RWY 13/31 NOSIG
0,[Mostly Cloudy],1996-8-2,[27.0 °C],[],[-],[40.5 °C],[79%],[N/A],[995 hPa],[31.0 °C],[12:00 AM],[10.0 km],[WSW],"[25.9 km/h
		/ 7.2 m/s]",METAR VHHH 011600Z 25014KT 9999 FEW018 SCT090 BKN300 31/27 Q0995 WS LDG RWY 13/31 NOSIG
0,[Mostly Cloudy],1996-8-2,[27.0 °C],[],[-],[38.8 °C],[84%],[N/A],[995 hPa],[30.0 °C],[1:00 AM],[10.0 km],[WSW],"[22.2 km/h
		/ 6.2 m/s]",METAR VHHH 011700Z 25012KT 9999 FEW011 BKN300 30/27 Q0995 WS LDG RWY 13/31 NOSIG
0,[Mostly Cloudy],1996-8-2,[27.0 °C],[],[-],[38.8 °C],[84%],[N/A],[995 hPa],[30.0 °C],[2:00 AM],[10.0 km],[WSW],"[24.1 km/h
		/ 6.7 m/s]",METAR VHHH 011800Z 25013KT 9999 FEW011 BKN300 30/27 Q0995 WS LDG RWY 13/31 NOSIG
0,[Mostly Cloudy],1996-8-2,[27.0 °C],[],[-],[38.8 °C],[84%],[N/A],[995 hPa],[30.0 °C],[3:00 AM],[10.0 km],[West],"[22.2 km/h
		/ 6.2 m/s]",METAR VHHH 011900Z 26012KT 9999 FEW014 BKN300 30/27 Q0995 WS LDG RWY 13/31 NOSIG
0,[Mostly Cloudy],1996-8-2,[27.0 °C],[],[-],[38.8 °C],[84%],[N/A],[995 hPa],[30.0 °C],[4:00 AM],[10.0 km],[SW],"[24.1 km/h
		/ 6.7 m/s]",METAR VHHH 012000Z 23013KT 200V260 9999 FEW010 SCT018 BKN300 30/27 Q0995 WS LDG RWY 13/31 NOSIG
0,[Mostly Cloudy],1996-8-2,[27.0 °C],[],[-],[36.8 °C],[89%],[N/A],[995 hPa],[29.0 °C],[5:00 AM],[10.0 km],[WSW],"[22.2 km/h
		/ 6.2 m/s]",METAR VHHH 012100Z 25012KT 9999 FEW010 SCT018 BKN300 29/27 Q0995 WS LDG RWY 13/31 NOSIG
0,[Mostly Cloudy],1996-8-2,[27.0 °C],[],[-],[36.8 °C],[89%],[N/A],[996 hPa],[29.0 °C],[6:00 AM],[10.0 km],[WSW],"[20.4 km/h
		/ 5.7 m/s]",METAR VHHH 012200Z 25011KT 210V270 9999 FEW008 SCT016 BKN300 29/27 Q0996 WS LDG RWY 13/31 NOSIG
0,[Mostly Cloudy],1996-8-2,[27.0 °C],[],[-],[36.8 °C],[89%],[N/A],[998 hPa],[29.0 °C],[10:00 AM],[10.0 km],[WSW],"[22.2 km/h
		/ 6.2 m/s]",METAR VHHH 020200Z 25012KT 210V270 9999 FEW007 SCT012 BKN080 29/27 Q0998 WS LDG RWY 13/31 TEMPO 3500 SHRA
0,[Light Rain Showers],1996-8-2,[27.0 °C],[Rain],[-],[38.8 °C],[84%],[N/A],[999 hPa],[30.0 °C],[11:00 AM],[9.0 km],[SW],"[18.5 km/h
		/ 5.1 m/s]",METAR VHHH 020300Z 22010KT 200V280 9000 -SHRA FEW007 SCT012 BKN080 30/27 Q0999 WS LDG RWY 13/31 TEMPO VRB16G30KT 2500 SHRA TSRA FEW008 FEW012CB SCT018 BKN080
0,[Mostly Cloudy],1996-8-2,[27.0 °C],[],"[35.2 km/h
		/ 9.8 m/s]",[38.8 °C],[84%],[N/A],[999 hPa],[30.0 °C],[12:00 PM],[7.0 km],[WSW],"[14.8 km/h
		/ 4.1 m/s]",METAR VHHH 020400Z 24008G19KT 170V270 7000 FEW008 SCT016 BKN080 30/27 Q0999 WS LDG RWY 13/31 TEMPO VRB16G30KT 2500 SHRA TSRA FEW008 FEW012CB SCT018 BKN080
0,[Mostly Cloudy],1996-8-2,[27.0 °C],[],[-],[38.8 °C],[84%],[N/A],[998 hPa],[30.0 °C],[2:00 PM],[9.0 km],[SW],"[14.8 km/h
		/ 4.1 m/s]",METAR VHHH 020600Z 22008KT 170V280 9000 FEW008 SCT016 BKN080 30/27 Q998 WS LDG RWY 13/31 TEMPO 4000 SHRA
0,[Mostly Cloudy],1996-8-2,[27.0 °C],[],"[33.3 km/h
		/ 9.3 m/s]",[38.8 °C],[84%],[N/A],[998 hPa],[30.0 °C],[3:00 PM],[10.0 km],[SSW],"[14.8 km/h
		/ 4.1 m/s]",METAR VHHH 020700Z 21008G18KT 170V270 9999 FEW008 SCT016 BKN080 30/27 Q0998 WS LDG RWY 13/31 TEMPO 4000 SHRA
0,[Mostly Cloudy],1996-8-2,[27.0 °C],[],[-],[38.8 °C],[84%],[N/A],[997 hPa],[30.0 °C],[4:00 PM],[10.0 km],[SW],"[11.1 km/h
		/ 3.1 m/s]",METAR VHHH 020800Z 23006KT 150V310 9999 FEW008 SCT016 BKN080 30/27 Q0997 TEMPO 4000 SHRA
0,[Mostly Cloudy],1996-8-2,[26.0 °C],[],"[25.9 km/h
		/ 7.2 m/s]",[37.4 °C],[79%],[N/A],[998 hPa],[30.0 °C],[5:00 PM],[10.0 km],[SSW],"[3.7 km/h
		/ 1.0 m/s]",METAR VHHH 020900Z 20002G14KT 9999 FEW013 SCT018 BKN080 30/26 Q0998 TEMPO 4000 SHRA
0,[Mostly Cloudy],1996-8-2,[26.0 °C],[],[-],[37.4 °C],[79%],[N/A],[998 hPa],[30.0 °C],[6:00 PM],[10.0 km],[South],"[9.3 km/h
		/ 2.6 m/s]",METAR VHHH 021000Z 19005KT 080V260 9999 FEW013 SCT018 BKN080 30/26 Q0998 TEMPO 4000 SHRA
0,[Mostly Cloudy],1996-8-2,[26.0 °C],[],[-],[37.4 °C],[79%],[N/A],[999 hPa],[30.0 °C],[7:00 PM],[10.0 km],[South],"[7.4 km/h
		/ 2.1 m/s]",METAR VHHH 021100Z 17004KT 120V280 9999 FEW013 SCT018 BKN080 30/26 Q0999 TEMPO 4000 SHRA
0,[Mostly Cloudy],1996-8-2,[26.0 °C],[],[-],[37.4 °C],[79%],[N/A],[1000 hPa],[30.0 °C],[8:00 PM],[10.0 km],[SE],"[11.1 km/h
		/ 3.1 m/s]",METAR VHHH 021200Z 13006KT 110V180 9999 FEW012 SCT018 BKN080 30/26 Q1000 TEMPO 4000 SHRA
0,[Mostly Cloudy],1996-8-2,[27.0 °C],[],[-],[38.8 °C],[84%],[N/A],[1000 hPa],[30.0 °C],[9:00 PM],[10.0 km],[ESE],"[11.1 km/h
		/ 3.1 m/s]",METAR VHHH 021300Z 12006KT 9999 FEW013 SCT020 BKN080 30/27 Q1000 TEMPO 4000 SHRA
0,[Mostly Cloudy],1996-8-2,[27.0 °C],[],[-],[36.8 °C],[89%],[N/A],[1001 hPa],[29.0 °C],[10:00 PM],[10.0 km],[SE],"[14.8 km/h
		/ 4.1 m/s]",METAR VHHH 021400Z 13008KT 100V160 9999 FEW015 SCT020 BKN080 29/27 Q1001 TEMPO 4000 SHRA
0,[Mostly Cloudy],1996-8-2,[27.0 °C],[],[-],[38.8 °C],[84%],[N/A],[1002 hPa],[30.0 °C],[11:00 PM],[10.0 km],[ESE],"[18.5 km/h
		/ 5.1 m/s]",METAR VHHH 021500Z 12010KT 9999 FEW013 SCT016 BKN080 30/27 Q1002 TEMPO 4000 SHRA
0,[Mostly Cloudy],1996-8-3,[26.0 °C],[],[-],[37.4 °C],[79%],[N/A],[1002 hPa],[30.0 °C],[12:00 AM],[-],[SE],"[18.5 km/h
		/ 5.1 m/s]",METAR VHHH 021600Z 13010KT 100V170 FEW014 SCT020 BKN080 30/26 Q1002 TEMPO 4000 SHRA
0,[Mostly Cloudy],1996-8-3,[26.0 °C],[],[-],[35.6 °C],[84%],[N/A],[1002 hPa],[29.0 °C],[2:00 AM],[10.0 km],[ESE],"[14.8 km/h
		/ 4.1 m/s]",METAR VHHH 021800Z 12008KT 9999 FEW015 SCT020 BKN080 29/26 Q1002 TEMPO 4000 SHRA
0,[Mostly Cloudy],1996-8-3,[26.0 °C],[],[-],[35.6 °C],[84%],[N/A],[1002 hPa],[29.0 °C],[3:00 AM],[10.0 km],[ESE],"[14.8 km/h
		/ 4.1 m/s]",METAR VHHH 021900Z 11008KT 080V150 9999 FEW014 SCT020 BKN080 29/26 Q1002 TEMPO 4000 SHRA
0,[Scattered Clouds],1996-8-3,[27.0 °C],[],[-],[34.5 °C],[94%],[N/A],[1001 hPa],[28.0 °C],[4:00 AM],[10.0 km],[ESE],"[11.1 km/h
		/ 3.1 m/s]",METAR VHHH 022000Z 11006KT 9999 FEW014 SCT020 28/27 Q1001 TEMPO 4000 SHRA
0,[Scattered Clouds],1996-8-3,[26.0 °C],[],[-],[35.6 °C],[84%],[N/A],[1002 hPa],[29.0 °C],[5:00 AM],[10.0 km],[SE],"[9.3 km/h
		/ 2.6 m/s]",METAR VHHH 022100Z 14005KT 080V220 9999 FEW014 SCT025 29/26 Q1002 TEMPO 4000 SHRA
0,[Scattered Clouds],1996-8-3,[26.0 °C],[],[-],[35.6 °C],[84%],[N/A],[1002 hPa],[29.0 °C],[6:00 AM],[10.0 km],[SE],"[7.4 km/h
		/ 2.1 m/s]",METAR VHHH 022200Z 13004KT 100V170 9999 FEW014 SCT025 29/26 Q1002 NOSIG
0,[Mostly Cloudy],1996-8-3,[26.0 °C],[],[-],[35.6 °C],[84%],[N/A],[1003 hPa],[29.0 °C],[7:00 AM],[10.0 km],[ESE],"[5.6 km/h
		/ 1.5 m/s]",METAR VHHH 022300Z 12003KT 9999 FEW014 SCT025 BKN100 29/26 Q1003 NOSIG
0,[Scattered Clouds],1996-8-3,[26.0 °C],[],[-],[37.4 °C],[79%],[N/A],[1003 hPa],[30.0 °C],[8:00 AM],[10.0 km],[SE],"[11.1 km/h
		/ 3.1 m/s]",METAR VHHH 030000Z 13006KT 9999 FEW013 SCT020 30/26 Q1003 NOSIG
0,[Scattered Clouds],1996-8-3,[27.0 °C],[],[-],[38.8 °C],[84%],[N/A],[1003 hPa],[30.0 °C],[9:00 AM],[10.0 km],[ESE],"[11.1 km/h
		/ 3.1 m/s]",METAR VHHH 030100Z 12006KT 090V170 9999 FEW014 SCT020 30/27 Q1003 WS LDG RWY 13/31 TEMPO VRB15G28KT 2500 SHRA/TSRA FEW008 FEW012CB BKN025
0,[Light Rain Showers],1996-8-3,[26.0 °C],[Rain],[-],[31.2 °C],[94%],[N/A],[1004 hPa],[27.0 °C],[10:00 AM],[10.0 km],[East],"[14.8 km/h
		/ 4.1 m/s]",METAR VHHH 030200Z 09008KT 040V120 9999 -SHRA FEW007 FEW012CB SCT020 BKN080 27/26 Q1004 RERA CB 9KM TO N WS LDG RWY 13/31 TEMPO VRB15G28KT 2500 SHRA/TSRA FEW008 FEW012CB BKN025
0,[Light Rain Showers],1996-8-3,[26.0 °C],[Rain],[-],[33.6 °C],[89%],[N/A],[1004 hPa],[28.0 °C],[11:00 AM],[10.0 km],[ESE],"[20.4 km/h
		/ 5.7 m/s]",METAR VHHH 030300Z 11011KT 9999 -SHRA FEW008 SCT018 BKN080 28/26 Q1004 TEMPO 4000 SHRA
0,[Light Rain Showers],1996-8-3,[26.0 °C],[Rain],[-],[37.4 °C],[79%],[N/A],[1003 hPa],[30.0 °C],[12:00 PM],[10.0 km],[ESE],"[16.7 km/h
		/ 4.6 m/s]",METAR VHHH 030400Z 11009KT 9999 -SHRA FEW013 SCT020 BKN080 30/26 Q1003 TEMPO 4000 SHRA
0,[Scattered Clouds],1996-8-3,[26.0 °C],[],[-],[37.4 °C],[79%],[N/A],[1003 hPa],[30.0 °C],[1:00 PM],[10.0 km],[East],"[13.0 km/h
		/ 3.6 m/s]",METAR VHHH 030500Z 10007KT 9999 FEW013 SCT025 30/26 Q1003 RERA TEMPO 4000 SHRA
0,[Mostly Cloudy],1996-8-3,[26.0 °C],[],[-],[35.6 °C],[84%],[N/A],[1003 hPa],[29.0 °C],[2:00 PM],[10.0 km],[SSE],"[11.1 km/h
		/ 3.1 m/s]",METAR VHHH 030600Z 16006KT 080V230 9999 FEW014 SCT025 BKN080 29/26 Q1003 RERA TEMPO 4000 SHRA
0,[Mostly Cloudy],1996-8-3,[26.0 °C],[],[-],[37.4 °C],[79%],[N/A],[1003 hPa],[30.0 °C],[3:00 PM],[10.0 km],[ESE],"[13.0 km/h
		/ 3.6 m/s]",METAR VHHH 030700Z 12007KT 090V170 9999 FEW013 SCT020 BKN080 30/26 Q1003 TEMPO 4000 SHRA
0,[Mostly Cloudy],1996-8-3,[26.0 °C],[],[-],[37.4 °C],[79%],[N/A],[1002 hPa],[30.0 °C],[4:00 PM],[10.0 km],[SSE],"[18.5 km/h
		/ 5.1 m/s]",METAR VHHH 030800Z 15010KT 120V190 9999 FEW016 SCT020 BKN080 30/26 Q1002 TEMPO 4000 SHRA
0,[Mostly Cloudy],1996-8-3,[26.0 °C],[],[-],[37.4 °C],[79%],[N/A],[1002 hPa],[30.0 °C],[5:00 PM],[10.0 km],[ESE],"[20.4 km/h
		/ 5.7 m/s]",METAR VHHH 030900Z 12011KT 9999 FEW015 SCT020 BKN080 30/26 Q1002 TEMPO 4000 SHRA
0,[Mostly Cloudy],1996-8-3,[26.0 °C],[],[-],[35.6 °C],[84%],[N/A],[1003 hPa],[29.0 °C],[6:00 PM],[10.0 km],[South],"[11.1 km/h
		/ 3.1 m/s]",METAR VHHH 031000Z 17006KT 120V220 9999 FEW014 SCT020 BKN080 29/26 Q1003 RERA TEMPO 4000 SHRA
0,[Mostly Cloudy],1996-8-3,[26.0 °C],[],[-],[35.6 °C],[84%],[N/A],[1003 hPa],[29.0 °C],[7:00 PM],[10.0 km],[ESE],"[7.4 km/h
		/ 2.1 m/s]",METAR VHHH 031100Z 12004KT 9999 FEW015 SCT020 BKN080 29/26 Q1003 TEMPO 4000 SHRA
0,[Mostly Cloudy],1996-8-3,[25.0 °C],[],[-],[34.5 °C],[79%],[N/A],[1004 hPa],[29.0 °C],[8:00 PM],[10.0 km],[SE],"[9.3 km/h
		/ 2.6 m/s]",METAR VHHH 031200Z 13005KT 9999 FEW014 SCT020 BKN080 29/25 Q1004 TEMPO 4000 SHRA
0,[Light Rain Showers],1996-8-3,[26.0 °C],[Rain],[-],[35.6 °C],[84%],[N/A],[1005 hPa],[29.0 °C],[9:00 PM],[10.0 km],[ESE],"[5.6 km/h
		/ 1.5 m/s]",METAR VHHH 031300Z 12003KT 9999 -SHRA FEW011 SCT020 BKN080 29/26 Q1005 TEMPO 4000 SHRA
0,[Mostly Cloudy],1996-8-3,[26.0 °C],[],[-],[33.6 °C],[89%],[N/A],[1005 hPa],[28.0 °C],[10:00 PM],[10.0 km],[ESE],"[16.7 km/h
		/ 4.6 m/s]",METAR VHHH 031400Z 12009KT 090V150 9999 FEW010 SCT020 BKN080 28/26 Q1005 TEMPO 4000 SHRA
0,[Mostly Cloudy],1996-8-3,[26.0 °C],[],[-],[35.6 °C],[84%],[N/A],[1005 hPa],[29.0 °C],[11:00 PM],[10.0 km],[East],"[16.7 km/h
		/ 4.6 m/s]",METAR VHHH 031500Z 10009KT 070V160 9999 FEW010 SCT020 BKN080 29/26 Q1005 TEMPO 4000 SHRA
0,[Mostly Cloudy],1996-8-4,[27.0 °C],[],[-],[36.8 °C],[89%],[N/A],[1005 hPa],[29.0 °C],[12:00 AM],[10.0 km],[ESE],"[22.2 km/h
		/ 6.2 m/s]",METAR VHHH 031600Z 11012KT 070V140 9999 FEW011 SCT020 BKN080 29/27 Q1005 TEMPO 4000 SHRA
0,[Mostly Cloudy],1996-8-4,[26.0 °C],[],[-],[35.6 °C],[84%],[N/A],[1005 hPa],[29.0 °C],[1:00 AM],[10.0 km],[East],"[22.2 km/h
		/ 6.2 m/s]",METAR VHHH 031700Z 10012KT 070V140 9999 FEW011 SCT020 BKN080 29/26 Q1005 TEMPO 4000 SHRA
0,[Mostly Cloudy],1996-8-4,[26.0 °C],[],[-],[35.6 °C],[84%],[N/A],[1004 hPa],[29.0 °C],[2:00 AM],[10.0 km],[East],"[24.1 km/h
		/ 6.7 m/s]",METAR VHHH 031800Z 08013KT 050V130 9999 FEW011 SCT020 BKN080 29/26 Q1004 TEMPO 4000 SHRA
0,[Mostly Cloudy],1996-8-4,[26.0 °C],[],[-],[35.6 °C],[84%],[N/A],[1004 hPa],[29.0 °C],[3:00 AM],[10.0 km],[East],"[25.9 km/h
		/ 7.2 m/s]",METAR VHHH 031900Z 09014KT 060V130 9999 FEW011 SCT020 BKN080 29/26 Q1004 TEMPO 4000 SHRA
0,[Mostly Cloudy],1996-8-4,[26.0 °C],[],[-],[35.6 °C],[84%],[N/A],[1004 hPa],[29.0 °C],[4:00 AM],[10.0 km],[East],"[22.2 km/h
		/ 6.2 m/s]",METAR VHHH 032000Z 10012KT 070V140 9999 FEW011 SCT020 BKN080 29/26 Q1004 TEMPO 4000 SHRA
0,[Mostly Cloudy],1996-8-4,[26.0 °C],[],[-],[35.6 °C],[84%],[N/A],[1004 hPa],[29.0 °C],[5:00 AM],[10.0 km],[East],"[20.4 km/h
		/ 5.7 m/s]",METAR VHHH 032100Z 09011KT 040V130 9999 FEW012 SCT020 BKN080 29/26 Q1004 TEMPO 4000 SHRA
0,[Mostly Cloudy],1996-8-4,[26.0 °C],[],[-],[33.6 °C],[89%],[N/A],[1004 hPa],[28.0 °C],[6:00 AM],[10.0 km],[East],"[14.8 km/h
		/ 4.1 m/s]",METAR VHHH 032200Z 08008KT 050V110 9999 FEW010 SCT018 BKN100 28/26 Q1004 TEMPO 4000 SHRA
0,[Mostly Cloudy],1996-8-4,[25.0 °C],[],[-],[32.7 °C],[84%],[N/A],[1005 hPa],[28.0 °C],[7:00 AM],[10.0 km],[ENE],"[13.0 km/h
		/ 3.6 m/s]",METAR VHHH 032300Z 07007KT 010V100 9999 FEW012 SCT018 BKN100 28/25 Q1005 TEMPO 4000 SHRA
0,[Light Rain Showers],1996-8-4,[26.0 °C],[Rain],[-],[35.6 °C],[84%],[N/A],[1005 hPa],[29.0 °C],[8:00 AM],[10.0 km],[East],"[11.1 km/h
		/ 3.1 m/s]",METAR VHHH 040000Z 08006KT 030V120 9999 -SHRA FEW012 SCT018 BKN100 29/26 Q1005 TEMPO 4000 SHRA
0,[Light Rain Showers],1996-8-4,[25.0 °C],[Rain],[-],[30.6 °C],[89%],[N/A],[1005 hPa],[27.0 °C],[9:00 AM],[10.0 km],[East],"[18.5 km/h
		/ 5.1 m/s]",METAR VHHH 040100Z 09010KT 060V140 9999 -SHRA FEW014 SCT020 BKN100 27/25 Q1005 RERA TEMPO 4000 SHRA
0,[Light Rain Showers],1996-8-4,[26.0 °C],[Rain],[-],[37.4 °C],[79%],[N/A],[1006 hPa],[30.0 °C],[10:00 AM],[-],[East],"[29.6 km/h
		/ 8.2 m/s]",METAR VHHH 040200Z 10016KT 070V160 4200S -SHRA FEW007 SCT016 BKN080 30/26 Q1006 DIST PDN TO S TEMPO 4000 SHRA
0,[Mostly Cloudy],1996-8-4,[26.0 °C],[],[-],[35.6 °C],[84%],[N/A],[1006 hPa],[29.0 °C],[11:00 AM],[7.0 km],[ESE],"[18.5 km/h
		/ 5.1 m/s]",METAR VHHH 040300Z 11010KT 7000 FEW013 SCT017 BKN080 29/26 Q1006 RERA WS LDG RWY 13/31 TEMPO 4000 SHRA
0,[Mostly Cloudy],1996-8-4,[26.0 °C],[],"[50.0 km/h
		/ 13.9 m/s]",[37.4 °C],[79%],[N/A],[1006 hPa],[30.0 °C],[12:00 PM],[10.0 km],[East],"[20.4 km/h
		/ 5.7 m/s]",METAR VHHH 040400Z 09011G27KT 050V140 9999 FEW014 SCT020 BKN080 30/26 Q1006 WS LDG RWY 13/31 TEMPO 4000 SHRA
0,[Light Rain Showers],1996-8-4,[26.0 °C],[Rain],[-],[37.4 °C],[79%],[N/A],[1005 hPa],[30.0 °C],[1:00 PM],[10.0 km],[East],"[25.9 km/h
		/ 7.2 m/s]",METAR VHHH 040500Z 10014KT 050V150 9999 -SHRA FEW010 SCT020 BKN080 30/26 Q1005 WS LDG RWY 13/31 TEMPO 4000 SHRA
0,[Light Rain Showers],1996-8-4,[26.0 °C],[Rain],[-],[37.4 °C],[79%],[N/A],[1005 hPa],[30.0 °C],[2:00 PM],[10.0 km],[East],"[20.4 km/h
		/ 5.7 m/s]",METAR VHHH 040600Z 09011KT 050V130 9999 -SHRA FEW013 SCT020 BKN080 30/26 Q1005 WS LDG RWY 13/31 TEMPO 4000 SHRA
0,[Mostly Cloudy],1996-8-4,[26.0 °C],[],[-],[37.4 °C],[79%],[N/A],[1005 hPa],[30.0 °C],[3:00 PM],[10.0 km],[East],"[22.2 km/h
		/ 6.2 m/s]",METAR VHHH 040700Z 09012KT 010V150 9999 FEW014 SCT020 BKN080 30/26 Q1005 WS LDG RWY 13/31 TEMPO 4000 SHRA
0,[Mostly Cloudy],1996-8-4,[26.0 °C],[],[-],[35.6 °C],[84%],[N/A],[1005 hPa],[29.0 °C],[4:00 PM],[10.0 km],[ENE],"[18.5 km/h
		/ 5.1 m/s]",METAR VHHH 040800Z 07010KT 360V100 9999 FEW013 SCT020 BKN080 29/26 Q1005 WS LDG RWY 13/31 TEMPO 4000 SHRA
0,[Light Rain Showers],1996-8-4,[25.0 °C],[Rain],[-],[34.5 °C],[79%],[N/A],[1005 hPa],[29.0 °C],[5:00 PM],[10.0 km],[ENE],"[14.8 km/h
		/ 4.1 m/s]",METAR VHHH 040900Z 07008KT 360V130 9999 -SHRA FEW013 SCT020 BKN080 29/25 Q1005 WS LDG RWY 13/31 TEMPO 4000 SHRA
0,[Light Rain Showers],1996-8-4,[26.0 °C],[Rain],[-],[35.6 °C],[84%],[N/A],[1005 hPa],[29.0 °C],[6:00 PM],[10.0 km],[East],"[14.8 km/h
		/ 4.1 m/s]",METAR VHHH 041000Z 09008KT 050V120 9999 -SHRA FEW012 SCT020 BKN080 29/26 Q1005 WS LDG RWY 13/31 TEMPO 4000 SHRA
0,[Light Rain Showers],1996-8-4,[26.0 °C],[Rain],[-],[35.6 °C],[84%],[N/A],[1005 hPa],[29.0 °C],[7:00 PM],[8.0 km],[ENE],"[14.8 km/h
		/ 4.1 m/s]",METAR VHHH 041100Z 07008KT 020V120 8000 -SHRA FEW012 SCT018 BKN080 29/26 Q1005 WS LDG RWY 13/31 TEMPO 4000 SHRA
0,[Light Rain Showers],1996-8-4,[26.0 °C],[Rain],[-],[33.6 °C],[89%],[N/A],[1005 hPa],[28.0 °C],[8:00 PM],[7.0 km],[ESE],"[20.4 km/h
		/ 5.7 m/s]",METAR VHHH 041200Z 11011KT 040V130 7000 -SHRA FEW012 SCT018 BKN080 28/26 Q1005 WS LDG RWY 13/31 TEMPO VRB16G28KT 2500 TSRA/+SHRA FEW008 SCT012CB OVC040
0,[Light Thunderstorms and Rain],1996-8-4,[25.0 °C],"[Rain
	,
Thunderstorm]","[51.9 km/h
		/ 14.4 m/s]",[30.6 °C],[89%],[N/A],[1006 hPa],[27.0 °C],[9:00 PM],[10.0 km],[East],"[31.5 km/h
		/ 8.7 m/s]",METAR VHHH 041300Z 09017G28KT 060V120 9999 -TSRA FEW006 FEW012CB SCT018 BKN080 27/25 Q1006 TS 10 KM TO E WS LDG RWY 13/31 TEMPO VRB16G28KT 2500 TSRA/+SHRA FEW008 SCT012CB OVC040
0,[Mostly Cloudy],1996-8-4,[25.0 °C],[],[-],[32.7 °C],[84%],[N/A],[1006 hPa],[28.0 °C],[10:00 PM],[10.0 km],[East],"[24.1 km/h
		/ 6.7 m/s]",METAR VHHH 041400Z 08013KT 050V110 9999 FEW010 SCT018 BKN080 28/25 Q1006 RETS WS LDG 13/31 TEMPO VRB16G28KT 2500 TSRA/+SHRA FEW008 SCT012CB OVC040
0,[Mostly Cloudy],1996-8-4,[26.0 °C],[],[-],[33.6 °C],[89%],[N/A],[1005 hPa],[28.0 °C],[11:00 PM],[10.0 km],[East],"[27.8 km/h
		/ 7.7 m/s]",METAR VHHH 041500Z 09015KT 040V130 9999 FEW015 SCT020 BKN080 28/26 Q1005 WS LDG 13/31 TEMPO VRB16G28KT 2500 +SHRA FEW008 FEW012CB SCT018 BKN040
0,[Scattered Clouds],1996-8-5,[25.0 °C],[],[-],[32.7 °C],[84%],[N/A],[1005 hPa],[28.0 °C],[12:00 AM],[10.0 km],[East],"[29.6 km/h
		/ 8.2 m/s]",METAR VHHH 041600Z 08016KT 050V120 9999 FEW014 SCT020 28/25 Q1005 WS LDG RWY 13/31 TEMPO VRB16G28KT 2500 +SHRA FEW008 FEW012CB SCT018 BKN040
0,[Mostly Cloudy],1996-8-5,[25.0 °C],[],[-],[32.7 °C],[84%],[N/A],[1005 hPa],[28.0 °C],[1:00 AM],[10.0 km],[East],"[31.5 km/h
		/ 8.7 m/s]",METAR VHHH 041700Z 08017KT 050V120 9999 FEW015 SCT020 BKN080 28/25 Q1005 WS LDG RWY 13/31 TEMPO VRB16G28KT 2500 +SHRA FEW008 FEW012CB SCT018 BKN040
0,[Light Rain Showers],1996-8-5,[25.0 °C],[Rain],[-],[32.7 °C],[84%],[N/A],[1004 hPa],[28.0 °C],[2:00 AM],[9.0 km],[East],"[29.6 km/h
		/ 8.2 m/s]",METAR VHHH 041800Z 08016KT 040V130 9000 -SHRA FEW014 SCT020 BKN080 28/25 Q1004 WS LDG RWY 13/31 TEMPO VRB16G28KT 2500 +SHRA FEW008 FEW012CB SCT018 BKN040
0,[Mostly Cloudy],1996-8-5,[25.0 °C],[],[-],[32.7 °C],[84%],[N/A],[1004 hPa],[28.0 °C],[3:00 AM],[10.0 km],[East],"[24.1 km/h
		/ 6.7 m/s]",METAR VHHH 041900Z 08013KT 010V130 9999 FEW013 SCT020 BKN080 28/25 Q1004 WS LDG RWY 13/31 TEMPO VRB16G28KT 2500 +SHRA FEW008 FEW012CB SCT018 BKN040
0,[Mostly Cloudy],1996-8-5,[25.0 °C],[],[-],[32.7 °C],[84%],[N/A],[1004 hPa],[28.0 °C],[4:00 AM],[10.0 km],[ENE],"[20.4 km/h
		/ 5.7 m/s]",METAR VHHH 042000Z 06011KT 010V110 9999 FEW015 SCT020 BKN080 28/25 Q1004 WS LDG RWY 13/31 TEMPO 4000 SHRA
0,[Mostly Cloudy],1996-8-5,[25.0 °C],[],[-],[32.7 °C],[84%],[N/A],[1004 hPa],[28.0 °C],[5:00 AM],[10.0 km],[ENE],"[14.8 km/h
		/ 4.1 m/s]",METAR VHHH 042100Z 07008KT 360V120 9999 FEW015 SCT020 BKN080 28/25 Q1004 WS LDG RWY 13/31 TEMPO 4000 SHRA
0,[Mostly Cloudy],1996-8-5,[25.0 °C],[],[-],[32.7 °C],[84%],[N/A],[1004 hPa],[28.0 °C],[6:00 AM],[10.0 km],[ENE],"[24.1 km/h
		/ 6.7 m/s]",METAR VHHH 042200Z 06013KT 010V110 9999 FEW014 SCT020 BKN080 28/25 Q1004 WS LDG RWY 13/31 TEMPO 4000 SHRA
0,[Light Rain Showers],1996-8-5,[25.0 °C],[Rain],[-],[32.7 °C],[84%],[N/A],[1004 hPa],[28.0 °C],[7:00 AM],[10.0 km],[East],"[20.4 km/h
		/ 5.7 m/s]",METAR VHHH 042300Z 08011KT 020V130 9999 -SHRA FEW014 SCT020 BKN080 28/25 Q1004 WS LDG RWY 13/31 TEMPO 4000 SHRA
0,[Scattered Clouds],1996-8-5,[25.0 °C],[],[-],[34.5 °C],[79%],[N/A],[1005 hPa],[29.0 °C],[8:00 AM],[10.0 km],[East],"[18.5 km/h
		/ 5.1 m/s]",METAR VHHH 050000Z 08010KT 010V120 9999 FEW013 SCT020 29/25 Q1005 WS LDG RWY 13/31 TEMPO 4000 SHRA
0,[Scattered Clouds],1996-8-5,[24.0 °C],[],[-],[33.5 °C],[74%],[N/A],[1004 hPa],[29.0 °C],[9:00 AM],[10.0 km],[ENE],"[20.4 km/h
		/ 5.7 m/s]",METAR VHHH 050100Z 06011KT 350V140 9999 FEW014 SCT020 29/24 Q1004 WS LDG RWY 13/31 TEMPO 4000 SHRA
0,[Scattered Clouds],1996-8-5,[24.0 °C],[],"[44.4 km/h
		/ 12.3 m/s]",[33.5 °C],[74%],[N/A],[1004 hPa],[29.0 °C],[10:00 AM],[10.0 km],[ENE],"[24.1 km/h
		/ 6.7 m/s]",METAR VHHH 050200Z 06013G24KT 360V110 9999 FEW015 SCT020 29/24 Q1004 WS LDG RWY 13/31 TEMPO 4000 SHRA
0,[Scattered Clouds],1996-8-5,[24.0 °C],[],"[40.7 km/h
		/ 11.3 m/s]",[35.0 °C],[70%],[N/A],[1004 hPa],[30.0 °C],[11:00 AM],[10.0 km],[ENE],"[18.5 km/h
		/ 5.1 m/s]",METAR VHHH 050300Z 06010G22KT 010V130 9999 FEW016 SCT022 30/24 Q1004 WS LDG RWY 13/31 TEMPO 4000 SHRA
0,[Scattered Clouds],1996-8-5,[24.0 °C],[],[-],[36.4 °C],[66%],[N/A],[1004 hPa],[31.0 °C],[12:00 PM],[10.0 km],[ENE],"[25.9 km/h
		/ 7.2 m/s]",METAR VHHH 050400Z 06014KT 030V140 9999 FEW020 SCT025 31/24 Q1004 WS LDG RWY 13/31 NOSIG
0,[Scattered Clouds],1996-8-5,[24.0 °C],[],[-],[36.4 °C],[66%],[N/A],[1003 hPa],[31.0 °C],[1:00 PM],[10.0 km],[East],"[24.1 km/h
		/ 6.7 m/s]",METAR VHHH 050500Z 09013KT 040V120 9999 FEW020 SCT025 31/24 Q1003 WS LDG RWY 13/31 NOSIG
0,[Scattered Clouds],1996-8-5,[24.0 °C],[],[-],[36.4 °C],[66%],[N/A],[1003 hPa],[31.0 °C],[2:00 PM],[10.0 km],[ENE],"[24.1 km/h
		/ 6.7 m/s]",METAR VHHH 050600Z 06013KT 360V140 9999 FEW020 SCT025 31/24 Q1003 WS LDG RWY 13/31 NOSIG
0,[Scattered Clouds],1996-8-5,[24.0 °C],[],"[40.7 km/h
		/ 11.3 m/s]",[36.4 °C],[66%],[N/A],[1002 hPa],[31.0 °C],[4:00 PM],[10.0 km],[ENE],"[22.2 km/h
		/ 6.2 m/s]",METAR VHHH 050800Z 06012G22KT 010V110 9999 FEW020 SCT025 31/24 Q1002 WS LDG RWY 13/31 NOSIG
0,[Scattered Clouds],1996-8-5,[25.0 °C],[],[-],[36.0 °C],[74%],[N/A],[1001 hPa],[30.0 °C],[5:00 PM],[10.0 km],[East],"[24.1 km/h
		/ 6.7 m/s]",METAR VHHH 050900Z 08013KT 010V140 9999 FEW018 SCT025 30/25 Q1001 WS LDG RWY 13/31 NOSIG
0,[Scattered Clouds],1996-8-5,[24.0 °C],[],[-],[35.0 °C],[70%],[N/A],[1001 hPa],[30.0 °C],[6:00 PM],[10.0 km],[East],"[22.2 km/h
		/ 6.2 m/s]",METAR VHHH 051000Z 08012KT 330V120 9999 SCT022 SCT300 30/24 Q1001 WS/LDG RWY 13/31 NOSIG
0,[Mostly Cloudy],1996-8-5,[24.0 °C],[],"[38.9 km/h
		/ 10.8 m/s]",[33.5 °C],[74%],[N/A],[1001 hPa],[29.0 °C],[7:00 PM],[10.0 km],[ENE],"[20.4 km/h
		/ 5.7 m/s]",METAR VHHH 051100Z 07011G21KT 360V110 9999 FEW017 SCT022 BKN300 29/24 Q1001 WS LDG RWY 13/31 NOSIG
0,[Scattered Clouds],1996-8-5,[24.0 °C],[],[-],[33.5 °C],[74%],[N/A],[1002 hPa],[29.0 °C],[8:00 PM],[10.0 km],[ENE],"[24.1 km/h
		/ 6.7 m/s]",METAR VHHH 051200Z 07013KT 040V120 9999 FEW016 SCT025 29/24 Q1002 WS LDG RWY 31/31 NOSIG
0,[Scattered Clouds],1996-8-5,[24.0 °C],[],"[35.2 km/h
		/ 9.8 m/s]",[33.5 °C],[74%],[N/A],[1002 hPa],[29.0 °C],[9:00 PM],[10.0 km],[ENE],"[16.7 km/h
		/ 4.6 m/s]",METAR VHHH 051300Z 07009G19KT 010V140 9999 FEW016 SCT020 29/24 Q1002 WS LDG RWY 13/31 NOSIG
0,[Partly Cloudy],1996-8-5,[24.0 °C],[],"[44.4 km/h
		/ 12.3 m/s]",[33.5 °C],[74%],[N/A],[1002 hPa],[29.0 °C],[10:00 PM],[10.0 km],[NE],"[20.4 km/h
		/ 5.7 m/s]",METAR VHHH 051400Z 05011G24KT 320V120 9999 FEW016 29/24 Q1002 WS LDG RWY 13/13 NOSIG
0,[Partly Cloudy],1996-8-5,[23.0 °C],[],[-],[32.7 °C],[70%],[N/A],[1002 hPa],[29.0 °C],[11:00 PM],[10.0 km],[ENE],"[22.2 km/h
		/ 6.2 m/s]",METAR VHHH 051500Z 06012KT 360V100 9999 FEW016 29/23 Q1002 WS LDG RWY 13/31 NOSIG
0,[Scattered Clouds],1996-8-6,[23.0 °C],[],[-],[31.2 °C],[74%],[N/A],[1001 hPa],[28.0 °C],[12:00 AM],[10.0 km],[ENE],"[22.2 km/h
		/ 6.2 m/s]",METAR VHHH 051600Z 06012KT 270V100 9999 FEW016 SCT022 28/23 Q1001 WS LDG RWY 13/31 NOSIG
0,[Scattered Clouds],1996-8-6,[23.0 °C],[],[-],[31.2 °C],[74%],[N/A],[1001 hPa],[28.0 °C],[1:00 AM],[10.0 km],[ENE],"[20.4 km/h
		/ 5.7 m/s]",METAR VHHH 051700Z 06011KT 340V110 9999 FEW016 SCT022 28/23 Q1001 WS LDG RWY 13/31 NOSIG
0,[Scattered Clouds],1996-8-6,[23.0 °C],[],"[48.2 km/h
		/ 13.4 m/s]",[31.2 °C],[74%],[N/A],[1000 hPa],[28.0 °C],[2:00 AM],[10.0 km],[ENE],"[24.1 km/h
		/ 6.7 m/s]",METAR VHHH 051800Z 07013G26KT 350V120 9999 FEW016 SCT022 28/23 Q1000 WS LDG RWY 13/31 NOSIG
0,[Scattered Clouds],1996-8-6,[23.0 °C],[],[-],[31.2 °C],[74%],[N/A],[1000 hPa],[28.0 °C],[3:00 AM],[10.0 km],[NE],"[14.8 km/h
		/ 4.1 m/s]",METAR VHHH 051900Z 05008KT 330V100 9999 FEW020 SCT025 28/23 Q1000 WS LDG RWY 13/31 NOSIG
0,[Scattered Clouds],1996-8-6,[22.0 °C],[],[-],[30.7 °C],[70%],[N/A],[1000 hPa],[28.0 °C],[4:00 AM],[10.0 km],[NE],"[9.3 km/h
		/ 2.6 m/s]",METAR VHHH 052000Z 05005KT 340V110 9999 FEW020 SCT025 28/22 Q1000 WS LDG RWY 13/31 NOSIG
0,[Partly Cloudy],1996-8-6,[22.0 °C],[],[-],[30.7 °C],[70%],[N/A],[999 hPa],[28.0 °C],[5:00 AM],[10.0 km],[NE],"[13.0 km/h
		/ 3.6 m/s]",METAR VHHH 052100Z 04007KT 330V110 9999 FEW020 28/22 Q0999 WS LDG RWY 13/31 NOSIG
0,[Scattered Clouds],1996-8-6,[23.0 °C],[],[-],[31.2 °C],[74%],[N/A],[1000 hPa],[28.0 °C],[6:00 AM],[10.0 km],[NNE],"[9.3 km/h
		/ 2.6 m/s]",METAR VHHH 052200Z 03005KT 280V120 9999 FEW020 SCT080 28/23 Q1000 WS LDG RWY 13/31 NOSIG
0,[Mostly Cloudy],1996-8-6,[23.0 °C],[],[-],[31.2 °C],[74%],[N/A],[1000 hPa],[28.0 °C],[7:00 AM],[10.0 km],[ENE],"[9.3 km/h
		/ 2.6 m/s]",METAR VHHH 052300Z 06005KT 340V130 9999 FEW020 BKN080 28/23 Q1000 WS LDG RWY 13/31 NOSIG
0,[Mostly Cloudy],1996-8-6,[23.0 °C],[],"[27.8 km/h
		/ 7.7 m/s]",[31.2 °C],[74%],[N/A],[1000 hPa],[28.0 °C],[8:00 AM],[10.0 km],[North],"[9.3 km/h
		/ 2.6 m/s]",METAR VHHH 060000Z 36005G15KT 310V130 9999 FEW025 BKN300 28/23 Q1000 WS LDG RWY 13/31 NOSIG
0,[Mostly Cloudy],1996-8-6,[23.0 °C],[],[-],[34.1 °C],[66%],[N/A],[1000 hPa],[30.0 °C],[9:00 AM],[10.0 km],[NNW],"[13.0 km/h
		/ 3.6 m/s]",METAR VHHH 060100Z 33007KT 240V050 9999 FEW022 SCT030 BKN300 30/23 Q1000 WS LDG RWY 13/31 NOSIG
0,[Mostly Cloudy],1996-8-6,[23.0 °C],[],[-],[36.8 °C],[59%],[N/A],[1000 hPa],[32.0 °C],[11:00 AM],[10.0 km],[North],"[14.8 km/h
		/ 4.1 m/s]",METAR VHHH 060300Z 36008KT 290V070 9999 FEW022 SCT030 BKN300 32/23 Q1000 WS LDG RWY 13/31 NOSIG
0,[Mostly Cloudy],1996-8-6,[23.0 °C],[],[-],[37.8 °C],[55%],[N/A],[1000 hPa],[33.0 °C],[12:00 PM],[10.0 km],[NNW],"[14.8 km/h
		/ 4.1 m/s]",METAR VHHH 060400Z 34008KT 290V040 9999 SCT025 SCT100 BKN300 33/23 Q1000 WS LDG RWY 13/31 NOSIG
0,[Mostly Cloudy],1996-8-6,[24.0 °C],[],[-],[40.6 °C],[56%],[N/A],[999 hPa],[34.0 °C],[1:00 PM],[10.0 km],[NW],"[11.1 km/h
		/ 3.1 m/s]",METAR VHHH 060500Z 31006KT 290V030 9999 FEW025 BKN300 34/24 Q0999 WS LDG RWY 13/31 NOSIG
0,[Mostly Cloudy],1996-8-6,[24.0 °C],[],[-],[39.2 °C],[59%],[N/A],[999 hPa],[33.0 °C],[2:00 PM],[10.0 km],[NNW],"[11.1 km/h
		/ 3.1 m/s]",METAR VHHH 060600Z 34006KT 260V020 9999 SCT025 BKN300 33/24 Q0999 WS LDG RWY 13/31 TEMPO 4000 SHRA
0,[Mostly Cloudy],1996-8-6,[23.0 °C],[],[-],[37.8 °C],[55%],[N/A],[999 hPa],[33.0 °C],[3:00 PM],[10.0 km],[NNE],"[11.1 km/h
		/ 3.1 m/s]",METAR VHHH 060700Z 03006KT 320V060 9999 FEW025 BKN080 33/23 Q0999 TEMPO 4000 SHRA
0,[Mostly Cloudy],1996-8-6,[23.0 °C],[],"[29.6 km/h
		/ 8.2 m/s]",[37.8 °C],[55%],[N/A],[999 hPa],[33.0 °C],[4:00 PM],[10.0 km],[West],"[11.1 km/h
		/ 3.1 m/s]",METAR VHHH 060800Z 27006G16KT 190V330 9999 FEW025 BKN080 33/23 Q0999 NOSIG
0,[Scattered Clouds],1996-8-6,[24.0 °C],[],[-],[39.2 °C],[59%],[N/A],[998 hPa],[33.0 °C],[5:00 PM],[10.0 km],[West],"[18.5 km/h
		/ 5.1 m/s]",METAR VHHH 060900Z 26010KT 230V290 9999 FEW025 SCT300 33/24 Q0998 NOSIG
0,[Mostly Cloudy],1996-8-6,[23.0 °C],[],[-],[37.8 °C],[55%],[N/A],[998 hPa],[33.0 °C],[6:00 PM],[10.0 km],[West],"[22.2 km/h
		/ 6.2 m/s]",METAR VHHH 061000Z 26012KT 9999 FEW025 BKN300 33/23 Q0998 NOSIG
0,[Mostly Cloudy],1996-8-6,[23.0 °C],[],[-],[36.8 °C],[59%],[N/A],[998 hPa],[32.0 °C],[7:00 PM],[10.0 km],[West],"[18.5 km/h
		/ 5.1 m/s]",METAR VHHH 061100Z 27010KT 9999 FEW025 BKN300 32/23 Q0998 NOSIG
0,[Mostly Cloudy],1996-8-6,[25.0 °C],[],[-],[36.0 °C],[74%],[N/A],[999 hPa],[30.0 °C],[8:00 PM],[10.0 km],[West],"[13.0 km/h
		/ 3.6 m/s]",METAR VHHH 061200Z 26007KT 9999 FEW025 BKN300 30/25 Q0999 NOSIG
0,[Mostly Cloudy],1996-8-6,[25.0 °C],[],[-],[32.7 °C],[84%],[N/A],[1000 hPa],[28.0 °C],[9:00 PM],[10.0 km],[West],"[9.3 km/h
		/ 2.6 m/s]",METAR VHHH 061300Z 28005KT 240V330 9999 FEW025 BKN300 28/25 Q1000 NOSIG
0,[Mostly Cloudy],1996-8-6,[27.0 °C],[],[-],[38.8 °C],[84%],[N/A],[1000 hPa],[30.0 °C],[10:00 PM],[10.0 km],[West],"[11.1 km/h
		/ 3.1 m/s]",METAR VHHH 061400Z 27006KT 210V340 9999 FEW020 BKN300 30/27 Q1000 NOSIG
0,[Mostly Cloudy],1996-8-7,[27.0 °C],[],[-],[38.8 °C],[84%],[N/A],[1001 hPa],[30.0 °C],[12:00 AM],[10.0 km],[WSW],"[11.1 km/h
		/ 3.1 m/s]",METAR VHHH 061600Z 25006KT 9999 FEW012 BKN300 30/27 Q1001 NOSIG
0,[Scattered Clouds],1996-8-7,[27.0 °C],[],[-],[36.8 °C],[89%],[N/A],[1001 hPa],[29.0 °C],[1:00 AM],[9.0 km],[SW],"[22.2 km/h
		/ 6.2 m/s]",METAR VHHH 061700Z 23012KT 9000 FEW012 SCT018 29/27 Q1001 NOSIG
0,[Scattered Clouds],1996-8-7,[27.0 °C],[],"[46.3 km/h
		/ 12.9 m/s]",[36.8 °C],[89%],[N/A],[1000 hPa],[29.0 °C],[2:00 AM],[9.0 km],[SW],"[27.8 km/h
		/ 7.7 m/s]",METAR VHHH 061800Z 23015G25KT 9000 FEW010 SCT016 29/27 Q1000 WS LDG RWY 13/31 NOSIG
0,[Mostly Cloudy],1996-8-7,[26.0 °C],[],[-],[35.6 °C],[84%],[N/A],[1001 hPa],[29.0 °C],[4:00 AM],[10.0 km],[SW],"[24.1 km/h
		/ 6.7 m/s]",METAR VHHH 062000Z 23013KT 9999 FEW010 SCT018 BKN300 29/26 Q1001 WS LDG RWY 13/31 NOSIG
0,[Mostly Cloudy],1996-8-7,[-],[],[-],[-],[N/A%],[N/A],[-],[-],[5:00 AM],[10.0 km],[WSW],"[24.1 km/h
		/ 6.7 m/s]",METAR VHHH 062100Z 24013KT 200V270 9999 FEW014 SCT020 BKN300 WS LDG RWY 13/31 NOSIG
0,[Mostly Cloudy],1996-8-7,[26.0 °C],[],[-],[35.6 °C],[84%],[N/A],[1002 hPa],[29.0 °C],[6:00 AM],[10.0 km],[West],"[20.4 km/h
		/ 5.7 m/s]",METAR VHHH 062200Z 26011KT 200V300 9999 FEW014 SCT020 BKN300 29/26 Q1002 WS LDG RWY 13/31 NOSIG
0,[Mostly Cloudy],1996-8-7,[26.0 °C],[],[-],[35.6 °C],[84%],[N/A],[1002 hPa],[29.0 °C],[8:00 AM],[10.0 km],[WSW],"[22.2 km/h
		/ 6.2 m/s]",METAR VHHH 070000Z 24012KT 200V290 9999 FEW014 SCT018 BKN090 29/26 Q1002 WS LDG RWY 13/31 NOSIG
0,[Mostly Cloudy],1996-8-7,[26.0 °C],[],[-],[37.4 °C],[79%],[N/A],[1003 hPa],[30.0 °C],[9:00 AM],[10.0 km],[West],"[13.0 km/h
		/ 3.6 m/s]",METAR VHHH 070100Z 26007KT 210V300 9999 FEW014 SCT018 BKN080 30/26 Q1003 WS LDG RWY 13/31 NOSIG
0,[Mostly Cloudy],1996-8-7,[26.0 °C],[],[-],[39.2 °C],[75%],[N/A],[1003 hPa],[31.0 °C],[10:00 AM],[10.0 km],[WSW],"[22.2 km/h
		/ 6.2 m/s]",METAR VHHH 070200Z 24012KT 9999 FEW014 SCT018 BKN080 31/26 Q1003 WS LDG RWY 13/31 NOSIG
0,[Mostly Cloudy],1996-8-7,[26.0 °C],[],[-],[39.2 °C],[75%],[N/A],[1003 hPa],[31.0 °C],[11:00 AM],[10.0 km],[SW],"[20.4 km/h
		/ 5.7 m/s]",METAR VHHH 070300Z 23011KT 190V290 9999 FEW016 SCT020 BKN080 31/26 Q1003 WS LDG RWY 13/31 NOSIG
0,[Mostly Cloudy],1996-8-7,[26.0 °C],[],[-],[39.2 °C],[75%],[N/A],[1003 hPa],[31.0 °C],[12:00 PM],[10.0 km],[SSW],"[16.7 km/h
		/ 4.6 m/s]",METAR VHHH 070400Z 21009KT 180V290 9999 FEW014 SCT020 BKN080 31/26 Q1003 WS LDG RWY 13/31 NOSIG
0,[Mostly Cloudy],1996-8-7,[26.0 °C],[],[-],[39.2 °C],[75%],[N/A],[1003 hPa],[31.0 °C],[1:00 PM],[10.0 km],[SW],"[22.2 km/h
		/ 6.2 m/s]",METAR VHHH 070500Z 23012KT 9999 FEW014 SCT020 BKN080 31/26 Q1003 WS LDG RWY 13/31 NOSIG
0,[Mostly Cloudy],1996-8-7,[26.0 °C],[],"[40.7 km/h
		/ 11.3 m/s]",[39.2 °C],[75%],[N/A],[1002 hPa],[31.0 °C],[2:00 PM],[10.0 km],[SW],"[20.4 km/h
		/ 5.7 m/s]",METAR VHHH 070600Z 23011G22KT 170V270 9999 FEW014 SCT020 BKN080 31/26 Q1002 WS LDG RWY 13/31 NOSIG
0,[Mostly Cloudy],1996-8-7,[26.0 °C],[],[-],[39.2 °C],[75%],[N/A],[1002 hPa],[31.0 °C],[4:00 PM],[10.0 km],[SW],"[20.4 km/h
		/ 5.7 m/s]",METAR VHHH 070800Z 23011KT 110V330 9999 FEW014 SCT020 BKN080 31/26 Q1002 WS LDG RWY 13/31 NOSIG
0,[Mostly Cloudy],1996-8-7,[25.0 °C],[],[-],[37.6 °C],[70%],[N/A],[1002 hPa],[31.0 °C],[5:00 PM],[10.0 km],[WSW],"[16.7 km/h
		/ 4.6 m/s]",METAR VHHH 070900Z 24009KT 190V320 9999 FEW014 SCT020 BKN080 31/25 Q1002 NOSIG
0,[Mostly Cloudy],1996-8-7,[25.0 °C],[],[-],[36.0 °C],[74%],[N/A],[1002 hPa],[30.0 °C],[6:00 PM],[10.0 km],[WSW],"[13.0 km/h
		/ 3.6 m/s]",METAR VHHH 071000Z 24007KT 200V280 9999 FEW014 SCT020 BKN100 30/25 Q1002 NOSIG
0,[Mostly Cloudy],1996-8-7,[25.0 °C],[],[-],[36.0 °C],[74%],[N/A],[1002 hPa],[30.0 °C],[7:00 PM],[10.0 km],[SW],"[13.0 km/h
		/ 3.6 m/s]",METAR VHHH 071100Z 23007KT 190V290 9999 FEW014 SCT020 BKN100 30/25 Q1002 NOSIG
0,[Mostly Cloudy],1996-8-7,[26.0 °C],[],[-],[37.4 °C],[79%],[N/A],[1003 hPa],[30.0 °C],[8:00 PM],[10.0 km],[SW],"[13.0 km/h
		/ 3.6 m/s]",METAR VHHH 071200Z 23007KT 180V280 9999 FEW014 SCT020 BKN100 30/26 Q1003 NOSIG
0,[Mostly Cloudy],1996-8-7,[26.0 °C],[],[-],[37.4 °C],[79%],[N/A],[1004 hPa],[30.0 °C],[9:00 PM],[10.0 km],[SW],"[11.1 km/h
		/ 3.1 m/s]",METAR VHHH 071300Z 22006KT 180V300 9999 FEW014 SCT018 BKN100 30/26 Q1004 NOSIG
0,[Scattered Clouds],1996-8-7,[25.0 °C],[],[-],[36.0 °C],[74%],[N/A],[1004 hPa],[30.0 °C],[10:00 PM],[10.0 km],[SSW],"[7.4 km/h
		/ 2.1 m/s]",METAR VHHH 071400Z 20004KT 140V260 9999 FEW015 SCT020 30/25 Q1004 NOSIG
0,[Scattered Clouds],1996-8-7,[25.0 °C],[],[-],[36.0 °C],[74%],[N/A],[1004 hPa],[30.0 °C],[11:00 PM],[10.0 km],[SSW],"[13.0 km/h
		/ 3.6 m/s]",METAR VHHH 071500Z 21007KT 170V250 9999 FEW015 SCT020 30/25 Q1004 NOSIG
0,[Scattered Clouds],1996-8-8,[25.0 °C],[],[-],[34.5 °C],[79%],[N/A],[1004 hPa],[29.0 °C],[12:00 AM],[10.0 km],[SSW],"[11.1 km/h
		/ 3.1 m/s]",METAR VHHH 071600Z 20006KT 170V250 9999 FEW014 SCT020 29/25 Q1004 NOSIG
0,[Scattered Clouds],1996-8-8,[25.0 °C],[],[-],[34.5 °C],[79%],[N/A],[1004 hPa],[29.0 °C],[1:00 AM],[10.0 km],[SW],"[11.1 km/h
		/ 3.1 m/s]",METAR VHHH 071700Z 23006KT 9999 FEW014 SCT020 29/25 Q1004 NOSIG
0,[Scattered Clouds],1996-8-8,[25.0 °C],[],[-],[34.5 °C],[79%],[N/A],[1004 hPa],[29.0 °C],[2:00 AM],[10.0 km],[SW],"[9.3 km/h
		/ 2.6 m/s]",METAR VHHH 071800Z 22005KT 9999 FEW014 SCT020 29/25 Q1004 NOSIG
0,[Scattered Clouds],1996-8-8,[25.0 °C],[],[-],[34.5 °C],[79%],[N/A],[1004 hPa],[29.0 °C],[3:00 AM],[10.0 km],[SW],"[11.1 km/h
		/ 3.1 m/s]",METAR VHHH 071900Z 23006KT 9999 FEW016 SCT020 29/25 Q1004 NOSIG
0,[Scattered Clouds],1996-8-8,[26.0 °C],[],[-],[35.6 °C],[84%],[N/A],[1003 hPa],[29.0 °C],[4:00 AM],[10.0 km],[SW],"[14.8 km/h
		/ 4.1 m/s]",METAR VHHH 072000Z 23008KT 190V260 9999 FEW013 SCT020 29/26 Q1003 NOSIG
0,[Scattered Clouds],1996-8-8,[26.0 °C],[],[-],[35.6 °C],[84%],[N/A],[1003 hPa],[29.0 °C],[5:00 AM],[10.0 km],[West],"[9.3 km/h
		/ 2.6 m/s]",METAR VHHH 072100Z 26005KT 9999 FEW013 SCT020 29/26 Q1003 NOSIG
0,[Scattered Clouds],1996-8-8,[26.0 °C],[],[-],[33.6 °C],[89%],[N/A],[1003 hPa],[28.0 °C],[6:00 AM],[10.0 km],[WSW],"[13.0 km/h
		/ 3.6 m/s]",METAR VHHH 072200Z 25007KT 9999 SCT015 SCT300 28/26 Q1003 NOSIG
0,[Scattered Clouds],1996-8-8,[26.0 °C],[],[-],[35.6 °C],[84%],[N/A],[1004 hPa],[29.0 °C],[7:00 AM],[10.0 km],[WSW],"[9.3 km/h
		/ 2.6 m/s]",METAR VHHH 072300Z 25005KT 210V280 9999 SCT015 SCT300 29/26 Q1004 NOSIG
0,[Scattered Clouds],1996-8-8,[26.0 °C],[],[-],[35.6 °C],[84%],[N/A],[1005 hPa],[29.0 °C],[8:00 AM],[10.0 km],[WSW],"[11.1 km/h
		/ 3.1 m/s]",METAR VHHH 080000Z 25006KT 180V290 9999 FEW014 SCT020 29/26 Q1005 NOSIG
0,[Scattered Clouds],1996-8-8,[25.0 °C],[],[-],[37.6 °C],[70%],[N/A],[1005 hPa],[31.0 °C],[9:00 AM],[10.0 km],[WSW],"[11.1 km/h
		/ 3.1 m/s]",METAR VHHH 080100Z 24006KT 210V340 9999 FEW018 SCT025 31/25 Q1005 NOSIG
0,[Scattered Clouds],1996-8-8,[25.0 °C],[],[-],[37.6 °C],[70%],[N/A],[1005 hPa],[31.0 °C],[10:00 AM],[10.0 km],[WSW],"[11.1 km/h
		/ 3.1 m/s]",METAR VHHH 080200Z 25006KT 190V290 9999 SCT022 SCT300 31/25 Q1005 NOSIG
0,[Scattered Clouds],1996-8-8,[24.0 °C],[],[-],[37.7 °C],[62%],[N/A],[1004 hPa],[32.0 °C],[12:00 PM],[10.0 km],[SW],"[13.0 km/h
		/ 3.6 m/s]",METAR VHHH 080400Z 23007KT 190V310 9999 SCT022 SCT300 32/24 Q1004 NOSIG
0,[Scattered Clouds],1996-8-8,[25.0 °C],[],"[35.2 km/h
		/ 9.8 m/s]",[39.0 °C],[66%],[N/A],[1004 hPa],[32.0 °C],[1:00 PM],[10.0 km],[SW],"[16.7 km/h
		/ 4.6 m/s]",METAR VHHH 080500Z 23009G19KT 090V290 9999 SCT022 SCT300 32/25 Q1004 NOSIG
0,[Mostly Cloudy],1996-8-8,[25.0 °C],[],[-],[39.0 °C],[66%],[N/A],[1003 hPa],[32.0 °C],[3:00 PM],[10.0 km],[SSW],"[13.0 km/h
		/ 3.6 m/s]",METAR VHHH 080700Z 21007KT 120V300 9999 SCT016 BKN300 32/25 Q1003 NOSIG
0,[Mostly Cloudy],1996-8-8,[25.0 °C],[],[-],[39.0 °C],[66%],[N/A],[1002 hPa],[32.0 °C],[4:00 PM],[10.0 km],[SSW],"[11.1 km/h
		/ 3.1 m/s]",METAR VHHH 080800Z 20006KT 100V250 9999 FEW016 BKN300 32/25 Q1002 NOSIG
0,[Mostly Cloudy],1996-8-8,[26.0 °C],[],"[38.9 km/h
		/ 10.8 m/s]",[39.2 °C],[75%],[N/A],[1002 hPa],[31.0 °C],[5:00 PM],[10.0 km],[SSW],"[18.5 km/h
		/ 5.1 m/s]",METAR VHHH 080900Z 20010G21KT 100V260 9999 FEW016 BKN300 31/26 Q1002 NOSIG
0,[Mostly Cloudy],1996-8-8,[26.0 °C],[],[-],[39.2 °C],[75%],[N/A],[1002 hPa],[31.0 °C],[6:00 PM],[10.0 km],[SSW],"[11.1 km/h
		/ 3.1 m/s]",METAR VHHH 081000Z 21006KT 180V270 9999 FEW016 BKN300 31/26 Q1002 NOSIG
0,[Mostly Cloudy],1996-8-8,[25.0 °C],[],[-],[36.0 °C],[74%],[N/A],[1003 hPa],[30.0 °C],[7:00 PM],[10.0 km],[SSW],"[18.5 km/h
		/ 5.1 m/s]",METAR VHHH 081100Z 20010KT 170V270 9999 FEW016 BKN300 30/25 Q1003 NOSIG
0,[Mostly Cloudy],1996-8-8,[26.0 °C],[],[-],[37.4 °C],[79%],[N/A],[1004 hPa],[30.0 °C],[8:00 PM],[10.0 km],[SSW],"[11.1 km/h
		/ 3.1 m/s]",METAR VHHH 081200Z 21006KT 170V260 9999 FEW016 BKN300 30/26 Q1004 NOSIG
0,[Mostly Cloudy],1996-8-8,[25.0 °C],[],[-],[34.5 °C],[79%],[N/A],[1004 hPa],[29.0 °C],[9:00 PM],[10.0 km],[SSW],"[11.1 km/h
		/ 3.1 m/s]",METAR VHHH 081300Z 21006KT 130V290 9999 FEW018 BKN300 29/25 Q1004 NOSIG
0,[Mostly Cloudy],1996-8-8,[25.0 °C],[],[-],[34.5 °C],[79%],[N/A],[1004 hPa],[29.0 °C],[10:00 PM],[10.0 km],[SW],"[14.8 km/h
		/ 4.1 m/s]",METAR VHHH 081400Z 23008KT 190V270 9999 FEW018 BKN300 29/25 Q1004 NOSIG
0,[Scattered Clouds],1996-8-8,[25.0 °C],[],[-],[36.0 °C],[74%],[N/A],[1004 hPa],[30.0 °C],[11:00 PM],[10.0 km],[WSW],"[11.1 km/h
		/ 3.1 m/s]",METAR VHHH 081500Z 24006KT 190V300 9999 FEW017 SCT022 30/25 Q1004 NOSIG
0,[Mostly Cloudy],1996-8-9,[25.0 °C],[],[-],[34.5 °C],[79%],[N/A],[1004 hPa],[29.0 °C],[12:00 AM],[10.0 km],[WSW],"[13.0 km/h
		/ 3.6 m/s]",METAR VHHH 081600Z 24007KT 200V260 9999 FEW017 BKN300 29/25 Q1004 NOSIG
0,[Mostly Cloudy],1996-8-9,[26.0 °C],[],[-],[35.6 °C],[84%],[N/A],[1003 hPa],[29.0 °C],[2:00 AM],[10.0 km],[WSW],"[7.4 km/h
		/ 2.1 m/s]",METAR VHHH 081800Z 24004KT 9999 FEW014 BKN300 29/26 Q1003 NOSIG
0,[Mostly Cloudy],1996-8-9,[26.0 °C],[],[-],[33.6 °C],[89%],[N/A],[1003 hPa],[28.0 °C],[4:00 AM],[10.0 km],[West],"[7.4 km/h
		/ 2.1 m/s]",METAR VHHH 082000Z 28004KT 9999 FEW013 BKN300 28/26 Q1003 NOSIG
0,[Mostly Cloudy],1996-8-9,[26.0 °C],[],[-],[33.6 °C],[89%],[N/A],[1003 hPa],[28.0 °C],[5:00 AM],[10.0 km],[West],"[3.7 km/h
		/ 1.0 m/s]",METAR VHHH 082100Z 27002KT 9999 FEW015 BKN300 28/26 Q1003 NOSIG
0,[Mostly Cloudy],1996-8-9,[26.0 °C],[],[-],[35.6 °C],[84%],[N/A],[1003 hPa],[29.0 °C],[6:00 AM],[10.0 km],[West],"[7.4 km/h
		/ 2.1 m/s]",METAR VHHH 082200Z 28004KT 220V300 9999 FEW014 SCT020 BKN300 29/26 Q1003 TEMPO 4000 SHRA
0,[Scattered Clouds],1996-8-9,[26.0 °C],[],[-],[35.6 °C],[84%],[N/A],[1003 hPa],[29.0 °C],[7:00 AM],[10.0 km],[West],"[1.9 km/h
		/ 0.5 m/s]",METAR VHHH 082300Z 28001KT 9999 FEW014 SCT020 29/26 Q1003 TEMPO 4000 SHRA
0,[Scattered Clouds],1996-8-9,[26.0 °C],[],[-],[37.4 °C],[79%],[N/A],[1004 hPa],[30.0 °C],[8:00 AM],[10.0 km],[West],"[13.0 km/h
		/ 3.6 m/s]",METAR VHHH 090000Z 26007KT 240V310 9999 FEW014 SCT300 30/26 Q1004 NOSIG
0,[Scattered Clouds],1996-8-9,[25.0 °C],[],[-],[36.0 °C],[74%],[N/A],[1005 hPa],[30.0 °C],[9:00 AM],[10.0 km],[West],"[18.5 km/h
		/ 5.1 m/s]",METAR VHHH 090100Z 27010KT 220V350 9999 FEW018 SCT300 30/25 Q1005 NOSIG
0,[Mostly Cloudy],1996-8-9,[25.0 °C],[],[-],[36.0 °C],[74%],[N/A],[1005 hPa],[30.0 °C],[10:00 AM],[10.0 km],[West],"[16.7 km/h
		/ 4.6 m/s]",METAR VHHH 090200 26009KT 170V320 9999 FEW020 BKN300 30/25 Q1005 NOSIG
0,[Mostly Cloudy],1996-8-9,[25.0 °C],[],[-],[39.0 °C],[66%],[N/A],[1005 hPa],[32.0 °C],[11:00 AM],[10.0 km],[SW],"[18.5 km/h
		/ 5.1 m/s]",METAR VHHH 090300Z 23010KT 190V290 9999 SCT020 BKN300 32/25 Q1005 NOSIG
0,[Mostly Cloudy],1996-8-9,[24.0 °C],[],[-],[36.4 °C],[66%],[N/A],[1004 hPa],[31.0 °C],[12:00 PM],[10.0 km],[West],"[18.5 km/h
		/ 5.1 m/s]",METAR VHHH 090400Z 27010KT 210V300 9999 FEW020 BKN120 31/24 Q1004 NOSIG
0,[Mostly Cloudy],1996-8-9,[24.0 °C],[],[-],[36.4 °C],[66%],[N/A],[1002 hPa],[31.0 °C],[5:00 PM],[10.0 km],[WSW],"[14.8 km/h
		/ 4.1 m/s]",METAR VHHH 090900Z 24008KT 180V290 9999 FEW020 SCT030 BKN100 31/24 Q1002 NOSIG
0,[Mostly Cloudy],1996-8-9,[25.0 °C],[],[-],[37.6 °C],[70%],[N/A],[1002 hPa],[31.0 °C],[6:00 PM],[10.0 km],[WSW],"[7.4 km/h
		/ 2.1 m/s]",METAR VHHH 091000Z 24004KT 160V280 9999 FEW018 SCT030 BKN100 31/25 Q1002 NOSIG
0,[Mostly Cloudy],1996-8-9,[25.0 °C],[],[-],[36.0 °C],[74%],[N/A],[1002 hPa],[30.0 °C],[7:00 PM],[10.0 km],[SSW],"[13.0 km/h
		/ 3.6 m/s]",METAR VHHH 091100Z 21007KT 160V260 9999 FEW018 SCT100 BKN300 30/25 Q1002 NOSIG
0,[Mostly Cloudy],1996-8-9,[25.0 °C],[],"[33.3 km/h
		/ 9.3 m/s]",[36.0 °C],[74%],[N/A],[1004 hPa],[30.0 °C],[8:00 PM],[10.0 km],[SW],"[7.4 km/h
		/ 2.1 m/s]",METAR VHHH 091200Z 23004G18KT 160V310 9999 FEW018 BKN100 30/25 Q1004 NOSIG
0,[Mostly Cloudy],1996-8-9,[26.0 °C],[],"[25.9 km/h
		/ 7.2 m/s]",[37.4 °C],[79%],[N/A],[1004 hPa],[30.0 °C],[9:00 PM],[10.0 km],[SW],"[7.4 km/h
		/ 2.1 m/s]",METAR VHHH 091300Z 23004G14KT 170V270 9999 FEW018 SCT025 BKN100 30/26 Q1004 NOSIG
0,[Mostly Cloudy],1996-8-9,[26.0 °C],[],[-],[37.4 °C],[79%],[N/A],[1004 hPa],[30.0 °C],[10:00 PM],[10.0 km],[WSW],"[5.6 km/h
		/ 1.5 m/s]",METAR VHHH 091400Z 25003KT 9999 FEW020 BKN100 30/26 Q1004 NOSIG
0,[Mostly Cloudy],1996-8-9,[26.0 °C],[],"[29.6 km/h
		/ 8.2 m/s]",[37.4 °C],[79%],[N/A],[1005 hPa],[30.0 °C],[11:00 PM],[10.0 km],[SW],"[11.1 km/h
		/ 3.1 m/s]",METAR VHHH 091500Z 23006G16KT 050V330 9999 FEW018 SCT022 BKN100 30/26 Q1005 NOSIG
0,[Mostly Cloudy],1996-8-10,[26.0 °C],[],[-],[35.6 °C],[84%],[N/A],[1003 hPa],[29.0 °C],[4:00 AM],[10.0 km],[WSW],"[7.4 km/h
		/ 2.1 m/s]",METAR VHHH 092000Z 24004KT 9999 FEW014 BKN100 29/26 Q1003 NOSIG
0,[Mostly Cloudy],1996-8-10,[26.0 °C],[],[-],[35.6 °C],[84%],[N/A],[1003 hPa],[29.0 °C],[6:00 AM],[10.0 km],[West],"[9.3 km/h
		/ 2.6 m/s]",METAR VHHH 092200Z 27005KT 9999 FEW016 BKN100 29/26 Q1003 NOSIG
0,[Partly Cloudy],1996-8-10,[26.0 °C],[],[-],[37.4 °C],[79%],[N/A],[1003 hPa],[30.0 °C],[7:00 AM],[10.0 km],[WNW],"[5.6 km/h
		/ 1.5 m/s]",METAR VHHH 092300Z 29003KT 230V330 9999 FEW020 30/26 Q1003 NOSIG
0,[Mostly Cloudy],1996-8-10,[25.0 °C],[],[-],[36.0 °C],[74%],[N/A],[1004 hPa],[30.0 °C],[8:00 AM],[10.0 km],[West],"[9.3 km/h
		/ 2.6 m/s]",METAR VHHH 100000Z 26005KT 230V300 9999 FEW018 BKN100 30/25 Q1004 TEMPO 4000 SHRA
0,[Mostly Cloudy],1996-8-10,[26.0 °C],[],[-],[39.2 °C],[75%],[N/A],[1004 hPa],[31.0 °C],[9:00 AM],[10.0 km],[West],"[16.7 km/h
		/ 4.6 m/s]",METAR VHHH 100100Z 27009KT 240V320 9999 FEW018 SCT025 BKN080 31/26 Q1004 TEMPO 4000 SHRA
0,[Mostly Cloudy],1996-8-10,[26.0 °C],[],[-],[39.2 °C],[75%],[N/A],[1004 hPa],[31.0 °C],[10:00 AM],[10.0 km],[WSW],"[14.8 km/h
		/ 4.1 m/s]",METAR VHHH 100200Z 24008KT 160V310 9999 SCT020 BKN090 31/26 Q1004 NOSIG
0,[Scattered Clouds],1996-8-10,[25.0 °C],[],[-],[39.0 °C],[66%],[N/A],[1004 hPa],[32.0 °C],[11:00 AM],[10.0 km],[West],"[14.8 km/h
		/ 4.1 m/s]",METAR VHHH 100300Z 26008KT 210V300 9999 SCT020 SCT120 32/25 Q1004 NOSIG
0,[Mostly Cloudy],1996-8-10,[25.0 °C],[],[-],[40.6 °C],[63%],[N/A],[1004 hPa],[33.0 °C],[12:00 PM],[10.0 km],[WSW],"[13.0 km/h
		/ 3.6 m/s]",METAR VHHH 100400 25007KT 210V310 9999 FEW018 SCT025 BKN090 33/25 Q1004 NOSIG
0,[Mostly Cloudy],1996-8-10,[25.0 °C],[],[-],[37.6 °C],[70%],[N/A],[1003 hPa],[31.0 °C],[1:00 PM],[9.0 km],[West],"[20.4 km/h
		/ 5.7 m/s]",METAR VHHH 100500Z 26011KT 220V310 9000W FEW015CB SCT025 BKN100 31/25 Q1003 RETS WS LDG RWY 13/31 TEMPO VRB15G28KT 2500 SHRA TSRA FEW008 FEW012CB SCT018 BKN080
0,[Mostly Cloudy],1996-8-10,[24.0 °C],[],[-],[36.4 °C],[66%],[N/A],[1003 hPa],[31.0 °C],[3:00 PM],[10.0 km],[West],"[13.0 km/h
		/ 3.6 m/s]",METAR VHHH 100700Z 28007KT 240V310 9999 FEW018 SCT025 BKN300 31/24 Q1003 WS LDG RWY 13/31 TEMPO VRB15G28KT 2500 SHRA TSRA FEW010 FEW012CB SCT018 BKN080
0,[Mostly Cloudy],1996-8-10,[25.0 °C],[],[-],[37.6 °C],[70%],[N/A],[1002 hPa],[31.0 °C],[4:00 PM],[10.0 km],[West],"[14.8 km/h
		/ 4.1 m/s]",METAR VHHH 100800Z 27008KT 230V330 9999 FEW018 BKN300 31/25 Q1002 WS LDG RWY 13/31 TEMPO VRB15G28KT 2500 SHRA TSRA FEW010 FEW012CB SCT018 BKN080
0,[Mostly Cloudy],1996-8-10,[25.0 °C],[],[-],[37.6 °C],[70%],[N/A],[1002 hPa],[31.0 °C],[5:00 PM],[10.0 km],[WSW],"[13.0 km/h
		/ 3.6 m/s]",METAR VHHH 100900Z 25007KT 240V300 9999 FEW025 BKN300 31/25 Q1002 WS LDG RWY 13/31 TEMPO VRB15G28KT 2500 SHRA TSRA FEW010 FEW012CB SCT018 BKN080
0,[Mostly Cloudy],1996-8-10,[25.0 °C],[],[-],[36.0 °C],[74%],[N/A],[1002 hPa],[30.0 °C],[6:00 PM],[10.0 km],[SW],"[13.0 km/h
		/ 3.6 m/s]",METAR VHHH 101000Z 23007KT 190V270 9999 FEW025 BKN300 30/25 Q1002 NOSIG
0,[Mostly Cloudy],1996-8-10,[25.0 °C],[],[-],[36.0 °C],[74%],[N/A],[1003 hPa],[30.0 °C],[7:00 PM],[10.0 km],[WSW],"[3.7 km/h
		/ 1.0 m/s]",METAR VHHH 101100Z 24002KT 9999 FEW025 BKN300 30/25 Q1003 NOSIG
0,[Mostly Cloudy],1996-8-10,[25.0 °C],[],[-],[36.0 °C],[74%],[N/A],[1003 hPa],[30.0 °C],[8:00 PM],[10.0 km],[East],"[7.4 km/h
		/ 2.1 m/s]",METAR VHHH 101200Z 09004KT 9999 FEW025 BKN300 30/25 Q1003 NOSIG
0,[Scattered Clouds],1996-8-10,[25.0 °C],[],[-],[36.0 °C],[74%],[N/A],[1004 hPa],[30.0 °C],[9:00 PM],[10.0 km],[SSW],"[5.6 km/h
		/ 1.5 m/s]",METAR VHHH 101300Z 20003KT 9999 FEW022 SCT120 30/25 Q1004 NOSIG
0,[Scattered Clouds],1996-8-10,[25.0 °C],[],[-],[36.0 °C],[74%],[N/A],[1004 hPa],[30.0 °C],[10:00 PM],[10.0 km],[SSE],"[3.7 km/h
		/ 1.0 m/s]",METAR VHHH 101400Z 15002KT 9999 FEW022 SCT100 30/25 Q1004 NOSIG
0,[Mostly Cloudy],1996-8-10,[25.0 °C],[],[-],[36.0 °C],[74%],[N/A],[1004 hPa],[30.0 °C],[11:00 PM],[10.0 km],[WSW],"[5.6 km/h
		/ 1.5 m/s]",METAR VHHH 101500Z 24003KT 9999 FEW022 BKN120 30/25 Q1004 NOSIG
0,[Scattered Clouds],1996-8-11,[25.0 °C],[],[-],[34.5 °C],[79%],[N/A],[1005 hPa],[29.0 °C],[12:00 AM],[10.0 km],[WSW],"[9.3 km/h
		/ 2.6 m/s]",METAR VHHH 101600Z 24005KT 150V270 9999 FEW025 SCT120 29/25 Q1005 NOSIG
0,[Scattered Clouds],1996-8-11,[25.0 °C],[],[-],[34.5 °C],[79%],[N/A],[1004 hPa],[29.0 °C],[1:00 AM],[10.0 km],[West],"[5.6 km/h
		/ 1.5 m/s]",METAR VHHH 101700Z 27003KT 9999 FEW022 SCT120 29/25 Q1004 NOSIG
0,[Scattered Clouds],1996-8-11,[25.0 °C],[],[-],[34.5 °C],[79%],[N/A],[1003 hPa],[29.0 °C],[2:00 AM],[10.0 km],[NW],"[3.7 km/h
		/ 1.0 m/s]",METAR VHHH 101800Z 31002KT 9999 SCT022 SCT120 29/25 Q1003 NOSIG
0,[Mostly Cloudy],1996-8-11,[26.0 °C],[],[-],[33.6 °C],[89%],[N/A],[1003 hPa],[28.0 °C],[3:00 AM],[10.0 km],[SE],"[1.9 km/h
		/ 0.5 m/s]",METAR VHHH 101900Z 14001KT 9999 FEW020 SCT030 BKN100 28/26 Q1003 NOSIG
0,[Mostly Cloudy],1996-8-11,[25.0 °C],[],[-],[32.7 °C],[84%],[N/A],[1003 hPa],[28.0 °C],[4:00 AM],[10.0 km],[Calm],[Calm],METAR VHHH 102000Z 00000KT 9999 FEW020 BKN100 28/25 Q1003 NOSIG
0,[Mostly Cloudy],1996-8-11,[25.0 °C],[],[-],[32.7 °C],[84%],[N/A],[1003 hPa],[28.0 °C],[5:00 AM],[10.0 km],[Calm],[Calm],METAR VHHH 102100Z 00000KT 9999 FEW020 BKN100 28/25 Q1003 NOSIG
0,[Scattered Clouds],1996-8-11,[26.0 °C],[],[-],[33.6 °C],[89%],[N/A],[1003 hPa],[28.0 °C],[6:00 AM],[7.0 km],[Calm],[Calm],METAR VHHH 102200Z 00000KT 7000 FEW020 SCT300 28/26 Q1003 NOSIG
0,[Scattered Clouds],1996-8-11,[26.0 °C],[],[-],[35.6 °C],[84%],[N/A],[1004 hPa],[29.0 °C],[7:00 AM],[9.0 km],[SSW],"[1.9 km/h
		/ 0.5 m/s]",METAR VHHH 102300Z 21001KT 9000 FEW020 SCT025 29/26 Q1004 NOSIG
0,[Scattered Clouds],1996-8-11,[25.0 °C],[],[-],[36.0 °C],[74%],[N/A],[1004 hPa],[30.0 °C],[8:00 AM],[10.0 km],[SW],"[9.3 km/h
		/ 2.6 m/s]",METAR VHHH 110000Z 22005KT 190V250 9999 FEW020 SCT100 30/25 Q1004 NOSIG
0,[Partly Cloudy],1996-8-11,[24.0 °C],[],[-],[36.4 °C],[66%],[N/A],[1004 hPa],[31.0 °C],[9:00 AM],[10.0 km],[SSW],"[7.4 km/h
		/ 2.1 m/s]",METAR VHHH 110100Z 21004KT 080V300 9999 FEW022 31/24 Q1004 NOSIG
0,[Scattered Clouds],1996-8-11,[24.0 °C],[],[-],[36.4 °C],[66%],[N/A],[1004 hPa],[31.0 °C],[10:00 AM],[10.0 km],[SSW],"[7.4 km/h
		/ 2.1 m/s]",METAR VHHH 110200Z 21004KT 150V250 9999 FEW022 SCT030 31/24 Q1004 NOSIG
0,[Scattered Clouds],1996-8-11,[25.0 °C],[],"[38.9 km/h
		/ 10.8 m/s]",[36.0 °C],[74%],[N/A],[1004 hPa],[30.0 °C],[11:00 AM],[10.0 km],[WSW],"[20.4 km/h
		/ 5.7 m/s]",METAR VHHH 110300Z 24011G21KT 190V300 9999 FEW014 SCT025 30/25 Q1004 WS LDG RWY 13/31 TEMPO VRB14G28KT 4000 SHRA TSRA FEW010 FEW012CB SCT018 BKN080
0,[Scattered Clouds],1996-8-11,[24.0 °C],[],[-],[36.4 °C],[66%],[N/A],[1004 hPa],[31.0 °C],[12:00 PM],[10.0 km],[WSW],"[11.1 km/h
		/ 3.1 m/s]",METAR VHHH 110400Z 24006KT 200V280 9999 FEW014 SCT025 31/24 Q1004 WS LDG RWY 13/31 TEMPO VRB14G28KT 4000 SHRA TSRA FEW010 FEW012CB SCT018 BKN080
0,[Scattered Clouds],1996-8-11,[24.0 °C],[],[-],[36.4 °C],[66%],[N/A],[1003 hPa],[31.0 °C],[1:00 PM],[10.0 km],[West],"[9.3 km/h
		/ 2.6 m/s]",METAR VHHH 110500Z 26005KT 120V340 9999 FEW020 SCT100 31/24 Q1003 NOSIG
0,[Scattered Clouds],1996-8-11,[25.0 °C],[],[-],[37.6 °C],[70%],[N/A],[1003 hPa],[31.0 °C],[2:00 PM],[10.0 km],[WSW],"[18.5 km/h
		/ 5.1 m/s]",METAR VHHH 110600Z 25010KT 210V290 9999 FEW020 SCT300 31/25 Q1003 NOSIG
0,[Mostly Cloudy],1996-8-11,[25.0 °C],[],"[42.6 km/h
		/ 11.8 m/s]",[39.0 °C],[66%],[N/A],[1002 hPa],[32.0 °C],[3:00 PM],[10.0 km],[SW],"[18.5 km/h
		/ 5.1 m/s]",METAR VHHH 110700Z 22010G23KT 200V290 9999 FEW016 BKN300 32/25 Q1002 NOSIG
0,[Mostly Cloudy],1996-8-11,[25.0 °C],[],"[44.4 km/h
		/ 12.3 m/s]",[34.5 °C],[79%],[N/A],[1002 hPa],[29.0 °C],[4:00 PM],[10.0 km],[SW],"[18.5 km/h
		/ 5.1 m/s]",METAR VHHH 110800Z 23010G24KT 180V290 9999 FEW016 SCT020 BKN080 29/25 Q1002 WS LDG RWY 13/31 TEMPO VRB15G28KT 3000 TSRA SCT012 SCT018CB BKN080
0,[Light Rain Showers],1996-8-11,[25.0 °C],[Rain],"[31.5 km/h
		/ 8.7 m/s]",[34.5 °C],[79%],[N/A],[1002 hPa],[29.0 °C],[5:00 PM],[10.0 km],[SW],"[13.0 km/h
		/ 3.6 m/s]",METAR VHHH 110900Z 23007G17KT 180V280 9999 -SHRA FEW020 SCT025 BKN080 29/25 Q1002 WS LDG RWY 13/31 TEMPO VRB15G28KT 3000 TSRA SCT012 SCT018CB BKN080
0,[Mostly Cloudy],1996-8-11,[24.0 °C],[],[-],[33.5 °C],[74%],[N/A],[1002 hPa],[29.0 °C],[6:00 PM],[10.0 km],[West],"[18.5 km/h
		/ 5.1 m/s]",METAR VHHH 111000Z 28010KT 9999 FEW020 SCT030 BKN080 29/24 Q1002 TEMPO 4000 SHRA
0,[Mostly Cloudy],1996-8-11,[25.0 °C],[],[-],[34.5 °C],[79%],[N/A],[1002 hPa],[29.0 °C],[7:00 PM],[10.0 km],[West],"[18.5 km/h
		/ 5.1 m/s]",METAR VHHH 111100Z 26010KT 230V300 9999 FEW017 BKN080 29/25 Q1002 NOSIG
0,[Mostly Cloudy],1996-8-11,[25.0 °C],[],[-],[34.5 °C],[79%],[N/A],[1003 hPa],[29.0 °C],[8:00 PM],[10.0 km],[West],"[18.5 km/h
		/ 5.1 m/s]",METAR VHHH 111200Z 28010KT 9999 FEW017 BKN080 29/25 Q1003 NOSIG
0,[Mostly Cloudy],1996-8-11,[24.0 °C],[],[-],[33.5 °C],[74%],[N/A],[1003 hPa],[29.0 °C],[9:00 PM],[10.0 km],[WSW],"[13.0 km/h
		/ 3.6 m/s]",METAR VHHH 111300Z 25007KT 210V290 9999 FEW018 BKN080 29/24 Q1003 NOSIG
0,[Scattered Clouds],1996-8-11,[24.0 °C],[],[-],[33.5 °C],[74%],[N/A],[1003 hPa],[29.0 °C],[10:00 PM],[10.0 km],[East],"[3.7 km/h
		/ 1.0 m/s]",METAR VHHH 111400Z 10002KT 9999 FEW025 SCT100 29/24 Q1003 NOSIG
0,[Partly Cloudy],1996-8-11,[24.0 °C],[],[-],[35.0 °C],[70%],[N/A],[1003 hPa],[30.0 °C],[11:00 PM],[10.0 km],[SSW],"[7.4 km/h
		/ 2.1 m/s]",METAR VHHH 111500Z 21004KT 150V250 9999 FEW025 30/24 Q1003 NOSIG
0,[Partly Cloudy],1996-8-12,[25.0 °C],[],[-],[34.5 °C],[79%],[N/A],[1003 hPa],[29.0 °C],[12:00 AM],[10.0 km],[South],"[7.4 km/h
		/ 2.1 m/s]",METAR VHHH 111600Z 18004KT 120V240 9999 FEW025 29/25 Q1003 NOSIG
0,[Partly Cloudy],1996-8-12,[24.0 °C],[],[-],[31.9 °C],[79%],[N/A],[1002 hPa],[28.0 °C],[1:00 AM],[10.0 km],[ESE],"[3.7 km/h
		/ 1.0 m/s]",METAR VHHH 111700Z 11002KT 9999 FEW025 28/24 Q1002 NOSIG
0,[Partly Cloudy],1996-8-12,[24.0 °C],[],[-],[31.9 °C],[79%],[N/A],[1002 hPa],[28.0 °C],[2:00 AM],[10.0 km],[West],"[5.6 km/h
		/ 1.5 m/s]",METAR VHHH 111800Z 26003KT 9999 FEW025 28/24 Q1002 NOSIG
0,[Scattered Clouds],1996-8-12,[24.0 °C],[],[-],[31.9 °C],[79%],[N/A],[1002 hPa],[28.0 °C],[3:00 AM],[10.0 km],[West],"[7.4 km/h
		/ 2.1 m/s]",METAR VHHH 111900Z 28004KT 9999 FEW025 SCT080 28/24 Q1002 NOSIG
0,[Scattered Clouds],1996-8-12,[24.0 °C],[],[-],[31.9 °C],[79%],[N/A],[1001 hPa],[28.0 °C],[4:00 AM],[10.0 km],[West],"[13.0 km/h
		/ 3.6 m/s]",METAR VHHH 112000Z 26007KT 9999 FEW025 SCT080 28/24 Q1001 NOSIG
0,[Scattered Clouds],1996-8-12,[24.0 °C],[],[-],[31.9 °C],[79%],[N/A],[1002 hPa],[28.0 °C],[5:00 AM],[10.0 km],[West],"[11.1 km/h
		/ 3.1 m/s]",METAR VHHH 112100Z 28006KT 9999 FEW020 SCT080 28/24 Q1002 NOSIG
0,[Scattered Clouds],1996-8-12,[25.0 °C],[],[-],[30.6 °C],[89%],[N/A],[1002 hPa],[27.0 °C],[6:00 AM],[10.0 km],[West],"[11.1 km/h
		/ 3.1 m/s]",METAR VHHH 112200Z 27006KT 9999 FEW015 SCT080 27/25 Q1002 NOSIG
0,[Scattered Clouds],1996-8-12,[24.0 °C],[],[-],[31.9 °C],[79%],[N/A],[1002 hPa],[28.0 °C],[7:00 AM],[10.0 km],[West],"[13.0 km/h
		/ 3.6 m/s]",METAR VHHH 112300Z 26007KT 9999 FEW017 SCT025 28/24 Q1002 NOSIG
0,[Partly Cloudy],1996-8-12,[24.0 °C],[],[-],[33.5 °C],[74%],[N/A],[1003 hPa],[29.0 °C],[8:00 AM],[10.0 km],[West],"[16.7 km/h
		/ 4.6 m/s]",METAR VHHH 120000Z 26009KT 9999 FEW017 29/24 Q1003 NOSIG
0,[Partly Cloudy],1996-8-12,[24.0 °C],[],[-],[35.0 °C],[70%],[N/A],[1004 hPa],[30.0 °C],[9:00 AM],[10.0 km],[WSW],"[13.0 km/h
		/ 3.6 m/s]",METAR VHHH 120100Z 25007KT 200V280 9999 FEW020 30/24 Q1004 NOSIG
0,[Partly Cloudy],1996-8-12,[24.0 °C],[],[-],[36.4 °C],[66%],[N/A],[1004 hPa],[31.0 °C],[10:00 AM],[10.0 km],[SW],"[13.0 km/h
		/ 3.6 m/s]",METAR VHHH 120200Z 22007KT 200V300 9999 FEW020 31/24 Q1004 NOSIG
0,[Scattered Clouds],1996-8-12,[24.0 °C],[],[-],[36.4 °C],[66%],[N/A],[1004 hPa],[31.0 °C],[11:00 AM],[10.0 km],[SW],"[20.4 km/h
		/ 5.7 m/s]",METAR VHHH 120300Z 23011KT 200V290 9999 FEW020 SCT300 31/24 Q1004 NOSIG
0,[Mostly Cloudy],1996-8-12,[23.0 °C],[],[-],[36.8 °C],[59%],[N/A],[1003 hPa],[32.0 °C],[12:00 PM],[10.0 km],[SW],"[16.7 km/h
		/ 4.6 m/s]",METAR VHHH 120400Z 23009KT 190V270 9999 FEW020 BKN300 32/23 Q1003 NOSIG
0,[Partly Cloudy],1996-8-12,[-],[],[-],[-],[N/A%],[N/A],[1002 hPa],[-],[1:00 PM],[10.0 km],[West],"[24.1 km/h
		/ 6.7 m/s]",METAR VHHH 120500Z 28013KT 9999 FEW020 Q1002 32/24 NOSIG
0,[Partly Cloudy],1996-8-12,[24.0 °C],[],[-],[37.7 °C],[62%],[N/A],[1002 hPa],[32.0 °C],[2:00 PM],[10.0 km],[West],"[18.5 km/h
		/ 5.1 m/s]",METAR VHHH 120600Z 27010KT 220V290 9999 FEW020 32/24 Q1002 NOSIG
0,[Partly Cloudy],1996-8-12,[24.0 °C],[],[-],[36.4 °C],[66%],[N/A],[1001 hPa],[31.0 °C],[3:00 PM],[10.0 km],[WSW],"[16.7 km/h
		/ 4.6 m/s]",METAR VHHH 120700Z 24009KT 200V310 9999 FEW016 31/24 Q1001 NOSIG
0,[Partly Cloudy],1996-8-12,[24.0 °C],[],[-],[37.7 °C],[62%],[N/A],[1000 hPa],[32.0 °C],[4:00 PM],[10.0 km],[WSW],"[11.1 km/h
		/ 3.1 m/s]",METAR VHHH 120800Z 25006KT 200V290 9999 FEW020 32/24 Q1000 NOSIG
0,[Partly Cloudy],1996-8-12,[25.0 °C],[],[-],[37.6 °C],[70%],[N/A],[1000 hPa],[31.0 °C],[5:00 PM],[10.0 km],[West],"[18.5 km/h
		/ 5.1 m/s]",METAR VHHH 120900Z 28010KT 230V300 9999 FEW020 31/25 Q1000 NOSIG
0,[Partly Cloudy],1996-8-12,[25.0 °C],[],[-],[37.6 °C],[70%],[N/A],[1000 hPa],[31.0 °C],[6:00 PM],[10.0 km],[West],"[16.7 km/h
		/ 4.6 m/s]",METAR VHHH 121000Z 28009KT 240V320 9999 FEW040 31/25 Q1000 NOSIG
0,[Clear],1996-8-12,[24.0 °C],[],[-],[36.4 °C],[66%],[N/A],[1000 hPa],[31.0 °C],[7:00 PM],[-],[West],"[7.4 km/h
		/ 2.1 m/s]",METAR VHHH 121100Z 26004KT 230V300 CAVOK 31/24 Q1000 NOSIG
0,[Scattered Clouds],1996-8-12,[25.0 °C],[],[-],[37.6 °C],[70%],[N/A],[1001 hPa],[31.0 °C],[8:00 PM],[10.0 km],[SW],"[7.4 km/h
		/ 2.1 m/s]",METAR VHHH 121200Z 23004KT 180V280 9999 FEW035 SCT120 31/25 Q1001 NOSIG
0,[Partly Cloudy],1996-8-12,[25.0 °C],[],[-],[36.0 °C],[74%],[N/A],[1003 hPa],[30.0 °C],[9:00 PM],[10.0 km],[WSW],"[7.4 km/h
		/ 2.1 m/s]",METAR VHHH 121300Z 24004KT 210V280 9999 FEW025 30/25 Q1003 NOSIG
0,[Partly Cloudy],1996-8-12,[25.0 °C],[],[-],[36.0 °C],[74%],[N/A],[1003 hPa],[30.0 °C],[10:00 PM],[10.0 km],[WSW],"[13.0 km/h
		/ 3.6 m/s]",METAR VHHH 121400Z 24007KT 200V270 9999 FEW025 30/25 Q1003 NOSIG
0,[Partly Cloudy],1996-8-12,[26.0 °C],[],[-],[35.6 °C],[84%],[N/A],[1003 hPa],[29.0 °C],[11:00 PM],[10.0 km],[WSW],"[13.0 km/h
		/ 3.6 m/s]",METAR VHHH 121500Z 24007KT 9999 FEW025 29/26 Q1003 NOSIG
0,[Partly Cloudy],1996-8-13,[25.0 °C],[],[-],[34.5 °C],[79%],[N/A],[1003 hPa],[29.0 °C],[12:00 AM],[10.0 km],[WSW],"[13.0 km/h
		/ 3.6 m/s]",METAR VHHH 121600Z 24007KT 9999 FEW025 29/25 Q1003 NOSIG
0,[Partly Cloudy],1996-8-13,[25.0 °C],[],[-],[34.5 °C],[79%],[N/A],[1002 hPa],[29.0 °C],[1:00 AM],[10.0 km],[West],"[11.1 km/h
		/ 3.1 m/s]",METAR VHHH 121700Z 27006KT 9999 FEW020 29/25 Q1002 NOSIG
0,[Partly Cloudy],1996-8-13,[26.0 °C],[],[-],[35.6 °C],[84%],[N/A],[1002 hPa],[29.0 °C],[2:00 AM],[10.0 km],[West],"[9.3 km/h
		/ 2.6 m/s]",METAR VHHH 121800Z 27005KT 9999 FEW020 29/26 Q1002 NOSIG
0,[Partly Cloudy],1996-8-13,[25.0 °C],[],[-],[34.5 °C],[79%],[N/A],[1002 hPa],[29.0 °C],[3:00 AM],[10.0 km],[West],"[18.5 km/h
		/ 5.1 m/s]",METAR VHHH 121900Z 27010KT 9999 FEW016 29/25 Q1002 NOSIG
0,[Scattered Clouds],1996-8-13,[25.0 °C],[],[-],[34.5 °C],[79%],[N/A],[1001 hPa],[29.0 °C],[4:00 AM],[10.0 km],[West],"[9.3 km/h
		/ 2.6 m/s]",METAR VHHH 122000Z 26005KT 9999 FEW016 SCT025 29/25 Q1001 NOSIG
0,[Partly Cloudy],1996-8-13,[26.0 °C],[],[-],[35.6 °C],[84%],[N/A],[1001 hPa],[29.0 °C],[5:00 AM],[10.0 km],[WNW],"[7.4 km/h
		/ 2.1 m/s]",METAR VHHH 122100Z 29004KT 270V330 9999 FEW020 29/26 Q1001 NOSIG
0,[Scattered Clouds],1996-8-13,[25.0 °C],[],[-],[32.7 °C],[84%],[N/A],[1001 hPa],[28.0 °C],[6:00 AM],[10.0 km],[WSW],"[7.4 km/h
		/ 2.1 m/s]",METAR VHHH 122200Z 24004KT 9999 FEW025 SCT080 28/25 Q1001 NOSIG
0,[Scattered Clouds],1996-8-13,[25.0 °C],[],[-],[34.5 °C],[79%],[N/A],[1002 hPa],[29.0 °C],[7:00 AM],[10.0 km],[West],"[13.0 km/h
		/ 3.6 m/s]",METAR VHHH 122300Z 27007KT 9999 FEW017 SCT080 29/25 Q1002 NOSIG
0,[Partly Cloudy],1996-8-13,[25.0 °C],[],[-],[36.0 °C],[74%],[N/A],[1003 hPa],[30.0 °C],[8:00 AM],[10.0 km],[West],"[11.1 km/h
		/ 3.1 m/s]",METAR VHHH 130000Z 26006KT 230V330 9999 FEW015 30/25 Q1003 NOSIG
0,[Scattered Clouds],1996-8-13,[25.0 °C],[],[-],[37.6 °C],[70%],[N/A],[1003 hPa],[31.0 °C],[9:00 AM],[10.0 km],[SW],"[9.3 km/h
		/ 2.6 m/s]",METAR VHHH 130100Z 23005KT 080V350 9999 FEW020 SCT120 31/25 Q1003 NOSIG
0,[Partly Cloudy],1996-8-13,[25.0 °C],[],[-],[37.6 °C],[70%],[N/A],[1004 hPa],[31.0 °C],[10:00 AM],[10.0 km],[West],"[18.5 km/h
		/ 5.1 m/s]",METAR VHHH 130200Z 26010KT 9999 FEW020 31/25 Q1004 NOSIG
0,[Partly Cloudy],1996-8-13,[24.0 °C],[],[-],[37.7 °C],[62%],[N/A],[1004 hPa],[32.0 °C],[11:00 AM],[10.0 km],[West],"[18.5 km/h
		/ 5.1 m/s]",METAR VHHH 130300Z 27010KT 240V310 9999 FEW020 32/24 Q1004 NOSIG
0,[Partly Cloudy],1996-8-13,[23.0 °C],[],"[40.7 km/h
		/ 11.3 m/s]",[37.8 °C],[55%],[N/A],[1004 hPa],[33.0 °C],[12:00 PM],[10.0 km],[WSW],"[16.7 km/h
		/ 4.6 m/s]",METAR VHHH 130400Z 25009G22KT 210V280 9999 FEW025 33/23 Q1004 NOSIG
0,[Scattered Clouds],1996-8-13,[24.0 °C],[],"[44.4 km/h
		/ 12.3 m/s]",[37.7 °C],[62%],[N/A],[1004 hPa],[32.0 °C],[1:00 PM],[10.0 km],[WSW],"[25.9 km/h
		/ 7.2 m/s]",METAR VHHH 130500Z 24014G24KT 210V280 9999 FEW022 SCT300 32/24 Q1004 WS LDY RWY 13/31 NOSIG
0,[Scattered Clouds],1996-8-13,[25.0 °C],[],[-],[37.6 °C],[70%],[N/A],[1003 hPa],[31.0 °C],[2:00 PM],[10.0 km],[WSW],"[22.2 km/h
		/ 6.2 m/s]",METAR VHHH 130600Z 24012KT 210V310 9999 FEW020 SCT100 31/25 Q1003 WS LDG RWY 13/31 NOSIG
0,[Mostly Cloudy],1996-8-13,[24.0 °C],[],[-],[39.2 °C],[59%],[N/A],[1001 hPa],[33.0 °C],[3:00 PM],[10.0 km],[SW],"[13.0 km/h
		/ 3.6 m/s]",METAR VHHH 130700Z 23007KT 190V290 9999 FEW020 BKN300 33/24 Q1001 WS LDG RWY 13/31 NOSIG
0,[Scattered Clouds],1996-8-13,[23.0 °C],[],[-],[36.8 °C],[59%],[N/A],[1001 hPa],[32.0 °C],[4:00 PM],[10.0 km],[SW],"[20.4 km/h
		/ 5.7 m/s]",METAR VHHH 130800Z 22011KT 190V270 9999 FEW018 SCT090 32/23 Q1001 WS LDG RWY 13/31 NOSIG
0,[Scattered Clouds],1996-8-13,[23.0 °C],[],[-],[35.4 °C],[62%],[N/A],[1002 hPa],[31.0 °C],[5:00 PM],[10.0 km],[WSW],"[22.2 km/h
		/ 6.2 m/s]",METAR VHHH 130900Z 25012KT 180V290 9999 FEW020 SCT300 31/23 Q1002 WS LDG RWY 13/31 NOSIG
0,[Mostly Cloudy],1996-8-13,[24.0 °C],[],[-],[35.0 °C],[70%],[N/A],[1002 hPa],[30.0 °C],[6:00 PM],[10.0 km],[SW],"[20.4 km/h
		/ 5.7 m/s]",METAR VHHH 131000Z 23011KT 190V300 9999 FEW020 BKN100 30/24 Q1002 WS LDG RWY 13/31 NOSIG
0,[Mostly Cloudy],1996-8-13,[24.0 °C],[],[-],[33.5 °C],[74%],[N/A],[1003 hPa],[29.0 °C],[7:00 PM],[10.0 km],[SW],"[24.1 km/h
		/ 6.7 m/s]",METAR VHHH 131100Z 23013KT 200V270 9999 FEW020 BKN100 29/24 Q1003 WS LDG RWY 13/31 NOSIG
0,[Scattered Clouds],1996-8-13,[24.0 °C],[],[-],[33.5 °C],[74%],[N/A],[1003 hPa],[29.0 °C],[8:00 PM],[10.0 km],[SW],"[16.7 km/h
		/ 4.6 m/s]",METAR VHHH 131200Z 23009KT 070V330 9999 FEW018 SCT100 29/24 Q1003 WS LDG RWY 13/31 NOSIG
0,[Partly Cloudy],1996-8-13,[25.0 °C],[],[-],[34.5 °C],[79%],[N/A],[1004 hPa],[29.0 °C],[9:00 PM],[10.0 km],[WSW],"[13.0 km/h
		/ 3.6 m/s]",METAR VHHH 131300Z 25007KT 200V330 9999 FEW018 29/25 Q1004 WS LDG RWY 13/31 NOSIG
0,[Partly Cloudy],1996-8-13,[24.0 °C],[],[-],[33.5 °C],[74%],[N/A],[1005 hPa],[29.0 °C],[10:00 PM],[10.0 km],[WSW],"[13.0 km/h
		/ 3.6 m/s]",METAR VHHH 131400Z 25007KT 220V330 9999 FEW018 29/24 Q1005 WS LDG RWY 13/31 NOSIG
0,[Scattered Clouds],1996-8-13,[24.0 °C],[],"[25.9 km/h
		/ 7.2 m/s]",[33.5 °C],[74%],[N/A],[1005 hPa],[29.0 °C],[11:00 PM],[10.0 km],[SW],"[5.6 km/h
		/ 1.5 m/s]",METAR VHHH 131500Z 23003G14KT 9999 FEW016 SCT025 29/24 Q1005 NOSIG
0,[Partly Cloudy],1996-8-14,[24.0 °C],[],[-],[33.5 °C],[74%],[N/A],[1005 hPa],[29.0 °C],[12:00 AM],[10.0 km],[WSW],"[7.4 km/h
		/ 2.1 m/s]",METAR VHHH 131600Z 24004KT 9999 FEW016 29/24 Q1005 NOSIG
0,[Scattered Clouds],1996-8-14,[25.0 °C],[],[-],[34.5 °C],[79%],[N/A],[1005 hPa],[29.0 °C],[1:00 AM],[10.0 km],[SW],"[7.4 km/h
		/ 2.1 m/s]",METAR VHHH 131700Z 23004KT 9999 FEW016 SCT025 29/25 Q1005 NOSIG
0,[Rain Showers],1996-8-14,[24.0 °C],[Rain],[-],[30.1 °C],[84%],[N/A],[1004 hPa],[27.0 °C],[2:00 AM],[-],[West],"[24.1 km/h
		/ 6.7 m/s]",METAR VHHH 131800Z 26013KT 250V300 4300SE SHRA FEW014 SCT025 27/24 Q1004 14KM TO NW TEMPO VRB15G28KT 3000 TSRA FEW012CB SCT025 WS LDG RWY 13/31
0,[Rain],1996-8-14,[25.0 °C],[Rain],[-],[-],[94%],[N/A],[1004 hPa],[26.0 °C],[3:00 AM],[4.5 km],[West],"[16.7 km/h
		/ 4.6 m/s]",METAR VHHH 131900Z 28009KT 270V340 4500NW RA FEW012 SCT020 BKN080 26/25 Q1004 RETS 8KM TO SE WS LDG RWY 13/31 TEMPO VRB15G28KT 3000 +TSRA FEW012CB SCT 1800FT
0,[Rain],1996-8-14,[24.0 °C],[Rain],[-],[-],[89%],[N/A],[1004 hPa],[26.0 °C],[4:00 AM],[-],[NW],"[1.9 km/h
		/ 0.5 m/s]",METAR VHHH 132000Z 32001KT 290V010 4800 RA FEW012 SCT018 BKN080 26/24 Q1004 WS LDG RWY 13/31 TEMPO VRB15G28KT 3000 +TSRA FEW012CB SCT018
0,[Mostly Cloudy],1996-8-14,[24.0 °C],[],[-],[30.1 °C],[84%],[N/A],[1004 hPa],[27.0 °C],[5:00 AM],[10.0 km],[NNW],"[1.9 km/h
		/ 0.5 m/s]",METAR VHHH 132100Z 33001KT 9999 FEW015 SCT020 BKN080 27/24 Q1004 WS LDG RWY 13/31 TEMPO VRB15G28KT 3000 +TSRA FEW012CB SCT018
0,[Mostly Cloudy],1996-8-14,[25.0 °C],[],[-],[30.6 °C],[89%],[N/A],[1004 hPa],[27.0 °C],[6:00 AM],[10.0 km],[WNW],"[1.9 km/h
		/ 0.5 m/s]",METAR VHHH 132200Z 30001KT 9999 FEW018 SCT025 BKN080 27/25 Q1004 TEMPO 4000 SHRA
0,[Mostly Cloudy],1996-8-14,[25.0 °C],[],[-],[30.6 °C],[89%],[N/A],[1004 hPa],[27.0 °C],[7:00 AM],[10.0 km],[West],"[11.1 km/h
		/ 3.1 m/s]",METAR VHHH 132300Z 28006KT 240V020 9999 FEW016 SCT025 BKN080 27/25 Q1004 TEMPO 4000 SHRA
0,[Mostly Cloudy],1996-8-14,[25.0 °C],[],[-],[34.5 °C],[79%],[N/A],[1005 hPa],[29.0 °C],[8:00 AM],[10.0 km],[West],"[9.3 km/h
		/ 2.6 m/s]",METAR VHHH 140000Z 27005KT 220V310 9999 FEW015 SCT020 BKN120 29/25 Q1005 TEMPO 4000 SHRA
0,[Mostly Cloudy],1996-8-14,[26.0 °C],[],[-],[37.4 °C],[79%],[N/A],[1006 hPa],[30.0 °C],[9:00 AM],[10.0 km],[West],"[11.1 km/h
		/ 3.1 m/s]",METAR VHHH 140100Z 26006KT 070V310 9999 SCT018 BKN100 30/26 Q1006 TEMPO 4000 SHRA
0,[Heavy Rain Showers],1996-8-14,[24.0 °C],[Rain],[-],[30.1 °C],[84%],[N/A],[1006 hPa],[27.0 °C],[10:00 AM],[5.0 km],[SW],"[14.8 km/h
		/ 4.1 m/s]",METAR VHHH 140200Z 22008KT 190V260 5000SE +SHRA FEW010CB SCT018 BKN100 27/24 Q1006 WS LDG RWY 13/31 TEMPO VRB15G28KT 2500 TSRA +SHRA FEW008 FEW012CB SCT018 BKN080
0,[Mostly Cloudy],1996-8-14,[25.0 °C],[],[-],[37.6 °C],[70%],[N/A],[1006 hPa],[31.0 °C],[11:00 AM],[10.0 km],[SSE],"[1.9 km/h
		/ 0.5 m/s]",METAR VHHH 140300Z 15001KT 9999 FEW016 SCT020 BKN090 31/25 Q1006 WS TKOF RWY 13/31 TEMPO VRB15G28KT 2500 TSRA +SHRA FEW008 FEW012CB SCT018 BKN080
0,[Rain Showers],1996-8-14,[24.0 °C],[Rain],"[31.5 km/h
		/ 8.7 m/s]",[-],[89%],[N/A],[1007 hPa],[26.0 °C],[1:00 PM],[10.0 km],[West],"[13.0 km/h
		/ 3.6 m/s]",METAR VHHH 140500Z 26007G17KT 240V300 9999 SHRA FEW012CB SCT017 BKN090 26/24 Q1007 RETS CB 14 KM TO SE WS TKOF RWY 13/31 TEMPO VRB15G28 2500 TSRA +SHRA FEW008 FEW012CB SCT018 BKN080
0,[Light Rain Showers],1996-8-14,[23.0 °C],[Rain],[-],[-],[83%],[N/A],[1006 hPa],[26.0 °C],[2:00 PM],[10.0 km],[West],"[9.3 km/h
		/ 2.6 m/s]",METAR VHHH 140600Z 28005KT 9999 -SHRA FEW016 BKN080 26/23 Q1006 WS LDG RWY 13/31 TEMPO VRB15G28KT 2500 TSRA +SHRA FEW008 FEW012CB SCT018 BKN080
0,[Light Rain Showers],1996-8-14,[24.0 °C],[Rain],[-],[31.9 °C],[79%],[N/A],[1006 hPa],[28.0 °C],[3:00 PM],[10.0 km],[WNW],"[3.7 km/h
		/ 1.0 m/s]",METAR VHHH 140700Z 30002KT 9999 -SHRA FEW014 BKN080 28/24 Q1006 TEMPO 4000 SHRA
0,[Mostly Cloudy],1996-8-14,[24.0 °C],[],[-],[33.5 °C],[74%],[N/A],[1005 hPa],[29.0 °C],[4:00 PM],[10.0 km],[South],"[3.7 km/h
		/ 1.0 m/s]",METAR VHHH 140800Z 17002KT 9999 FEW020 BKN080 29/24 Q1005 TEMPO 4000 SHRA
0,[Scattered Clouds],1996-8-14,[24.0 °C],[],[-],[31.9 °C],[79%],[N/A],[1005 hPa],[28.0 °C],[5:00 PM],[10.0 km],[SE],"[14.8 km/h
		/ 4.1 m/s]",METAR VHHH 140900Z 14008KT 9999 SCT025 BKM080 28/24 Q1005 TEMPO 4000 SHRA
0,[Mostly Cloudy],1996-8-14,[24.0 °C],[],[-],[30.1 °C],[84%],[N/A],[1006 hPa],[27.0 °C],[6:00 PM],[10.0 km],[SE],"[22.2 km/h
		/ 6.2 m/s]",METAR VHHH 141000Z 13012KT 9999 SCT025 BKN080 27/24 Q1006 TEMPO 4000 SHRA
0,[Mostly Cloudy],1996-8-14,[24.0 °C],[],[-],[30.1 °C],[84%],[N/A],[1006 hPa],[27.0 °C],[7:00 PM],[10.0 km],[ESE],"[20.4 km/h
		/ 5.7 m/s]",METAR VHHH 141100Z 12011KT 9999 FEW010 SCT025 BKN080 27/24 Q1006 TEMPO 4000 SHRA
0,[Mostly Cloudy],1996-8-14,[25.0 °C],[],[-],[-],[94%],[N/A],[1007 hPa],[26.0 °C],[8:00 PM],[10.0 km],[SE],"[20.4 km/h
		/ 5.7 m/s]",METAR VHHH 141200Z 13011KT 9999 FEW010 SCT025 BKN080 26/25 Q1007 TEMPO 4000 SHRA
0,[Mostly Cloudy],1996-8-14,[25.0 °C],[],[-],[30.6 °C],[89%],[N/A],[1007 hPa],[27.0 °C],[9:00 PM],[10.0 km],[SE],"[16.7 km/h
		/ 4.6 m/s]",METAR VHHH 141300Z 13009KT 9999 FEW015 SCT025 BKN080 27/25 Q1007 TEMPO 4000 SHRA
0,[Light Rain Showers],1996-8-14,[24.0 °C],[Rain],[-],[30.1 °C],[84%],[N/A],[1008 hPa],[27.0 °C],[11:00 PM],[10.0 km],[East],"[14.8 km/h
		/ 4.1 m/s]",METAR VHHH 141500Z 09008KT 060V130 9999 -SHRA FEW012 SCT020 BKN080 27/24 Q1008 TEMPO 4000 SHRA
0,[Mostly Cloudy],1996-8-15,[25.0 °C],[],[-],[30.6 °C],[89%],[N/A],[1008 hPa],[27.0 °C],[12:00 AM],[10.0 km],[East],"[13.0 km/h
		/ 3.6 m/s]",METAR VHHH 141600Z 08007KT 040V100 9999 FEW010 SCT020 BKN080 27/25 Q1008 TEMPO 4000 SHRA
0,[Light Rain Showers],1996-8-15,[25.0 °C],[Rain],[-],[30.6 °C],[89%],[N/A],[1008 hPa],[27.0 °C],[1:00 AM],[10.0 km],[East],"[14.8 km/h
		/ 4.1 m/s]",METAR VHHH 141700Z 08008KT 040V120 9999 -SHRA(80) FEW010 SCT020 BKN080 27/25 Q1008 TEMPO 4000 SHRA
0,[Mostly Cloudy],1996-8-15,[25.0 °C],[],[-],[30.6 °C],[89%],[N/A],[1007 hPa],[27.0 °C],[2:00 AM],[10.0 km],[East],"[11.1 km/h
		/ 3.1 m/s]",METAR VHHH 141800Z 09006KT 050V130 9999 FEW010 SCT022 BKN080 27/25 Q1007 TEMPO 4000 SHRA
0,[Light Rain Showers],1996-8-15,[25.0 °C],[Rain],[-],[-],[94%],[N/A],[1007 hPa],[26.0 °C],[3:00 AM],[9.0 km],[East],"[5.6 km/h
		/ 1.5 m/s]",METAR VHHH 141900Z 10003KT 9000 -SHRA FEW008 FEW015CB SCT025 BKN080 26/25 Q1007 WS TKOF RWY 13/31 TEMPO VRB15G28KT 2500 TSRA +SHRA FEW010 FEW012CB SCT018 BKN080
0,[Light Thunderstorms and Rain],1996-8-15,[26.0 °C],"[Rain
	,
Thunderstorm]",[-],[31.2 °C],[94%],[N/A],[1007 hPa],[27.0 °C],[4:00 AM],[9.0 km],[SSE],"[11.1 km/h
		/ 3.1 m/s]",METAR VHHH 142000Z 16006KT 060V170 9000 -TSRA FEW014CB SCT022 BKN090 27/26 Q1007 TS 10KM TO W AND NW WS TKOF RWY 13/31 TEMPO VRB15G28KT 2500 TSRA +SHRA FEW010 FEW012CB SCT018 BKN080
0,[Light Rain Showers],1996-8-15,[26.0 °C],[Rain],[-],[-],[100%],[N/A],[1006 hPa],[26.0 °C],[5:00 AM],[10.0 km],[SSE],"[3.7 km/h
		/ 1.0 m/s]",METAR VHHH 142100Z 15002KT 9999 -SHRA FEW014CB SCT020 BKN090 26/26 Q1006 RETS WS TKOF RWY 13/31 CB 10KM TO W TEMPO VRB15G28KT 2500 TSRA +SHRA FEW010 FEW012CB SCT018 BKN080
0,[Rain Showers],1996-8-15,[26.0 °C],[Rain],[-],[31.2 °C],[94%],[N/A],[1007 hPa],[27.0 °C],[6:00 AM],[10.0 km],[South],"[7.4 km/h
		/ 2.1 m/s]",METAR VHHH 142200Z 17004KT 080V280 9999 SHRA FEW013 SCT018 BKN080 27/26 Q1007 WS TKOF RWY 13/31 TEMPO VRB15G28KT 2500 TSRA +SHRA FEW010 FEW012CB SCT018 BKN080
0,[Mostly Cloudy],1996-8-15,[26.0 °C],[],[-],[33.6 °C],[89%],[N/A],[1007 hPa],[28.0 °C],[7:00 AM],[10.0 km],[Calm],[Calm],METAR VHHH 142300Z 00000KT 9999 FEW012 SCT017 BKN080 28/26 Q1007 RERA WS LDG RWY 13/31 TEMPO VRB15G28KT 2500 TSRA +SHRA FEW010 FEW012CB SCT018 BKN080
0,[Light Rain Showers],1996-8-15,[27.0 °C],[Rain],[-],[34.5 °C],[94%],[N/A],[1008 hPa],[28.0 °C],[8:00 AM],[9.0 km],[SSE],"[7.4 km/h
		/ 2.1 m/s]",METAR VHHH 150000Z 16004KT 070V230 9000 -SHRA FEW012 SCT018 BKN100 28/27 Q1008 TEMPO 4000 SHRA
0,[Mostly Cloudy],1996-8-15,[26.0 °C],[],[-],[35.6 °C],[84%],[N/A],[1008 hPa],[29.0 °C],[9:00 AM],[9.0 km],[SSW],"[11.1 km/h
		/ 3.1 m/s]",METAR VHHH 150100Z 21006KT 140V270 9000 FEW012 SCT020 BKN080 29/26 Q1008 TEMPO 4000 SHRA
0,[Rain Showers],1996-8-15,[27.0 °C],[Rain],[-],[34.5 °C],[94%],[N/A],[1009 hPa],[28.0 °C],[10:00 AM],[9.0 km],[SSW],"[11.1 km/h
		/ 3.1 m/s]",METAR VHHH 150200Z 20006KT 110V250 9000 SHRA FEW012 FEW014CB SCT020 BKN080 28/27 Q1009 RETS WS LDG RWY 13/31 TEMPO VRB15G28KT 2500 TSRA +SHRA FEW008 FEW012CB SCT018 BKN080
0,[Light Rain Showers],1996-8-15,[26.0 °C],[Rain],[-],[35.6 °C],[84%],[N/A],[1009 hPa],[29.0 °C],[11:00 AM],[9.0 km],[SSW],"[9.3 km/h
		/ 2.6 m/s]",METAR VHHH 150300Z 21005KT 150V290 9000 -SHRA FEW012 SCT020 BKN080 29/26 Q1009 WS LDG RWY 13/31 TEMPO VRB15G28 2500 TSRA +SHRA FEW008 FEW012CB SCT018 BKN080
0,[Mostly Cloudy],1996-8-15,[25.0 °C],[],[-],[32.7 °C],[84%],[N/A],[1008 hPa],[28.0 °C],[12:00 PM],[10.0 km],[NW],"[5.6 km/h
		/ 1.5 m/s]",METAR VHHH 150400Z 32003KT 9999 FEW014 SCT020 BKN080 28/25 Q1008 RERA WS LDG RWY 13/31 TEMPO VRB15G28KT 2500 TSRA +SHRA FEW008 FEW012CB SCT018 BKN080
0,[Heavy Rain Showers],1996-8-15,[26.0 °C],[Rain],[-],[31.2 °C],[94%],[N/A],[1008 hPa],[27.0 °C],[1:00 PM],[-],[SSW],"[7.4 km/h
		/ 2.1 m/s]",METAR VHHH 150500Z 21004KT 100V270 3200SE R31/P2000N R13/1300VP2000D +SHRA FEW012 SCT020 BKN080 27/26 Q1008 WS LDG RWY 13/31 TEMPO VRB15G28KT 2500 TSRA +SHRA FEW008 FEW012CB SCT018 BKN080
0,[Heavy Rain Showers],1996-8-15,[25.0 °C],[Rain],[-],[-],[94%],[N/A],[1008 hPa],[26.0 °C],[3:00 PM],[1.8 km],[East],"[13.0 km/h
		/ 3.6 m/s]",METAR VHHH 150700Z 10007KT 080V150 1800 R31/P2000N R13/1300VP2000D +SHRA FEW016 SCT020 BKN080 26/25 Q1008 WS LDG RWY 13/31 TEMPO VRB18G32KT 1500 +SHRA +TSRA FEW006 FEW012CB SCT018 BKN040
0,[Heavy Thunderstorms and Rain],1996-8-15,[25.0 °C],"[Rain
	,
Thunderstorm]",[-],[-],[100%],[N/A],[1009 hPa],[25.0 °C],[4:00 PM],[1.6 km],[WNW],"[11.1 km/h
		/ 3.1 m/s]",METAR VHHH 150800Z 30006KT 1600 +TSRA FEW007CB SCT014 BKN080 25/25 Q1009 WS LDG RWY 13/31 TEMPO VRB18G32KT 1500 +SHRA +TSRA FEW006 FEW012CB SCT018 BKN040
0,[Rain Showers],1996-8-15,[24.0 °C],[Rain],[-],[-],[94%],[N/A],[1008 hPa],[25.0 °C],[5:00 PM],[10.0 km],[SE],"[14.8 km/h
		/ 4.1 m/s]",METAR VHHH 150900Z 13008KT 9999 SHRA FEW016 BKN080 25/24 Q1008 RETS WS LDG RWY 13/31 TEMPO VRB15G28KT 2500 SHRA TSRA FEW008 FEW012CB SCT018 BKN080
0,[Light Rain Showers],1996-8-15,[24.0 °C],[Rain],[-],[-],[89%],[N/A],[1008 hPa],[26.0 °C],[6:00 PM],[10.0 km],[SE],"[9.3 km/h
		/ 2.6 m/s]",METAR VHHH 151000Z 13005KT 9999 -SHRA FEW016 BKN080 26/24 Q1008 WS LDG RWY 13/31 TEMPO VRB15G28KT 2500 SHRA TSRA FEW008 FEW012CB SCT018 BKN080
0,[Mostly Cloudy],1996-8-15,[24.0 °C],[],[-],[-],[89%],[N/A],[1008 hPa],[26.0 °C],[7:00 PM],[10.0 km],[SE],"[14.8 km/h
		/ 4.1 m/s]",METAR VHHH 151100Z 14008KT 9999 FEW020 BKN080 26/24 Q1008 WS LDG RWY 13/31 TEMPO 4000 SHRA FEW008 FEW015CB SCT018 BKN080
0,[Mostly Cloudy],1996-8-15,[24.0 °C],[],[-],[30.1 °C],[84%],[N/A],[1008 hPa],[27.0 °C],[8:00 PM],[10.0 km],[SE],"[14.8 km/h
		/ 4.1 m/s]",METAR VHHH 151200Z 13008KT 9999 FEW020 BKN080 27/24 Q1008 WS LDG RWY 13/31 TEMPO 4000 SHRA FEW008 FEW015CB SCT018 BKN080
0,[Mostly Cloudy],1996-8-15,[23.0 °C],[],[-],[29.6 °C],[79%],[N/A],[1009 hPa],[27.0 °C],[9:00 PM],[10.0 km],[SE],"[11.1 km/h
		/ 3.1 m/s]",METAR VHHH 151300Z 13006KT 9999 FEW020 BKN080 27/23 Q1009 TEMPO 4000 SHRA FEW008 FEW015CB SCT018 BKN080
0,[Mostly Cloudy],1996-8-15,[23.0 °C],[],[-],[29.6 °C],[79%],[N/A],[1010 hPa],[27.0 °C],[10:00 PM],[10.0 km],[SE],"[7.4 km/h
		/ 2.1 m/s]",METAR VHHH 151400Z 13004KT 9999 FEW020 BKN080 27/23 Q1010 TEMPO 4000 SHRA FEW008 FEW015CB SCT018 BKN080
0,[Mostly Cloudy],1996-8-15,[24.0 °C],[],[-],[-],[89%],[N/A],[1010 hPa],[26.0 °C],[11:00 PM],[10.0 km],[ESE],"[13.0 km/h
		/ 3.6 m/s]",METAR VHHH 151500Z 12007KT 9999 FEW014 SCT022 BKN080 26/24 Q1010 TEMPO 4000 SHRA
0,[Mostly Cloudy],1996-8-16,[24.0 °C],[],[-],[-],[89%],[N/A],[1010 hPa],[26.0 °C],[12:00 AM],[10.0 km],[ESE],"[16.7 km/h
		/ 4.6 m/s]",METAR VHHH 151600Z 12009KT 9999 FEW012 SCT022 BKN080 26/24 Q1010 TEMPO 4000 SHRA
0,[Light Rain Showers],1996-8-16,[24.0 °C],[Rain],[-],[-],[94%],[N/A],[1009 hPa],[25.0 °C],[1:00 AM],[10.0 km],[ESE],"[13.0 km/h
		/ 3.6 m/s]",METAR VHHH 151700Z 12007KT 9999 -SHRA FEW012 SCT020 BKN080 25/24 Q1009 TEMPO 4000 SHRA
0,[Mostly Cloudy],1996-8-16,[24.0 °C],[],[-],[-],[89%],[N/A],[1009 hPa],[26.0 °C],[2:00 AM],[10.0 km],[SE],"[14.8 km/h
		/ 4.1 m/s]",METAR VHHH 151800Z 13008KT 100V160 9999 FEW012 SCT020 BKN080 26/24 Q1009 TEMPO 4000 SHRA
0,[Mostly Cloudy],1996-8-16,[24.0 °C],[],[-],[-],[94%],[N/A],[1008 hPa],[25.0 °C],[3:00 AM],[10.0 km],[SE],"[7.4 km/h
		/ 2.1 m/s]",METAR VHHH 151900Z 13004KT 9999 FEW014 SCT022 BKN080 25/24 Q1008 TEMPO 4000 SHRA
0,[Mostly Cloudy],1996-8-16,[25.0 °C],[],[-],[-],[94%],[N/A],[1008 hPa],[26.0 °C],[4:00 AM],[10.0 km],[SE],"[7.4 km/h
		/ 2.1 m/s]",METAR VHHH 152000Z 13004KT 9999 FEW014 SCT025 BKN080 26/25 Q1008.7 TEMPO 4000 SHRA
0,[Mostly Cloudy],1996-8-16,[25.0 °C],[],[-],[-],[94%],[N/A],[1008 hPa],[26.0 °C],[6:00 AM],[10.0 km],[South],"[3.7 km/h
		/ 1.0 m/s]",METAR VHHH 152200Z 17002KT 9999 FEW010 SCT025 BKN080 26/25 Q1008 TEMPO 4000 SHRA FEW008 SCT015CB SCT018 BKN080
0,[Mostly Cloudy],1996-8-16,[25.0 °C],[],[-],[-],[94%],[N/A],[1009 hPa],[26.0 °C],[7:00 AM],[10.0 km],[SE],"[1.9 km/h
		/ 0.5 m/s]",METAR VHHH 152300Z 13001KT 9999 FEW014 SCT025 BKN080 26/25 Q1009 WS LDG RWY 13/31 TEMPO VRB15G28KT 2500 TSRA OR +SHRA FEW008 FEW015CB SCT018 BKN080
0,[Mostly Cloudy],1996-8-16,[25.0 °C],[],[-],[30.6 °C],[89%],[N/A],[1009 hPa],[27.0 °C],[8:00 AM],[10.0 km],[SE],"[7.4 km/h
		/ 2.1 m/s]",METAR VHHH 160000Z 14004KT 9999 FEW008 SCT020 BKN300 27/25 Q1009 WS LDG RWY 13/31 TEMPO VRB15G28KT 2500 TSRA OR +SHRA FEW008 FEW015CB SCT018 BKN080
0,[Rain Showers],1996-8-16,[25.0 °C],[Rain],[-],[30.6 °C],[89%],[N/A],[1010 hPa],[27.0 °C],[9:00 AM],[6.0 km],[WNW],"[7.4 km/h
		/ 2.1 m/s]",METAR VHHH 160100Z 29004KT 6000 SHRA FEW005 SCT014 BKN080 27/25 Q1010 WS LDG RWY 13/31 TEMPO VRB15G28KT 2500 +SHRA TSRA FEW008 FEW012CB SCT018 BKN080
0,[Light Rain Showers],1996-8-16,[25.0 °C],[Rain],[-],[30.6 °C],[89%],[N/A],[1010 hPa],[27.0 °C],[11:00 AM],[6.0 km],[NW],"[1.9 km/h
		/ 0.5 m/s]",METAR VHHH 160300Z 32001KT 6000 -SHRA FEW015CB SCT020 BKN080 27/25 Q1010 RETS WS LDG RWY 13/31 TEMPO VRB15G28KT 2500 +SHRA TSRA FEW008 FEW012CB SCT018 BKN080
0,[Light Rain Showers],1996-8-16,[24.0 °C],[Rain],[-],[-],[89%],[N/A],[1010 hPa],[26.0 °C],[12:00 PM],[10.0 km],[WSW],"[16.7 km/h
		/ 4.6 m/s]",METAR VHHH 160400Z 25009KT 180V280 9999 -SHRA FEW018CB SCT025 BKN080 26/24 Q1010 WS LDG RWY 13/31 TEMPO VRB15G28KT 2500 +SHRA TSRA FEW008 FEW012CB SCT018 BKN080
0,[Light Rain Showers],1996-8-16,[24.0 °C],[Rain],[-],[30.1 °C],[84%],[N/A],[1010 hPa],[27.0 °C],[1:00 PM],[10.0 km],[SW],"[7.4 km/h
		/ 2.1 m/s]",METAR VHHH 160500Z 22004KT 9999 -SHRA FEW018 SCT025 BKN080 27/24 Q1010 WS LDG RWY 13/31 TEMPO VRB15G28KT 2500 +SHRA TSRA FEW008 FEW012CB SCT018 BKN080
0,[Light Rain Showers],1996-8-16,[24.0 °C],[Rain],[-],[30.1 °C],[84%],[N/A],[1009 hPa],[27.0 °C],[2:00 PM],[10.0 km],[SSW],"[3.7 km/h
		/ 1.0 m/s]",METAR VHHH 160600Z 20002KT 9999 -SHRA FEW018 SCT030 BKN080 27/24 Q1009 TEMPO 4000 SHRA
0,[Light Rain Showers],1996-8-16,[24.0 °C],[Rain],[-],[31.9 °C],[79%],[N/A],[1009 hPa],[28.0 °C],[3:00 PM],[10.0 km],[SE],"[14.8 km/h
		/ 4.1 m/s]",METAR VHHH 160700Z 14008KT 110V190 9999 -SHRA FEW010 SCT022 BKN080 28/24 Q1009 TEMPO 4000 SHRA
0,[Mostly Cloudy],1996-8-16,[25.0 °C],[],[-],[30.6 °C],[89%],[N/A],[1008 hPa],[27.0 °C],[4:00 PM],[10.0 km],[SE],"[18.5 km/h
		/ 5.1 m/s]",METAR VHHH 160800Z 13010KT 9999 FEW010 SCT022 BKN080 27/25 Q1008 NOSIG
0,[Light Rain Showers],1996-8-16,[25.0 °C],[Rain],[-],[30.6 °C],[89%],[N/A],[1008 hPa],[27.0 °C],[5:00 PM],[10.0 km],[SE],"[18.5 km/h
		/ 5.1 m/s]",METAR VHHH 160900Z 14010KT 9999 -SHRA FEW012 SCT020 BKN080 27/25 Q1008 NOSIG
0,[Mostly Cloudy],1996-8-16,[25.0 °C],[],[-],[-],[94%],[N/A],[1008 hPa],[26.0 °C],[6:00 PM],[10.0 km],[ESE],"[13.0 km/h
		/ 3.6 m/s]",METAR VHHH 161000Z 12007KT 9999 FEW009 SCT020 BKN080 26/25 Q1008 NOSIG
0,[Light Rain Showers],1996-8-16,[25.0 °C],[Rain],[-],[30.6 °C],[89%],[N/A],[1009 hPa],[27.0 °C],[8:00 PM],[10.0 km],[SE],"[11.1 km/h
		/ 3.1 m/s]",METAR VHHH 161200Z 13006KT 9999 -SHRA FEW010 SCT017 BKN080 27/25 Q1009 TEMPO 4000 MOD SHWR
0,[Light Rain Showers],1996-8-16,[25.0 °C],[Rain],[-],[30.6 °C],[89%],[N/A],[1010 hPa],[27.0 °C],[9:00 PM],[10.0 km],[East],"[11.1 km/h
		/ 3.1 m/s]",METAR VHHH 161300Z 10006KT 9999 -SHRA FEW012 SCT016 BKN080 27/25 Q1010 TEMPO 4000 SHRA
0,[Mostly Cloudy],1996-8-16,[24.0 °C],[],[-],[30.1 °C],[84%],[N/A],[1009 hPa],[27.0 °C],[10:00 PM],[10.0 km],[ESE],"[14.8 km/h
		/ 4.1 m/s]",METAR VHHH 161400Z 12008KT 9999 FEW009 SCT020 BKN080 27/24 Q1009 TEMPO 4000 SHRA
0,[Mostly Cloudy],1996-8-16,[24.0 °C],[],[-],[30.1 °C],[84%],[N/A],[1010 hPa],[27.0 °C],[11:00 PM],[10.0 km],[SSE],"[13.0 km/h
		/ 3.6 m/s]",METAR VHHH 161500Z 15007KT 120V220 9999 FEW009 SCT020 BKN080 27/24 Q1010 WS LDG RWY 13/31 TEMPO VRB15G28KT 2500 +SHRA TSRA FEW008 FEW012CB SCT018 BKN080
0,[Mostly Cloudy],1996-8-17,[23.0 °C],[],[-],[-],[83%],[N/A],[1010 hPa],[26.0 °C],[12:00 AM],[10.0 km],[NW],"[1.9 km/h
		/ 0.5 m/s]",METAR VHHH 161600Z 31001KT 9999 FEW012 SCT025 BKN080 26/23 Q1010 WS LDG RWY 13/31 TEMPO VRB15G28KT 2500 +SHRA TSRA FEW008 FEW012CB SCT018 BKN080
0,[Light Rain Showers],1996-8-17,[24.0 °C],[Rain],[-],[-],[89%],[N/A],[1009 hPa],[26.0 °C],[1:00 AM],[10.0 km],[West],"[1.9 km/h
		/ 0.5 m/s]",METAR VHHH 161700Z 27001KT 9999 -SHRA FEW020 SCT030 BKN080 26/24 Q1009 WS LDG RWY 13/31 TEMPO VRB15G28KT 2500 +SHRA TSRA FEW008 FEW012CB SCT018 BKN080
0,[Light Rain Showers],1996-8-17,[24.0 °C],[Rain],[-],[-],[94%],[N/A],[1009 hPa],[25.0 °C],[2:00 AM],[10.0 km],[NW],"[1.9 km/h
		/ 0.5 m/s]",METAR VHHH 161800Z 31001KT 9999 -SHRA FEW020 SCT030 BKN080 25/24 Q1009 WS LDG RWY 13/31 TEMPO VRB15G28KT 2500 +SHRA TSRA FEW008 FEW012CB SCT018 BKN080
0,[Light Rain Showers],1996-8-17,[24.0 °C],[Rain],[-],[-],[89%],[N/A],[1008 hPa],[26.0 °C],[3:00 AM],[10.0 km],[Calm],[Calm],METAR VHHH 161900Z 00000KT 9999 -SHRA FEW020 SCT030 BK080 26/24 Q1008 WS LDG RWY 13/31 TEMPO VRB15G28KT 2500 +SHRA TSRA FEW008 FEW012CB SCT018 BKN080
0,[Mostly Cloudy],1996-8-17,[24.0 °C],[],[-],[-],[89%],[N/A],[1008 hPa],[26.0 °C],[4:00 AM],[10.0 km],[Variable],"[1.9 km/h
		/ 0.5 m/s]",METAR VHHH 162000Z VRB01KT 9999 FEW012 SCT018 BKN080 26/24 Q1008 WS LDG RWY 13/31 TEMPO VRB15G28KT 2500 +SHRA TSRA FEW008 FEW012CB SCT018 BKN080
0,[Mostly Cloudy],1996-8-17,[24.0 °C],[],[-],[-],[94%],[N/A],[1008 hPa],[25.0 °C],[5:00 AM],[10.0 km],[West],"[1.9 km/h
		/ 0.5 m/s]",METAR VHHH 162100Z 26001KT 9999 FEW012 SCT018 BKN080 25/24 Q1008 WS LDG RWY 13/31 TEMPO VRB15G28KT 2500 +SHRA TSRA FEW008 FEW012CB SCT018 BKN080
0,[Mostly Cloudy],1996-8-17,[24.0 °C],[],[-],[-],[89%],[N/A],[1008 hPa],[26.0 °C],[6:00 AM],[10.0 km],[Variable],"[1.9 km/h
		/ 0.5 m/s]",METAR VHHH 162200Z VRB01KT 9999 FEW012 SCT018 BKN080 26/24 Q1008 WS LDG RWY 13/31 TEMPO VRB15G28KT 2500 +SHRA TSRA FEW008 FEW012CB SCT018 BKN080
0,[Mostly Cloudy],1996-8-17,[25.0 °C],[],[-],[30.6 °C],[89%],[N/A],[1008 hPa],[27.0 °C],[7:00 AM],[10.0 km],[SW],"[1.9 km/h
		/ 0.5 m/s]",METAR VHHH 162300Z 22001KT 9999 FEW014 SCT018 BKN080 27/25 Q1008 WS LDG RWY 13/31 TEMPO VRB15G28KT 2500 +SHRA TSRA FEW008 FEW012CB SCT018 BKN080
0,[Mostly Cloudy],1996-8-17,[25.0 °C],[],[-],[32.7 °C],[84%],[N/A],[1008 hPa],[28.0 °C],[8:00 AM],[10.0 km],[ESE],"[1.9 km/h
		/ 0.5 m/s]",METAR VHHH 170000Z 12001KT 9999 FEW008 SCT018 BKN080 28/25 Q1008 WS LDG RWY 13/31 TEMPO VRB15G28KT 2500 +SHRA TSRA FEW008 FEW012CB SCT018 BKN080
0,[Light Thunderstorms and Rain],1996-8-17,[24.0 °C],"[Rain
	,
Thunderstorm]",[-],[-],[89%],[N/A],[1010 hPa],[26.0 °C],[9:00 AM],[-],[West],"[11.1 km/h
		/ 3.1 m/s]",METAR VHHH 170100Z 28006KT 130V320 3600 -TSRA FEW008 FEW015CB SCT018 BKN080 26/24 Q1010 TS 12KM TO SW WS LDG RWY 13/31 TEMPO VRB15G28KT 2500 +SHRA TSRA FEW008 FEW012CB SCT018 BKN080
0,[Light Rain Showers],1996-8-17,[23.0 °C],[Rain],[-],[-],[89%],[N/A],[1010 hPa],[25.0 °C],[10:00 AM],[9.0 km],[West],"[9.3 km/h
		/ 2.6 m/s]",METAR VHHH 170200Z 27005KT 220V300 9000 -SHRA FEW012 FEW015CB SCT020 BKN080 25/23 Q1010 CB 10 KM TO SW AND S WS LDG RWY 13/31 TEMPO VRB15G28KT 2500 +SHRA TSRA FEW008 FEW012CB SCT018 BKN080
0,[Light Rain Showers],1996-8-17,[24.0 °C],[Rain],[-],[-],[94%],[N/A],[1010 hPa],[25.0 °C],[11:00 AM],[7.0 km],[WSW],"[3.7 km/h
		/ 1.0 m/s]",METAR VHHH 170300Z 25002KT 7000 -SHRA FEW010 SCT016 BKN080 25/24 Q1010 TEMPO 3000 SHRA
0,[Light Rain Showers],1996-8-17,[24.0 °C],[Rain],[-],[-],[89%],[N/A],[1009 hPa],[26.0 °C],[1:00 PM],[-],[SE],"[7.4 km/h
		/ 2.1 m/s]",METAR VHHH 170500Z 13004KT 080V150 4800SE -SHRA SCT008 SCT015 BKN080 26/24 Q1009 TEMPO 3000 SHRA
0,[Rain Showers],1996-8-17,[24.0 °C],[Rain],[-],[-],[94%],[N/A],[1009 hPa],[25.0 °C],[2:00 PM],[7.0 km],[West],"[22.2 km/h
		/ 6.2 m/s]",METAR VHHH 170600Z 26012KT 220V300 7000 SHRA FEW008 SCT014 BKN080 25/24 Q1009 RERA WS LDG RWY 13/31 TEMPO 4000 SHRA
0,[Rain Showers],1996-8-17,[24.0 °C],[Rain],[-],[-],[94%],[N/A],[1009 hPa],[25.0 °C],[3:00 PM],[7.0 km],[West],"[18.5 km/h
		/ 5.1 m/s]",METAR VHHH 170700Z 26010KT 190V290 7000 SHRA FEW009 SCT014 BKN080 25/24 Q1009 RERA WS LDG RWY 13/31 TEMPO 4000 SHRA
0,[Light Rain],1996-8-17,[23.0 °C],[Rain],[-],[-],[89%],[N/A],[1009 hPa],[25.0 °C],[4:00 PM],[10.0 km],[West],"[14.8 km/h
		/ 4.1 m/s]",METAR VHHH 170800Z 27008KT 170V300 9999 -RA FEW010 SCT022 OVC080 25/23 Q1009 WS LDG RWY 13/31 TEMPO 4000 SHRA
0,[Overcast],1996-8-17,[22.0 °C],[],[-],[-],[78%],[N/A],[1008 hPa],[26.0 °C],[5:00 PM],[10.0 km],[NW],"[5.6 km/h
		/ 1.5 m/s]",METAR VHHH 170900Z 31003KT 9999 FEW030 SCT040 OVC080 26/22 Q1008 TEMPO 4000 SHRA
0,[Mostly Cloudy],1996-8-17,[22.0 °C],[],[-],[-],[78%],[N/A],[1008 hPa],[26.0 °C],[6:00 PM],[10.0 km],[NNW],"[1.9 km/h
		/ 0.5 m/s]",METAR VHHH 171000Z 33001KT 9999 FEW030 SCT040 BKN080 26/22 Q1008 TEMPO 4000 SHRA
0,[Mostly Cloudy],1996-8-17,[22.0 °C],[],[-],[-],[78%],[N/A],[1008 hPa],[26.0 °C],[7:00 PM],[10.0 km],[SE],"[7.4 km/h
		/ 2.1 m/s]",METAR VHHH 171100Z 13004KT 120V180 9999 FEW014 SCT035 BKN080 26/22 Q1008 NOSIG
0,[Mostly Cloudy],1996-8-17,[23.0 °C],[],[-],[-],[83%],[N/A],[1009 hPa],[26.0 °C],[8:00 PM],[10.0 km],[ESE],"[3.7 km/h
		/ 1.0 m/s]",METAR VHHH 171200Z 12002KT 9999 FEW015 SCT022 BKN080 26/23 Q1009 NOSIG
0,[Mostly Cloudy],1996-8-17,[23.0 °C],[],[-],[-],[83%],[N/A],[1009 hPa],[26.0 °C],[9:00 PM],[10.0 km],[East],"[3.7 km/h
		/ 1.0 m/s]",METAR VHHH 171300Z 10002KT 9999 FEW015 SCT030 BKN080 26/23 Q1009 NOSIG
0,[Mostly Cloudy],1996-8-17,[23.0 °C],[],[-],[29.6 °C],[79%],[N/A],[1010 hPa],[27.0 °C],[10:00 PM],[10.0 km],[SE],"[1.9 km/h
		/ 0.5 m/s]",METAR VHHH 171400Z 14001KT 9999 FEW015 SCT030 BKN090 27/23 Q1010 NOSIG
0,[Mostly Cloudy],1996-8-17,[24.0 °C],[],[-],[-],[89%],[N/A],[1010 hPa],[26.0 °C],[11:00 PM],[10.0 km],[ESE],"[11.1 km/h
		/ 3.1 m/s]",METAR VHHH 171500Z 12006KT 9999 FEW016 SCT030 BKN090 26/24 Q1010 NOSIG
0,[Mostly Cloudy],1996-8-18,[23.0 °C],[],[-],[-],[83%],[N/A],[1010 hPa],[26.0 °C],[12:00 AM],[10.0 km],[SE],"[3.7 km/h
		/ 1.0 m/s]",METAR VHHH 171600Z 13002KT 9999 SCT030 BKN090 26/23 Q1010 NOSIG
0,[Mostly Cloudy],1996-8-18,[24.0 °C],[],[-],[-],[94%],[N/A],[1010 hPa],[25.0 °C],[1:00 AM],[10.0 km],[ESE],"[9.3 km/h
		/ 2.6 m/s]",METAR VHHH 171700Z 11005KT 9999 FEW015 BKN025 BKN090 25/24 Q1010 NOSIG
0,[Mostly Cloudy],1996-8-18,[24.0 °C],[],[-],[-],[94%],[N/A],[1010 hPa],[25.0 °C],[2:00 AM],[10.0 km],[SE],"[13.0 km/h
		/ 3.6 m/s]",METAR VHHH 171800Z 14007KT 9999 FEW015 SCT025 BKN090 25/24 Q1010 NOSIG
0,[Mostly Cloudy],1996-8-18,[24.0 °C],[],[-],[-],[94%],[N/A],[1009 hPa],[25.0 °C],[3:00 AM],[10.0 km],[SE],"[11.1 km/h
		/ 3.1 m/s]",METAR VHHH 171900Z 14006KT 9999 FEW016 SCT025 BKN090 25/24 Q1009 NOSIG
0,[Mostly Cloudy],1996-8-18,[24.0 °C],[],[-],[-],[94%],[N/A],[1009 hPa],[25.0 °C],[4:00 AM],[10.0 km],[East],"[13.0 km/h
		/ 3.6 m/s]",METAR VHHH 172000Z 10007KT 9999 FEW017 SCT025 BKN090 25/24 Q1009 TEMPO 4000 SHRA
0,[Light Rain Showers],1996-8-18,[24.0 °C],[Rain],[-],[-],[94%],[N/A],[1009 hPa],[25.0 °C],[5:00 AM],[10.0 km],[SE],"[11.1 km/h
		/ 3.1 m/s]",METAR VHHH 172100Z 14006KT 9999 -SHRA FEW018 SCT025 BKN090 25/24 Q1009 WS LDG RWY 13/31 TEMPO VRB15G25KT 2500 +TSRA FEW008 FEW014CB BKN025
0,[Heavy Rain Showers],1996-8-18,[23.0 °C],"[Rain
	,
Thunderstorm]",[-],[-],[100%],[N/A],[1010 hPa],[23.0 °C],[6:00 AM],[4.0 km],[WSW],"[14.8 km/h
		/ 4.1 m/s]",METAR VHHH 172200Z 25008KT 210V290 4000NW +TSSHRA SCT007 SCT015CB BKN060 23/23 Q1010 WS LDG RWY 13/31 TEMPO VRB15G25KT 2500 +TSRA FEW008 FEW014CB BKN025
0,[Rain Showers],1996-8-18,[23.0 °C],[Rain],[-],[-],[100%],[N/A],[1011 hPa],[23.0 °C],[7:00 AM],[8.0 km],[NNE],"[1.9 km/h
		/ 0.5 m/s]",METAR VHHH 172300Z 02001KT 8000 SHRA FEW013 SCT030 BKN080 23/23 Q1011 WS LDG RWY 13/31 TEMPO VRB15G25KT 2500 +TSRA FEW008 FEW014CB BKN025
0,[Light Rain Showers],1996-8-18,[23.0 °C],[Rain],[-],[-],[94%],[N/A],[1011 hPa],[24.0 °C],[8:00 AM],[10.0 km],[NW],"[1.9 km/h
		/ 0.5 m/s]",METAR VHHH 180000Z 31001KT 9999 -SHRA FEW006 SCT020 OVC080 24/23 Q1011 TEMPO 4000 SHRA
0,[Rain],1996-8-18,[23.0 °C],[Rain],[-],[-],[89%],[N/A],[1011 hPa],[25.0 °C],[9:00 AM],[10.0 km],[NNW],"[1.9 km/h
		/ 0.5 m/s]",METAR VHHH 180100Z 34001KT 9999 RA FEW010 SCT020 OVC080 25/23 Q1011 TEMPO 4000 SHRA
0,[Light Rain],1996-8-18,[23.0 °C],[Rain],[-],[29.6 °C],[79%],[N/A],[1011 hPa],[27.0 °C],[10:00 AM],[10.0 km],[ESE],"[1.9 km/h
		/ 0.5 m/s]",METAR VHHH 180200Z 12001KT 9999 -RA FEW008 SCT020 OVC080 27/23 Q1011 TEMPO 4000 SHRA
0,[Overcast],1996-8-18,[24.0 °C],[],[-],[30.1 °C],[84%],[N/A],[1011 hPa],[27.0 °C],[11:00 AM],[10.0 km],[North],[-],METAR VHHH 180300Z 12006 100V200 9999 FEW008 SCT020 OVC080 27/24 Q1011 TEMPO 4000 SHRA
0,[Mostly Cloudy],1996-8-18,[23.0 °C],[],[-],[29.6 °C],[79%],[N/A],[1011 hPa],[27.0 °C],[12:00 PM],[10.0 km],[ESE],"[14.8 km/h
		/ 4.1 m/s]",METAR VHHH 180400Z 12008KT 9999 FEW014 SCT020 BKN090 27/23 Q1011 TEMPO 4000 SHRA
0,[Mostly Cloudy],1996-8-18,[24.0 °C],[],[-],[30.1 °C],[84%],[N/A],[1010 hPa],[27.0 °C],[1:00 PM],[10.0 km],[ESE],"[9.3 km/h
		/ 2.6 m/s]",METAR VHHH 180500Z 12005KT 9999 FEW015 SCT020 BKN090 27/24 Q1010 TEMPO 4000 SHRA
0,[Mostly Cloudy],1996-8-18,[24.0 °C],[],[-],[31.9 °C],[79%],[N/A],[1010 hPa],[28.0 °C],[2:00 PM],[10.0 km],[ESE],"[9.3 km/h
		/ 2.6 m/s]",METAR VHHH 180600Z 12005KT 9999 FEW016 SCT025 BKN080 28/24 Q1010 NOSIG
0,[Light Rain],1996-8-18,[23.0 °C],[Rain],[-],[31.2 °C],[74%],[N/A],[1010 hPa],[28.0 °C],[3:00 PM],[10.0 km],[SSE],"[5.6 km/h
		/ 1.5 m/s]",METAR VHHH 180700Z 16003KT 100V200 9999 -RA FEW016 SCT025 BKN080 28/23 Q1010 NOSIG
0,[Mostly Cloudy],1996-8-18,[24.0 °C],[],[-],[30.1 °C],[84%],[N/A],[1010 hPa],[27.0 °C],[4:00 PM],[10.0 km],[SE],"[11.1 km/h
		/ 3.1 m/s]",METAR VHHH 180800Z 14006KT 110V170 9999 FEW016 SCT025 BKN080 27/24 Q1010 NOSIG
0,[Light Rain],1996-8-18,[24.0 °C],[Rain],[-],[30.1 °C],[84%],[N/A],[1009 hPa],[27.0 °C],[5:00 PM],[10.0 km],[SE],"[14.8 km/h
		/ 4.1 m/s]",METAR VHHH 180900Z 13008KT 9999 -RA FEW008 SCT020 BKN080 27/24 Q1009 NOSIG
0,[Mostly Cloudy],1996-8-18,[25.0 °C],[],[-],[-],[94%],[N/A],[1009 hPa],[26.0 °C],[6:00 PM],[10.0 km],[SE],"[13.0 km/h
		/ 3.6 m/s]",METAR VHHH 181000Z 13007KT 9999 FEW010 SCT035 BKN080 26/25 Q1009 NOSIG
0,[Mostly Cloudy],1996-8-18,[24.0 °C],[],[-],[30.1 °C],[84%],[N/A],[1010 hPa],[27.0 °C],[7:00 PM],[10.0 km],[SE],"[9.3 km/h
		/ 2.6 m/s]",METAR VHHH 181100Z 13005KT 9999 FEW020 SCT035 BKN080 27/24 Q1010 NOSIG
0,[Mostly Cloudy],1996-8-18,[24.0 °C],[],[-],[30.1 °C],[84%],[N/A],[1010 hPa],[27.0 °C],[8:00 PM],[10.0 km],[SSE],"[7.4 km/h
		/ 2.1 m/s]",METAR VHHH 181200Z 15004KT 120V210 9999 FEW014 SCT030 BKN080 27/24 Q1010 NOSIG
0,[Mostly Cloudy],1996-8-18,[24.0 °C],[],[-],[30.1 °C],[84%],[N/A],[1010 hPa],[27.0 °C],[9:00 PM],[10.0 km],[ESE],"[7.4 km/h
		/ 2.1 m/s]",METAR VHHH 181300Z 12004KT 9999 FEW014 SCT020 BKN080 27/24 Q1010 NOSIG
0,[Mostly Cloudy],1996-8-18,[24.0 °C],[],[-],[30.1 °C],[84%],[N/A],[1011 hPa],[27.0 °C],[10:00 PM],[10.0 km],[SE],"[11.1 km/h
		/ 3.1 m/s]",METAR VHHH 181400Z 13006KT 9999 FEW018 SCT025 BKN080 27/24 Q1011 NOSIG
0,[Mostly Cloudy],1996-8-18,[24.0 °C],[],[-],[-],[89%],[N/A],[1011 hPa],[26.0 °C],[11:00 PM],[10.0 km],[SE],"[13.0 km/h
		/ 3.6 m/s]",METAR VHHH 181500Z 13007KT 9999 FEW016 SCT035 BKN080 26/24 Q1011 NOSIG
0,[Mostly Cloudy],1996-8-19,[24.0 °C],[],[-],[-],[89%],[N/A],[1011 hPa],[26.0 °C],[12:00 AM],[10.0 km],[ESE],"[11.1 km/h
		/ 3.1 m/s]",METAR VHHH 181600Z 12006KT 9999 FEW015 SCT035 BKN080 26/24 Q1011 NOSIG
0,[Mostly Cloudy],1996-8-19,[24.0 °C],[],[-],[-],[89%],[N/A],[1011 hPa],[26.0 °C],[1:00 AM],[10.0 km],[SE],"[13.0 km/h
		/ 3.6 m/s]",METAR VHHH 181700Z 14007KT 9999 FEW014 SCT035 BKN080 26/24 Q1011 NOSIG
0,[Mostly Cloudy],1996-8-19,[24.0 °C],[],[-],[-],[89%],[N/A],[1011 hPa],[26.0 °C],[2:00 AM],[10.0 km],[SSE],"[9.3 km/h
		/ 2.6 m/s]",METAR VHHH 181800Z 15005KT 9999 FEW014 SCT030 BKN080 26/24 Q1011 NOSIG
0,[Mostly Cloudy],1996-8-19,[24.0 °C],[],[-],[-],[94%],[N/A],[1011 hPa],[25.0 °C],[3:00 AM],[10.0 km],[ESE],"[7.4 km/h
		/ 2.1 m/s]",METAR VHHH 181900Z 12004KT 9999 FEW014 SCT030 BKN080 25/24 Q1011 NOSIG
0,[Mostly Cloudy],1996-8-19,[24.0 °C],[],[-],[-],[94%],[N/A],[1011 hPa],[25.0 °C],[4:00 AM],[10.0 km],[SE],"[9.3 km/h
		/ 2.6 m/s]",METAR VHHH 182000Z 14005KT 9999 FEW013 SCT025 BKN080 25/24 Q1011 NOSIG
0,[Mostly Cloudy],1996-8-19,[24.0 °C],[],[-],[-],[94%],[N/A],[1011 hPa],[25.0 °C],[5:00 AM],[10.0 km],[SE],"[11.1 km/h
		/ 3.1 m/s]",METAR VHHH 182100Z 14006KT 9999 FEW020 SCT025 BKN080 25/24 Q1011 NOSIG
0,[Clear],1996-8-19,[24.0 °C],[],[-],[-],[94%],[N/A],[1011 hPa],[25.0 °C],[6:00 AM],[-],[ESE],"[9.3 km/h
		/ 2.6 m/s]",METAR VHHH 182200Z 12005KT CAVOK 25/24 Q1011 NOSIG
0,[Scattered Clouds],1996-8-19,[23.0 °C],[],[-],[29.6 °C],[79%],[N/A],[1011 hPa],[27.0 °C],[7:00 AM],[10.0 km],[ESE],"[9.3 km/h
		/ 2.6 m/s]",METAR VHHH 182300Z 12005KT 9999 FEW020 SCT300 27/23 Q1011 NOSIG
0,[Partly Cloudy],1996-8-19,[24.0 °C],[],[-],[31.9 °C],[79%],[N/A],[1011 hPa],[28.0 °C],[8:00 AM],[10.0 km],[SSE],"[11.1 km/h
		/ 3.1 m/s]",METAR VHHH 190000Z 15006KT 9999 FEW018 28/24 Q1011 NOSIG
0,[Partly Cloudy],1996-8-19,[23.0 °C],[],[-],[32.7 °C],[70%],[N/A],[1011 hPa],[29.0 °C],[9:00 AM],[10.0 km],[SE],"[14.8 km/h
		/ 4.1 m/s]",METAR VHHH 190100Z 13008KT 9999 FEW020 29/23 Q1011 NOSIG
0,[Partly Cloudy],1996-8-19,[23.0 °C],[],[-],[32.7 °C],[70%],[N/A],[1012 hPa],[29.0 °C],[10:00 AM],[10.0 km],[SE],"[18.5 km/h
		/ 5.1 m/s]",METAR VHHH 190200Z 14010KT 9999 FEW025 29/23 Q1012 NOSIG
0,[Partly Cloudy],1996-8-19,[24.0 °C],[],[-],[35.0 °C],[70%],[N/A],[1012 hPa],[30.0 °C],[11:00 AM],[10.0 km],[SE],"[20.4 km/h
		/ 5.7 m/s]",METAR VHHH 190300Z 13011KT 100V180 9999 FEW025 30/24 Q1012 NOSIG
0,[Mostly Cloudy],1996-8-19,[24.0 °C],[],[-],[36.4 °C],[66%],[N/A],[1012 hPa],[31.0 °C],[12:00 PM],[10.0 km],[SSE],"[20.4 km/h
		/ 5.7 m/s]",METAR VHHH 190400Z 15011KT 9999 FEW025 BKN100 31/24 Q1012 NOSIG
0,[Mostly Cloudy],1996-8-19,[24.0 °C],[],[-],[36.4 °C],[66%],[N/A],[1011 hPa],[31.0 °C],[1:00 PM],[10.0 km],[SE],"[20.4 km/h
		/ 5.7 m/s]",METAR VHHH 190500Z 13011KT 9999 FEW025 BKN100 31/24 Q1011 NOSIG
0,[Scattered Clouds],1996-8-19,[24.0 °C],[],[-],[36.4 °C],[66%],[N/A],[1011 hPa],[31.0 °C],[2:00 PM],[10.0 km],[SE],"[20.4 km/h
		/ 5.7 m/s]",METAR VHHH 190600Z 14011KT 9999 FEW020 SCT080 31/24 Q1011 NOSIG
0,[Scattered Clouds],1996-8-19,[24.0 °C],[],[-],[36.4 °C],[66%],[N/A],[1010 hPa],[31.0 °C],[3:00 PM],[10.0 km],[SE],"[18.5 km/h
		/ 5.1 m/s]",METAR VHHH 190700Z 14010KT 9999 FEW020 SCT080 31/24 Q1010 NOSIG
0,[Partly Cloudy],1996-8-19,[25.0 °C],[],[-],[36.0 °C],[74%],[N/A],[1009 hPa],[30.0 °C],[4:00 PM],[10.0 km],[SE],"[22.2 km/h
		/ 6.2 m/s]",METAR VHHH 190800Z 13012KT 9999 FEW025 30/25 Q1009 NOSIG
0,[Partly Cloudy],1996-8-19,[24.0 °C],[],[-],[35.0 °C],[70%],[N/A],[1009 hPa],[30.0 °C],[5:00 PM],[10.0 km],[SE],"[22.2 km/h
		/ 6.2 m/s]",METAR VHHH 190900Z 13012KT 9999 FEW025 30/24 Q1009 NOSIG
0,[Partly Cloudy],1996-8-19,[24.0 °C],[],[-],[33.5 °C],[74%],[N/A],[1009 hPa],[29.0 °C],[6:00 PM],[10.0 km],[SE],"[16.7 km/h
		/ 4.6 m/s]",METAR VHHH 191000Z 13009KT 9999 FEW025 29/24 Q1009 NOSIG
0,[Partly Cloudy],1996-8-19,[24.0 °C],[],[-],[31.9 °C],[79%],[N/A],[1009 hPa],[28.0 °C],[7:00 PM],[10.0 km],[SE],"[13.0 km/h
		/ 3.6 m/s]",METAR VHHH 191100Z 14007KT 9999 FEW025 28/24 Q1009 NOSIG
0,[Partly Cloudy],1996-8-19,[24.0 °C],[],[-],[33.5 °C],[74%],[N/A],[1010 hPa],[29.0 °C],[8:00 PM],[10.0 km],[ESE],"[11.1 km/h
		/ 3.1 m/s]",METAR VHHH 191200Z 11006KT 9999 FEW025 29/24 Q1010 NOSIG
0,[Partly Cloudy],1996-8-19,[24.0 °C],[],[-],[31.9 °C],[79%],[N/A],[1011 hPa],[28.0 °C],[9:00 PM],[10.0 km],[ESE],"[7.4 km/h
		/ 2.1 m/s]",METAR VHHH 191300Z 12004KT 9999 FEW025 28/24 Q1011 NOSIG
0,[Partly Cloudy],1996-8-19,[24.0 °C],[],[-],[31.9 °C],[79%],[N/A],[1012 hPa],[28.0 °C],[10:00 PM],[10.0 km],[SE],"[7.4 km/h
		/ 2.1 m/s]",METAR VHHH 191400Z 13004KT 9999 FEW030 28/24 Q1012 NOSIG
0,[Partly Cloudy],1996-8-19,[24.0 °C],[],[-],[30.1 °C],[84%],[N/A],[1011 hPa],[27.0 °C],[11:00 PM],[10.0 km],[ESE],"[7.4 km/h
		/ 2.1 m/s]",METAR VHHH 191500Z 12004KT 100V190 9999 FEW030 27/24 Q1011 NOSIG
0,[Partly Cloudy],1996-8-20,[24.0 °C],[],[-],[31.9 °C],[79%],[N/A],[1011 hPa],[28.0 °C],[12:00 AM],[10.0 km],[SW],"[3.7 km/h
		/ 1.0 m/s]",METAR VHHH 191600Z 22002KT 9999 FEW030 28/24 Q1011 NOSIG
0,[Partly Cloudy],1996-8-20,[25.0 °C],[],[-],[30.6 °C],[89%],[N/A],[1011 hPa],[27.0 °C],[1:00 AM],[10.0 km],[ESE],"[3.7 km/h
		/ 1.0 m/s]",METAR VHHH 191700Z 12002KT 9999 FEW030 27/25 Q1011 NOSIG
0,[Partly Cloudy],1996-8-20,[24.0 °C],[],[-],[30.1 °C],[84%],[N/A],[1010 hPa],[27.0 °C],[2:00 AM],[10.0 km],[SE],"[3.7 km/h
		/ 1.0 m/s]",METAR VHHH 191800Z 13002KT 9999 FEW030 27/24 Q1010 NOSIG
0,[Partly Cloudy],1996-8-20,[24.0 °C],[],[-],[-],[89%],[N/A],[1010 hPa],[26.0 °C],[3:00 AM],[10.0 km],[ENE],"[3.7 km/h
		/ 1.0 m/s]",METAR VHHH 191900Z 07002KT 9999 FEW030 26/24 Q1010 NOSIG
0,[Partly Cloudy],1996-8-20,[24.0 °C],[],[-],[-],[89%],[N/A],[1010 hPa],[26.0 °C],[4:00 AM],[10.0 km],[South],"[5.6 km/h
		/ 1.5 m/s]",METAR VHHH 192000Z 19003KT 9999 FEW030 26/24 Q1010 NOSIG
0,[Partly Cloudy],1996-8-20,[24.0 °C],[],[-],[-],[89%],[N/A],[1010 hPa],[26.0 °C],[5:00 AM],[10.0 km],[SW],"[9.3 km/h
		/ 2.6 m/s]",METAR VHHH 192100Z 22005KT 9999 FEW030 26/24 Q1010 NOSIG
0,[Clear],1996-8-20,[24.0 °C],[],[-],[-],[89%],[N/A],[1010 hPa],[26.0 °C],[6:00 AM],[-],[SW],"[9.3 km/h
		/ 2.6 m/s]",METAR VHHH 192200Z 23005KT CAVOK 26/24 Q1010 NOSIG
0,[Clear],1996-8-20,[24.0 °C],[],[-],[30.1 °C],[84%],[N/A],[1010 hPa],[27.0 °C],[7:00 AM],[-],[ESE],"[1.9 km/h
		/ 0.5 m/s]",METAR VHHH 192300Z 11001KT CAVOK 27/24 Q1010 NOSIG
0,[Partly Cloudy],1996-8-20,[24.0 °C],[],[-],[33.5 °C],[74%],[N/A],[1011 hPa],[29.0 °C],[8:00 AM],[8.0 km],[SE],"[7.4 km/h
		/ 2.1 m/s]",METAR VHHH 200000Z 13004KT 110V170 8000 FEW120 29/24 Q1011 NOSIG
0,[Partly Cloudy],1996-8-20,[23.0 °C],[],[-],[35.4 °C],[62%],[N/A],[1011 hPa],[31.0 °C],[9:00 AM],[9.0 km],[SE],"[3.7 km/h
		/ 1.0 m/s]",METAR VHHH 200100Z 13002KT 9000 FEW030 31/23 Q1011 NOSIG
0,[Partly Cloudy],1996-8-20,[23.0 °C],[],[-],[36.8 °C],[59%],[N/A],[1011 hPa],[32.0 °C],[10:00 AM],[10.0 km],[SSW],"[9.3 km/h
		/ 2.6 m/s]",METAR VHHH 200200Z 21005KT 180V250 9999 FEW025 32/23 Q1011 NOSIG
0,[Partly Cloudy],1996-8-20,[23.0 °C],[],[-],[37.8 °C],[55%],[N/A],[1010 hPa],[33.0 °C],[11:00 AM],[10.0 km],[SW],"[9.3 km/h
		/ 2.6 m/s]",METAR VHHH 200300Z 22005KT 150V280 9999 FEW025 33/23 Q1010 NOSIG
0,[Scattered Clouds],1996-8-20,[24.0 °C],[],[-],[40.6 °C],[56%],[N/A],[1010 hPa],[34.0 °C],[12:00 PM],[10.0 km],[East],"[9.3 km/h
		/ 2.6 m/s]",METAR VHHH 200400Z 08005KT 040V130 9999 SCT020 34/24 Q1010 NOSIG
0,[Scattered Clouds],1996-8-20,[24.0 °C],[],[-],[39.2 °C],[59%],[N/A],[1009 hPa],[33.0 °C],[1:00 PM],[7.0 km],[SE],"[13.0 km/h
		/ 3.6 m/s]",METAR VHHH 200500Z 13007KT 080V180 7000 FEW020 SCT025 33/24 Q1009 NOSIG
0,[Haze],1996-8-20,[25.0 °C],[],[-],[40.6 °C],[63%],[N/A],[1008 hPa],[33.0 °C],[2:00 PM],[4.5 km],[SSW],"[11.1 km/h
		/ 3.1 m/s]",METAR VHHH 200600Z 21006KT 130V280 4500 HZ FEW020 SCT025 33/25 Q1008 TEMPO 5000 HZ
0,[Haze],1996-8-20,[25.0 °C],[],[-],[40.6 °C],[63%],[N/A],[1008 hPa],[33.0 °C],[3:00 PM],[4.0 km],[West],"[7.4 km/h
		/ 2.1 m/s]",METAR VHHH 200700Z 26004KT 190V290 4000 HZ FEW020 SCT025 33/25 Q1008 TEMPO 4000 HZ
0,[Haze],1996-8-20,[24.0 °C],[],[-],[39.2 °C],[59%],[N/A],[1007 hPa],[33.0 °C],[4:00 PM],[4.0 km],[South],"[9.3 km/h
		/ 2.6 m/s]",METAR VHHH 200800Z 17005KT 100V280 4000NW HZ FEW020 SCT025 33/24 Q1007 TEMPO 4000 DUST HAZE
0,[Haze],1996-8-20,[25.0 °C],[],[-],[39.0 °C],[66%],[N/A],[1007 hPa],[32.0 °C],[5:00 PM],[4.0 km],[SE],"[13.0 km/h
		/ 3.6 m/s]",METAR VHHH 200900Z 13007KT 4000NW HZ FEW025 SCT300 32/25 Q1007 VIS 7KM TO SE TEMPO 4000 HZ
0,[Haze],1996-8-20,[25.0 °C],[],[-],[39.0 °C],[66%],[N/A],[1008 hPa],[32.0 °C],[6:00 PM],[4.5 km],[SE],"[11.1 km/h
		/ 3.1 m/s]",METAR VHHH 201000Z 13006KT 4500NW HZ FEW025 SCT300 32/25 Q1008 VIS 7KM TO SE TEMPO 4000 HZ
0,[Scattered Clouds],1996-8-20,[25.0 °C],[],[-],[37.6 °C],[70%],[N/A],[1008 hPa],[31.0 °C],[7:00 PM],[6.0 km],[East],"[18.5 km/h
		/ 5.1 m/s]",METAR VHHH 201100Z 10010KT 6000 FEW025 SCT100 31/25 Q1008 TEMPO 4000 HZ
0,[Mostly Cloudy],1996-8-20,[25.0 °C],[],[-],[37.6 °C],[70%],[N/A],[1009 hPa],[31.0 °C],[8:00 PM],[8.0 km],[ESE],"[14.8 km/h
		/ 4.1 m/s]",METAR VHHH 201200Z 11008KT 8000 FEW025 BKN120 31/25 Q1009 NOSIG
0,[Mostly Cloudy],1996-8-20,[24.0 °C],[],[-],[35.0 °C],[70%],[N/A],[1010 hPa],[30.0 °C],[9:00 PM],[10.0 km],[ESE],"[9.3 km/h
		/ 2.6 m/s]",METAR VHHH 201300Z 11005KT 040V160 9999 FEW020 BKN080 30/24 Q1010 WS LDG RWY 13/31 TEMPO VRB15G28KT 2500 +TSRA/+SHRA FEW008 FEW012CB SCT018 BKN080
0,[Mostly Cloudy],1996-8-20,[24.0 °C],[],[-],[35.0 °C],[70%],[N/A],[1010 hPa],[30.0 °C],[10:00 PM],[10.0 km],[NE],"[1.9 km/h
		/ 0.5 m/s]",METAR VHHH 201400Z 04001KT 9999 FEW020 BKN080 30/24 Q1010 WS LDG RWY 13/31 TEMPO VRB15G28KT 2500 TSRA/+SHRA FEW008 FEW012CB SCT018 BKN080
0,[Scattered Clouds],1996-8-20,[23.0 °C],[],[-],[32.7 °C],[70%],[N/A],[1010 hPa],[29.0 °C],[11:00 PM],[10.0 km],[SE],"[9.3 km/h
		/ 2.6 m/s]",METAR VHHH 201500Z 13005KT 050V180 9999 FEW020 SCT080 29/23 Q1010 TEMPO 4000 SHRA
0,[Scattered Clouds],1996-8-21,[23.0 °C],[],[-],[34.1 °C],[66%],[N/A],[1010 hPa],[30.0 °C],[12:00 AM],[10.0 km],[East],"[16.7 km/h
		/ 4.6 m/s]",METAR VHHH 201600Z 09009KT 9999 FEW020 SCT080 30/23 Q1010 TEMPO 4000 SHRA
0,[Scattered Clouds],1996-8-21,[24.0 °C],[],[-],[33.5 °C],[74%],[N/A],[1010 hPa],[29.0 °C],[1:00 AM],[10.0 km],[ENE],"[9.3 km/h
		/ 2.6 m/s]",METAR VHHH 201700Z 07005KT 9999 FEW020 SCT080 29/24 Q1010 TEMPO 4000 SHRA
0,[Scattered Clouds],1996-8-21,[24.0 °C],[],[-],[33.5 °C],[74%],[N/A],[1010 hPa],[29.0 °C],[2:00 AM],[10.0 km],[ENE],"[16.7 km/h
		/ 4.6 m/s]",METAR VHHH 201800Z 07009KT 040V120 9999 FEW015 SCT080 29/24 Q1010 TEMPO 4000 SHRA
0,[Scattered Clouds],1996-8-21,[24.0 °C],[],[-],[33.5 °C],[74%],[N/A],[1009 hPa],[29.0 °C],[3:00 AM],[10.0 km],[ENE],"[18.5 km/h
		/ 5.1 m/s]",METAR VHHH 201900Z 07010KT 010V140 9999 FEW015 SCT020 29/24 Q1009 TEMPO 4000 SHRA
0,[Scattered Clouds],1996-8-21,[24.0 °C],[],[-],[31.9 °C],[79%],[N/A],[1009 hPa],[28.0 °C],[5:00 AM],[10.0 km],[ENE],"[18.5 km/h
		/ 5.1 m/s]",METAR VHHH 202100Z 06010KT 360V130 9999 FEW020 SCT025 28/24 Q1009 WS LDG RWY 13/31 NOSIG
0,[Scattered Clouds],1996-8-21,[24.0 °C],[],[-],[33.5 °C],[74%],[N/A],[1008 hPa],[29.0 °C],[6:00 AM],[10.0 km],[ENE],"[18.5 km/h
		/ 5.1 m/s]",METAR VHHH 202200Z 07010KT 360V130 9999 FEW020 SCT025 29/24 Q1008 WS LDG RWY 13/31 NOSIG
0,[Scattered Clouds],1996-8-21,[24.0 °C],[],[-],[33.5 °C],[74%],[N/A],[1009 hPa],[29.0 °C],[7:00 AM],[10.0 km],[ENE],"[22.2 km/h
		/ 6.2 m/s]",METAR VHHH 202300Z 06012KT 330V130 9999 FEW022 SCT030 29/24 Q1009 WS LDG RWY 13/31 NOSIG
0,[Scattered Clouds],1996-8-21,[24.0 °C],[],"[44.4 km/h
		/ 12.3 m/s]",[35.0 °C],[70%],[N/A],[1009 hPa],[30.0 °C],[8:00 AM],[10.0 km],[ENE],"[24.1 km/h
		/ 6.7 m/s]",METAR VHHH 210000Z 07013G24KT 340V110 9999 SCT025 30/24 Q1009 WS LDG RWY 13/31 NOSIG
0,[Scattered Clouds],1996-8-21,[24.0 °C],[],"[42.6 km/h
		/ 11.8 m/s]",[36.4 °C],[66%],[N/A],[1009 hPa],[31.0 °C],[9:00 AM],[10.0 km],[ENE],"[22.2 km/h
		/ 6.2 m/s]",METAR VHHH 210100Z 06012G23KT 320V120 9999 SCT022 31/24 Q1009 WS LDG RWY 13/31 NOSIG
0,[Scattered Clouds],1996-8-21,[24.0 °C],[],"[44.4 km/h
		/ 12.3 m/s]",[37.7 °C],[62%],[N/A],[1010 hPa],[32.0 °C],[10:00 AM],[10.0 km],[ENE],"[24.1 km/h
		/ 6.7 m/s]",METAR VHHH 210200Z 07013G24KT 340V130 9999 FEW020 SCT025 32/24 Q1010 WS LDG RWY 13/31 NOSIG
0,[Scattered Clouds],1996-8-21,[24.0 °C],[],"[46.3 km/h
		/ 12.9 m/s]",[37.7 °C],[62%],[N/A],[1010 hPa],[32.0 °C],[11:00 AM],[10.0 km],[ENE],"[24.1 km/h
		/ 6.7 m/s]",METAR VHHH 210300Z 07013G25KT 320V190 9999 FEW020 SCT025 32/24 Q1010 WS LDG RWY 13/31 NOSIG
0,[Scattered Clouds],1996-8-21,[24.0 °C],[],"[42.6 km/h
		/ 11.8 m/s]",[37.7 °C],[62%],[N/A],[1010 hPa],[32.0 °C],[12:00 PM],[10.0 km],[ENE],"[24.1 km/h
		/ 6.7 m/s]",METAR VHHH 210400Z 07013G23KT 350V120 9999 FEW020 SCT025 32/24 Q1010 WS LDG RWY 13/31 NOSIG
0,[Scattered Clouds],1996-8-21,[24.0 °C],[],"[48.2 km/h
		/ 13.4 m/s]",[37.7 °C],[62%],[N/A],[1010 hPa],[32.0 °C],[1:00 PM],[10.0 km],[East],"[27.8 km/h
		/ 7.7 m/s]",METAR VHHH 210500Z 08015G26KT 040V150 9999 SCT025 32/24 Q1010 WS LDG RWY 13/31 NOSIG
0,[Partly Cloudy],1996-8-21,[24.0 °C],[],"[50.0 km/h
		/ 13.9 m/s]",[37.7 °C],[62%],[N/A],[1009 hPa],[32.0 °C],[2:00 PM],[10.0 km],[East],"[31.5 km/h
		/ 8.7 m/s]",METAR VHHH 210600Z 09017G27KT 020V120 9999 FEW025 32/24 Q1009 WS LDG RWY 13/31 NOSIG
0,[Scattered Clouds],1996-8-22,[25.0 °C],[],[-],[34.5 °C],[79%],[N/A],[1011 hPa],[29.0 °C],[1:00 AM],[10.0 km],[East],"[14.8 km/h
		/ 4.1 m/s]",METAR VHHH 211700Z 08008KT 050V120 9999 FEW013 SCT020 29/25 Q1011 NOSIG
0,[Scattered Clouds],1996-8-22,[26.0 °C],[],[-],[35.6 °C],[84%],[N/A],[1010 hPa],[29.0 °C],[2:00 AM],[10.0 km],[ENE],"[22.2 km/h
		/ 6.2 m/s]",METAR VHHH 211800Z 07012KT 030V110 9999 FEW014 SCT020 29/26 Q1010 NOSIG
0,[Scattered Clouds],1996-8-22,[25.0 °C],[],[-],[34.5 °C],[79%],[N/A],[1009 hPa],[29.0 °C],[3:00 AM],[10.0 km],[East],"[20.4 km/h
		/ 5.7 m/s]",METAR VHHH 211900Z 08011KT 030V140 9999 FEW012 SCT022 29/25 Q1009 NOSIG
0,[Scattered Clouds],1996-8-22,[25.0 °C],[],[-],[34.5 °C],[79%],[N/A],[1010 hPa],[29.0 °C],[4:00 AM],[10.0 km],[East],"[18.5 km/h
		/ 5.1 m/s]",METAR VHHH 212000Z 08010KT 050V130 9999 FEW016 SCT025 29/25 Q1010 NOSIG
0,[Scattered Clouds],1996-8-22,[25.0 °C],[],[-],[34.5 °C],[79%],[N/A],[1010 hPa],[29.0 °C],[5:00 AM],[10.0 km],[East],"[20.4 km/h
		/ 5.7 m/s]",METAR VHHH 212100Z 09011KT 050V130 9999 FEW016 SCT025 29/25 Q1010 NOSIG
0,[Scattered Clouds],1996-8-22,[25.0 °C],[],[-],[34.5 °C],[79%],[N/A],[1010 hPa],[29.0 °C],[6:00 AM],[10.0 km],[East],"[13.0 km/h
		/ 3.6 m/s]",METAR VHHH 212200Z 10007KT 060V140 9999 FEW016 SCT025 29/25 Q1010 NOSIG
0,[Scattered Clouds],1996-8-22,[25.0 °C],[],[-],[34.5 °C],[79%],[N/A],[1010 hPa],[29.0 °C],[7:00 AM],[10.0 km],[ESE],"[11.1 km/h
		/ 3.1 m/s]",METAR VHHH 212300Z 12006KT 060V140 9999 FEW016 SCT025 29/25 Q1010 NOSIG
0,[Scattered Clouds],1996-8-22,[25.0 °C],[],[-],[34.5 °C],[79%],[N/A],[1010 hPa],[29.0 °C],[8:00 AM],[10.0 km],[ESE],"[13.0 km/h
		/ 3.6 m/s]",METAR VHHH 220000Z 11007KT 070V140 9999 SCT020 SCT300 29/25 Q1010 NOSIG
0,[Scattered Clouds],1996-8-22,[25.0 °C],[],[-],[37.6 °C],[70%],[N/A],[1011 hPa],[31.0 °C],[9:00 AM],[10.0 km],[East],"[14.8 km/h
		/ 4.1 m/s]",METAR VHHH 220100Z 09008KT 040V120 9999 FEW017 SCT025 31/25 Q1011 NOSIG
0,[Scattered Clouds],1996-8-22,[25.0 °C],[],[-],[37.6 °C],[70%],[N/A],[1011 hPa],[31.0 °C],[10:00 AM],[10.0 km],[ESE],"[18.5 km/h
		/ 5.1 m/s]",METAR VHHH 220200Z 11010KT 050V140 9999 FEW017 SCT025 31/25 Q1011 NOSIG
0,[Scattered Clouds],1996-8-22,[25.0 °C],[],[-],[37.6 °C],[70%],[N/A],[1011 hPa],[31.0 °C],[11:00 AM],[10.0 km],[East],"[22.2 km/h
		/ 6.2 m/s]",METAR VHHH 220300Z 10012KT 080V140 9999 FEW016 SCT025 31/25 Q1011 NOSIG
0,[Scattered Clouds],1996-8-22,[25.0 °C],[],[-],[37.6 °C],[70%],[N/A],[1011 hPa],[31.0 °C],[12:00 PM],[10.0 km],[East],"[18.5 km/h
		/ 5.1 m/s]",METAR VHHH 220400Z 10010KT 070V140 9999 FEW015 SCT025 31/25 Q1011 NOSIG
0,[Mostly Cloudy],1996-8-22,[26.0 °C],[],[-],[40.4 °C],[70%],[N/A],[1011 hPa],[32.0 °C],[1:00 PM],[10.0 km],[ESE],"[20.4 km/h
		/ 5.7 m/s]",METAR VHHH 220500Z 12011KT 9999 FEW016 SCT025 BKN300 32/26 Q1011 NOSIG
0,[Mostly Cloudy],1996-8-22,[25.0 °C],[],[-],[39.0 °C],[66%],[N/A],[1010 hPa],[32.0 °C],[2:00 PM],[10.0 km],[SE],"[24.1 km/h
		/ 6.7 m/s]",METAR VHHH 220600Z 13013KT 9999 SCT022 BKN300 32/25 Q1010 NOSIG
0,[Mostly Cloudy],1996-8-22,[24.0 °C],[],[-],[37.7 °C],[62%],[N/A],[1010 hPa],[32.0 °C],[3:00 PM],[10.0 km],[SE],"[20.4 km/h
		/ 5.7 m/s]",METAR VHHH 220700Z 13011KT 9999 FEW020 SCT025 BKN300 32/24 Q1010 NOSIG
0,[Scattered Clouds],1996-8-22,[24.0 °C],[],[-],[37.7 °C],[62%],[N/A],[1009 hPa],[32.0 °C],[4:00 PM],[10.0 km],[ESE],"[16.7 km/h
		/ 4.6 m/s]",METAR VHHH 220800Z 12009KT 9999 FEW016 SCT025 32/24 Q1009 NOSIG
0,[Mostly Cloudy],1996-8-22,[25.0 °C],[],[-],[36.0 °C],[74%],[N/A],[1010 hPa],[30.0 °C],[6:00 PM],[10.0 km],[ESE],"[13.0 km/h
		/ 3.6 m/s]",METAR VHHH 221000Z 11007KT 9999 FEW020 BKN080 30/25 Q1010 NOSIG
0,[Mostly Cloudy],1996-8-22,[25.0 °C],[],[-],[36.0 °C],[74%],[N/A],[1010 hPa],[30.0 °C],[7:00 PM],[10.0 km],[ESE],"[11.1 km/h
		/ 3.1 m/s]",METAR VHHH 221100Z 12006KT 9999 FEW016 BKN080 30/25 Q1010 NOSIG
0,[Mostly Cloudy],1996-8-22,[24.0 °C],[],[-],[33.5 °C],[74%],[N/A],[1011 hPa],[29.0 °C],[8:00 PM],[10.0 km],[ESE],"[7.4 km/h
		/ 2.1 m/s]",METAR VHHH 221200Z 12004KT 9999 FEW016 BKN080 29/24 Q1011 NOSIG
0,[Mostly Cloudy],1996-8-22,[25.0 °C],[],[-],[34.5 °C],[79%],[N/A],[1011 hPa],[29.0 °C],[9:00 PM],[10.0 km],[ESE],"[7.4 km/h
		/ 2.1 m/s]",METAR VHHH 221300Z 12004KT 9999 FEW016 BKN080 29/25 Q1011 NOSIG
0,[Mostly Cloudy],1996-8-23,[25.0 °C],[],[-],[34.5 °C],[79%],[N/A],[1011 hPa],[29.0 °C],[12:00 AM],[10.0 km],[SSE],"[3.7 km/h
		/ 1.0 m/s]",METAR VHHH 221600Z 15002KT 9999 FEW020 BKN080 29/25 Q1011 NOSIG
0,[Mostly Cloudy],1996-8-23,[25.0 °C],[],[-],[34.5 °C],[79%],[N/A],[1010 hPa],[29.0 °C],[1:00 AM],[10.0 km],[SE],"[3.7 km/h
		/ 1.0 m/s]",METAR VHHH 221700Z 14002KT 9999 FEW018 BKN080 29/25 Q1010 NOSIG
0,[Mostly Cloudy],1996-8-23,[25.0 °C],[],[-],[32.7 °C],[84%],[N/A],[1010 hPa],[28.0 °C],[2:00 AM],[10.0 km],[SE],"[1.9 km/h
		/ 0.5 m/s]",METAR VHHH 221800Z 14001KT 9999 FEW018 BKN080 28/25 Q1010 NOSIG
0,[Mostly Cloudy],1996-8-23,[25.0 °C],[],[-],[32.7 °C],[84%],[N/A],[1009 hPa],[28.0 °C],[3:00 AM],[10.0 km],[SE],"[1.9 km/h
		/ 0.5 m/s]",METAR VHHH 221900Z 13001KT 9999 FEW018 BKN080 28/25 Q1009 NOSIG
0,[Mostly Cloudy],1996-8-23,[25.0 °C],[],[-],[32.7 °C],[84%],[N/A],[1009 hPa],[28.0 °C],[4:00 AM],[10.0 km],[SE],"[1.9 km/h
		/ 0.5 m/s]",METAR VHHH 222000Z 14001KT 9999 FEW018 BKN080 28/25 Q1009 NOSIG
0,[Mostly Cloudy],1996-8-23,[25.0 °C],[],[-],[30.6 °C],[89%],[N/A],[1009 hPa],[27.0 °C],[5:00 AM],[10.0 km],[South],"[1.9 km/h
		/ 0.5 m/s]",METAR VHHH 222100Z 18001KT 9999 FEW020 BKN080 27/25 Q1009 NOSIG
0,[Mostly Cloudy],1996-8-23,[25.0 °C],[],[-],[32.7 °C],[84%],[N/A],[1009 hPa],[28.0 °C],[6:00 AM],[10.0 km],[WSW],"[1.9 km/h
		/ 0.5 m/s]",METAR VHHH 222200Z 25001KT 9999 FEW014 BKN080 28/25 Q1009 NOSIG
0,[Mostly Cloudy],1996-8-23,[25.0 °C],[],[-],[32.7 °C],[84%],[N/A],[1010 hPa],[28.0 °C],[7:00 AM],[10.0 km],[WSW],"[1.9 km/h
		/ 0.5 m/s]",METAR VHHH 222300Z 24001KT 9999 FEW018 SCT080 BKN300 28/25 Q1010 NOSIG
0,[Mostly Cloudy],1996-8-23,[25.0 °C],[],[-],[34.5 °C],[79%],[N/A],[1010 hPa],[29.0 °C],[8:00 AM],[10.0 km],[SW],"[1.9 km/h
		/ 0.5 m/s]",METAR VHHH 230000Z 22001KT 9999 FEW017 SCT025 BKN100 29/25 Q1010 NOSIG
0,[Mostly Cloudy],1996-8-23,[24.0 °C],[],[-],[33.5 °C],[74%],[N/A],[1011 hPa],[29.0 °C],[9:00 AM],[10.0 km],[West],"[11.1 km/h
		/ 3.1 m/s]",METAR VHHH 230100Z 28006KT 230V300 9999 FEW017 SCT025 BKN300 29/24 Q1011 NOSIG
0,[Mostly Cloudy],1996-8-23,[23.0 °C],[],[-],[34.1 °C],[66%],[N/A],[1011 hPa],[30.0 °C],[10:00 AM],[10.0 km],[West],"[14.8 km/h
		/ 4.1 m/s]",METAR VHHH 230200Z 27008KT 240V300 9999 SCT020 BKN100 30/23 Q1011 NOSIG
0,[Mostly Cloudy],1996-8-23,[24.0 °C],[],[-],[36.4 °C],[66%],[N/A],[1011 hPa],[31.0 °C],[11:00 AM],[10.0 km],[West],"[14.8 km/h
		/ 4.1 m/s]",METAR VHHH 230300Z 28008KT 9999 FEW020 BKN100 31/24 Q1011 NOSIG
0,[Mostly Cloudy],1996-8-23,[24.0 °C],[],[-],[35.0 °C],[70%],[N/A],[1010 hPa],[30.0 °C],[12:00 PM],[10.0 km],[SW],"[11.1 km/h
		/ 3.1 m/s]",METAR VHHH 230400Z 23006KT 180V310 9999 FEW020 BKN080 30/24 Q1010 NOSIG
0,[Mostly Cloudy],1996-8-23,[25.0 °C],[],[-],[37.6 °C],[70%],[N/A],[1010 hPa],[31.0 °C],[1:00 PM],[10.0 km],[West],"[18.5 km/h
		/ 5.1 m/s]",METAR VHHH 230500Z 26010KT 230V310 9999 FEW020 SCT040 BKN080 31/25 Q1010 NOSIG
0,[Mostly Cloudy],1996-8-23,[24.0 °C],[],[-],[36.4 °C],[66%],[N/A],[1009 hPa],[31.0 °C],[2:00 PM],[10.0 km],[West],"[18.5 km/h
		/ 5.1 m/s]",METAR VHHH 230600Z 26010KT 230V300 9999 FEW020 SCT035 BKN080 31/24 Q1009 NOSIG
0,[Mostly Cloudy],1996-8-23,[23.0 °C],[],[-],[35.4 °C],[62%],[N/A],[1009 hPa],[31.0 °C],[3:00 PM],[10.0 km],[West],"[18.5 km/h
		/ 5.1 m/s]",METAR VHHH 230700Z 26010KT 230V300 9999 FEW020 SCT035 BKN080 31/23 Q1009 NOSIG
0,[Mostly Cloudy],1996-8-23,[24.0 °C],[],[-],[36.4 °C],[66%],[N/A],[1008 hPa],[31.0 °C],[4:00 PM],[10.0 km],[West],"[16.7 km/h
		/ 4.6 m/s]",METAR VHHH 230800Z 27009KT 230V310 9999 FEW020 BKN080 31/24 Q1008 NOSIG
0,[Mostly Cloudy],1996-8-23,[24.0 °C],[],[-],[35.0 °C],[70%],[N/A],[1008 hPa],[30.0 °C],[5:00 PM],[10.0 km],[WNW],"[16.7 km/h
		/ 4.6 m/s]",METAR VHHH 230900Z 29009KT 230V310 9999 FEW020 BKN080 30/24 Q1008 NOSIG
0,[Mostly Cloudy],1996-8-23,[24.0 °C],[],[-],[35.0 °C],[70%],[N/A],[1008 hPa],[30.0 °C],[6:00 PM],[10.0 km],[West],"[13.0 km/h
		/ 3.6 m/s]",METAR VHHH 231000Z 26007KT 230V300 9999 FEW025 BKN080 30/24 Q1008 NOSIG
0,[Mostly Cloudy],1996-8-23,[24.0 °C],[],[-],[35.0 °C],[70%],[N/A],[1008 hPa],[30.0 °C],[7:00 PM],[10.0 km],[West],"[9.3 km/h
		/ 2.6 m/s]",METAR VHHH 231100Z 27005KT 210V280 9999 FEW025 BKN080 30/24 Q1008 NOSIG
0,[Mostly Cloudy],1996-8-23,[23.0 °C],[],[-],[34.1 °C],[66%],[N/A],[1008 hPa],[30.0 °C],[8:00 PM],[10.0 km],[SW],"[9.3 km/h
		/ 2.6 m/s]",METAR VHHH 231200Z 23005KT 110V280 9999 FEW022 BKN080 30/23 Q1008 NOSIG
0,[Mostly Cloudy],1996-8-23,[24.0 °C],[],[-],[35.0 °C],[70%],[N/A],[1009 hPa],[30.0 °C],[9:00 PM],[10.0 km],[WSW],"[7.4 km/h
		/ 2.1 m/s]",METAR VHHH 231300Z 24004KT 100V290 9999 FEW022 BKN080 30/24 Q1009 NOSIG
0,[Mostly Cloudy],1996-8-23,[25.0 °C],[],[-],[34.5 °C],[79%],[N/A],[1009 hPa],[29.0 °C],[10:00 PM],[10.0 km],[SW],"[11.1 km/h
		/ 3.1 m/s]",METAR VHHH 231400Z 23006KT 190V290 9999 FEW022 BKN080 29/25 Q1009 NOSIG
0,[Mostly Cloudy],1996-8-23,[25.0 °C],[],[-],[34.5 °C],[79%],[N/A],[1009 hPa],[29.0 °C],[11:00 PM],[10.0 km],[WSW],"[7.4 km/h
		/ 2.1 m/s]",METAR VHHH 231500Z 24004KT 170V280 9999 FEW020 BKN080 29/25 Q1009 NOSIG
0,[Scattered Clouds],1996-8-24,[25.0 °C],[],[-],[34.5 °C],[79%],[N/A],[1009 hPa],[29.0 °C],[12:00 AM],[10.0 km],[WNW],"[9.3 km/h
		/ 2.6 m/s]",METAR VHHH 231600Z 29005KT 230V320 9999 FEW020 SCT080 29/25 Q1009 NOSIG
0,[Scattered Clouds],1996-8-24,[25.0 °C],[],[-],[32.7 °C],[84%],[N/A],[1008 hPa],[28.0 °C],[1:00 AM],[10.0 km],[West],"[7.4 km/h
		/ 2.1 m/s]",METAR VHHH 231700Z 27004KT 9999 FEW016 SCT080 28/25 Q1008 NOSIG
0,[Mostly Cloudy],1996-8-24,[25.0 °C],[],[-],[32.7 °C],[84%],[N/A],[1008 hPa],[28.0 °C],[2:00 AM],[10.0 km],[West],"[14.8 km/h
		/ 4.1 m/s]",METAR VHHH 231800Z 27008KT 9999 FEW015 BKN080 28/25 Q1008 NOSIG
0,[Mostly Cloudy],1996-8-24,[25.0 °C],[],[-],[32.7 °C],[84%],[N/A],[1007 hPa],[28.0 °C],[3:00 AM],[10.0 km],[West],"[9.3 km/h
		/ 2.6 m/s]",METAR VHHH 231900Z 28005KT 9999 FEW015 SCT020 BKN080 28/25 Q1007 NOSIG
0,[Mostly Cloudy],1996-8-24,[25.0 °C],[],[-],[32.7 °C],[84%],[N/A],[1007 hPa],[28.0 °C],[4:00 AM],[10.0 km],[WSW],"[9.3 km/h
		/ 2.6 m/s]",METAR VHHH 232000Z 25005KT 9999 FEW018 BKN100 28/25 Q1007 NOSIG
0,[Mostly Cloudy],1996-8-24,[25.0 °C],[],[-],[32.7 °C],[84%],[N/A],[1007 hPa],[28.0 °C],[5:00 AM],[10.0 km],[West],"[13.0 km/h
		/ 3.6 m/s]",METAR VHHH 232100Z 26007KT 9999 FEW018 BKN080 28/25 Q1007 NOSIG
0,[Mostly Cloudy],1996-8-24,[25.0 °C],[],[-],[32.7 °C],[84%],[N/A],[1007 hPa],[28.0 °C],[6:00 AM],[10.0 km],[West],"[13.0 km/h
		/ 3.6 m/s]",METAR VHHH 232200Z 26007KT 9999 FEW015 BKN080 28/25 Q1007 NOSIG
0,[Mostly Cloudy],1996-8-24,[25.0 °C],[],[-],[32.7 °C],[84%],[N/A],[1007 hPa],[28.0 °C],[7:00 AM],[10.0 km],[WSW],"[9.3 km/h
		/ 2.6 m/s]",METAR VHHH 232300Z 24005KT 9999 FEW015 SCT050 BKN080 28/25 Q1007 NOSIG
0,[Mostly Cloudy],1996-8-24,[25.0 °C],[],[-],[34.5 °C],[79%],[N/A],[1008 hPa],[29.0 °C],[8:00 AM],[10.0 km],[WSW],"[9.3 km/h
		/ 2.6 m/s]",METAR VHHH 240000Z 25005KT 9999 FEW020 BKN080 29/25 Q1008 NOSIG
0,[Mostly Cloudy],1996-8-24,[25.0 °C],[],[-],[34.5 °C],[79%],[N/A],[1009 hPa],[29.0 °C],[9:00 AM],[10.0 km],[West],"[13.0 km/h
		/ 3.6 m/s]",METAR VHHH 240100Z 26007KT 230V310 9999 FEW020 BKN090 29/25 Q1009 NOSIG
0,[Mostly Cloudy],1996-8-24,[25.0 °C],[],[-],[36.0 °C],[74%],[N/A],[1009 hPa],[30.0 °C],[10:00 AM],[10.0 km],[West],"[14.8 km/h
		/ 4.1 m/s]",METAR VHHH 240200Z 27008KT 230V300 9999 FEW020 BKN090 30/25 Q1009 NOSIG
0,[Mostly Cloudy],1996-8-24,[25.0 °C],[],[-],[36.0 °C],[74%],[N/A],[1009 hPa],[30.0 °C],[11:00 AM],[10.0 km],[West],"[18.5 km/h
		/ 5.1 m/s]",METAR VHHH 240300Z 26010KT 230V350 9999 FEW022 BKN090 30/25 Q1009 NOSIG
0,[Mostly Cloudy],1996-8-24,[24.0 °C],[],[-],[36.4 °C],[66%],[N/A],[1008 hPa],[31.0 °C],[12:00 PM],[10.0 km],[WSW],"[14.8 km/h
		/ 4.1 m/s]",METAR VHHH 240400Z 24008KT 210V290 9999 FEW020 BKN090 31/24 Q1008 NOSIG
0,[Mostly Cloudy],1996-8-24,[24.0 °C],[],[-],[36.4 °C],[66%],[N/A],[1007 hPa],[31.0 °C],[1:00 PM],[10.0 km],[West],"[20.4 km/h
		/ 5.7 m/s]",METAR VHHH 240500Z 27011KT 230V310 9999 FEW022 BKN100 31/24 Q1007 NOSIG
0,[Mostly Cloudy],1996-8-24,[24.0 °C],[],[-],[37.7 °C],[62%],[N/A],[1007 hPa],[32.0 °C],[2:00 PM],[10.0 km],[WSW],"[16.7 km/h
		/ 4.6 m/s]",METAR VHHH 240600Z 25009KT 200V300 9999 FEW022 BKN120 32/24 Q1007 NOSIG
0,[Mostly Cloudy],1996-8-24,[24.0 °C],[],[-],[36.4 °C],[66%],[N/A],[1006 hPa],[31.0 °C],[3:00 PM],[10.0 km],[WSW],"[14.8 km/h
		/ 4.1 m/s]",METAR VHHH 240700Z 25008KT 230V290 9999 FEW022 BKN120 31/24 Q1006 NOSIG
0,[Mostly Cloudy],1996-8-24,[24.0 °C],[],[-],[35.0 °C],[70%],[N/A],[1006 hPa],[30.0 °C],[4:00 PM],[10.0 km],[West],"[9.3 km/h
		/ 2.6 m/s]",METAR VHHH 240800Z 26005KT 180V320 9999 FEW030 BKN120 30/24 Q1006 NOSIG
0,[Mostly Cloudy],1996-8-24,[24.0 °C],[],[-],[36.4 °C],[66%],[N/A],[1006 hPa],[31.0 °C],[5:00 PM],[10.0 km],[SW],"[7.4 km/h
		/ 2.1 m/s]",METAR VHHH 240900Z 23004KT 170V310 9999 FEW020 BKN120 31/24 Q1006 NOSIG
0,[Mostly Cloudy],1996-8-24,[25.0 °C],[],[-],[36.0 °C],[74%],[N/A],[1006 hPa],[30.0 °C],[6:00 PM],[10.0 km],[SW],"[7.4 km/h
		/ 2.1 m/s]",METAR VHHH 241000Z 22004KT 150V360 9999 FEW015 BKN120 30/25 Q1006 NOSIG
0,[Mostly Cloudy],1996-8-24,[25.0 °C],[],[-],[34.5 °C],[79%],[N/A],[1007 hPa],[29.0 °C],[7:00 PM],[10.0 km],[SW],"[7.4 km/h
		/ 2.1 m/s]",METAR VHHH 241100Z 23004KT 190V280 9999 FEW015 BKN120 29/25 Q1007 NOSIG
0,[Mostly Cloudy],1996-8-24,[25.0 °C],[],[-],[36.0 °C],[74%],[N/A],[1007 hPa],[30.0 °C],[8:00 PM],[10.0 km],[SSW],"[7.4 km/h
		/ 2.1 m/s]",METAR VHHH 241200Z 20004KT 160V290 9999 FEW020 BKN100 30/25 Q1007 NOSIG
0,[Mostly Cloudy],1996-8-24,[25.0 °C],[],[-],[34.5 °C],[79%],[N/A],[1008 hPa],[29.0 °C],[9:00 PM],[10.0 km],[East],"[9.3 km/h
		/ 2.6 m/s]",METAR VHHH 241300Z 10005KT 080V140 9999 FEW020 BKN100 29/25 Q1008 NOSIG
0,[Mostly Cloudy],1996-8-24,[25.0 °C],[],[-],[36.0 °C],[74%],[N/A],[1009 hPa],[30.0 °C],[10:00 PM],[10.0 km],[ESE],"[7.4 km/h
		/ 2.1 m/s]",METAR VHHH 241400Z 12004KT 9999 FEW018 SCT025 BKN080 30/25 Q1009 TEMPO 4000 SHRA
0,[Mostly Cloudy],1996-8-24,[25.0 °C],[],[-],[34.5 °C],[79%],[N/A],[1009 hPa],[29.0 °C],[11:00 PM],[10.0 km],[SE],"[7.4 km/h
		/ 2.1 m/s]",METAR VHHH 241500Z 13004KT 100V160 9999 FEW017 SCT025 BKN080 29/25 Q1009 TEMPO 4000 SHRA
0,[Rain Showers],1996-8-25,[26.0 °C],[Rain],[-],[31.2 °C],[94%],[N/A],[1009 hPa],[27.0 °C],[12:00 AM],[8.0 km],[East],"[1.9 km/h
		/ 0.5 m/s]",METAR VHHH 241600Z 09001KT 8000 SHRA FEW015 SCT022 BKN080 27/26 Q1009 TEMPO 4000 SHRA
0,[Light Rain Showers],1996-8-25,[25.0 °C],[Rain],[-],[32.7 °C],[84%],[N/A],[1009 hPa],[28.0 °C],[1:00 AM],[10.0 km],[South],"[3.7 km/h
		/ 1.0 m/s]",METAR VHHH 241700Z 19002KT 9999 -SHRA(80) FEW016 SCT030 BKN080 28/25 Q1009 TEMPO 4000 SHRA
0,[Mostly Cloudy],1996-8-25,[25.0 °C],[],[-],[32.7 °C],[84%],[N/A],[1008 hPa],[28.0 °C],[2:00 AM],[10.0 km],[ESE],"[1.9 km/h
		/ 0.5 m/s]",METAR VHHH 241800Z 11001KT 9999 FEW016 BKN080 28/25 Q1008 TEMPO 4000 SHRA
0,[Mostly Cloudy],1996-8-25,[26.0 °C],[],[-],[31.2 °C],[94%],[N/A],[1007 hPa],[27.0 °C],[3:00 AM],[10.0 km],[SE],"[11.1 km/h
		/ 3.1 m/s]",METAR VHHH 241900Z 13006KT 9999 FEW018 BKN080 27/26 Q1007 TEMPO 4000 SHRA
0,[Mostly Cloudy],1996-8-25,[25.0 °C],[],[-],[30.6 °C],[89%],[N/A],[1008 hPa],[27.0 °C],[4:00 AM],[10.0 km],[SE],"[13.0 km/h
		/ 3.6 m/s]",METAR VHHH 242000Z 14007KT 9999 FEW014 BKN080 27/25 Q1008 TEMPO 4000 SHRA
0,[Mostly Cloudy],1996-8-25,[25.0 °C],[],[-],[30.6 °C],[89%],[N/A],[1008 hPa],[27.0 °C],[5:00 AM],[10.0 km],[ESE],"[9.3 km/h
		/ 2.6 m/s]",METAR VHHH 242100Z 12005KT 9999 FEW013 BKN080 27/25 Q1008 NOSIG
0,[Mostly Cloudy],1996-8-25,[25.0 °C],[],[-],[30.6 °C],[89%],[N/A],[1008 hPa],[27.0 °C],[6:00 AM],[8.0 km],[ESE],"[16.7 km/h
		/ 4.6 m/s]",METAR VHHH 242200Z 12009KT 8000 FEW012 SCT018 BKN080 27/25 Q1008 WS LDG RWY 13/31 TEMPO VRB15KT MAX28 2500 TSRA OR +SHRA FEW 800FT FEW CB 1200FT SCT 1600FT BKN 8000FT
0,[Mostly Cloudy],1996-8-25,[23.0 °C],[],[-],[-],[83%],[N/A],[1011 hPa],[26.0 °C],[10:00 AM],[10.0 km],[SE],"[1.9 km/h
		/ 0.5 m/s]",METAR VHHH 250200Z 13001KT 9999 FEW008 SCT020 BKN080 26/23 Q1011 RETS WS LDG RWY 13/31 TEMPO 4000 SHRA FEW008 FEW015CB SCT018 BKN080
0,[Mostly Cloudy],1996-8-25,[23.0 °C],[],[-],[29.6 °C],[79%],[N/A],[1011 hPa],[27.0 °C],[11:00 AM],[10.0 km],[WSW],"[1.9 km/h
		/ 0.5 m/s]",METAR VHHH 250300Z 25001KT 9999 FEW014 BKN080 27/23 Q1011 NOSIG
0,[Mostly Cloudy],1996-8-25,[24.0 °C],[],[-],[33.5 °C],[74%],[N/A],[1010 hPa],[29.0 °C],[12:00 PM],[10.0 km],[SSE],"[5.6 km/h
		/ 1.5 m/s]",METAR VHHH 250400Z 15003KT 9999 FEW020 BKN100 29/24 Q1010 NOSIG
0,[Mostly Cloudy],1996-8-25,[24.0 °C],[],[-],[35.0 °C],[70%],[N/A],[1010 hPa],[30.0 °C],[1:00 PM],[10.0 km],[ESE],"[16.7 km/h
		/ 4.6 m/s]",METAR VHHH 250500Z 12009KT 100V170 9999 FEW020 SCT025 BKN100 30/24 Q1010 NOSIG
0,[Mostly Cloudy],1996-8-25,[23.0 °C],[],[-],[32.7 °C],[70%],[N/A],[1009 hPa],[29.0 °C],[2:00 PM],[10.0 km],[SW],"[11.1 km/h
		/ 3.1 m/s]",METAR VHHH 250600Z 22006KT 170V270 9999 FEW020 SCT025 BKN100 29/23 Q1009 NOSIG
0,[Scattered Clouds],1996-8-25,[22.0 °C],[],[-],[33.2 °C],[62%],[N/A],[1008 hPa],[30.0 °C],[3:00 PM],[10.0 km],[WSW],"[11.1 km/h
		/ 3.1 m/s]",METAR VHHH 250700Z 24006KT 130V270 9999 FEW025 SCT300 30/22 Q1008 NOSIG
0,[Scattered Clouds],1996-8-25,[23.0 °C],[],[-],[31.2 °C],[74%],[N/A],[1008 hPa],[28.0 °C],[5:00 PM],[10.0 km],[West],"[25.9 km/h
		/ 7.2 m/s]",METAR VHHH 250900Z 27014KT 9999 FEW025 SCT300 28/23 Q1008 NOSIG
0,[Mostly Cloudy],1996-8-25,[23.0 °C],[],[-],[29.6 °C],[79%],[N/A],[1009 hPa],[27.0 °C],[6:00 PM],[10.0 km],[West],"[18.5 km/h
		/ 5.1 m/s]",METAR VHHH 251000Z 27010KT 9999 FEW016 SCT025 BKN300 27/23 Q1009 NOSIG
0,[Mostly Cloudy],1996-8-25,[23.0 °C],[],[-],[29.6 °C],[79%],[N/A],[1009 hPa],[27.0 °C],[7:00 PM],[10.0 km],[SW],"[9.3 km/h
		/ 2.6 m/s]",METAR VHHH 251100Z 23005KT 9999 FEW016 BKN300 27/23 Q1009 NOSIG
0,[Scattered Clouds],1996-8-25,[23.0 °C],[],[-],[29.6 °C],[79%],[N/A],[1010 hPa],[27.0 °C],[8:00 PM],[10.0 km],[West],"[13.0 km/h
		/ 3.6 m/s]",METAR VHHH 251200Z 26007KT 230V310 9999 FEW016 SCT300 27/23 Q1010 NOSIG
0,[Scattered Clouds],1996-8-25,[24.0 °C],[],[-],[30.1 °C],[84%],[N/A],[1010 hPa],[27.0 °C],[9:00 PM],[10.0 km],[West],"[13.0 km/h
		/ 3.6 m/s]",METAR VHHH 251300Z 26007KT 230V310 9999 FEW016 SCT300 27/24 Q1010 NOSIG
0,[Mostly Cloudy],1996-8-25,[23.0 °C],[],[-],[29.6 °C],[79%],[N/A],[1012 hPa],[27.0 °C],[10:00 PM],[10.0 km],[West],"[16.7 km/h
		/ 4.6 m/s]",METAR VHHH 251400Z 26009KT 240V300 9999 FEW016 BKN100 27/23 Q1012 NOSIG
0,[Clear],1996-8-26,[22.0 °C],[],[-],[29.2 °C],[74%],[N/A],[1012 hPa],[27.0 °C],[12:00 AM],[-],[WSW],"[3.7 km/h
		/ 1.0 m/s]",METAR VHHH 251600Z 24002KT CAVOK 27/22 Q1012 NOSIG
0,[Scattered Clouds],1996-8-26,[23.0 °C],[],[-],[29.6 °C],[79%],[N/A],[1012 hPa],[27.0 °C],[1:00 AM],[10.0 km],[SSW],"[7.4 km/h
		/ 2.1 m/s]",METAR VHHH 251700Z 21004KT 9999 FEW025 SCT100 27/23 Q1012 NOSIG
0,[Mostly Cloudy],1996-8-26,[22.0 °C],[],[-],[29.2 °C],[74%],[N/A],[1011 hPa],[27.0 °C],[2:00 AM],[10.0 km],[SE],"[1.9 km/h
		/ 0.5 m/s]",METAR VHHH 251800Z 13001KT 9999 FEW030 BKN100 27/22 Q1011 NOSIG
0,[Mostly Cloudy],1996-8-26,[23.0 °C],[],[-],[-],[83%],[N/A],[1011 hPa],[26.0 °C],[3:00 AM],[10.0 km],[ESE],"[7.4 km/h
		/ 2.1 m/s]",METAR VHHH 251900Z 11004KT 9999 FEW025 BKN100 26/23 Q1011 NOSIG
0,[Mostly Cloudy],1996-8-26,[23.0 °C],[],[-],[-],[83%],[N/A],[1011 hPa],[26.0 °C],[4:00 AM],[10.0 km],[East],"[5.6 km/h
		/ 1.5 m/s]",METAR VHHH 252000Z 10003KT 9999 FEW025 SCT030 BKN100 26/23 Q1011 NOSIG
0,[Mostly Cloudy],1996-8-26,[23.0 °C],[],[-],[29.6 °C],[79%],[N/A],[1011 hPa],[27.0 °C],[5:00 AM],[10.0 km],[ESE],"[5.6 km/h
		/ 1.5 m/s]",METAR VHHH 252100Z 12003KT 9999 SCT025 BKN100 27/23 Q1011 NOSIG
0,[Mostly Cloudy],1996-8-26,[23.0 °C],[],[-],[-],[83%],[N/A],[1012 hPa],[26.0 °C],[6:00 AM],[10.0 km],[SE],"[7.4 km/h
		/ 2.1 m/s]",METAR VHHH 252200Z 13004KT 9999 SCT030 BKN080 26/23 Q1012 NOSIG
0,[Mostly Cloudy],1996-8-26,[23.0 °C],[],[-],[29.6 °C],[79%],[N/A],[1012 hPa],[27.0 °C],[7:00 AM],[10.0 km],[South],"[3.7 km/h
		/ 1.0 m/s]",METAR VHHH 252300Z 18002KT 090V200 9999 SCT025 BKN080 27/23 Q1012 NOSIG
0,[Partly Cloudy],1996-8-26,[23.0 °C],[],[-],[31.2 °C],[74%],[N/A],[1013 hPa],[28.0 °C],[8:00 AM],[10.0 km],[Calm],[Calm],METAR VHHH 260000Z 00000KT 9999 FEW025 28/23 Q1013 NOSIG
0,[Scattered Clouds],1996-8-26,[22.0 °C],[],[-],[33.2 °C],[62%],[N/A],[1014 hPa],[30.0 °C],[9:00 AM],[10.0 km],[SSW],"[3.7 km/h
		/ 1.0 m/s]",METAR VHHH 260100Z 21002KT 9999 FEW020 SCT300 30/22 Q1014 NOSIG
0,[Scattered Clouds],1996-8-26,[21.0 °C],[],[-],[31.3 °C],[62%],[N/A],[1014 hPa],[29.0 °C],[10:00 AM],[10.0 km],[SE],"[11.1 km/h
		/ 3.1 m/s]",METAR VHHH 260200Z 13006KT 9999 FEW020 SCT300 29/21 Q1014 NOSIG
0,[Scattered Clouds],1996-8-26,[21.0 °C],[],[-],[33.7 °C],[55%],[N/A],[1013 hPa],[31.0 °C],[11:00 AM],[10.0 km],[South],"[9.3 km/h
		/ 2.6 m/s]",METAR VHHH 260300Z 17005KT 120V260 9999 FEW020 SCT300 31/21 Q1013 NOSIG
0,[Scattered Clouds],1996-8-26,[24.0 °C],[],[-],[36.4 °C],[66%],[N/A],[1013 hPa],[31.0 °C],[12:00 PM],[10.0 km],[ESE],"[18.5 km/h
		/ 5.1 m/s]",METAR VHHH 260400Z 11010KT 9999 FEW020 SCT025 31/24 Q1013 NOSIG
0,[Scattered Clouds],1996-8-26,[24.0 °C],[],[-],[36.4 °C],[66%],[N/A],[1013 hPa],[31.0 °C],[1:00 PM],[10.0 km],[ESE],"[18.5 km/h
		/ 5.1 m/s]",METAR VHHH 260500Z 11010KT 9999 FEW020 SCT025 31/24 Q1013 NOSIG
0,[Scattered Clouds],1996-8-26,[23.0 °C],[],[-],[34.1 °C],[66%],[N/A],[1012 hPa],[30.0 °C],[2:00 PM],[10.0 km],[ESE],"[18.5 km/h
		/ 5.1 m/s]",METAR VHHH 260600Z 12010KT 9999 FEW018 SCT025 30/23 Q1012 NOSIG
0,[Mostly Cloudy],1996-8-26,[24.0 °C],[],[-],[33.5 °C],[74%],[N/A],[1012 hPa],[29.0 °C],[3:00 PM],[10.0 km],[ESE],"[11.1 km/h
		/ 3.1 m/s]",METAR VHHH 260700Z 11006KT 9999 FEW020 SCT030 BKN080 29/24 Q1012 NOSIG
0,[Mostly Cloudy],1996-8-26,[24.0 °C],[],[-],[33.5 °C],[74%],[N/A],[1011 hPa],[29.0 °C],[4:00 PM],[10.0 km],[ESE],"[11.1 km/h
		/ 3.1 m/s]",METAR VHHH 260800Z 11006KT 090V150 9999 SCT025 BKN080 29/24 Q1011 NOSIG
0,[Mostly Cloudy],1996-8-26,[23.0 °C],[],[-],[32.7 °C],[70%],[N/A],[1011 hPa],[29.0 °C],[5:00 PM],[10.0 km],[WSW],"[3.7 km/h
		/ 1.0 m/s]",METAR VHHH 260900Z 25002KT 9999 FEW025 SCT090 BKN300 29/23 Q1011 NOSIG
0,[Mostly Cloudy],1996-8-26,[23.0 °C],[],[-],[32.7 °C],[70%],[N/A],[1011 hPa],[29.0 °C],[6:00 PM],[10.0 km],[West],"[9.3 km/h
		/ 2.6 m/s]",METAR VHHH 261000Z 27005KT 240V310 9999 FEW025 BKN300 29/23 Q1011 NOSIG
0,[Mostly Cloudy],1996-8-26,[24.0 °C],[],[-],[31.9 °C],[79%],[N/A],[1011 hPa],[28.0 °C],[7:00 PM],[10.0 km],[West],"[13.0 km/h
		/ 3.6 m/s]",METAR VHHH 261100Z 27007KT 9999 FEW025 BKN300 28/24 Q1011 NOSIG
0,[Scattered Clouds],1996-8-26,[24.0 °C],[],[-],[31.9 °C],[79%],[N/A],[1012 hPa],[28.0 °C],[8:00 PM],[10.0 km],[West],"[7.4 km/h
		/ 2.1 m/s]",METAR VHHH 261200Z 27004KT 220V300 9999 FEW025 SCT300 28/24 Q1012 NOSIG
0,[Scattered Clouds],1996-8-26,[24.0 °C],[],[-],[31.9 °C],[79%],[N/A],[1012 hPa],[28.0 °C],[9:00 PM],[10.0 km],[West],"[9.3 km/h
		/ 2.6 m/s]",METAR VHHH 261300Z 27005KT 9999 FEW025 SCT300 28/24 Q1012 NOSIG
0,[Partly Cloudy],1996-8-26,[24.0 °C],[],[-],[31.9 °C],[79%],[N/A],[1013 hPa],[28.0 °C],[11:00 PM],[10.0 km],[WSW],"[1.9 km/h
		/ 0.5 m/s]",METAR VHHH 261500Z 24001KT 9999 FEW025 28/24 Q1013 NOSIG
0,[Partly Cloudy],1996-8-27,[24.0 °C],[],[-],[30.1 °C],[84%],[N/A],[1013 hPa],[27.0 °C],[12:00 AM],[10.0 km],[SSE],"[3.7 km/h
		/ 1.0 m/s]",METAR VHHH 261600Z 15002KT 9999 FEW025 27/24 Q1013 NOSIG
0,[Partly Cloudy],1996-8-27,[24.0 °C],[],[-],[30.1 °C],[84%],[N/A],[1013 hPa],[27.0 °C],[2:00 AM],[10.0 km],[ESE],"[1.9 km/h
		/ 0.5 m/s]",METAR VHHH 261800Z 12001KT 9999 FEW020 27/24 Q1013 NOSIG
0,[Partly Cloudy],1996-8-27,[23.0 °C],[],[-],[29.6 °C],[79%],[N/A],[1012 hPa],[27.0 °C],[3:00 AM],[10.0 km],[WSW],"[7.4 km/h
		/ 2.1 m/s]",METAR VHHH 261900Z 24004KT 9999 FEW020 27/23 Q1012 NOSIG
0,[Partly Cloudy],1996-8-27,[24.0 °C],[],[-],[30.1 °C],[84%],[N/A],[1012 hPa],[27.0 °C],[4:00 AM],[10.0 km],[West],"[1.9 km/h
		/ 0.5 m/s]",METAR VHHH 262000Z 27001KT 9999 FEW020 27/24 Q1012 NOSIG
0,[Scattered Clouds],1996-8-27,[24.0 °C],[],[-],[30.1 °C],[84%],[N/A],[1012 hPa],[27.0 °C],[5:00 AM],[10.0 km],[SW],"[1.9 km/h
		/ 0.5 m/s]",METAR VHHH 262100Z 22001KT 9999 FEW020 SCT030 27/24 Q1012 NOSIG
0,[Scattered Clouds],1996-8-27,[24.0 °C],[],[-],[30.1 °C],[84%],[N/A],[1012 hPa],[27.0 °C],[6:00 AM],[10.0 km],[Calm],[Calm],METAR VHHH 262200Z 00000KT 9999 FEW020 SCT080 27/24 Q1012 NOSIG
0,[Partly Cloudy],1996-8-27,[24.0 °C],[],[-],[31.9 °C],[79%],[N/A],[1013 hPa],[28.0 °C],[7:00 AM],[10.0 km],[WSW],"[1.9 km/h
		/ 0.5 m/s]",METAR VHHH 262300Z 24001KT 9999 FEW016 28/24 Q1013 NOSIG
0,[Partly Cloudy],1996-8-27,[24.0 °C],[],[-],[33.5 °C],[74%],[N/A],[1013 hPa],[29.0 °C],[8:00 AM],[10.0 km],[SW],"[3.7 km/h
		/ 1.0 m/s]",METAR VHHH 270000Z 23002KT 9999 FEW020 29/24 Q1013 NOSIG
0,[Partly Cloudy],1996-8-27,[23.0 °C],[],[-],[34.1 °C],[66%],[N/A],[1013 hPa],[30.0 °C],[9:00 AM],[10.0 km],[West],"[11.1 km/h
		/ 3.1 m/s]",METAR VHHH 270100Z 27006KT 240V300 9999 FEW022 30/23 Q1013 NOSIG
0,[Partly Cloudy],1996-8-27,[23.0 °C],[],[-],[35.4 °C],[62%],[N/A],[1013 hPa],[31.0 °C],[10:00 AM],[10.0 km],[WSW],"[11.1 km/h
		/ 3.1 m/s]",METAR VHHH 270200Z 25006KT 220V310 9999 FEW025 31/23 Q1013 NOSIG
0,[Partly Cloudy],1996-8-27,[23.0 °C],[],[-],[35.4 °C],[62%],[N/A],[1013 hPa],[31.0 °C],[11:00 AM],[10.0 km],[West],"[14.8 km/h
		/ 4.1 m/s]",METAR VHHH 270300Z 26008KT 220V290 9999 FEW025 31/23 Q1013 NOSIG
0,[Partly Cloudy],1996-8-27,[24.0 °C],[],"[35.2 km/h
		/ 9.8 m/s]",[36.4 °C],[66%],[N/A],[1012 hPa],[31.0 °C],[12:00 PM],[10.0 km],[WSW],"[16.7 km/h
		/ 4.6 m/s]",METAR VHHH 270400Z 25009G19KT 210V020 9999 FEW025 31/24 Q1012 NOSIG
0,[Partly Cloudy],1996-8-27,[24.0 °C],[],[-],[36.4 °C],[66%],[N/A],[1012 hPa],[31.0 °C],[1:00 PM],[10.0 km],[West],"[20.4 km/h
		/ 5.7 m/s]",METAR VHHH 270500Z 27011KT 210V330 9999 FEW020TCU 31/24 Q1012 NOSIG
0,[Partly Cloudy],1996-8-27,[23.0 °C],[],[-],[35.4 °C],[62%],[N/A],[1011 hPa],[31.0 °C],[2:00 PM],[10.0 km],[West],"[14.8 km/h
		/ 4.1 m/s]",METAR VHHH 270600Z 26008KT 220V320 9999 FEW022 31/23 Q1011 NOSIG
0,[Partly Cloudy],1996-8-27,[24.0 °C],[],[-],[37.7 °C],[62%],[N/A],[1010 hPa],[32.0 °C],[3:00 PM],[10.0 km],[WSW],"[16.7 km/h
		/ 4.6 m/s]",METAR VHHH 270700Z 25009KT 210V290 9999 FEW025 32/24 Q1010 NOSIG
0,[Partly Cloudy],1996-8-27,[24.0 °C],[],"[33.3 km/h
		/ 9.3 m/s]",[36.4 °C],[66%],[N/A],[1010 hPa],[31.0 °C],[4:00 PM],[10.0 km],[SW],"[14.8 km/h
		/ 4.1 m/s]",METAR VHHH 270800Z 22008G18KT 190V270 9999 FEW022 31/24 Q1010 NOSIG
0,[Partly Cloudy],1996-8-27,[25.0 °C],[],"[35.2 km/h
		/ 9.8 m/s]",[37.6 °C],[70%],[N/A],[1009 hPa],[31.0 °C],[5:00 PM],[10.0 km],[SW],"[14.8 km/h
		/ 4.1 m/s]",METAR VHHH 270900Z 22008G19KT 160V270 9999 FEW018 31/25 Q1009 NOSIG
0,[Partly Cloudy],1996-8-27,[25.0 °C],[],[-],[36.0 °C],[74%],[N/A],[1009 hPa],[30.0 °C],[6:00 PM],[10.0 km],[SSW],"[13.0 km/h
		/ 3.6 m/s]",METAR VHHH 271000Z 21007KT 170V280 9999 FEW018 30/25 Q1009 NOSIG
0,[Partly Cloudy],1996-8-27,[25.0 °C],[],[-],[34.5 °C],[79%],[N/A],[1009 hPa],[29.0 °C],[7:00 PM],[10.0 km],[SW],"[13.0 km/h
		/ 3.6 m/s]",METAR VHHH 271100Z 23007KT 200V300 9999 FEW018 29/25 Q1009 NOSIG
0,[Partly Cloudy],1996-8-27,[25.0 °C],[],[-],[34.5 °C],[79%],[N/A],[1010 hPa],[29.0 °C],[8:00 PM],[10.0 km],[WSW],"[13.0 km/h
		/ 3.6 m/s]",METAR VHHH 271200Z 24007KT 200V310 9999 FEW018 29/25 Q1010 NOSIG
0,[Partly Cloudy],1996-8-27,[25.0 °C],[],[-],[34.5 °C],[79%],[N/A],[1010 hPa],[29.0 °C],[9:00 PM],[10.0 km],[WSW],"[9.3 km/h
		/ 2.6 m/s]",METAR VHHH 271300Z 24005KT 200V300 9999 FEW020 29/25 Q1010 NOSIG
0,[Partly Cloudy],1996-8-27,[25.0 °C],[],[-],[34.5 °C],[79%],[N/A],[1010 hPa],[29.0 °C],[11:00 PM],[10.0 km],[WSW],"[7.4 km/h
		/ 2.1 m/s]",METAR VHHH 271500Z 25004KT 180V290 9999 FEW018 29/25 Q1010 NOSIG
0,[Partly Cloudy],1996-8-28,[25.0 °C],[],[-],[34.5 °C],[79%],[N/A],[1010 hPa],[29.0 °C],[12:00 AM],[10.0 km],[West],"[11.1 km/h
		/ 3.1 m/s]",METAR VHHH 271600Z 26006KT 9999 FEW018 29/25 Q1010 NOSIG
0,[Partly Cloudy],1996-8-28,[25.0 °C],[],[-],[32.7 °C],[84%],[N/A],[1009 hPa],[28.0 °C],[1:00 AM],[10.0 km],[West],"[7.4 km/h
		/ 2.1 m/s]",METAR VHHH 271700Z 27004KT 9999 FEW020 28/25 Q1009 NOSIG
0,[Partly Cloudy],1996-8-28,[24.0 °C],[],[-],[31.9 °C],[79%],[N/A],[1009 hPa],[28.0 °C],[2:00 AM],[10.0 km],[West],"[7.4 km/h
		/ 2.1 m/s]",METAR VHHH 271800Z 27004KT 9999 FEW020 28/24 Q1009 NOSIG
0,[Partly Cloudy],1996-8-28,[23.0 °C],[],[-],[31.2 °C],[74%],[N/A],[1008 hPa],[28.0 °C],[3:00 AM],[10.0 km],[West],"[1.9 km/h
		/ 0.5 m/s]",METAR VHHH 271900Z 28001KT 9999 FEW020 28/23 Q1008 NOSIG
0,[Partly Cloudy],1996-8-28,[23.0 °C],[],[-],[31.2 °C],[74%],[N/A],[1008 hPa],[28.0 °C],[4:00 AM],[10.0 km],[WSW],"[1.9 km/h
		/ 0.5 m/s]",METAR VHHH 272000Z 24001KT 9999 FEW020 28/23 Q1008 NOSIG
0,[Partly Cloudy],1996-8-28,[23.0 °C],[],[-],[31.2 °C],[74%],[N/A],[1008 hPa],[28.0 °C],[5:00 AM],[10.0 km],[WNW],"[1.9 km/h
		/ 0.5 m/s]",METAR VHHH 272100Z 29001KT 9999 FEW020 28/23 Q1008 NOSIG
0,[Clear],1996-8-28,[24.0 °C],[],[-],[31.9 °C],[79%],[N/A],[1009 hPa],[28.0 °C],[6:00 AM],[-],[West],"[7.4 km/h
		/ 2.1 m/s]",METAR VHHH 272200Z 27004KT CAVOK 28/24 Q1009 NOSIG
0,[Partly Cloudy],1996-8-28,[24.0 °C],[],[-],[31.9 °C],[79%],[N/A],[1009 hPa],[28.0 °C],[7:00 AM],[10.0 km],[WSW],"[1.9 km/h
		/ 0.5 m/s]",METAR VHHH 272300Z 24001KT 9999 FEW020 28/24 Q1009 NOSIG
0,[Partly Cloudy],1996-8-28,[24.0 °C],[],[-],[33.5 °C],[74%],[N/A],[1010 hPa],[29.0 °C],[8:00 AM],[10.0 km],[West],"[1.9 km/h
		/ 0.5 m/s]",METAR VHHH 280000Z 28001KT 9999 FEW017 29/24 Q1010 NOSIG
0,[Partly Cloudy],1996-8-28,[24.0 °C],[],[-],[35.0 °C],[70%],[N/A],[1010 hPa],[30.0 °C],[9:00 AM],[10.0 km],[West],"[18.5 km/h
		/ 5.1 m/s]",METAR VHHH 280100Z 27010KT 240V310 9999 FEW017 30/24 Q1010 NOSIG
0,[Partly Cloudy],1996-8-28,[25.0 °C],[],[-],[37.6 °C],[70%],[N/A],[1010 hPa],[31.0 °C],[10:00 AM],[10.0 km],[WSW],"[11.1 km/h
		/ 3.1 m/s]",METAR VHHH 280200Z 25006KT 220V300 9999 FEW018 31/25 Q1010 NOSIG
0,[Partly Cloudy],1996-8-28,[25.0 °C],[],"[35.2 km/h
		/ 9.8 m/s]",[37.6 °C],[70%],[N/A],[1009 hPa],[31.0 °C],[11:00 AM],[10.0 km],[WSW],"[16.7 km/h
		/ 4.6 m/s]",METAR VHHH 280300Z 25009G19KT 220V310 9999 FEW020 31/25 Q1009 NOSIG
0,[Partly Cloudy],1996-8-28,[25.0 °C],[],[-],[37.6 °C],[70%],[N/A],[1009 hPa],[31.0 °C],[12:00 PM],[10.0 km],[West],"[16.7 km/h
		/ 4.6 m/s]",METAR VHHH 280400Z 26009KT 240V330 9999 FEW020 31/25 Q1009 NOSIG
0,[Partly Cloudy],1996-8-28,[24.0 °C],[],[-],[37.7 °C],[62%],[N/A],[1008 hPa],[32.0 °C],[1:00 PM],[10.0 km],[West],"[16.7 km/h
		/ 4.6 m/s]",METAR VHHH 280500Z 26009KT 230V320 9999 FEW020 32/24 Q1008 NOSIG
0,[Partly Cloudy],1996-8-28,[23.0 °C],[],[-],[36.8 °C],[59%],[N/A],[1007 hPa],[32.0 °C],[2:00 PM],[10.0 km],[West],"[18.5 km/h
		/ 5.1 m/s]",METAR VHHH 280600Z 26010KT 200V290 9999 FEW020 32/23 Q1007 NOSIG
0,[Partly Cloudy],1996-8-28,[24.0 °C],[],[-],[37.7 °C],[62%],[N/A],[1006 hPa],[32.0 °C],[3:00 PM],[10.0 km],[West],"[16.7 km/h
		/ 4.6 m/s]",METAR VHHH 280700Z 27009KT 220V310 9999 FEW020 32/24 Q1006 NOSIG
0,[Partly Cloudy],1996-8-28,[25.0 °C],[],[-],[39.0 °C],[66%],[N/A],[1005 hPa],[32.0 °C],[4:00 PM],[10.0 km],[WSW],"[14.8 km/h
		/ 4.1 m/s]",METAR VHHH 280800Z 24008KT 190V350 9999 FEW020 32/25 Q1005 NOSIG
0,[Partly Cloudy],1996-8-28,[25.0 °C],[],[-],[39.0 °C],[66%],[N/A],[1005 hPa],[32.0 °C],[5:00 PM],[10.0 km],[SW],"[16.7 km/h
		/ 4.6 m/s]",METAR VHHH 280900Z 23009KT 110V280 9999 FEW016 32/25 Q1005 NOSIG
0,[Scattered Clouds],1996-8-28,[25.0 °C],[],[-],[36.0 °C],[74%],[N/A],[1005 hPa],[30.0 °C],[7:00 PM],[10.0 km],[WSW],"[7.4 km/h
		/ 2.1 m/s]",METAR VHHH 281100Z 24004KT 220V280 9999 FEW015 SCT300 30/25 Q1005 NOSIG
0,[Scattered Clouds],1996-8-28,[26.0 °C],[],"[29.6 km/h
		/ 8.2 m/s]",[35.6 °C],[84%],[N/A],[1006 hPa],[29.0 °C],[8:00 PM],[10.0 km],[SSW],"[7.4 km/h
		/ 2.1 m/s]",METAR VHHH 281200Z 21004G16KT 180V260 9999 FEW015 SCT300 29/26 Q1006 NOSIG
0,[Scattered Clouds],1996-8-28,[26.0 °C],[],[-],[35.6 °C],[84%],[N/A],[1006 hPa],[29.0 °C],[9:00 PM],[10.0 km],[WSW],"[14.8 km/h
		/ 4.1 m/s]",METAR VHHH 281300Z 24008KT 190V270 9999 FEW015 SCT020 29/26 Q1006 NOSIG
0,[Scattered Clouds],1996-8-28,[26.0 °C],[],[-],[35.6 °C],[84%],[N/A],[1007 hPa],[29.0 °C],[10:00 PM],[10.0 km],[WSW],"[9.3 km/h
		/ 2.6 m/s]",METAR VHHH 281400Z 25005KT 150V310 9999 FEW015 SCT020 29/26 Q1007 NOSIG
0,[Partly Cloudy],1996-8-28,[25.0 °C],[],[-],[34.5 °C],[79%],[N/A],[1006 hPa],[29.0 °C],[11:00 PM],[10.0 km],[WSW],"[7.4 km/h
		/ 2.1 m/s]",METAR VHHH 281500Z 24004KT 200V300 9999 FEW018 29/25 Q1006 NOSIG
0,[Partly Cloudy],1996-8-29,[25.0 °C],[],[-],[34.5 °C],[79%],[N/A],[1006 hPa],[29.0 °C],[12:00 AM],[10.0 km],[West],"[9.3 km/h
		/ 2.6 m/s]",METAR VHHH 281600Z 26005KT 230V290 9999 FEW018 29/25 Q1006 NOSIG
0,[Partly Cloudy],1996-8-29,[25.0 °C],[],[-],[34.5 °C],[79%],[N/A],[1006 hPa],[29.0 °C],[1:00 AM],[10.0 km],[WSW],"[7.4 km/h
		/ 2.1 m/s]",METAR VHHH 281700Z 25004KT 9999 FEW018 29/25 Q1006 NOSIG
0,[Scattered Clouds],1996-8-29,[26.0 °C],[],[-],[33.6 °C],[89%],[N/A],[1005 hPa],[28.0 °C],[2:00 AM],[10.0 km],[WSW],"[7.4 km/h
		/ 2.1 m/s]",METAR VHHH 281800Z 25004KT 9999 SCT018 28/26 Q1005 NOSIG
0,[Scattered Clouds],1996-8-29,[25.0 °C],[],[-],[32.7 °C],[84%],[N/A],[1005 hPa],[28.0 °C],[3:00 AM],[10.0 km],[WSW],"[9.3 km/h
		/ 2.6 m/s]",METAR VHHH 281900Z 25005KT 9999 SCT018 28/25 Q1005 NOSIG
0,[Scattered Clouds],1996-8-29,[26.0 °C],[],[-],[33.6 °C],[89%],[N/A],[1005 hPa],[28.0 °C],[4:00 AM],[10.0 km],[West],"[3.7 km/h
		/ 1.0 m/s]",METAR VHHH 282000Z 28002KT 9999 SCT016 28/26 Q1005 NOSIG
0,[Scattered Clouds],1996-8-29,[26.0 °C],[],[-],[33.6 °C],[89%],[N/A],[1005 hPa],[28.0 °C],[5:00 AM],[10.0 km],[West],"[1.9 km/h
		/ 0.5 m/s]",METAR VHHH 282100Z 27001KT 9999 SCT016 28/26 Q1005 NOSIG
0,[Scattered Clouds],1996-8-29,[26.0 °C],[],[-],[33.6 °C],[89%],[N/A],[1005 hPa],[28.0 °C],[6:00 AM],[10.0 km],[West],"[5.6 km/h
		/ 1.5 m/s]",METAR VHHH 282200Z 28003KT 9999 FEW012 SCT016 28/26 Q1005 NOSIG
0,[Mostly Cloudy],1996-8-29,[26.0 °C],[],[-],[35.6 °C],[84%],[N/A],[1006 hPa],[29.0 °C],[7:00 AM],[10.0 km],[West],"[9.3 km/h
		/ 2.6 m/s]",METAR VHHH 282300Z 27005KT 240V300 9999 FEW010 SCT015 BKN200 29/26 Q1006 NOSIG
0,[Mostly Cloudy],1996-8-29,[26.0 °C],[],[-],[35.6 °C],[84%],[N/A],[1006 hPa],[29.0 °C],[8:00 AM],[10.0 km],[West],"[14.8 km/h
		/ 4.1 m/s]",METAR VHHH 290000Z 27008KT 240V310 9999 SCT016 BKN300 29/26 Q1006 NOSIG
0,[Partly Cloudy],1996-8-29,[25.0 °C],[],[-],[36.0 °C],[74%],[N/A],[1007 hPa],[30.0 °C],[9:00 AM],[10.0 km],[West],"[11.1 km/h
		/ 3.1 m/s]",METAR VHHH 290100Z 27006KT 240V320 9999 FEW016 30/25 Q1007 NOSIG
0,[Scattered Clouds],1996-8-29,[25.0 °C],[],[-],[37.6 °C],[70%],[N/A],[1006 hPa],[31.0 °C],[10:00 AM],[10.0 km],[WSW],"[11.1 km/h
		/ 3.1 m/s]",METAR VHHH 290200Z 25006KT 200V310 9999 SCT015 31/25 Q1006 NOSIG
0,[Scattered Clouds],1996-8-29,[26.0 °C],[],[-],[39.2 °C],[75%],[N/A],[1007 hPa],[31.0 °C],[11:00 AM],[10.0 km],[WSW],"[16.7 km/h
		/ 4.6 m/s]",METAR VHHH 290300Z 24009KT 210V290 9999 FEW015 SCT020 31/26 Q1007 NOSIG
0,[Scattered Clouds],1996-8-29,[26.0 °C],[],"[48.2 km/h
		/ 13.4 m/s]",[40.4 °C],[70%],[N/A],[1006 hPa],[32.0 °C],[12:00 PM],[10.0 km],[WSW],"[22.2 km/h
		/ 6.2 m/s]",METAR VHHH 290400Z 24012G26KT 150V360 9999 FEW016 SCT020 32/26 Q1006 NOSIG
0,[Scattered Clouds],1996-8-29,[26.0 °C],[],[-],[40.4 °C],[70%],[N/A],[1006 hPa],[32.0 °C],[1:00 PM],[10.0 km],[SW],"[20.4 km/h
		/ 5.7 m/s]",METAR VHHH 290500Z 23011KT 190V260 9999 FEW018 SCT025 32/26 Q1006 NOSIG
0,[Scattered Clouds],1996-8-29,[26.0 °C],[],[-],[40.4 °C],[70%],[N/A],[1005 hPa],[32.0 °C],[2:00 PM],[10.0 km],[WSW],"[20.4 km/h
		/ 5.7 m/s]",METAR VHHH 290600Z 25011KT 200V360 9999 FEW016 SCT025 32/26 Q1005 NOSIG
0,[Scattered Clouds],1996-8-29,[26.0 °C],[],[-],[39.2 °C],[75%],[N/A],[1005 hPa],[31.0 °C],[3:00 PM],[10.0 km],[WSW],"[20.4 km/h
		/ 5.7 m/s]",METAR VHHH 290700Z 24011KT 220V280 9999 FEW016 SCT025 31/26 Q1005 NOSIG
0,[Scattered Clouds],1996-8-29,[26.0 °C],[],[-],[37.4 °C],[79%],[N/A],[1004 hPa],[30.0 °C],[4:00 PM],[10.0 km],[SW],"[18.5 km/h
		/ 5.1 m/s]",METAR VHHH 290800Z 23010KT 180V260 9999 FEW016 SCT025 30/26 Q1004 NOSIG
0,[Scattered Clouds],1996-8-29,[25.0 °C],[],[-],[37.6 °C],[70%],[N/A],[1004 hPa],[31.0 °C],[5:00 PM],[10.0 km],[WSW],"[20.4 km/h
		/ 5.7 m/s]",METAR VHHH 290900Z 24011KT 200V280 9999 FEW016 SCT025 31/25 Q1004 NOSIG
0,[Scattered Clouds],1996-8-29,[26.0 °C],[],[-],[37.4 °C],[79%],[N/A],[1005 hPa],[30.0 °C],[6:00 PM],[10.0 km],[WSW],"[14.8 km/h
		/ 4.1 m/s]",METAR VHHH 291000Z 24008KT 210V270 9999 FEW016 SCT300 30/26 Q1005 NOSIG
0,[Scattered Clouds],1996-8-29,[25.0 °C],[],[-],[36.0 °C],[74%],[N/A],[1005 hPa],[30.0 °C],[7:00 PM],[10.0 km],[SW],"[20.4 km/h
		/ 5.7 m/s]",METAR VHHH 291100Z 23011KT 9999 FEW016 SCT300 30/25 Q1005 NOSIG
0,[Scattered Clouds],1996-8-29,[25.0 °C],[],[-],[34.5 °C],[79%],[N/A],[1005 hPa],[29.0 °C],[8:00 PM],[10.0 km],[WSW],"[14.8 km/h
		/ 4.1 m/s]",METAR VHHH 291200Z 24008KT 200V090 9999 FEW016 SCT300 29/25 Q1005 NOSIG
0,[Scattered Clouds],1996-8-29,[25.0 °C],[],[-],[34.5 °C],[79%],[N/A],[1005 hPa],[29.0 °C],[9:00 PM],[-],[South],"[7.4 km/h
		/ 2.1 m/s]",METAR VHHH 291300Z 19004KT 030V250 FEW016 SCT300 29/25 Q1005 NOSIG
0,[Scattered Clouds],1996-8-29,[24.0 °C],[],[-],[33.5 °C],[74%],[N/A],[1006 hPa],[29.0 °C],[10:00 PM],[10.0 km],[WSW],"[13.0 km/h
		/ 3.6 m/s]",METAR VHHH 291400Z 24007KT 210V290 9999 FEW018 SCT300 29/24 Q1006 NOSIG
0,[Partly Cloudy],1996-8-29,[25.0 °C],[],[-],[34.5 °C],[79%],[N/A],[1007 hPa],[29.0 °C],[11:00 PM],[10.0 km],[WSW],"[18.5 km/h
		/ 5.1 m/s]",METAR VHHH 291500 25010KT 230V300 9999 FEW020 29/25 Q1007 NOSIG
0,[Partly Cloudy],1996-8-30,[25.0 °C],[],[-],[34.5 °C],[79%],[N/A],[1007 hPa],[29.0 °C],[12:00 AM],[10.0 km],[SW],"[13.0 km/h
		/ 3.6 m/s]",METAR VHHH 291600Z 23007KT 190V260 9999 FEW017 29/25 Q1007 NOSIG
0,[Partly Cloudy],1996-8-30,[25.0 °C],[],[-],[32.7 °C],[84%],[N/A],[1007 hPa],[28.0 °C],[1:00 AM],[10.0 km],[West],"[13.0 km/h
		/ 3.6 m/s]",METAR VHHH 291700Z 26007KT 210V280 9999 FEW017 28/25 Q1007 NOSIG
0,[Scattered Clouds],1996-8-30,[25.0 °C],[],[-],[32.7 °C],[84%],[N/A],[1007 hPa],[28.0 °C],[2:00 AM],[10.0 km],[WSW],"[11.1 km/h
		/ 3.1 m/s]",METAR VHHH 291800Z 24006KT 210V270 9999 FEW017 SCT300 28/25 Q1007 NOSIG
0,[Scattered Clouds],1996-8-30,[25.0 °C],[],[-],[32.7 °C],[84%],[N/A],[1006 hPa],[28.0 °C],[3:00 AM],[10.0 km],[WSW],"[13.0 km/h
		/ 3.6 m/s]",METAR VHHH 291900Z 24007KT 200V260 9999 FEW017 SCT300 28/25 Q1006 NOSIG
0,[Partly Cloudy],1996-8-30,[25.0 °C],[],[-],[32.7 °C],[84%],[N/A],[1006 hPa],[28.0 °C],[4:00 AM],[10.0 km],[WSW],"[14.8 km/h
		/ 4.1 m/s]",METAR VHHH 292000Z 24008KT 190V270 9999 FEW017 28/25 Q1006 NOSIG
0,[Scattered Clouds],1996-8-30,[25.0 °C],[],[-],[32.7 °C],[84%],[N/A],[1006 hPa],[28.0 °C],[5:00 AM],[10.0 km],[SW],"[13.0 km/h
		/ 3.6 m/s]",METAR VHHH 292100Z 23007KT 200V270 9999 FEW018 SCT025 28/25 Q1006 NOSIG
0,[Scattered Clouds],1996-8-30,[25.0 °C],[],[-],[32.7 °C],[84%],[N/A],[1007 hPa],[28.0 °C],[6:00 AM],[10.0 km],[SSW],"[14.8 km/h
		/ 4.1 m/s]",METAR VHHH 292200Z 21008KT 200V260 9999 FEW020 SCT025 28/25 Q1007 NOSIG
0,[Mostly Cloudy],1996-8-30,[25.0 °C],[],[-],[32.7 °C],[84%],[N/A],[1007 hPa],[28.0 °C],[7:00 AM],[10.0 km],[SW],"[14.8 km/h
		/ 4.1 m/s]",METAR VHHH 292300Z 23008KT 190V260 9999 FEW017 SCT025 BKN300 28/25 Q1007 NOSIG
0,[Mostly Cloudy],1996-8-30,[25.0 °C],[],[-],[34.5 °C],[79%],[N/A],[1007 hPa],[29.0 °C],[8:00 AM],[10.0 km],[WSW],"[13.0 km/h
		/ 3.6 m/s]",METAR VHHH 300000Z 24007KT 210V270 9999 FEW020 SCT025 BKN100 29/25 Q1007 NOSIG
0,[Mostly Cloudy],1996-8-30,[25.0 °C],[],[-],[34.5 °C],[79%],[N/A],[1008 hPa],[29.0 °C],[9:00 AM],[10.0 km],[SW],"[14.8 km/h
		/ 4.1 m/s]",METAR VHHH 300100Z 22008KT 190V280 9999 FEW017 SCT025 BKN100 29/25 Q1008 NOSIG
0,[Scattered Clouds],1996-8-30,[24.0 °C],[],[-],[35.0 °C],[70%],[N/A],[1008 hPa],[30.0 °C],[10:00 AM],[10.0 km],[WSW],"[16.7 km/h
		/ 4.6 m/s]",METAR VHHH 300200Z 24009KT 9999 FEW020 SCT025 30/24 Q1008 NOSIG
0,[Scattered Clouds],1996-8-30,[24.0 °C],[],[-],[36.4 °C],[66%],[N/A],[1008 hPa],[31.0 °C],[11:00 AM],[10.0 km],[WSW],"[18.5 km/h
		/ 5.1 m/s]",METAR VHHH 300300Z 24010KT 210V060 9999 FEW020 SCT025 31/24 Q1008 NOSIG
0,[Scattered Clouds],1996-8-30,[24.0 °C],[],"[48.2 km/h
		/ 13.4 m/s]",[36.4 °C],[66%],[N/A],[1007 hPa],[31.0 °C],[1:00 PM],[10.0 km],[WSW],"[24.1 km/h
		/ 6.7 m/s]",METAR VHHH 300500Z 24013G26KT 210V300 9999 SCT025 SCT100 31/24 Q1007 NOSIG
0,[Scattered Clouds],1996-8-30,[23.0 °C],[],[-],[36.8 °C],[59%],[N/A],[1007 hPa],[32.0 °C],[2:00 PM],[10.0 km],[WSW],"[18.5 km/h
		/ 5.1 m/s]",METAR VHHH 300600Z 24010KT 200V300 9999 FEW025 SCT300 32/23 Q1007 NOSIG
0,[Scattered Clouds],1996-8-30,[24.0 °C],[],[-],[36.4 °C],[66%],[N/A],[1006 hPa],[31.0 °C],[3:00 PM],[10.0 km],[WSW],"[22.2 km/h
		/ 6.2 m/s]",METAR VHHH 300700Z 24012KT 190V270 9999 FEW025 SCT300 31/24 Q1006 WS LDG RWY 13/31 NOSIG
0,[Scattered Clouds],1996-8-30,[25.0 °C],[],[-],[37.6 °C],[70%],[N/A],[1006 hPa],[31.0 °C],[4:00 PM],[10.0 km],[WSW],"[18.5 km/h
		/ 5.1 m/s]",METAR VHHH 300800Z 24010KT 210V320 9999 FEW020 SCT025 31/25 Q1006 WS LDG RWY 13/31 NOSIG
0,[Partly Cloudy],1996-8-30,[24.0 °C],[],[-],[36.4 °C],[66%],[N/A],[1006 hPa],[31.0 °C],[5:00 PM],[10.0 km],[WSW],"[22.2 km/h
		/ 6.2 m/s]",METAR VHHH 300900Z 24012KT 9999 FEW020 31/24 Q1006 WS LDG RWY 13/31 NOSIG
0,[Scattered Clouds],1996-8-30,[25.0 °C],[],[-],[34.5 °C],[79%],[N/A],[1006 hPa],[29.0 °C],[6:00 PM],[10.0 km],[WSW],"[16.7 km/h
		/ 4.6 m/s]",METAR VHHH 301000Z 24009KT 200V300 9999 FEW018 SCT300 29/25 Q1006 WS LDG RWY 13/31 NOSIG
0,[Light Rain Showers],1996-8-30,[25.0 °C],[Rain],[-],[30.6 °C],[89%],[N/A],[1007 hPa],[27.0 °C],[7:00 PM],[10.0 km],[West],"[22.2 km/h
		/ 6.2 m/s]",METAR VHHH 301100Z 27012KT 230V310 9999 -SHRA FEW020 SCT025 BKN080 27/25 Q1007 RERA TEMPO 4000 SHRA
0,[Partly Cloudy],1996-8-30,[23.0 °C],[],[-],[32.7 °C],[70%],[N/A],[1008 hPa],[29.0 °C],[8:00 PM],[10.0 km],[WNW],"[14.8 km/h
		/ 4.1 m/s]",METAR VHHH 301200Z 29008KT 240V350 9999 FEW025 29/23 Q1008 TEMPO 4000 SHRA
0,[Partly Cloudy],1996-8-30,[22.0 °C],[],[-],[30.7 °C],[70%],[N/A],[1008 hPa],[28.0 °C],[9:00 PM],[10.0 km],[WSW],"[11.1 km/h
		/ 3.1 m/s]",METAR VHHH 301300Z 25006KT 220V320 9999 FEW018 28/22 Q1008 NOSIG
0,[Scattered Clouds],1996-8-30,[22.0 °C],[],[-],[30.7 °C],[70%],[N/A],[1009 hPa],[28.0 °C],[10:00 PM],[10.0 km],[Variable],"[3.7 km/h
		/ 1.0 m/s]",METAR VHHH 301400Z VRB02KT 9999 FEW020 SCT100 28/22 Q1009 NOSIG
0,[Scattered Clouds],1996-8-30,[22.0 °C],[],[-],[30.7 °C],[70%],[N/A],[1009 hPa],[28.0 °C],[11:00 PM],[10.0 km],[SE],"[1.9 km/h
		/ 0.5 m/s]",METAR VHHH 301500Z 14001KT 9999 FEW020 SCT100 28/22 Q1009 NOSIG
0,[Scattered Clouds],1996-8-31,[23.0 °C],[],[-],[31.2 °C],[74%],[N/A],[1009 hPa],[28.0 °C],[12:00 AM],[10.0 km],[ESE],"[5.6 km/h
		/ 1.5 m/s]",METAR VHHH 301600Z 11003KT 9999 FEW017 SCT025 28/23 Q1009 NOSIG
0,[Scattered Clouds],1996-8-31,[24.0 °C],[],[-],[30.1 °C],[84%],[N/A],[1009 hPa],[27.0 °C],[1:00 AM],[10.0 km],[ESE],"[9.3 km/h
		/ 2.6 m/s]",METAR VHHH 301700Z 12005KT 9999 FEW016 SCT025 27/24 Q1009 NOSIG
0,[Scattered Clouds],1996-8-31,[25.0 °C],[],[-],[32.7 °C],[84%],[N/A],[1009 hPa],[28.0 °C],[2:00 AM],[10.0 km],[ESE],"[1.9 km/h
		/ 0.5 m/s]",METAR VHHH 301800Z 11001KT 9999 FEW016 SCT022 28/25 Q1009 NOSIG
0,[Light Thunderstorms and Rain],1996-8-31,[25.0 °C],"[Rain
	,
Thunderstorm]",[-],[32.7 °C],[84%],[N/A],[1009 hPa],[28.0 °C],[3:00 AM],[9.0 km],[South],"[5.6 km/h
		/ 1.5 m/s]",METAR VHHH 301900Z 18003KT 9000 -TSRA FEW016CB SCT022 28/25 Q1009 TEMPO 4000 SHRA
0,[Light Rain],1996-8-31,[26.0 °C],[Rain],[-],[31.2 °C],[94%],[N/A],[1009 hPa],[27.0 °C],[4:00 AM],[10.0 km],[WNW],"[11.1 km/h
		/ 3.1 m/s]",METAR VHHH 302000Z 30006KT 9999 -RA FEW016CB SCT022 27/26 Q1009 WS LDG RWY 13/31 TEMPO VRB15G25KT 3000 TSRA FEW012 FEW014CB SCT025
0,[Light Thunderstorms and Rain],1996-8-31,[25.0 °C],"[Rain
	,
Thunderstorm]",[-],[-],[94%],[N/A],[1009 hPa],[26.0 °C],[5:00 AM],[10.0 km],[NW],"[11.1 km/h
		/ 3.1 m/s]",METAR VHHH 302100Z 32006KT 310V050 9999 -TSRA FEW016CB SCT022 26/25 Q1009 WS LDG RWY 13/31 TEMPO VRB15G25KT 3000 TSRA FEW012 FEW014CB SCT025
0,[Scattered Clouds],1996-8-31,[25.0 °C],[],[-],[-],[94%],[N/A],[1009 hPa],[26.0 °C],[6:00 AM],[10.0 km],[East],"[9.3 km/h
		/ 2.6 m/s]",METAR VHHH 302200Z 10005KT 9999 FEW018CB SCT022 26/25 Q1009 WS LDG RWY 13/31 TEMPO VRB15G25KT 3000 TSRA FEW012 FEW014CB SCT025
0,[Mostly Cloudy],1996-8-31,[24.0 °C],[],[-],[-],[89%],[N/A],[1010 hPa],[26.0 °C],[7:00 AM],[10.0 km],[ESE],"[11.1 km/h
		/ 3.1 m/s]",METAR VHHH 302300Z 12006KT 9999 FEW016 SCT025 BKN080 26/24 Q1010 WS LDG RWY 13/31 TEMPO VRB15G25KT 3000 TSRA FEW012 FEW014CB SCT025
0,[Mostly Cloudy],1996-8-31,[25.0 °C],[],[-],[32.7 °C],[84%],[N/A],[1010 hPa],[28.0 °C],[8:00 AM],[10.0 km],[Variable],"[1.9 km/h
		/ 0.5 m/s]",METAR VHHH 310000Z VRB01KT 9999 FEW015 SCT022 BKN080 28/25 Q1010 WS LDG RWY 13/31 TEMPO VRB15G25KT 3000 TSRA FEW012 FEW014CB SCT025
0,[Light Rain Showers],1996-8-31,[25.0 °C],[Rain],"[22.2 km/h
		/ 6.2 m/s]",[32.7 °C],[84%],[N/A],[1010 hPa],[28.0 °C],[9:00 AM],[10.0 km],[West],"[3.7 km/h
		/ 1.0 m/s]",METAR VHHH 310100Z 28002G12KT 9999 -SHRA FEW016 BKN080 28/25 Q1010 WS LDG RWY 13/31 TEMPO VRB15G25KT 3000 TSRA FEW012 FEW014CB SCT025
0,[Mostly Cloudy],1996-8-31,[25.0 °C],[],[-],[37.6 °C],[70%],[N/A],[1009 hPa],[31.0 °C],[11:00 AM],[10.0 km],[West],"[18.5 km/h
		/ 5.1 m/s]",METAR VHHH 310300Z 28010KT 230V300 9999 FEW020 BKN300 31/25 Q1009 TEMPO 4000 SHRA
0,[Mostly Cloudy],1996-8-31,[25.0 °C],[],[-],[37.6 °C],[70%],[N/A],[1009 hPa],[31.0 °C],[12:00 PM],[10.0 km],[West],"[11.1 km/h
		/ 3.1 m/s]",METAR VHHH 310400Z 27006KT 200V290 9999 FEW020 BKN300 31/25 Q1009 NOSIG
0,[Mostly Cloudy],1996-8-31,[25.0 °C],[],[-],[37.6 °C],[70%],[N/A],[1009 hPa],[31.0 °C],[1:00 PM],[10.0 km],[WSW],"[14.8 km/h
		/ 4.1 m/s]",METAR VHHH 310500Z 24008KT 200V270 9999 FEW025 BKN100 31/25 Q1009 NOSIG
0,[Mostly Cloudy],1996-8-31,[25.0 °C],[],[-],[40.6 °C],[63%],[N/A],[1008 hPa],[33.0 °C],[2:00 PM],[10.0 km],[WSW],"[13.0 km/h
		/ 3.6 m/s]",METAR VHHH 310600Z 25007KT 200V290 9999 FEW025 BKN100 33/25 Q1008 NOSIG
0,[Scattered Clouds],1996-8-31,[24.0 °C],[],[-],[39.2 °C],[59%],[N/A],[1008 hPa],[33.0 °C],[3:00 PM],[10.0 km],[SW],"[16.7 km/h
		/ 4.6 m/s]",METAR VHHH 310700Z 23009KT 210V290 9999 FEW025 SCT100 33/24 Q1008 NOSIG
0,[Scattered Clouds],1996-8-31,[25.0 °C],[],[-],[39.0 °C],[66%],[N/A],[1007 hPa],[32.0 °C],[4:00 PM],[10.0 km],[SSW],"[11.1 km/h
		/ 3.1 m/s]",METAR VHHH 310800Z 21006KT 100V350 9999 FEW025 SCT300 32/25 Q1007 NOSIG
0,[Scattered Clouds],1996-8-31,[25.0 °C],[],"[37.0 km/h
		/ 10.3 m/s]",[39.0 °C],[66%],[N/A],[1007 hPa],[32.0 °C],[5:00 PM],[10.0 km],[SSW],"[13.0 km/h
		/ 3.6 m/s]",METAR VHHH 310900Z 200007G20KT 050V250 9999 FEW025 SCT100 32/25 Q1007 NOSIG
0,[Mostly Cloudy],1996-8-31,[24.0 °C],[],[-],[36.4 °C],[66%],[N/A],[1009 hPa],[31.0 °C],[6:00 PM],[10.0 km],[South],"[13.0 km/h
		/ 3.6 m/s]",METAR VHHH 311000Z 19007KT 100V230 9999 FEW017 BKN100 31/24 Q1009 NOSIG
0,[Mostly Cloudy],1996-8-31,[25.0 °C],[],[-],[36.0 °C],[74%],[N/A],[1009 hPa],[30.0 °C],[7:00 PM],[10.0 km],[WSW],"[7.4 km/h
		/ 2.1 m/s]",METAR VHHH 311100Z 24004KT 190V270 9999 FEW016 SCT025 BKN100 30/25 Q1009 NOSIG
0,[Mostly Cloudy],1996-8-31,[26.0 °C],[],[-],[35.6 °C],[84%],[N/A],[1010 hPa],[29.0 °C],[8:00 PM],[10.0 km],[WSW],"[11.1 km/h
		/ 3.1 m/s]",METAR VHHH 311200Z 25006KT 210V280 9999 FEW016 SCT025 BKN080 29/26 Q1010 NOSIG
0,[Scattered Clouds],1996-8-31,[26.0 °C],[],[-],[37.4 °C],[79%],[N/A],[1010 hPa],[30.0 °C],[9:00 PM],[10.0 km],[South],"[11.1 km/h
		/ 3.1 m/s]",METAR VHHH 311300Z 18006KT 130V250 9999 FEW014 SCT025 30/26 Q1010 WS LDG RWY 13/31 TEMPO 4000 SHRA
0,[Scattered Clouds],1996-8-31,[26.0 °C],[],[-],[35.6 °C],[84%],[N/A],[1011 hPa],[29.0 °C],[10:00 PM],[10.0 km],[SSW],"[3.7 km/h
		/ 1.0 m/s]",METAR VHHH 311400Z 20002KT 9999 FEW018 SCT025 29/26 Q1011 WS LDG RWY 13/31 TEMPO 4000 SHRA
0,[Scattered Clouds],1996-8-31,[24.0 °C],[],[-],[35.0 °C],[70%],[N/A],[1011 hPa],[30.0 °C],[11:00 PM],[10.0 km],[SSW],"[7.4 km/h
		/ 2.1 m/s]",METAR VHHH 311500Z 20004KT 120V260 9999 FEW020 SCT025 30/24 Q1011 TEMPO 4000 SHRA
0,[Scattered Clouds],1996-9-1,[26.0 °C],[],[-],[33.6 °C],[89%],[N/A],[1010 hPa],[28.0 °C],[1:00 AM],[10.0 km],[ESE],"[1.9 km/h
		/ 0.5 m/s]",METAR VHHH 311700Z 11001KT 9999 FEW020 SCT030 28/26 Q1010 NOSIG
0,[Scattered Clouds],1996-9-1,[25.0 °C],[],[-],[32.7 °C],[84%],[N/A],[1010 hPa],[28.0 °C],[2:00 AM],[10.0 km],[South],"[1.9 km/h
		/ 0.5 m/s]",METAR VHHH 311800Z 19001KT 9999 FEW015 SCT020 28/25 Q1010 NOSIG
0,[Scattered Clouds],1996-9-1,[25.0 °C],[],[-],[32.7 °C],[84%],[N/A],[1009 hPa],[28.0 °C],[3:00 AM],[10.0 km],[WSW],"[1.9 km/h
		/ 0.5 m/s]",METAR VHHH 311900Z 25001KT 9999 SCT018 28/25 Q1009 NOSIG
0,[Scattered Clouds],1996-9-1,[26.0 °C],[],[-],[33.6 °C],[89%],[N/A],[1009 hPa],[28.0 °C],[4:00 AM],[10.0 km],[SW],"[3.7 km/h
		/ 1.0 m/s]",METAR VHHH 312000Z 23002KT 9999 SCT018 28/26 Q1009 NOSIG
0,[Unknown],1996-9-1,[25.0 °C],[],[-],[32.7 °C],[84%],[N/A],[1009 hPa],[28.0 °C],[5:00 AM],[10.0 km],[South],"[1.9 km/h
		/ 0.5 m/s]",METAR VHHH 312100Z 17001KT 9999 SCTO18 28/25 Q1009 NOSIG
0,[Partly Cloudy],1996-9-1,[25.0 °C],[],[-],[30.6 °C],[89%],[N/A],[1010 hPa],[27.0 °C],[6:00 AM],[10.0 km],[SE],"[1.9 km/h
		/ 0.5 m/s]",METAR VHHH 312200Z 14001KT 9999 FEW015 27/25 Q1010 NOSIG
0,[Scattered Clouds],1996-9-1,[25.0 °C],[],[-],[32.7 °C],[84%],[N/A],[1010 hPa],[28.0 °C],[7:00 AM],[10.0 km],[SW],"[1.9 km/h
		/ 0.5 m/s]",METAR VHHH 312300Z 22001KT 9999 FEW020 SCT100 28/25 Q1010 NOSIG
0,[Scattered Clouds],1996-9-1,[26.0 °C],[],[-],[35.6 °C],[84%],[N/A],[1010 hPa],[29.0 °C],[8:00 AM],[10.0 km],[ESE],"[9.3 km/h
		/ 2.6 m/s]",METAR VHHH 010000Z 12005KT 9999 SCT016 29/26 Q1010 NOSIG
0,[Scattered Clouds],1996-9-1,[25.0 °C],[],[-],[37.6 °C],[70%],[N/A],[1011 hPa],[31.0 °C],[9:00 AM],[10.0 km],[SE],"[7.4 km/h
		/ 2.1 m/s]",METAR VHHH 010100Z 13004KT 110V180 9999 FEW017 SCT025 31/25 Q1011 NOSIG
0,[Scattered Clouds],1996-9-1,[25.0 °C],[],[-],[36.0 °C],[74%],[N/A],[1011 hPa],[30.0 °C],[10:00 AM],[10.0 km],[ESE],"[9.3 km/h
		/ 2.6 m/s]",METAR VHHH 010200Z 12005KT 090V160 9999 FEW017 SCT025 30/25 Q1011 NOSIG
0,[Scattered Clouds],1996-9-1,[24.0 °C],[],[-],[36.4 °C],[66%],[N/A],[1011 hPa],[31.0 °C],[11:00 AM],[10.0 km],[SE],"[13.0 km/h
		/ 3.6 m/s]",METAR VHHH 010300Z 13007KT 090V150 9999 FEW017 SCT025 31/24 Q1011 NOSIG
0,[Scattered Clouds],1996-9-1,[25.0 °C],[],[-],[39.0 °C],[66%],[N/A],[1011 hPa],[32.0 °C],[12:00 PM],[10.0 km],[SE],"[18.5 km/h
		/ 5.1 m/s]",METAR VHHH 010400Z 13010KT 9999 FEW017 SCT025 32/25 Q1011 NOSIG
0,[Scattered Clouds],1996-9-1,[25.0 °C],[],[-],[39.0 °C],[66%],[N/A],[1011 hPa],[32.0 °C],[1:00 PM],[10.0 km],[SE],"[18.5 km/h
		/ 5.1 m/s]",METAR VHHH 010500Z 13010KT 9999 FEW017 SCT025 32/25 Q1011 NOSIG
0,[Scattered Clouds],1996-9-1,[26.0 °C],[],[-],[40.4 °C],[70%],[N/A],[1008 hPa],[32.0 °C],[4:00 PM],[10.0 km],[ESE],"[7.4 km/h
		/ 2.1 m/s]",METAR VHHH 010800Z 12004KT 090V160 9999 FEW020 SCT025 32/26 Q1008 NOSIG
0,[Scattered Clouds],1996-9-1,[25.0 °C],[],[-],[37.6 °C],[70%],[N/A],[1008 hPa],[31.0 °C],[5:00 PM],[10.0 km],[SSE],"[7.4 km/h
		/ 2.1 m/s]",METAR VHHH 010900Z 15004KT 080V240 9999 FEW025 SCT120 31/25 Q1008 NOSIG
0,[Partly Cloudy],1996-9-1,[24.0 °C],[],[-],[35.0 °C],[70%],[N/A],[1009 hPa],[30.0 °C],[7:00 PM],[10.0 km],[South],"[1.9 km/h
		/ 0.5 m/s]",METAR VHHH 011100Z 19001KT 9999 FEW025 30/24 Q1009 NOSIG
0,[Partly Cloudy],1996-9-1,[23.0 °C],[],[-],[34.1 °C],[66%],[N/A],[1009 hPa],[30.0 °C],[8:00 PM],[10.0 km],[South],"[3.7 km/h
		/ 1.0 m/s]",METAR VHHH 011200Z 18002KT 9999 FEW025 30/23 Q1009 NOSIG
0,[Partly Cloudy],1996-9-1,[23.0 °C],[],[-],[34.1 °C],[66%],[N/A],[1010 hPa],[30.0 °C],[9:00 PM],[10.0 km],[SSW],"[5.6 km/h
		/ 1.5 m/s]",METAR VHHH 011300Z 21003KT 9999 FEW025 30/23 Q1010 NOSIG
0,[Partly Cloudy],1996-9-1,[24.0 °C],[],[-],[35.0 °C],[70%],[N/A],[1010 hPa],[30.0 °C],[10:00 PM],[10.0 km],[WSW],"[5.6 km/h
		/ 1.5 m/s]",METAR VHHH 011400Z 25003KT 9999 FEW025 30/24 Q1010 NOSIG
0,[Partly Cloudy],1996-9-1,[25.0 °C],[],[-],[34.5 °C],[79%],[N/A],[1011 hPa],[29.0 °C],[11:00 PM],[10.0 km],[West],"[7.4 km/h
		/ 2.1 m/s]",METAR VHHH 011500Z 26004KT 220V300 9999 FEW030 29/25 Q1011 NOSIG
0,[Clear],1996-9-2,[25.0 °C],[],[-],[36.0 °C],[74%],[N/A],[1010 hPa],[30.0 °C],[12:00 AM],[-],[West],"[1.9 km/h
		/ 0.5 m/s]",METAR VHHH 011600Z 26001KT CAVOK 30/25 Q1010 NOSIG
0,[Partly Cloudy],1996-9-2,[25.0 °C],[],[-],[34.5 °C],[79%],[N/A],[1009 hPa],[29.0 °C],[1:00 AM],[10.0 km],[West],"[11.1 km/h
		/ 3.1 m/s]",METAR VHHH 011700Z 28006KT 9999 FEW030 29/25 Q1009 NOSIG
0,[Partly Cloudy],1996-9-2,[24.0 °C],[],[-],[33.5 °C],[74%],[N/A],[1009 hPa],[29.0 °C],[2:00 AM],[10.0 km],[WSW],"[7.4 km/h
		/ 2.1 m/s]",METAR VHHH 011800Z 24004KT 9999 FEW030 29/24 Q1009 NOSIG
0,[Partly Cloudy],1996-9-2,[25.0 °C],[],[-],[32.7 °C],[84%],[N/A],[1009 hPa],[28.0 °C],[3:00 AM],[10.0 km],[WSW],"[13.0 km/h
		/ 3.6 m/s]",METAR VHHH 011900Z 24007KT 9999 FEW035 28/25 Q1009 NOSIG
0,[Partly Cloudy],1996-9-2,[25.0 °C],[],[-],[32.7 °C],[84%],[N/A],[1009 hPa],[28.0 °C],[4:00 AM],[10.0 km],[SW],"[9.3 km/h
		/ 2.6 m/s]",METAR VHHH 012000Z 23005KT 9999 FEW035 28/25 Q1009 NOSIG
0,[Partly Cloudy],1996-9-2,[24.0 °C],[],[-],[31.9 °C],[79%],[N/A],[1009 hPa],[28.0 °C],[5:00 AM],[10.0 km],[WSW],"[11.1 km/h
		/ 3.1 m/s]",METAR VHHH 012100Z 24006KT 9999 FEW035 28/24 Q1009 NOSIG
0,[Partly Cloudy],1996-9-2,[25.0 °C],[],[-],[32.7 °C],[84%],[N/A],[1009 hPa],[28.0 °C],[6:00 AM],[10.0 km],[WSW],"[9.3 km/h
		/ 2.6 m/s]",METAR VHHH 012200Z 25005KT 9999 FEW035 28/25 Q1009 NOSIG
0,[Partly Cloudy],1996-9-2,[25.0 °C],[],[-],[32.7 °C],[84%],[N/A],[1010 hPa],[28.0 °C],[7:00 AM],[7.0 km],[SW],"[9.3 km/h
		/ 2.6 m/s]",METAR VHHH 012300Z 23005KT 7000 FEW030 28/25 Q1010 NOSIG
0,[Partly Cloudy],1996-9-2,[24.0 °C],[],[-],[35.0 °C],[70%],[N/A],[1010 hPa],[30.0 °C],[8:00 AM],[6.0 km],[SW],"[11.1 km/h
		/ 3.1 m/s]",METAR VHHH 020000Z 22006KT 6000 FEW030 30/24 Q1010 NOSIG
0,[Haze],1996-9-2,[24.0 °C],[],[-],[36.4 °C],[66%],[N/A],[1010 hPa],[31.0 °C],[9:00 AM],[-],[SSW],"[11.1 km/h
		/ 3.1 m/s]",METAR VHHH 020100Z 21006KT 190V260 4800 HZ FEW020 31/24 Q1010 TEMPO 4500 HZ
0,[Haze],1996-9-2,[25.0 °C],[],[-],[39.0 °C],[66%],[N/A],[1010 hPa],[32.0 °C],[10:00 AM],[-],[SW],"[11.1 km/h
		/ 3.1 m/s]",METAR VHHH 020200Z 22006KT 190V260 4800 HZ FEW020 32/25 Q1010 TEMPO 4500 HZ
0,[Scattered Clouds],1996-9-2,[23.0 °C],[],[-],[36.8 °C],[59%],[N/A],[1010 hPa],[32.0 °C],[11:00 AM],[6.0 km],[SW],"[14.8 km/h
		/ 4.1 m/s]",METAR VHHH 020300Z 22008KT 160V280 6000 FEW020 SCT025 32/23 Q1010 TEMPO 4500 HZ
0,[Scattered Clouds],1996-9-2,[26.0 °C],[],[-],[39.2 °C],[75%],[N/A],[1010 hPa],[31.0 °C],[12:00 PM],[6.0 km],[SE],"[20.4 km/h
		/ 5.7 m/s]",METAR VHHH 020400Z 13011KT 6000 FEW020 SCT025 31/26 Q1010 TEMPO 4500 HZ
0,[Scattered Clouds],1996-9-2,[24.0 °C],[],[-],[36.4 °C],[66%],[N/A],[1009 hPa],[31.0 °C],[1:00 PM],[7.0 km],[SE],"[20.4 km/h
		/ 5.7 m/s]",METAR VHHH 020500Z 13011KT 7000 FEW020 SCT025 31/24 Q1009 TEMPO 4500 HZ
0,[Light Thunderstorms and Rain],1996-9-2,[23.0 °C],"[Rain
	,
Thunderstorm]","[75.9 km/h
		/ 21.1 m/s]",[-],[83%],[N/A],[1009 hPa],[26.0 °C],[2:00 PM],[-],[NE],"[25.9 km/h
		/ 7.2 m/s]",METAR VHHH 020600Z 04014G41KT 280V070 -TSRA FEW020CB BKN025 26/23 Q1009 WS LDG RWY 13/31 TEMPO VRB15G30 2000 +TSRA FEW012CB SCT020
0,[Scattered Clouds],1996-9-2,[23.0 °C],[],[-],[34.1 °C],[66%],[N/A],[1009 hPa],[30.0 °C],[3:00 PM],[9.0 km],[NW],"[1.9 km/h
		/ 0.5 m/s]",METAR VHHH 020700Z 31001KT 9000 FEW020 SCT025 30/23 Q1009 RETS TEMPO 4000 SHRA
0,[Scattered Clouds],1996-9-2,[24.0 °C],[],[-],[36.4 °C],[66%],[N/A],[1008 hPa],[31.0 °C],[4:00 PM],[8.0 km],[WNW],"[3.7 km/h
		/ 1.0 m/s]",METAR VHHH 020800Z 30002KT 8000 FEW020 SCT025 31/24 Q1008 TEMPO 4000 SHRA
0,[Scattered Clouds],1996-9-2,[23.0 °C],[],[-],[34.1 °C],[66%],[N/A],[1008 hPa],[30.0 °C],[5:00 PM],[8.0 km],[NNW],"[13.0 km/h
		/ 3.6 m/s]",METAR VHHH 020900Z 34007KT 290V010 8000 FEW020TCU SCT025 30/23 Q1008 TEMPO 4000 SHRA
0,[Scattered Clouds],1996-9-2,[24.0 °C],[],[-],[33.5 °C],[74%],[N/A],[1008 hPa],[29.0 °C],[6:00 PM],[10.0 km],[South],"[9.3 km/h
		/ 2.6 m/s]",METAR VHHH 021000Z 17005KT 140V200 9999 SCT025 29/24 Q1008 TEMPO 4000 SHRA
0,[Partly Cloudy],1996-9-2,[24.0 °C],[],[-],[35.0 °C],[70%],[N/A],[1008 hPa],[30.0 °C],[7:00 PM],[7.0 km],[ESE],"[9.3 km/h
		/ 2.6 m/s]",METAR VHHH 021100Z 12005KT 7000 FEW025 30/24 Q1008 NOSIG
0,[Partly Cloudy],1996-9-2,[25.0 °C],[],[-],[34.5 °C],[79%],[N/A],[1009 hPa],[29.0 °C],[8:00 PM],[7.0 km],[SE],"[9.3 km/h
		/ 2.6 m/s]",METAR VHHH 021200Z 14005KT 080V150 7000 FEW025 29/25 Q1009 NOSIG
0,[Scattered Clouds],1996-9-2,[25.0 °C],[],[-],[32.7 °C],[84%],[N/A],[1010 hPa],[28.0 °C],[9:00 PM],[7.0 km],[SE],"[11.1 km/h
		/ 3.1 m/s]",METAR VHHH 021300Z 13006KT 7000 FEW025 SCT300 28/25 Q1010 NOSIG
0,[Mostly Cloudy],1996-9-2,[25.0 °C],[],[-],[34.5 °C],[79%],[N/A],[1011 hPa],[29.0 °C],[10:00 PM],[9.0 km],[ESE],"[7.4 km/h
		/ 2.1 m/s]",METAR VHHH 021400Z 12004KT 070V190 9000 FEW020 SCT025 BKN100 29/25 Q1011 NOSIG
0,[Mostly Cloudy],1996-9-2,[25.0 °C],[],[-],[32.7 °C],[84%],[N/A],[1011 hPa],[28.0 °C],[11:00 PM],[9.0 km],[SE],"[9.3 km/h
		/ 2.6 m/s]",METAR VHHH 021500Z 13005KT 100V180 9000 SCT025 BKN100 28/25 Q1011 NOSIG
0,[Scattered Clouds],1996-9-3,[26.0 °C],[],[-],[33.6 °C],[89%],[N/A],[1011 hPa],[28.0 °C],[12:00 AM],[9.0 km],[ESE],"[7.4 km/h
		/ 2.1 m/s]",METAR VHHH 021600Z 12004KT 080V160 9000 FEW022 SCT100 28/26 Q1011 NOSIG
0,[Scattered Clouds],1996-9-3,[26.0 °C],[],[-],[31.2 °C],[94%],[N/A],[1010 hPa],[27.0 °C],[1:00 AM],[9.0 km],[East],"[9.3 km/h
		/ 2.6 m/s]",METAR VHHH 021700Z 09005KT 060V130 9000 FEW020 SCT100 27/26 Q1010 NOSIG
0,[Scattered Clouds],1996-9-3,[26.0 °C],[],[-],[31.2 °C],[94%],[N/A],[1010 hPa],[27.0 °C],[2:00 AM],[9.0 km],[ESE],"[3.7 km/h
		/ 1.0 m/s]",METAR VHHH 021800Z 11002KT 9000 FEW012 SCT018 27/26 Q1010 NOSIG
0,[Scattered Clouds],1996-9-3,[26.0 °C],[],[-],[31.2 °C],[94%],[N/A],[1010 hPa],[27.0 °C],[3:00 AM],[9.0 km],[ESE],"[7.4 km/h
		/ 2.1 m/s]",METAR VHHH 021900Z 11004KT 090V150 9000 FEW015 SCT020 27/26 Q1010 NOSIG
0,[Scattered Clouds],1996-9-3,[26.0 °C],[],[-],[31.2 °C],[94%],[N/A],[1010 hPa],[27.0 °C],[4:00 AM],[7.0 km],[ESE],"[9.3 km/h
		/ 2.6 m/s]",METAR VHHH 022000Z 11005KT 070V150 7000 FEW010 SCT020 27/26 Q1010 NOSIG
0,[Scattered Clouds],1996-9-3,[26.0 °C],[],[-],[31.2 °C],[94%],[N/A],[1010 hPa],[27.0 °C],[5:00 AM],[7.0 km],[East],"[9.3 km/h
		/ 2.6 m/s]",METAR VHHH 022100Z 10005KT 7000 FEW010 SCT018 27/26 Q1010 NOSIG
0,[Scattered Clouds],1996-9-3,[26.0 °C],[],[-],[31.2 °C],[94%],[N/A],[1010 hPa],[27.0 °C],[6:00 AM],[6.0 km],[ESE],"[9.3 km/h
		/ 2.6 m/s]",METAR VHHH 022200Z 11005KT 080V150 6000 FEW010 SCT018 27/26 Q1010 TEMPO 5000 HZ
0,[Scattered Clouds],1996-9-3,[26.0 °C],[],[-],[31.2 °C],[94%],[N/A],[1011 hPa],[27.0 °C],[7:00 AM],[7.0 km],[ESE],"[7.4 km/h
		/ 2.1 m/s]",METAR VHHH 022300Z 12004KT 7000 FEW010 SCT018 27/26 Q1011 TEMPO 5000 HAZE
0,[Scattered Clouds],1996-9-3,[26.0 °C],[],[-],[33.6 °C],[89%],[N/A],[1011 hPa],[28.0 °C],[8:00 AM],[7.0 km],[SE],"[9.3 km/h
		/ 2.6 m/s]",METAR VHHH 030000Z 14005KT 7000 FEW014 SCT020 28/26 Q1011 TEMPO 5000 HZ
0,[Scattered Clouds],1996-9-3,[26.0 °C],[],[-],[35.6 °C],[84%],[N/A],[1011 hPa],[29.0 °C],[9:00 AM],[7.0 km],[SSE],"[14.8 km/h
		/ 4.1 m/s]",METAR VHHH 030100Z 15008KT 7000 FEW018 SCT025 29/26 Q1011 TEMPO 4000 HZ/SHRA
0,[Scattered Clouds],1996-9-3,[26.0 °C],[],[-],[35.6 °C],[84%],[N/A],[1011 hPa],[29.0 °C],[10:00 AM],[7.0 km],[SE],"[20.4 km/h
		/ 5.7 m/s]",METAR VHHH 030200Z 14011KT 7000 FEW020 SCT025 29/26 Q1011 TEMPO 4000 HZ/SHRA
0,[Light Thunderstorms and Rain],1996-9-3,[26.0 °C],"[Rain
	,
Thunderstorm]",[-],[33.6 °C],[89%],[N/A],[1011 hPa],[28.0 °C],[11:00 AM],[6.0 km],[SSE],"[22.2 km/h
		/ 6.2 m/s]",METAR VHHH 030300Z 15012KT 6000 -TSRA FEW015 SCT022 28/26 Q1011 WS LDG RWY 13/31 TEMPO VRB15G30KT 2500 +TSRA FEW012CB SCT018
0,[Light Rain],1996-9-3,[24.0 °C],[Rain],[-],[30.1 °C],[84%],[N/A],[1011 hPa],[27.0 °C],[12:00 PM],[7.0 km],[NE],"[3.7 km/h
		/ 1.0 m/s]",METAR VHHH 030400Z 04002KT 7000 -RA FEW016 SCT022 27/24 Q1011 RETS TEMPO 4000 SHRA
0,[Scattered Clouds],1996-9-3,[26.0 °C],[],[-],[37.4 °C],[79%],[N/A],[1010 hPa],[30.0 °C],[1:00 PM],[7.0 km],[ESE],"[7.4 km/h
		/ 2.1 m/s]",METAR VHHH 030500Z 12004KT 7000 SCT025 SCT100 30/26 Q1010 TEMPO 4000 SHRA
0,[Mostly Cloudy],1996-9-3,[25.0 °C],[],[-],[37.6 °C],[70%],[N/A],[1010 hPa],[31.0 °C],[2:00 PM],[8.0 km],[SE],"[11.1 km/h
		/ 3.1 m/s]",METAR VHHH 030600Z 14006KT 8000 SCT020 BKN080 31/25 Q1010 TEMPO 4000 SHRA
0,[Scattered Clouds],1996-9-3,[25.0 °C],[],[-],[37.6 °C],[70%],[N/A],[1009 hPa],[31.0 °C],[3:00 PM],[8.0 km],[SE],"[20.4 km/h
		/ 5.7 m/s]",METAR VHHH 030700Z 13011KT 8000 FEW018 SCT080 31/25 Q1009 TEMPO 4000 SHRA
0,[Scattered Clouds],1996-9-3,[26.0 °C],[],[-],[37.4 °C],[79%],[N/A],[1009 hPa],[30.0 °C],[4:00 PM],[9.0 km],[SE],"[20.4 km/h
		/ 5.7 m/s]",METAR VHHH 030800Z 13011KT 9000 SCT018 SCT080 30/26 Q1009 TEMPO 4000 SHRA
0,[Light Rain Showers],1996-9-3,[25.0 °C],[Rain],[-],[36.0 °C],[74%],[N/A],[1009 hPa],[30.0 °C],[5:00 PM],[10.0 km],[ESE],"[11.1 km/h
		/ 3.1 m/s]",METAR VHHH 030900Z 12006KT 050V160 9999 -SHRA FEW018 SCT025 30/25 Q1009 NOSIG
0,[Scattered Clouds],1996-9-3,[26.0 °C],[],[-],[37.4 °C],[79%],[N/A],[1009 hPa],[30.0 °C],[6:00 PM],[10.0 km],[SE],"[14.8 km/h
		/ 4.1 m/s]",METAR VHHH 031000Z 13008KT 9999 FEW018 SCT025 30/26 Q1009 NOSIG
0,[Scattered Clouds],1996-9-3,[25.0 °C],[],[-],[34.5 °C],[79%],[N/A],[1009 hPa],[29.0 °C],[7:00 PM],[10.0 km],[ESE],"[14.8 km/h
		/ 4.1 m/s]",METAR VHHH 031100Z 12008KT 9999 FEW018 SCT025 29/25 Q1009 NOSIG
0,[Scattered Clouds],1996-9-3,[26.0 °C],[],[-],[37.4 °C],[79%],[N/A],[1010 hPa],[30.0 °C],[8:00 PM],[10.0 km],[SE],"[9.3 km/h
		/ 2.6 m/s]",METAR VHHH 031200Z 13005KT 9999 FEW020 SCT100 30/26 Q1010 NOSIG
0,[Scattered Clouds],1996-9-3,[26.0 °C],[],[-],[35.6 °C],[84%],[N/A],[1011 hPa],[29.0 °C],[9:00 PM],[10.0 km],[SE],"[11.1 km/h
		/ 3.1 m/s]",METAR VHHH 031300Z 13006KT 9999 FEW020 SCT100 29/26 Q1011 NOSIG
0,[Scattered Clouds],1996-9-3,[25.0 °C],[],[-],[34.5 °C],[79%],[N/A],[1011 hPa],[29.0 °C],[10:00 PM],[10.0 km],[ENE],"[11.1 km/h
		/ 3.1 m/s]",METAR VHHH 031400Z 07006KT 9999 FEW018 SCT100 29/25 Q1011 NOSIG
0,[Mostly Cloudy],1996-9-3,[25.0 °C],[],[-],[34.5 °C],[79%],[N/A],[1011 hPa],[29.0 °C],[11:00 PM],[9.0 km],[East],"[9.3 km/h
		/ 2.6 m/s]",METAR VHHH 031500Z 09005KT 9000 FEW016 SCT025 BKN100 29/25 Q1011 NOSIG
0,[Mostly Cloudy],1996-9-4,[25.0 °C],[],[-],[34.5 °C],[79%],[N/A],[1011 hPa],[29.0 °C],[12:00 AM],[8.0 km],[NNE],"[7.4 km/h
		/ 2.1 m/s]",METAR VHHH 031600Z 02004KT 360V070 8000 FEW016 SCT025 BKN100 29/25 Q1011 NOSIG
0,[Mostly Cloudy],1996-9-4,[24.0 °C],[],[-],[31.9 °C],[79%],[N/A],[1010 hPa],[28.0 °C],[1:00 AM],[10.0 km],[ESE],"[16.7 km/h
		/ 4.6 m/s]",METAR VHHH 031700Z 11009KT 9999 FEW016 SCT025 BKN100 28/24 Q1010 WS LDG RWY 13/31 TEMPO VRB15G30KT 2500 +TSRA FEW010 FEW014CB BKN025
0,[Mostly Cloudy],1996-9-4,[23.0 °C],[],[-],[29.6 °C],[79%],[N/A],[1011 hPa],[27.0 °C],[2:00 AM],[10.0 km],[ESE],"[9.3 km/h
		/ 2.6 m/s]",METAR VHHH 031800Z 11005KT 9999 FEW016 SCT025 BKN100 27/23 Q1011 WS LDG RWY 13/31 TEMPO VRB15G30KT 2500 +TSRA FEW010 FEW014CB BKN025
0,[Mostly Cloudy],1996-9-4,[23.0 °C],[],[-],[-],[83%],[N/A],[1010 hPa],[26.0 °C],[3:00 AM],[10.0 km],[SSE],"[11.1 km/h
		/ 3.1 m/s]",METAR VHHH 031900Z 15006KT 9999 FEW018 SCT025 BKN100 26/23 Q1010 WS LDG RWY 13/31 TEMPO VRB15G30KT 2500 +TSRA FEW010 FEW014CB BKN025
0,[Mostly Cloudy],1996-9-4,[24.0 °C],[],[-],[30.1 °C],[84%],[N/A],[1010 hPa],[27.0 °C],[4:00 AM],[10.0 km],[ESE],"[18.5 km/h
		/ 5.1 m/s]",METAR VHHH 032000Z 12010KT 9999 FEW018 SCT025 BKN100 27/24 Q1010 WS LDG RWY 13/31 TEMPO VRB15G30KT 2500 +TSRA FEW010 FEW014CB BKN025
0,[Mostly Cloudy],1996-9-4,[24.0 °C],[],[-],[30.1 °C],[84%],[N/A],[1011 hPa],[27.0 °C],[5:00 AM],[9.0 km],[SSE],"[3.7 km/h
		/ 1.0 m/s]",METAR VHHH 032100Z 16002KT 160V240 9000 FEW018 SCT025 BKN100 27/24 Q1011 WS LDG RWY 13/31 TEMPO VRB15G30KT 2500 +TSRA FEW010 FEW014CB BKN025
0,[Mostly Cloudy],1996-9-4,[24.0 °C],[],[-],[30.1 °C],[84%],[N/A],[1011 hPa],[27.0 °C],[6:00 AM],[9.0 km],[SSE],"[3.7 km/h
		/ 1.0 m/s]",METAR VHHH 032200Z 15002KT 110V200 9000 FEW017 SCT025 BKN100 27/24 Q1011 WS LDG RWY 13/31 TEMPO VRB15G30KT 2500 +TSRA FEW010 FEW014CB BKN025
0,[Mostly Cloudy],1996-9-4,[24.0 °C],[],[-],[31.9 °C],[79%],[N/A],[1011 hPa],[28.0 °C],[7:00 AM],[10.0 km],[SSW],"[3.7 km/h
		/ 1.0 m/s]",METAR VHHH 032300Z 20002KT 180V240 9999 FEW017 BKN100 28/24 Q1011 TEMPO 4000 SHRA
0,[Mostly Cloudy],1996-9-4,[24.0 °C],[],[-],[31.9 °C],[79%],[N/A],[1011 hPa],[28.0 °C],[8:00 AM],[10.0 km],[East],"[11.1 km/h
		/ 3.1 m/s]",METAR VHHH 040000Z 09006KT 040V120 9999 FEW018 SCT025 BKN100 28/24 Q1011 TEMPO 4000 SHRA
0,[Mostly Cloudy],1996-9-4,[24.0 °C],[],[-],[33.5 °C],[74%],[N/A],[1012 hPa],[29.0 °C],[9:00 AM],[10.0 km],[East],"[7.4 km/h
		/ 2.1 m/s]",METAR VHHH 040100Z 10004KT 310V160 9999 FEW018 SCT025 BKN100 29/24 Q1012 TEMPO 4000 SHRA
0,[Scattered Clouds],1996-9-4,[24.0 °C],[],[-],[35.0 °C],[70%],[N/A],[1012 hPa],[30.0 °C],[10:00 AM],[10.0 km],[East],"[13.0 km/h
		/ 3.6 m/s]",METAR VHHH 040200Z 10007KT 020V150 9999 FEW017 SCT023 30/24 Q1012 NOSIG
0,[Scattered Clouds],1996-9-4,[24.0 °C],[],[-],[36.4 °C],[66%],[N/A],[1012 hPa],[31.0 °C],[11:00 AM],[10.0 km],[East],"[13.0 km/h
		/ 3.6 m/s]",METAR VHHH 040300Z 08007KT 050V120 9999 FEW018 SCT025 31/24 Q1012 NOSIG
0,[Scattered Clouds],1996-9-4,[25.0 °C],[],[-],[37.6 °C],[70%],[N/A],[1011 hPa],[31.0 °C],[12:00 PM],[10.0 km],[East],"[13.0 km/h
		/ 3.6 m/s]",METAR VHHH 040400Z 09007KT 020V140 9999 FEW018 SCT025 31/25 Q1011 NOSIG
0,[Scattered Clouds],1996-9-4,[23.0 °C],[],[-],[35.4 °C],[62%],[N/A],[1011 hPa],[31.0 °C],[1:00 PM],[10.0 km],[East],"[18.5 km/h
		/ 5.1 m/s]",METAR VHHH 040500Z 10010KT 050V140 9999 FEW020 SCT030 31/23 Q1011 NOSIG
0,[Scattered Clouds],1996-9-4,[24.0 °C],[],[-],[36.4 °C],[66%],[N/A],[1010 hPa],[31.0 °C],[2:00 PM],[10.0 km],[ENE],"[16.7 km/h
		/ 4.6 m/s]",METAR VHHH 040600Z 06009KT 350V140 9999 FEW025 SCT100 31/24 Q1010 WS LDG RWY 13/31 TEMPO VRB15G28KT 2500 +SHRA TSRA FEW012 FEW015CB BKN025
0,[Scattered Clouds],1996-9-4,[24.0 °C],[],[-],[36.4 °C],[66%],[N/A],[1009 hPa],[31.0 °C],[3:00 PM],[10.0 km],[East],"[14.8 km/h
		/ 4.1 m/s]",METAR VHHH 040700Z 10008KT 070V130 9999 FEW025 SCT100 31/24 Q1009 WS LDG RWY 13/31 TEMPO VRB15G28KT 2500 +SHRA TSRA FEW012 FEW015CB BKN025
0,[Mostly Cloudy],1996-9-4,[24.0 °C],[],[-],[35.0 °C],[70%],[N/A],[1009 hPa],[30.0 °C],[4:00 PM],[10.0 km],[SE],"[20.4 km/h
		/ 5.7 m/s]",METAR VHHH 040800Z 13011KT 9999 FEW025 SCT030 BKN100 30/24 Q1009 NOSIG
0,[Mostly Cloudy],1996-9-4,[24.0 °C],[],[-],[35.0 °C],[70%],[N/A],[1009 hPa],[30.0 °C],[5:00 PM],[10.0 km],[SE],"[18.5 km/h
		/ 5.1 m/s]",METAR VHHH 040900Z 14010KT 9999 FEW025 BKN100 30/24 Q1009 NOSIG
0,[Scattered Clouds],1996-9-4,[24.0 °C],[],[-],[33.5 °C],[74%],[N/A],[1010 hPa],[29.0 °C],[7:00 PM],[10.0 km],[SE],"[11.1 km/h
		/ 3.1 m/s]",METAR VHHH 041100Z 13006KT 9999 FEW025 SCT100 29/24 Q1010 NOSIG
0,[Scattered Clouds],1996-9-4,[24.0 °C],[],[-],[33.5 °C],[74%],[N/A],[1010 hPa],[29.0 °C],[8:00 PM],[10.0 km],[East],"[9.3 km/h
		/ 2.6 m/s]",METAR VHHH 041200Z 10005KT 060V150 9999 FEW025 SCT100 29/24 Q1010 NOSIG
0,[Scattered Clouds],1996-9-4,[24.0 °C],[],[-],[33.5 °C],[74%],[N/A],[1011 hPa],[29.0 °C],[9:00 PM],[10.0 km],[ESE],"[11.1 km/h
		/ 3.1 m/s]",METAR VHHH 041300Z 11006KT 070V140 9999 FEW020 SCT100 29/24 Q1011 NOSIG
0,[Scattered Clouds],1996-9-4,[24.0 °C],[],[-],[33.5 °C],[74%],[N/A],[1011 hPa],[29.0 °C],[10:00 PM],[10.0 km],[East],"[13.0 km/h
		/ 3.6 m/s]",METAR VHHH 041400Z 08007KT 9999 FEW020 SCT100 29/24 Q1011 NOSIG
0,[Scattered Clouds],1996-9-4,[24.0 °C],[],[-],[33.5 °C],[74%],[N/A],[1011 hPa],[29.0 °C],[11:00 PM],[10.0 km],[ENE],"[11.1 km/h
		/ 3.1 m/s]",METAR VHHH 041500Z 07006KT 040V110 9999 FEW020 SCT100 29/24 Q1011 NOSIG
0,[Scattered Clouds],1996-9-5,[24.0 °C],[],[-],[33.5 °C],[74%],[N/A],[1011 hPa],[29.0 °C],[12:00 AM],[10.0 km],[East],"[7.4 km/h
		/ 2.1 m/s]",METAR VHHH 041600Z 08004KT 030V120 9999 FEW020 SCT100 29/24 Q1011 NOSIG
0,[Scattered Clouds],1996-9-5,[24.0 °C],[],[-],[31.9 °C],[79%],[N/A],[1011 hPa],[28.0 °C],[1:00 AM],[10.0 km],[East],"[5.6 km/h
		/ 1.5 m/s]",METAR VHHH 041700Z 09003KT 9999 FEW020 SCT100 28/24 Q1011 NOSIG
0,[Light Thunderstorms and Rain],1996-9-5,[24.0 °C],"[Rain
	,
Thunderstorm]",[-],[30.1 °C],[84%],[N/A],[1011 hPa],[27.0 °C],[2:00 AM],[7.0 km],[ENE],"[18.5 km/h
		/ 5.1 m/s]",METAR VHHH 041800Z 07010KT 030V100 7000 -TSRA FEW017CB SCT022 BKN080 27/24 Q1011 WS LDG RWY 13/31 TEMPO VRB15G30KT 2500 +TSRA FEW010 FEW014CB BKN025
0,[Light Rain],1996-9-5,[25.0 °C],[Rain],[-],[-],[94%],[N/A],[1011 hPa],[26.0 °C],[3:00 AM],[10.0 km],[SE],"[13.0 km/h
		/ 3.6 m/s]",METAR VHHH 041900Z 13007KT 9999 -RA FEW016CB SCT025 BKN080 26/25 Q1011 RETS WS LDG RWY 13/31 TEMPO VRB15G30KT 2500 +TSRA FEW010 FEW014CB BKN025
0,[Light Rain],1996-9-5,[24.0 °C],[Rain],[-],[-],[94%],[N/A],[1011 hPa],[25.0 °C],[4:00 AM],[10.0 km],[ESE],"[11.1 km/h
		/ 3.1 m/s]",METAR VHHH 042000Z 12006KT 9999 -RA FEW016 SCT025 BKN080 25/24 Q1011 WS LDG RWY 13/31 TEMPO VRB15G30KT 2500 +TSRA FEW010 FEW014CB BKN025
0,[Light Rain],1996-9-5,[24.0 °C],[Rain],[-],[-],[94%],[N/A],[1011 hPa],[25.0 °C],[5:00 AM],[9.0 km],[SE],"[7.4 km/h
		/ 2.1 m/s]",METAR VHHH 042100Z 13004KT 9000 -RA FEW016CB SCT100 25/24 Q1011 RETS WS LDG RWY 13/31 TEMPO VRB15G30KT 2500 +TSRA FEW010 FEW014CB BKN025
0,[Scattered Clouds],1996-9-5,[24.0 °C],[],[-],[-],[94%],[N/A],[1011 hPa],[25.0 °C],[6:00 AM],[10.0 km],[SSE],"[7.4 km/h
		/ 2.1 m/s]",METAR VHHH 042200Z 15004KT 9999 FEW018CB SCT100 25/24 Q1011 RETS WS LDG RWY 13/31 TEMPO VRB15G30KT 2500 +TSRA FEW010 FEW014CB BKN025
0,[Scattered Clouds],1996-9-5,[24.0 °C],[],[-],[30.1 °C],[84%],[N/A],[1010 hPa],[27.0 °C],[7:00 AM],[10.0 km],[East],"[7.4 km/h
		/ 2.1 m/s]",METAR VHHH 042300Z 09004KT 050V130 9999 FEW018 SCT090 27/24 Q1010 WS LDG RWY 13/31 TEMPO VRB15G30KT 2500 +TSRA FEW010 FEW014CB BKN025
0,[Scattered Clouds],1996-9-5,[24.0 °C],[],[-],[31.9 °C],[79%],[N/A],[1012 hPa],[28.0 °C],[8:00 AM],[10.0 km],[ENE],"[11.1 km/h
		/ 3.1 m/s]",METAR VHHH 050000Z 07006KT 030V130 9999 FEW015 SCT090 28/24 Q1012 NOSIG
0,[Scattered Clouds],1996-9-5,[24.0 °C],[],[-],[35.0 °C],[70%],[N/A],[1012 hPa],[30.0 °C],[9:00 AM],[10.0 km],[NE],"[11.1 km/h
		/ 3.1 m/s]",METAR VHHH 050100Z 05006KT 300V130 9999 FEW015 SCT025 30/24 Q1012 NOSIG
0,[Scattered Clouds],1996-9-5,[24.0 °C],[],[-],[35.0 °C],[70%],[N/A],[1012 hPa],[30.0 °C],[10:00 AM],[10.0 km],[ENE],"[13.0 km/h
		/ 3.6 m/s]",METAR VHHH 050200Z 06007KT 280V120 9999 SCT025 30/24 Q1012 NOSIG
0,[Scattered Clouds],1996-9-5,[24.0 °C],[],[-],[35.0 °C],[70%],[N/A],[1012 hPa],[30.0 °C],[11:00 AM],[10.0 km],[ENE],"[14.8 km/h
		/ 4.1 m/s]",METAR VHHH 050300Z 07008KT 030V150 9999 SCT022 30/24 Q1012 NOSIG
0,[Partly Cloudy],1996-9-5,[24.0 °C],[],[-],[36.4 °C],[66%],[N/A],[1011 hPa],[31.0 °C],[12:00 PM],[10.0 km],[ESE],"[16.7 km/h
		/ 4.6 m/s]",METAR VHHH 050400Z 11009KT 070V150 9999 FEW025 31/24 Q1011 NOSIG
0,[Partly Cloudy],1996-9-5,[22.0 °C],[],[-],[34.4 °C],[58%],[N/A],[1010 hPa],[31.0 °C],[1:00 PM],[10.0 km],[ENE],"[18.5 km/h
		/ 5.1 m/s]",METAR VHHH 050500Z 07010KT 020V130 9999 FEW025 31/22 Q1010 NOSIG
0,[Partly Cloudy],1996-9-5,[22.0 °C],[],[-],[35.6 °C],[55%],[N/A],[1010 hPa],[32.0 °C],[2:00 PM],[10.0 km],[East],"[16.7 km/h
		/ 4.6 m/s]",METAR VHHH 050600Z 08009KT 020V120 9999 FEW025 32/22 Q1010 NOSIG
0,[Partly Cloudy],1996-9-5,[22.0 °C],[],[-],[34.4 °C],[58%],[N/A],[1009 hPa],[31.0 °C],[3:00 PM],[10.0 km],[ESE],"[16.7 km/h
		/ 4.6 m/s]",METAR VHHH 050700Z 11009KT 050V150 9999 FEW025 31/22 Q1009 NOSIG
0,[Partly Cloudy],1996-9-5,[23.0 °C],[],[-],[35.4 °C],[62%],[N/A],[1009 hPa],[31.0 °C],[4:00 PM],[10.0 km],[SE],"[20.4 km/h
		/ 5.7 m/s]",METAR VHHH 050800Z 13011KT 110V140 9999 FEW025 31/23 Q1009 NOSIG
0,[Partly Cloudy],1996-9-5,[23.0 °C],[],[-],[34.1 °C],[66%],[N/A],[1008 hPa],[30.0 °C],[5:00 PM],[10.0 km],[East],"[14.8 km/h
		/ 4.1 m/s]",METAR VHHH 050900Z 10008KT 020V160 9999 FEW025 30/23 Q1008 NOSIG
0,[Partly Cloudy],1996-9-5,[23.0 °C],[],[-],[34.1 °C],[66%],[N/A],[1008 hPa],[30.0 °C],[6:00 PM],[10.0 km],[ESE],"[14.8 km/h
		/ 4.1 m/s]",METAR VHHH 051000Z 12008KT 090V150 9999 FEW025 30/23 Q1008 NOSIG
0,[Partly Cloudy],1996-9-5,[23.0 °C],[],[-],[32.7 °C],[70%],[N/A],[1009 hPa],[29.0 °C],[7:00 PM],[10.0 km],[ESE],"[13.0 km/h
		/ 3.6 m/s]",METAR VHHH 051100Z 12007KT 9999 FEW025 29/23 Q1009 NOSIG
0,[Partly Cloudy],1996-9-5,[24.0 °C],[],[-],[33.5 °C],[74%],[N/A],[1009 hPa],[29.0 °C],[8:00 PM],[10.0 km],[SE],"[9.3 km/h
		/ 2.6 m/s]",METAR VHHH 051200Z 13005KT 9999 FEW025 29/24 Q1009 NOSIG
0,[Partly Cloudy],1996-9-5,[24.0 °C],[],[-],[33.5 °C],[74%],[N/A],[1010 hPa],[29.0 °C],[9:00 PM],[10.0 km],[East],"[7.4 km/h
		/ 2.1 m/s]",METAR VHHH 051300Z 08004KT 050V120 9999 FEW025 29/24 Q1010 NOSIG
0,[Partly Cloudy],1996-9-5,[24.0 °C],[],[-],[33.5 °C],[74%],[N/A],[1010 hPa],[29.0 °C],[10:00 PM],[10.0 km],[East],"[9.3 km/h
		/ 2.6 m/s]",METAR VHHH 051400Z 08005KT 050V110 9999 FEW025 29/24 Q1010 NOSIG
0,[Partly Cloudy],1996-9-5,[24.0 °C],[],[-],[33.5 °C],[74%],[N/A],[1010 hPa],[29.0 °C],[11:00 PM],[10.0 km],[East],"[9.3 km/h
		/ 2.6 m/s]",METAR VHHH 051500Z 08005KT 9999 FEW025 29/24 Q1010 NOSIG
0,[Partly Cloudy],1996-9-6,[24.0 °C],[],[-],[31.9 °C],[79%],[N/A],[1010 hPa],[28.0 °C],[12:00 AM],[10.0 km],[East],"[5.6 km/h
		/ 1.5 m/s]",METAR VHHH 051600Z 08003KT 9999 FEW020 28/24 Q1010 NOSIG
0,[Partly Cloudy],1996-9-6,[24.0 °C],[],[-],[31.9 °C],[79%],[N/A],[1009 hPa],[28.0 °C],[1:00 AM],[10.0 km],[ENE],"[7.4 km/h
		/ 2.1 m/s]",METAR VHHH 051700Z 07004KT 020V110 9999 FEW020 28/24 Q1009 NOSIG
0,[Partly Cloudy],1996-9-6,[24.0 °C],[],[-],[31.9 °C],[79%],[N/A],[1009 hPa],[28.0 °C],[2:00 AM],[10.0 km],[East],"[7.4 km/h
		/ 2.1 m/s]",METAR VHHH 051800Z 08004KT 9999 FEW020 28/24 Q1009 NOSIG
0,[Partly Cloudy],1996-9-6,[24.0 °C],[],[-],[31.9 °C],[79%],[N/A],[1008 hPa],[28.0 °C],[3:00 AM],[10.0 km],[East],"[7.4 km/h
		/ 2.1 m/s]",METAR VHHH 051900Z 08004KT 050V120 9999 FEW020 28/24 Q1008 NOSIG
0,[Scattered Clouds],1996-9-6,[24.0 °C],[],[-],[31.9 °C],[79%],[N/A],[1009 hPa],[28.0 °C],[4:00 AM],[10.0 km],[ENE],"[7.4 km/h
		/ 2.1 m/s]",METAR VHHH 052000Z 07004KT 020V110 9999 FEW020 SCT025 28/24 Q1009 NOSIG
0,[Partly Cloudy],1996-9-6,[24.0 °C],[],[-],[31.9 °C],[79%],[N/A],[1009 hPa],[28.0 °C],[5:00 AM],[10.0 km],[East],"[7.4 km/h
		/ 2.1 m/s]",METAR VHHH 052100Z 09004KT 040V120 9999 FEW020 28/24 Q1009 NOSIG
0,[Scattered Clouds],1996-9-6,[24.0 °C],[],[-],[31.9 °C],[79%],[N/A],[1009 hPa],[28.0 °C],[6:00 AM],[10.0 km],[ENE],"[1.9 km/h
		/ 0.5 m/s]",METAR VHHH 052200Z 07001KT 9999 SCT020 28/24 Q1009 NOSIG
0,[Scattered Clouds],1996-9-6,[24.0 °C],[],[-],[31.9 °C],[79%],[N/A],[1009 hPa],[28.0 °C],[7:00 AM],[10.0 km],[East],"[5.6 km/h
		/ 1.5 m/s]",METAR VHHH 052300Z 08003KT 9999 FEW017 SCT022 28/24 Q1009 NOSIG
0,[Scattered Clouds],1996-9-6,[24.0 °C],[],[-],[35.0 °C],[70%],[N/A],[1010 hPa],[30.0 °C],[8:00 AM],[9.0 km],[NE],"[7.4 km/h
		/ 2.1 m/s]",METAR VHHH 060000Z 04004KT 350V100 9000 FEW015 SCT018 30/24 Q1010 NOSIG
0,[Scattered Clouds],1996-9-6,[24.0 °C],[],[-],[35.0 °C],[70%],[N/A],[1010 hPa],[30.0 °C],[9:00 AM],[10.0 km],[East],"[14.8 km/h
		/ 4.1 m/s]",METAR VHHH 060100Z 08008KT 020V140 9999 FEW015 SCT025 30/24 Q1010 NOSIG
0,[Scattered Clouds],1996-9-6,[24.0 °C],[],[-],[36.4 °C],[66%],[N/A],[1010 hPa],[31.0 °C],[10:00 AM],[10.0 km],[ESE],"[13.0 km/h
		/ 3.6 m/s]",METAR VHHH 060200Z 12007KT 090V180 9999 FEW016 SCT025 31/24 Q1010 NOSIG
0,[Scattered Clouds],1996-9-6,[25.0 °C],[],[-],[36.0 °C],[74%],[N/A],[1010 hPa],[30.0 °C],[11:00 AM],[10.0 km],[SSE],"[20.4 km/h
		/ 5.7 m/s]",METAR VHHH 060300Z 15011KT 100V180 9999 FEW018 SCT025 30/25 Q1010 NOSIG
0,[Scattered Clouds],1996-9-6,[24.0 °C],[],[-],[33.5 °C],[74%],[N/A],[1009 hPa],[29.0 °C],[12:00 PM],[9.0 km],[SE],"[24.1 km/h
		/ 6.7 m/s]",METAR VHHH 060400Z 14013KT 120V210 9000 FEW018 SCT025 29/24 Q1009 NOSIG
0,[Scattered Clouds],1996-9-6,[24.0 °C],[],[-],[35.0 °C],[70%],[N/A],[1008 hPa],[30.0 °C],[1:00 PM],[10.0 km],[SSE],"[25.9 km/h
		/ 7.2 m/s]",METAR VHHH 060500Z 15014KT 120V190 9999 FEW018 SCT025 30/24 Q1008 NOSIG
0,[Scattered Clouds],1996-9-6,[26.0 °C],[],[-],[37.4 °C],[79%],[N/A],[1008 hPa],[30.0 °C],[2:00 PM],[9.0 km],[SE],"[24.1 km/h
		/ 6.7 m/s]",METAR VHHH 060600Z 14013KT 9000 FEW018 SCT025 30/26 Q1008 NOSIG
0,[Scattered Clouds],1996-9-6,[24.0 °C],[],[-],[35.0 °C],[70%],[N/A],[1007 hPa],[30.0 °C],[3:00 PM],[10.0 km],[SE],"[20.4 km/h
		/ 5.7 m/s]",METAR VHHH 060700Z 13011KT 9999 FEW018 SCT025 30/24 Q1007 NOSIG
0,[Partly Cloudy],1996-9-6,[24.0 °C],[],[-],[36.4 °C],[66%],[N/A],[1006 hPa],[31.0 °C],[4:00 PM],[10.0 km],[SE],"[20.4 km/h
		/ 5.7 m/s]",METAR VHHH 060800Z 13011KT 9999 FEW020 31/24 Q1006 NOSIG
0,[Partly Cloudy],1996-9-6,[23.0 °C],[],[-],[34.1 °C],[66%],[N/A],[1006 hPa],[30.0 °C],[5:00 PM],[10.0 km],[SE],"[16.7 km/h
		/ 4.6 m/s]",METAR VHHH 060900Z 13009KT 9999 FEW020 30/23 Q1006 NOSIG
0,[Partly Cloudy],1996-9-6,[24.0 °C],[],[-],[33.5 °C],[74%],[N/A],[1006 hPa],[29.0 °C],[6:00 PM],[10.0 km],[ESE],"[13.0 km/h
		/ 3.6 m/s]",METAR VHHH 061000Z 12007KT 9999 FEW020 29/24 Q1006 NOSIG
0,[Partly Cloudy],1996-9-6,[23.0 °C],[],[-],[32.7 °C],[70%],[N/A],[1007 hPa],[29.0 °C],[7:00 PM],[10.0 km],[SE],"[13.0 km/h
		/ 3.6 m/s]",METAR VHHH 061100Z 13007KT 9999 FEW020 29/23 Q1007 NOSIG
0,[Clear],1996-9-6,[23.0 °C],[],[-],[32.7 °C],[70%],[N/A],[1007 hPa],[29.0 °C],[8:00 PM],[-],[ESE],"[9.3 km/h
		/ 2.6 m/s]",METAR VHHH 061200Z 11005KT CAVOK 29/23 Q1007 NOSIG
0,[Mostly Cloudy],1996-9-6,[24.0 °C],[],[-],[33.5 °C],[74%],[N/A],[1008 hPa],[29.0 °C],[9:00 PM],[10.0 km],[ESE],"[9.3 km/h
		/ 2.6 m/s]",METAR VHHH 061300Z 12005KT 9999 FEW025 BKN090 29/24 Q1008 NOSIG
0,[Partly Cloudy],1996-9-6,[24.0 °C],[],[-],[33.5 °C],[74%],[N/A],[1009 hPa],[29.0 °C],[10:00 PM],[10.0 km],[ESE],"[7.4 km/h
		/ 2.1 m/s]",METAR VHHH 061400Z 11004KT 090V150 9999 FEW025 29/24 Q1009 NOSIG
0,[Scattered Clouds],1996-9-7,[24.0 °C],[],[-],[33.5 °C],[74%],[N/A],[1009 hPa],[29.0 °C],[12:00 AM],[10.0 km],[ESE],"[9.3 km/h
		/ 2.6 m/s]",METAR VHHH 061600Z 11005KT 070V130 9999 FEW020 SCT025 29/24 Q1009 NOSIG
0,[Scattered Clouds],1996-9-7,[24.0 °C],[],[-],[33.5 °C],[74%],[N/A],[1009 hPa],[29.0 °C],[1:00 AM],[10.0 km],[East],"[7.4 km/h
		/ 2.1 m/s]",METAR VHHH 061700Z 10004KT 070V150 9999 FEW020 SCT025 29/24 Q1009 NOSIG
0,[Scattered Clouds],1996-9-7,[24.0 °C],[],[-],[31.9 °C],[79%],[N/A],[1008 hPa],[28.0 °C],[2:00 AM],[10.0 km],[East],"[7.4 km/h
		/ 2.1 m/s]",METAR VHHH 061800Z 08004KT 070V120 9999 FEW020 SCT025 28/24 Q1008 NOSIG
0,[Scattered Clouds],1996-9-7,[24.0 °C],[],[-],[31.9 °C],[79%],[N/A],[1008 hPa],[28.0 °C],[3:00 AM],[10.0 km],[ENE],"[7.4 km/h
		/ 2.1 m/s]",METAR VHHH 061900Z 07004KT 020V110 9999 FEW020 SCT025 28/24 Q1008 NOSIG
0,[Scattered Clouds],1996-9-7,[24.0 °C],[],[-],[31.9 °C],[79%],[N/A],[1008 hPa],[28.0 °C],[4:00 AM],[10.0 km],[ENE],"[9.3 km/h
		/ 2.6 m/s]",METAR VHHH 062000Z 07005KT 050V110 9999 FEW018 SCT025 28/24 Q1008 NOSIG
0,[Scattered Clouds],1996-9-7,[24.0 °C],[],[-],[31.9 °C],[79%],[N/A],[1007 hPa],[28.0 °C],[5:00 AM],[10.0 km],[East],"[7.4 km/h
		/ 2.1 m/s]",METAR VHHH 062100Z 09004KT 050V120 9999 FEW018 SCT025 28/24 Q1007 NOSIG
0,[Scattered Clouds],1996-9-7,[24.0 °C],[],[-],[31.9 °C],[79%],[N/A],[1007 hPa],[28.0 °C],[6:00 AM],[10.0 km],[East],"[13.0 km/h
		/ 3.6 m/s]",METAR VHHH 062200Z 09007KT 050V130 9999 FEW018 SCT020 28/24 Q1007 NOSIG
0,[Mostly Cloudy],1996-9-7,[24.0 °C],[],[-],[31.9 °C],[79%],[N/A],[1008 hPa],[28.0 °C],[7:00 AM],[10.0 km],[NNE],"[13.0 km/h
		/ 3.6 m/s]",METAR VHHH 062300Z 03007KT 350V090 9999 FEW018 BKN025 28/24 Q1008 NOSIG
0,[Scattered Clouds],1996-9-7,[24.0 °C],[],[-],[33.5 °C],[74%],[N/A],[1009 hPa],[29.0 °C],[8:00 AM],[10.0 km],[ENE],"[13.0 km/h
		/ 3.6 m/s]",METAR VHHH 070000Z 06007KT 030V100 9999 FEW018 SCT300 29/24 Q1009 NOSIG
0,[Scattered Clouds],1996-9-7,[24.0 °C],[],[-],[35.0 °C],[70%],[N/A],[1009 hPa],[30.0 °C],[9:00 AM],[10.0 km],[ENE],"[13.0 km/h
		/ 3.6 m/s]",METAR VHHH 070100Z 06007KT 320V120 9999 SCT022 30/24 Q1009 NOSIG
0,[Scattered Clouds],1996-9-7,[23.0 °C],[],[-],[34.1 °C],[66%],[N/A],[1009 hPa],[30.0 °C],[10:00 AM],[10.0 km],[ESE],"[14.8 km/h
		/ 4.1 m/s]",METAR VHHH 070200Z 11008KT 080V150 9999 SCT025 30/23 Q1009 NOSIG
0,[Partly Cloudy],1996-9-7,[21.0 °C],[],[-],[34.9 °C],[52%],[N/A],[1009 hPa],[32.0 °C],[11:00 AM],[10.0 km],[East],"[13.0 km/h
		/ 3.6 m/s]",METAR VHHH 070300Z 09007KT 9999 FEW025 32/21 Q1009 NOSIG
0,[Partly Cloudy],1996-9-7,[24.0 °C],[],[-],[37.7 °C],[62%],[N/A],[1008 hPa],[32.0 °C],[12:00 PM],[10.0 km],[SE],"[22.2 km/h
		/ 6.2 m/s]",METAR VHHH 070400Z 14012KT 110V170 9999 FEW025 32/24 Q1008 NOSIG
0,[Partly Cloudy],1996-9-7,[24.0 °C],[],[-],[36.4 °C],[66%],[N/A],[1008 hPa],[31.0 °C],[1:00 PM],[10.0 km],[SE],"[20.4 km/h
		/ 5.7 m/s]",METAR VHHH 070500Z 14011KT 110V180 9999 FEW025 31/24 Q1008 NOSIG
0,[Partly Cloudy],1996-9-7,[24.0 °C],[],[-],[37.7 °C],[62%],[N/A],[1007 hPa],[32.0 °C],[2:00 PM],[10.0 km],[SE],"[25.9 km/h
		/ 7.2 m/s]",METAR VHHH 070600Z 13014KT 9999 FEW025 32/24 Q1007 NOSIG
0,[Partly Cloudy],1996-9-7,[24.0 °C],[],[-],[37.7 °C],[62%],[N/A],[1006 hPa],[32.0 °C],[3:00 PM],[10.0 km],[SE],"[25.9 km/h
		/ 7.2 m/s]",METAR VHHH 070700Z 13014KT 9999 FEW020 32/24 Q1006 NOSIG
0,[Partly Cloudy],1996-9-7,[24.0 °C],[],[-],[36.4 °C],[66%],[N/A],[1006 hPa],[31.0 °C],[4:00 PM],[10.0 km],[SE],"[25.9 km/h
		/ 7.2 m/s]",METAR VHHH 070800Z 13014KT 9999 FEW020 31/24 Q1006 NOSIG
0,[Partly Cloudy],1996-9-7,[24.0 °C],[],[-],[35.0 °C],[70%],[N/A],[1005 hPa],[30.0 °C],[5:00 PM],[10.0 km],[SE],"[24.1 km/h
		/ 6.7 m/s]",METAR VHHH 070900Z 13013KT 9999 FEW020 30/24 Q1005 NOSIG
0,[Partly Cloudy],1996-9-7,[23.0 °C],[],[-],[32.7 °C],[70%],[N/A],[1006 hPa],[29.0 °C],[6:00 PM],[10.0 km],[ESE],"[16.7 km/h
		/ 4.6 m/s]",METAR VHHH 071000Z 11009KT 9999 FEW020 29/23 Q1006 NOSIG
0,[Partly Cloudy],1996-9-7,[24.0 °C],[],[-],[35.0 °C],[70%],[N/A],[1007 hPa],[30.0 °C],[7:00 PM],[10.0 km],[ESE],"[11.1 km/h
		/ 3.1 m/s]",METAR VHHH 071100Z 11006KT 080V150 9999 FEW020 30/24 Q1007 NOSIG
0,[Mostly Cloudy],1996-9-7,[24.0 °C],[],[-],[33.5 °C],[74%],[N/A],[1007 hPa],[29.0 °C],[8:00 PM],[10.0 km],[East],"[13.0 km/h
		/ 3.6 m/s]",METAR VHHH 071200Z 10007KT 070V130 9999 FEW018 SCT025 BKN300 29/24 Q1007 NOSIG
0,[Mostly Cloudy],1996-9-7,[24.0 °C],[],[-],[35.0 °C],[70%],[N/A],[1008 hPa],[30.0 °C],[9:00 PM],[10.0 km],[ESE],"[14.8 km/h
		/ 4.1 m/s]",METAR VHHH 071300Z 11008KT 070V140 9999 SCT022 BKN300 30/24 Q1008 NOSIG
0,[Mostly Cloudy],1996-9-7,[24.0 °C],[],[-],[33.5 °C],[74%],[N/A],[1008 hPa],[29.0 °C],[10:00 PM],[10.0 km],[East],"[13.0 km/h
		/ 3.6 m/s]",METAR VHHH 071400Z 09007KT 050V110 9999 FEW020 BKN300 29/24 Q1008 NOSIG
0,[Scattered Clouds],1996-9-7,[24.0 °C],[],[-],[33.5 °C],[74%],[N/A],[1008 hPa],[29.0 °C],[11:00 PM],[10.0 km],[East],"[11.1 km/h
		/ 3.1 m/s]",METAR VHHH 071500Z 09006KT 050V130 9999 FEW020 SCT300 29/24 Q1008 NOSIG
0,[Scattered Clouds],1996-9-8,[24.0 °C],[],[-],[31.9 °C],[79%],[N/A],[1008 hPa],[28.0 °C],[12:00 AM],[10.0 km],[East],"[9.3 km/h
		/ 2.6 m/s]",METAR VHHH 071600Z 10005KT 050V140 9999 FEW020 SCT300 28/24 Q1008 NOSIG
0,[Scattered Clouds],1996-9-8,[24.0 °C],[],[-],[31.9 °C],[79%],[N/A],[1007 hPa],[28.0 °C],[1:00 AM],[10.0 km],[East],"[7.4 km/h
		/ 2.1 m/s]",METAR VHHH 071700Z 09004KT 040V130 9999 FEW020 SCT300 28/24 Q1007 NOSIG
0,[Scattered Clouds],1996-9-8,[24.0 °C],[],[-],[31.9 °C],[79%],[N/A],[1007 hPa],[28.0 °C],[2:00 AM],[10.0 km],[East],"[13.0 km/h
		/ 3.6 m/s]",METAR VHHH 071800Z 10007KT 050V130 9999 FEW020 SCT300 28/24 Q1007 NOSIG
0,[Scattered Clouds],1996-9-8,[24.0 °C],[],[-],[31.9 °C],[79%],[N/A],[1006 hPa],[28.0 °C],[3:00 AM],[10.0 km],[ENE],"[11.1 km/h
		/ 3.1 m/s]",METAR VHHH 071900Z 06006KT 010V110 9999 FEW016 SCT022 28/24 Q1006 NOSIG
0,[Scattered Clouds],1996-9-8,[24.0 °C],[],[-],[31.9 °C],[79%],[N/A],[1006 hPa],[28.0 °C],[4:00 AM],[10.0 km],[NNE],"[7.4 km/h
		/ 2.1 m/s]",METAR VHHH 072000Z 03004KT 340V140 9999 FEW016 SCT022 28/24 Q1006 NOSIG
0,[Scattered Clouds],1996-9-8,[24.0 °C],[],[-],[31.9 °C],[79%],[N/A],[1006 hPa],[28.0 °C],[5:00 AM],[10.0 km],[NE],"[11.1 km/h
		/ 3.1 m/s]",METAR VHHH 072100Z 05006KT 020V100 9999 FEW016 SCT300 28/24 Q1006 NOSIG
0,[Partly Cloudy],1996-9-8,[24.0 °C],[],[-],[31.9 °C],[79%],[N/A],[1006 hPa],[28.0 °C],[6:00 AM],[10.0 km],[North],"[1.9 km/h
		/ 0.5 m/s]",METAR VHHH 072200Z 36001KT 9999 FEW015 28/24 Q1006 NOSIG
0,[Scattered Clouds],1996-9-8,[24.0 °C],[],[-],[31.9 °C],[79%],[N/A],[1006 hPa],[28.0 °C],[7:00 AM],[10.0 km],[NW],"[11.1 km/h
		/ 3.1 m/s]",METAR VHHH 072300Z 32006KT 9999 FEW015 SCT080 28/24 Q1006 NOSIG
0,[Scattered Clouds],1996-9-8,[23.0 °C],[],[-],[32.7 °C],[70%],[N/A],[1006 hPa],[29.0 °C],[8:00 AM],[10.0 km],[NW],"[9.3 km/h
		/ 2.6 m/s]",METAR VHHH 080000Z 32005KT 9999 FEW025 SCT080 29/23 Q1006 NOSIG
0,[Scattered Clouds],1996-9-8,[23.0 °C],[],[-],[35.4 °C],[62%],[N/A],[1007 hPa],[31.0 °C],[9:00 AM],[10.0 km],[West],"[7.4 km/h
		/ 2.1 m/s]",METAR VHHH 080100Z 28004KT 200V010 9999 FEW025 SCT300 31/23 Q1007 NOSIG
0,[Mostly Cloudy],1996-9-8,[24.0 °C],[],[-],[37.7 °C],[62%],[N/A],[1007 hPa],[32.0 °C],[10:00 AM],[10.0 km],[NNW],"[13.0 km/h
		/ 3.6 m/s]",METAR VHHH 080200Z 33007KT 290V360 9999 FEW020 BKN300 32/24 Q1007 NOSIG
0,[Mostly Cloudy],1996-9-8,[24.0 °C],[],[-],[39.2 °C],[59%],[N/A],[1006 hPa],[33.0 °C],[11:00 AM],[10.0 km],[NW],"[18.5 km/h
		/ 5.1 m/s]",METAR VHHH 080300Z 32010KT 280V360 9999 FEW020 BKN300 33/24 Q1006 NOSIG
0,[Mostly Cloudy],1996-9-8,[24.0 °C],[],[-],[39.2 °C],[59%],[N/A],[1004 hPa],[33.0 °C],[12:00 PM],[9.0 km],[NNW],"[16.7 km/h
		/ 4.6 m/s]",METAR VHHH 080400Z 33009KT 270V030 9000 FEW020 BKN300 33/24 Q1004 NOSIG
0,[Scattered Clouds],1996-9-8,[23.0 °C],[],[-],[39.1 °C],[52%],[N/A],[1004 hPa],[34.0 °C],[1:00 PM],[9.0 km],[NNE],"[9.3 km/h
		/ 2.6 m/s]",METAR VHHH 080500Z 02005KT 310V120 9000 SCT025 34/23 Q1004 NOSIG
0,[Mostly Cloudy],1996-9-8,[23.0 °C],[],[-],[40.3 °C],[49%],[N/A],[1003 hPa],[35.0 °C],[2:00 PM],[9.0 km],[NW],"[18.5 km/h
		/ 5.1 m/s]",METAR VHHH 080600Z 32010KT 270V020 9000 FEW025 BKN120 35/23 Q1003 NOSIG
0,[Mostly Cloudy],1996-9-8,[23.0 °C],[],[-],[39.1 °C],[52%],[N/A],[1002 hPa],[34.0 °C],[3:00 PM],[10.0 km],[NE],"[11.1 km/h
		/ 3.1 m/s]",METAR VHHH 080700Z 04006KT 310V070 9999 FEW025 BKN090 34/23 Q1002 NOSIG
0,[Mostly Cloudy],1996-9-8,[23.0 °C],[],[-],[39.1 °C],[52%],[N/A],[1002 hPa],[34.0 °C],[4:00 PM],[10.0 km],[ENE],"[13.0 km/h
		/ 3.6 m/s]",METAR VHHH 080800Z 06007KT 360V130 9999 FEW025 BKN100 34/23 Q1002 NOSIG
0,[Mostly Cloudy],1996-9-8,[23.0 °C],[],[-],[39.1 °C],[52%],[N/A],[1002 hPa],[34.0 °C],[5:00 PM],[10.0 km],[NNE],"[9.3 km/h
		/ 2.6 m/s]",METAR VHHH 080900Z 03005KT 280V090 9999 FEW025 BKN080 34/23 Q1002 WS LDG RWY 13/31 TEMPO 4000 SHRA
0,[Mostly Cloudy],1996-9-8,[24.0 °C],[],[-],[37.7 °C],[62%],[N/A],[1001 hPa],[32.0 °C],[6:00 PM],[10.0 km],[ENE],"[13.0 km/h
		/ 3.6 m/s]",METAR VHHH 081000Z 06007KT 350V120 9999 FEW025 SCT100 BKN300 32/24 Q1001 WS LDG RWY 13/31 TEMPO 4000 SHRA
0,[Mostly Cloudy],1996-9-8,[24.0 °C],[],[-],[36.4 °C],[66%],[N/A],[1002 hPa],[31.0 °C],[7:00 PM],[10.0 km],[NE],"[13.0 km/h
		/ 3.6 m/s]",METAR VHHH 081100Z 05007KT 350V110 9999 FEW025 BKN100 31/24 Q1002 WS LDG RWY 13/31 TEMPO 4000 SHRA
0,[Light Rain Showers],1996-9-8,[25.0 °C],[Rain],[-],[36.0 °C],[74%],[N/A],[1002 hPa],[30.0 °C],[8:00 PM],[9.0 km],[East],"[9.3 km/h
		/ 2.6 m/s]",METAR VHHH 081200Z 09005KT 050V120 9000 -SHRA FEW020 SCT030 BKN100 30/25 Q1002 WS LDG RWY 13/31 TEMPO 4000 SHRA
0,[Light Rain Showers],1996-9-8,[25.0 °C],[Rain],[-],[36.0 °C],[74%],[N/A],[1002 hPa],[30.0 °C],[9:00 PM],[9.0 km],[NE],"[9.3 km/h
		/ 2.6 m/s]",METAR VHHH 081300Z 05005KT 330V100 9000 -SHRA FEW018 SCT025 BKN080 30/25 Q1002 WS LDG RWY 13/31 TEMPO 03018G35KT 2800 SHRA OR +TSSHRA FEW005 FEW015CB BKN025
0,[Mostly Cloudy],1996-9-8,[24.0 °C],[],"[53.7 km/h
		/ 14.9 m/s]",[35.0 °C],[70%],[N/A],[1002 hPa],[30.0 °C],[10:00 PM],[10.0 km],[ENE],"[14.8 km/h
		/ 4.1 m/s]",METAR VHHH 081400Z 07008G29KT 290V150 9999 FEW018 SCT025 BKN080 30/24 Q1002 WS LDG RWY 13/31 TEMPO 03018G35KT 2800 SHRA OR +TSSHRA FEW005 FEW015CB BKN025
0,[Mostly Cloudy],1996-9-8,[22.0 °C],[],"[68.5 km/h
		/ 19.0 m/s]",[33.2 °C],[62%],[N/A],[1001 hPa],[30.0 °C],[11:00 PM],[10.0 km],[ENE],"[29.6 km/h
		/ 8.2 m/s]",METAR VHHH 081500Z 06016G37KT 320V200 9999 FEW018 SCT025 BKN100 30/22 Q1001 WS LDG RWY 13/31 TEMPO 03018G35KT 2800 SHRA OR +TSSHRA FEW005 FEW015CB BKN025
0,[Mostly Cloudy],1996-9-9,[22.0 °C],[],"[75.9 km/h
		/ 21.1 m/s]",[32.0 °C],[66%],[N/A],[1001 hPa],[29.0 °C],[12:00 AM],[10.0 km],[NE],"[37.0 km/h
		/ 10.3 m/s]",METAR VHHH 081600Z 05020G41KT 300V140 9999 FEW018 SCT025 BKN100 29/22 Q1001 WS LDG RWY 13/31 TEMPO 09030G60KT 2800 TSSHRA FEW005 FEW015CB BKN025
0,[Light Rain Showers],1996-9-9,[24.0 °C],[Rain],"[79.6 km/h
		/ 22.1 m/s]",[30.1 °C],[84%],[N/A],[1001 hPa],[27.0 °C],[1:00 AM],[10.0 km],[ENE],"[35.2 km/h
		/ 9.8 m/s]",METAR VHHH 081700Z 06019G43KT 290V170 9999 -SHRA FEW015 SCT025 BKN080 27/24 Q1001 WS LDG RWY 13/31 TEMPO 08030G60KT 2800 TSSHRA FEW005 FEW015CB BKN025
0,[Light Rain Showers],1996-9-9,[24.0 °C],[Rain],"[72.2 km/h
		/ 20.1 m/s]",[31.9 °C],[79%],[N/A],[1000 hPa],[28.0 °C],[2:00 AM],[10.0 km],[ENE],"[33.3 km/h
		/ 9.3 m/s]",METAR VHHH 081800Z 06018G39KT 300V180 9999 -SHRA FEW015 SCT025 BKN080 28/24 Q1000 WS LDG RWY 13/31 TEMPO 08030G60KT 2800 TSSHRA FEW005 FEW015CB BKN025
0,[Heavy Rain Showers],1996-9-9,[-],[Rain],"[64.8 km/h
		/ 18.0 m/s]",[-],[N/A%],[N/A],[1001 hPa],[-],[3:00 AM],[-],[East],"[33.3 km/h
		/ 9.3 m/s]",METAR VHHH 081900Z 08018G35KT 320V050 3200 R31/1300VP2000D R13/P2000N +SHRA FEW008 SCT025 BKN080 Q1001 WS LDG RWY 13/31 TEMPO 08030G60KT 1000 +TSSHRA FEW005 FEW015CB BKN025
0,[Light Rain Showers],1996-9-9,[23.0 °C],[Rain],"[66.7 km/h
		/ 18.5 m/s]",[-],[83%],[N/A],[1002 hPa],[26.0 °C],[4:00 AM],[10.0 km],[East],"[31.5 km/h
		/ 8.7 m/s]",METAR VHHH 082000Z 10017G36KT 040V160 9999 -SHRA FEW018 SCT025 BKN080 26/23 Q1002 WS LDG RWY 13/31 TEMPO 08030G60KT 1000 +TSSHRA FEW005 FEW015CB BKN025
0,[Mostly Cloudy],1996-9-9,[23.0 °C],[],"[61.1 km/h
		/ 17.0 m/s]",[29.6 °C],[79%],[N/A],[1003 hPa],[27.0 °C],[5:00 AM],[10.0 km],[East],"[31.5 km/h
		/ 8.7 m/s]",METAR VHHH 082100Z 09017G33KT 340V150 9999 FEW016 SCT025 BKN080 27/23 Q1003 WS LDG 13/31 TEMPO 08030G60KT 1000 +TSSHRA FEW005 FEW015CB BKN025
0,[Mostly Cloudy],1996-9-9,[23.0 °C],[],"[51.9 km/h
		/ 14.4 m/s]",[31.2 °C],[74%],[N/A],[1003 hPa],[28.0 °C],[6:00 AM],[10.0 km],[East],"[24.1 km/h
		/ 6.7 m/s]",METAR VHHH 082200Z 08013G28KT 020V150 9999 FEW017 SCT025 BKN080 28/23 Q1003 WS LDG RWY 13/31 TEMPO 11028G50KT 1500 +TSSHRA FEW005 FEW015CB BKN025
0,[Mostly Cloudy],1996-9-9,[23.0 °C],[],[-],[29.6 °C],[79%],[N/A],[1004 hPa],[27.0 °C],[7:00 AM],[10.0 km],[East],"[24.1 km/h
		/ 6.7 m/s]",METAR VHHH 082300Z 09013KT 020V140 9999 FEW014 SCT025 BKN080 27/23 Q1004 WS LDG RWY 13/31 TEMPO 11028G50KT 1500 +TSSHRA FEW005 FEW015CB BKN025
0,[Mostly Cloudy],1996-9-9,[24.0 °C],[],"[46.3 km/h
		/ 12.9 m/s]",[31.9 °C],[79%],[N/A],[1005 hPa],[28.0 °C],[8:00 AM],[10.0 km],[East],"[25.9 km/h
		/ 7.2 m/s]",METAR VHHH 090000Z 08014G25KT 010V150 9999 FEW014 SCT100 BKN300 28/24 Q1005 WS LDG RWY 13/31 TEMPO 11028G50KT 1500 +TSSHRA FEW005 FEW015CB BKN025
0,[Mostly Cloudy],1996-9-9,[24.0 °C],[],"[46.3 km/h
		/ 12.9 m/s]",[33.5 °C],[74%],[N/A],[1006 hPa],[29.0 °C],[9:00 AM],[10.0 km],[East],"[22.2 km/h
		/ 6.2 m/s]",METAR VHHH 090100Z 10012G25KT 040V170 9999 FEW014 SCT018 BKN100 29/24 Q1006 WS LDG RWY 13/31 TEMPO 11020G40KT 1500 +SHRA FEW005 FEW015CB BKN025
0,[Mostly Cloudy],1996-9-9,[24.0 °C],[],"[61.1 km/h
		/ 17.0 m/s]",[35.0 °C],[70%],[N/A],[1007 hPa],[30.0 °C],[10:00 AM],[10.0 km],[East],"[31.5 km/h
		/ 8.7 m/s]",METAR VHHH 090200Z 10017G33KT 050V160 9999 FEW016 SCT020 BKN300 30/24 Q1007 WS LDG RWY 13/31 TEMPO 4000 SHRA
0,[Scattered Clouds],1996-9-9,[26.0 °C],[],"[70.4 km/h
		/ 19.5 m/s]",[37.4 °C],[79%],[N/A],[1007 hPa],[30.0 °C],[11:00 AM],[10.0 km],[East],"[25.9 km/h
		/ 7.2 m/s]",METAR VHHH 090300Z 10014G38KT 040V160 9999 FEW015 SCT020 30/26 Q1007 WS LDG RWY 13/31 TEMPO 4000 SHRA
0,[Scattered Clouds],1996-9-9,[25.0 °C],[],"[50.0 km/h
		/ 13.9 m/s]",[36.0 °C],[74%],[N/A],[1006 hPa],[30.0 °C],[12:00 PM],[10.0 km],[East],"[24.1 km/h
		/ 6.7 m/s]",METAR VHHH 090400Z 09013G27KT 020V140 9999 FEW015 SCT020 30/25 Q1006 WS LDG RWY 13/31 TEMPO 4000 SHRA
0,[Scattered Clouds],1996-9-9,[25.0 °C],[],"[68.5 km/h
		/ 19.0 m/s]",[37.6 °C],[70%],[N/A],[1006 hPa],[31.0 °C],[1:00 PM],[10.0 km],[East],"[35.2 km/h
		/ 9.8 m/s]",METAR VHHH 090500Z 10019G37KT 050V150 9999 FEW016 SCT022 31/25 Q1006 WS LDG RWY 13/31 TEMPO 4000 SHRA
0,[Scattered Clouds],1996-9-9,[25.0 °C],[],"[59.3 km/h
		/ 16.5 m/s]",[37.6 °C],[70%],[N/A],[1006 hPa],[31.0 °C],[2:00 PM],[10.0 km],[East],"[37.0 km/h
		/ 10.3 m/s]",METAR VHHH 090600Z 10020G32KT 050V150 9999 FEW017 SCT025 31/25 Q1006 WS LDG RWY 13/31 TEMPO 4000 SHRA
0,[Scattered Clouds],1996-9-9,[25.0 °C],[],"[55.6 km/h
		/ 15.4 m/s]",[37.6 °C],[70%],[N/A],[1006 hPa],[31.0 °C],[3:00 PM],[10.0 km],[East],"[35.2 km/h
		/ 9.8 m/s]",METAR VHHH 090700Z 09019G30KT 050V130 9999 FEW016 SCT025 31/25 Q1006 WS LDG RWY 13/31 NOSIG
0,[Scattered Clouds],1996-9-9,[25.0 °C],[],"[50.0 km/h
		/ 13.9 m/s]",[37.6 °C],[70%],[N/A],[1006 hPa],[31.0 °C],[4:00 PM],[10.0 km],[East],"[25.9 km/h
		/ 7.2 m/s]",METAR VHHH 090800Z 09014G27KT 050V130 9999 FEW015 SCT025 31/25 Q1006 WS LDG RWY 13/31 NOSIG
0,[Scattered Clouds],1996-9-9,[26.0 °C],[],"[44.4 km/h
		/ 12.3 m/s]",[37.4 °C],[79%],[N/A],[1006 hPa],[30.0 °C],[5:00 PM],[10.0 km],[ESE],"[24.1 km/h
		/ 6.7 m/s]",METAR VHHH 090900Z 11013G24KT 070V140 9999 FEW015 SCT025 30/26 Q1006 WS LDG RWY 13/31 NOSIG
0,[Mostly Cloudy],1996-9-9,[25.0 °C],[],[-],[36.0 °C],[74%],[N/A],[1006 hPa],[30.0 °C],[6:00 PM],[10.0 km],[East],"[24.1 km/h
		/ 6.7 m/s]",METAR VHHH 091000Z 10013KT 050V140 9999 FEW014 SCT022 BKN300 30/25 Q1006 WS LDG RWY 13/31 NOSIG
0,[Scattered Clouds],1996-9-9,[26.0 °C],[],[-],[35.6 °C],[84%],[N/A],[1007 hPa],[29.0 °C],[7:00 PM],[10.0 km],[East],"[22.2 km/h
		/ 6.2 m/s]",METAR VHHH 091100Z 09012KT 010V140 9999 FEW013 SCT018 29/26 Q1007 NOSIG
0,[Scattered Clouds],1996-9-9,[25.0 °C],[],[-],[36.0 °C],[74%],[N/A],[1008 hPa],[30.0 °C],[8:00 PM],[10.0 km],[East],"[18.5 km/h
		/ 5.1 m/s]",METAR VHHH 091200Z 08010KT 030V120 9999 FEW013 SCT020 30/25 Q1008 NOSIG
0,[Scattered Clouds],1996-9-9,[25.0 °C],[],[-],[36.0 °C],[74%],[N/A],[1009 hPa],[30.0 °C],[9:00 PM],[10.0 km],[East],"[18.5 km/h
		/ 5.1 m/s]",METAR VHHH 091300Z 08010KT 030V110 9999 FEW013 SCT020 30/25 Q1009 NOSIG
0,[Scattered Clouds],1996-9-9,[26.0 °C],[],[-],[35.6 °C],[84%],[N/A],[1009 hPa],[29.0 °C],[10:00 PM],[10.0 km],[East],"[20.4 km/h
		/ 5.7 m/s]",METAR VHHH 091400Z 10011KT 050V120 9999 FEW013 SCT020 29/26 Q1009 TEMPO 4000 SHRA
0,[Light Rain Showers],1996-9-9,[26.0 °C],[Rain],[-],[31.2 °C],[94%],[N/A],[1010 hPa],[27.0 °C],[11:00 PM],[9.0 km],[East],"[18.5 km/h
		/ 5.1 m/s]",METAR VHHH 091500Z 10010KT 050V160 9000 -SHRA FEW010 SCT018 27/26 Q1010 RERA WS LDG RWY 13/31 TEMPO 1500 +SHRA FEW008 SCT014 BKN025
0,[Scattered Clouds],1996-9-10,[26.0 °C],[],[-],[35.6 °C],[84%],[N/A],[1010 hPa],[29.0 °C],[12:00 AM],[10.0 km],[East],"[13.0 km/h
		/ 3.6 m/s]",METAR VHHH 091600Z 08007KT 360V110 9999 FEW010 SCT020 29/26 Q1010 TEMPO 4000 SHRA
0,[Mostly Cloudy],1996-9-10,[26.0 °C],[],[-],[33.6 °C],[89%],[N/A],[1009 hPa],[28.0 °C],[1:00 AM],[10.0 km],[East],"[14.8 km/h
		/ 4.1 m/s]",METAR VHHH 091700Z 08008KT 060V120 9999 FEW012 BKN300 28/26 Q1009 TEMPO 4000 SHRA
0,[Mostly Cloudy],1996-9-10,[25.0 °C],[],[-],[34.5 °C],[79%],[N/A],[1008 hPa],[29.0 °C],[3:00 AM],[10.0 km],[ENE],"[5.6 km/h
		/ 1.5 m/s]",METAR VHHH 091900Z 07003KT 9999 FEW014 BKN300 29/25 Q1008 TEMPO 4000 SHRA
0,[Partly Cloudy],1996-9-10,[24.0 °C],[],[-],[33.5 °C],[74%],[N/A],[1008 hPa],[29.0 °C],[4:00 AM],[10.0 km],[NNE],"[7.4 km/h
		/ 2.1 m/s]",METAR VHHH 092000Z 03004KT 010V090 9999 FEW014 29/24 Q1008 TEMPO 4000 SHRA
0,[Scattered Clouds],1996-9-10,[24.0 °C],[],[-],[33.5 °C],[74%],[N/A],[1008 hPa],[29.0 °C],[5:00 AM],[10.0 km],[ENE],"[7.4 km/h
		/ 2.1 m/s]",METAR VHHH 092100Z 07004KT 360V140 9999 FEW014 SCT020 29/24 Q1008 NOSIG
0,[Scattered Clouds],1996-9-10,[24.0 °C],[],[-],[33.5 °C],[74%],[N/A],[1008 hPa],[29.0 °C],[6:00 AM],[10.0 km],[East],"[3.7 km/h
		/ 1.0 m/s]",METAR VHHH 092200Z 09002KT 9999 FEW015 SCT025 29/24 Q1008 NOSIG
0,[Scattered Clouds],1996-9-10,[24.0 °C],[],[-],[33.5 °C],[74%],[N/A],[1008 hPa],[29.0 °C],[7:00 AM],[10.0 km],[NE],"[11.1 km/h
		/ 3.1 m/s]",METAR VHHH 092300Z 04006KT 010V100 9999 SCT022 29/24 Q1008 NOSIG
0,[Scattered Clouds],1996-9-10,[24.0 °C],[],[-],[35.0 °C],[70%],[N/A],[1008 hPa],[30.0 °C],[8:00 AM],[10.0 km],[East],"[13.0 km/h
		/ 3.6 m/s]",METAR VHHH 100000Z 10007KT 050V150 9999 SCT025 30/24 Q1008 NOSIG
0,[Scattered Clouds],1996-9-10,[24.0 °C],[],[-],[35.0 °C],[70%],[N/A],[1009 hPa],[30.0 °C],[9:00 AM],[10.0 km],[East],"[13.0 km/h
		/ 3.6 m/s]",METAR VHHH 100100Z 09007KT 010V140 9999 FEW020 SCT025 30/24 Q1009 NOSIG
0,[Scattered Clouds],1996-9-10,[24.0 °C],[],[-],[37.7 °C],[62%],[N/A],[1009 hPa],[32.0 °C],[10:00 AM],[10.0 km],[ENE],"[9.3 km/h
		/ 2.6 m/s]",METAR VHHH 100200Z 07005KT 340V130 9999 FEW020 SCT025 32/24 Q1009 NOSIG
0,[Mostly Cloudy],1996-9-10,[24.0 °C],[],[-],[37.7 °C],[62%],[N/A],[1009 hPa],[32.0 °C],[11:00 AM],[10.0 km],[East],"[18.5 km/h
		/ 5.1 m/s]",METAR VHHH 100300Z 08010KT 360V140 9999 SCT022 BKN100 32/24 Q1009 NOSIG
0,[Scattered Clouds],1996-9-10,[24.0 °C],[],[-],[39.2 °C],[59%],[N/A],[1008 hPa],[33.0 °C],[12:00 PM],[10.0 km],[East],"[22.2 km/h
		/ 6.2 m/s]",METAR VHHH 100400Z 10012KT 320V180 9999 SCT025 SCT100 33/24 Q1008 NOSIG
0,[Scattered Clouds],1996-9-10,[24.0 °C],[],[-],[39.2 °C],[59%],[N/A],[1008 hPa],[33.0 °C],[1:00 PM],[10.0 km],[East],"[18.5 km/h
		/ 5.1 m/s]",METAR VHHH 100500Z 08010KT 010V130 9999 SCT022 SCT080 33/24 Q1008 NOSIG
0,[Mostly Cloudy],1996-9-10,[24.0 °C],[],[-],[39.2 °C],[59%],[N/A],[1007 hPa],[33.0 °C],[2:00 PM],[10.0 km],[East],"[20.4 km/h
		/ 5.7 m/s]",METAR VHHH 100600Z 08011KT 040V130 9999 FEW025 BKN080 33/24 Q1007 NOSIG
0,[Scattered Clouds],1996-9-10,[24.0 °C],[],[-],[37.7 °C],[62%],[N/A],[1007 hPa],[32.0 °C],[3:00 PM],[10.0 km],[East],"[14.8 km/h
		/ 4.1 m/s]",METAR VHHH 100700Z 10008KT 020V130 9999 FEW025 SCT040 32/24 Q1007 NOSIG
0,[Scattered Clouds],1996-9-10,[24.0 °C],[],[-],[36.4 °C],[66%],[N/A],[1006 hPa],[31.0 °C],[4:00 PM],[10.0 km],[East],"[16.7 km/h
		/ 4.6 m/s]",METAR VHHH 100800Z 08009KT 360V150 9999 FEW025 SCT040 31/24 Q1006 NOSIG
0,[Scattered Clouds],1996-9-10,[25.0 °C],[],[-],[37.6 °C],[70%],[N/A],[1006 hPa],[31.0 °C],[5:00 PM],[10.0 km],[ENE],"[16.7 km/h
		/ 4.6 m/s]",METAR VHHH 100900Z 07009KT 360V150 9999 FEW025 SCT040 31/25 Q1006 NOSIG
0,[Scattered Clouds],1996-9-10,[24.0 °C],[],[-],[35.0 °C],[70%],[N/A],[1006 hPa],[30.0 °C],[6:00 PM],[10.0 km],[East],"[18.5 km/h
		/ 5.1 m/s]",METAR VHHH 101000Z 08010KT 340V130 9999 FEW022 SCT080 30/24 Q1006 NOSIG
0,[Scattered Clouds],1996-9-10,[25.0 °C],[],[-],[36.0 °C],[74%],[N/A],[1006 hPa],[30.0 °C],[7:00 PM],[10.0 km],[East],"[16.7 km/h
		/ 4.6 m/s]",METAR VHHH 101100Z 09009KT 040V130 9999 FEW020 SCT080 30/25 Q1006 NOSIG
0,[Scattered Clouds],1996-9-10,[25.0 °C],[],[-],[36.0 °C],[74%],[N/A],[1007 hPa],[30.0 °C],[8:00 PM],[10.0 km],[East],"[14.8 km/h
		/ 4.1 m/s]",METAR VHHH 101200Z 08008KT 050V120 9999 FEW018 SCT080 30/25 Q1007 NOSIG
0,[Scattered Clouds],1996-9-10,[25.0 °C],[],[-],[36.0 °C],[74%],[N/A],[1008 hPa],[30.0 °C],[9:00 PM],[10.0 km],[East],"[20.4 km/h
		/ 5.7 m/s]",METAR VHHH 101300Z 09011KT 050V120 9999 FEW016 SCT025 30/25 Q1008 NOSIG
0,[Scattered Clouds],1996-9-10,[25.0 °C],[],[-],[34.5 °C],[79%],[N/A],[1008 hPa],[29.0 °C],[10:00 PM],[10.0 km],[East],"[14.8 km/h
		/ 4.1 m/s]",METAR VHHH 101400Z 09008KT 060V140 9999 FEW016 SCT022 29/25 Q1008 NOSIG
0,[Scattered Clouds],1996-9-10,[25.0 °C],[],[-],[34.5 °C],[79%],[N/A],[1008 hPa],[29.0 °C],[11:00 PM],[10.0 km],[East],"[16.7 km/h
		/ 4.6 m/s]",METAR VHHH 101500Z 08009KT 290V150 9999 FEW016 SCT022 29/25 Q1008 NOSIG
0,[Scattered Clouds],1996-9-11,[25.0 °C],[],[-],[34.5 °C],[79%],[N/A],[1008 hPa],[29.0 °C],[12:00 AM],[10.0 km],[East],"[14.8 km/h
		/ 4.1 m/s]",METAR VHHH 101600Z 08008KT 040V130 9999 FEW016 SCT022 29/25 Q1008 NOSIG
0,[Scattered Clouds],1996-9-11,[26.0 °C],[],[-],[35.6 °C],[84%],[N/A],[1007 hPa],[29.0 °C],[1:00 AM],[10.0 km],[East],"[14.8 km/h
		/ 4.1 m/s]",METAR VHHH 101700Z 09008KT 050V120 9999 FEW015 SCT022 29/26 Q1007 NOSIG
0,[Scattered Clouds],1996-9-11,[26.0 °C],[],[-],[35.6 °C],[84%],[N/A],[1007 hPa],[29.0 °C],[2:00 AM],[10.0 km],[East],"[13.0 km/h
		/ 3.6 m/s]",METAR VHHH 101800Z 08007KT 050V140 9999 FEW015 SCT022 29/26 Q1007 NOSIG
0,[Scattered Clouds],1996-9-11,[26.0 °C],[],[-],[35.6 °C],[84%],[N/A],[1006 hPa],[29.0 °C],[3:00 AM],[10.0 km],[East],"[13.0 km/h
		/ 3.6 m/s]",METAR VHHH 101900Z 08007KT 040V130 9999 FEW014 SCT020 29/26 Q1006 NOSIG
0,[Scattered Clouds],1996-9-11,[26.0 °C],[],[-],[35.6 °C],[84%],[N/A],[1006 hPa],[29.0 °C],[4:00 AM],[10.0 km],[East],"[14.8 km/h
		/ 4.1 m/s]",METAR VHHH 102000Z 10008KT 070V130 9999 FEW015 SCT020 29/26 Q1006 NOSIG
0,[Scattered Clouds],1996-9-11,[26.0 °C],[],[-],[35.6 °C],[84%],[N/A],[1006 hPa],[29.0 °C],[5:00 AM],[10.0 km],[NE],"[7.4 km/h
		/ 2.1 m/s]",METAR VHHH 102100Z 05004KT 340V110 9999 FEW015 SCT020 29/26 Q1006 NOSIG
0,[Scattered Clouds],1996-9-11,[26.0 °C],[],[-],[33.6 °C],[89%],[N/A],[1006 hPa],[28.0 °C],[6:00 AM],[10.0 km],[East],"[11.1 km/h
		/ 3.1 m/s]",METAR VHHH 102200Z 09006KT 060V120 9999 FEW016 SCT020 28/26 Q1006 NOSIG
0,[Scattered Clouds],1996-9-11,[25.0 °C],[],[-],[34.5 °C],[79%],[N/A],[1006 hPa],[29.0 °C],[7:00 AM],[10.0 km],[NE],"[7.4 km/h
		/ 2.1 m/s]",METAR VHHH 102300Z 04004KT 350V090 9999 FEW016 SCT020 29/25 Q1006 NOSIG
0,[Scattered Clouds],1996-9-11,[25.0 °C],[],[-],[37.6 °C],[70%],[N/A],[1007 hPa],[31.0 °C],[8:00 AM],[10.0 km],[NE],"[7.4 km/h
		/ 2.1 m/s]",METAR VHHH 110000Z 05004KT 350V130 9999 FEW014 SCT022 31/25 Q1007 NOSIG
0,[Scattered Clouds],1996-9-11,[25.0 °C],[],[-],[37.6 °C],[70%],[N/A],[1007 hPa],[31.0 °C],[9:00 AM],[10.0 km],[East],"[13.0 km/h
		/ 3.6 m/s]",METAR VHHH 110100Z 08007KT 050V130 9999 FEW018 SCT025 31/25 Q1007 NOSIG
0,[Scattered Clouds],1996-9-11,[24.0 °C],[],[-],[36.4 °C],[66%],[N/A],[1007 hPa],[31.0 °C],[10:00 AM],[10.0 km],[ENE],"[18.5 km/h
		/ 5.1 m/s]",METAR VHHH 110200Z 07010KT 350V140 9999 FEW020 SCT030 31/24 Q1007 NOSIG
0,[Scattered Clouds],1996-9-11,[22.0 °C],[],[-],[36.9 °C],[52%],[N/A],[1007 hPa],[33.0 °C],[11:00 AM],[10.0 km],[East],"[20.4 km/h
		/ 5.7 m/s]",METAR VHHH 110300Z 09011KT 010V140 9999 FEW025 SCT300 33/22 Q1007 NOSIG
0,[Scattered Clouds],1996-9-11,[24.0 °C],[],[-],[39.2 °C],[59%],[N/A],[1006 hPa],[33.0 °C],[12:00 PM],[10.0 km],[East],"[18.5 km/h
		/ 5.1 m/s]",METAR VHHH 110400Z 09010KT 010V140 9999 FEW025 SCT300 33/24 Q1006 NOSIG
0,[Scattered Clouds],1996-9-11,[24.0 °C],[],[-],[39.2 °C],[59%],[N/A],[1005 hPa],[33.0 °C],[1:00 PM],[10.0 km],[East],"[22.2 km/h
		/ 6.2 m/s]",METAR VHHH 110500Z 10012KT 9999 FEW025 SCT300 33/24 Q1005 NOSIG
0,[Mostly Cloudy],1996-9-11,[24.0 °C],[],[-],[39.2 °C],[59%],[N/A],[1004 hPa],[33.0 °C],[2:00 PM],[10.0 km],[ENE],"[13.0 km/h
		/ 3.6 m/s]",METAR VHHH 110600Z 07007KT 340V120 9999 FEW025 BKN300 33/24 Q1004 NOSIG
0,[Mostly Cloudy],1996-9-11,[24.0 °C],[],[-],[36.4 °C],[66%],[N/A],[1004 hPa],[31.0 °C],[3:00 PM],[10.0 km],[ENE],"[20.4 km/h
		/ 5.7 m/s]",METAR VHHH 110700Z 07011KT 030V150 9999 FEW025 BKN150 31/24 Q1004 NOSIG
0,[Mostly Cloudy],1996-9-11,[24.0 °C],[],[-],[36.4 °C],[66%],[N/A],[1004 hPa],[31.0 °C],[4:00 PM],[10.0 km],[East],"[25.9 km/h
		/ 7.2 m/s]",METAR VHHH 110800Z 09014KT O60V130 9999 SCT025 BKN120 31/24 Q1004 NOSIG
0,[Mostly Cloudy],1996-9-11,[25.0 °C],[],[-],[37.6 °C],[70%],[N/A],[1004 hPa],[31.0 °C],[5:00 PM],[10.0 km],[East],"[22.2 km/h
		/ 6.2 m/s]",METAR VHHH 110900Z 08012KT 020V150 9999 FEW025 SCT035 BKN300 31/25 Q1004 NOSIG
0,[Mostly Cloudy],1996-9-11,[24.0 °C],[],[-],[35.0 °C],[70%],[N/A],[1004 hPa],[30.0 °C],[6:00 PM],[10.0 km],[East],"[22.2 km/h
		/ 6.2 m/s]",METAR VHHH 111000Z 09012KT 060V120 9999 FEW020 BKN300 30/24 Q1004 NOSIG
0,[Mostly Cloudy],1996-9-11,[25.0 °C],[],[-],[36.0 °C],[74%],[N/A],[1005 hPa],[30.0 °C],[7:00 PM],[10.0 km],[East],"[9.3 km/h
		/ 2.6 m/s]",METAR VHHH 111100Z 08005KT 360V170 9999 FEW017 SCT025 BKN300 30/25 Q1005 NOSIG
0,[Scattered Clouds],1996-9-11,[24.0 °C],[],[-],[35.0 °C],[70%],[N/A],[1005 hPa],[30.0 °C],[8:00 PM],[10.0 km],[East],"[16.7 km/h
		/ 4.6 m/s]",METAR VHHH 111200Z 08009KT 040V130 9999 FEW025 SCT080 30/24 Q1005 WS LDG RWY 13 NOSIG
0,[Partly Cloudy],1996-9-11,[23.0 °C],[],[-],[34.1 °C],[66%],[N/A],[1005 hPa],[30.0 °C],[9:00 PM],[10.0 km],[ENE],"[18.5 km/h
		/ 5.1 m/s]",METAR VHHH 111300Z 07010KT 040V120 9999 FEW025 30/23 Q1005 NOSIG
0,[Scattered Clouds],1996-9-11,[24.0 °C],[],[-],[35.0 °C],[70%],[N/A],[1006 hPa],[30.0 °C],[10:00 PM],[10.0 km],[East],"[24.1 km/h
		/ 6.7 m/s]",METAR VHHH 111400Z 08013KT 050V120 9999 FEW025 SCT080 30/24 Q1006 NOSIG
0,[Mostly Cloudy],1996-9-11,[24.0 °C],[],[-],[35.0 °C],[70%],[N/A],[1006 hPa],[30.0 °C],[11:00 PM],[10.0 km],[East],"[22.2 km/h
		/ 6.2 m/s]",METAR VHHH 111500Z 09012KT 050V130 9999 FEW020 BKN080 30/24 Q1006 NOSIG
0,[Mostly Cloudy],1996-9-12,[24.0 °C],[],[-],[33.5 °C],[74%],[N/A],[1006 hPa],[29.0 °C],[12:00 AM],[10.0 km],[East],"[20.4 km/h
		/ 5.7 m/s]",METAR VHHH 111600Z 08011KT 010V130 9999 FEW020 BKN080 29/24 Q1006 WS LDG RWY 13/31 NOSIG
0,[Mostly Cloudy],1996-9-12,[24.0 °C],[],"[38.9 km/h
		/ 10.8 m/s]",[33.5 °C],[74%],[N/A],[1005 hPa],[29.0 °C],[1:00 AM],[10.0 km],[ENE],"[20.4 km/h
		/ 5.7 m/s]",METAR VHHH 111700Z 07011G21KT 350V130 9999 FEW018 SCT025 BKN080 29/24 Q1005 WS LDG RWY 13/31 NOSIG
0,[Scattered Clouds],1996-9-12,[24.0 °C],[],"[44.4 km/h
		/ 12.3 m/s]",[33.5 °C],[74%],[N/A],[1004 hPa],[29.0 °C],[3:00 AM],[10.0 km],[East],"[24.1 km/h
		/ 6.7 m/s]",METAR VHHH 111900Z 08013G24KT 010V130 9999 FEW018 SCT080 29/24 Q1004 WS LDG RWY 13/31 NOSIG
0,[Scattered Clouds],1996-9-12,[23.0 °C],[],[-],[32.7 °C],[70%],[N/A],[1003 hPa],[29.0 °C],[4:00 AM],[10.0 km],[ENE],"[22.2 km/h
		/ 6.2 m/s]",METAR VHHH 112000Z 07012KT 020V150 9999 FEW018 SCT025 29/23 Q1003 WS LDG RWY 13/31 NOSIG
0,[Partly Cloudy],1996-9-12,[23.0 °C],[],"[44.4 km/h
		/ 12.3 m/s]",[32.7 °C],[70%],[N/A],[1003 hPa],[29.0 °C],[5:00 AM],[10.0 km],[ENE],"[22.2 km/h
		/ 6.2 m/s]",METAR VHHH 112100Z 07012G24KT 010V100 9999 FEW018 29/23 Q1003 WS LDG RWY 13/31 NOSIG
0,[Scattered Clouds],1996-9-12,[23.0 °C],[],[-],[32.7 °C],[70%],[N/A],[1004 hPa],[29.0 °C],[6:00 AM],[10.0 km],[ENE],"[16.7 km/h
		/ 4.6 m/s]",METAR VHHH 112200Z 07009KT 350V120 9999 FEW018 SCT300 29/23 Q1004 WS LDG RWY 13/31 NOSIG
0,[Scattered Clouds],1996-9-12,[22.0 °C],[],[-],[32.0 °C],[66%],[N/A],[1004 hPa],[29.0 °C],[7:00 AM],[10.0 km],[ENE],"[18.5 km/h
		/ 5.1 m/s]",METAR VHHH 112300Z 06010KT 340V120 9999 FEW020 SCT080 29/22 Q1004 WS LDG RWY 13/31 NOSIG
0,[Mostly Cloudy],1996-9-12,[22.0 °C],[],"[46.3 km/h
		/ 12.9 m/s]",[33.2 °C],[62%],[N/A],[1005 hPa],[30.0 °C],[8:00 AM],[10.0 km],[East],"[24.1 km/h
		/ 6.7 m/s]",METAR VHHH 120000Z 09013G25KT 290V120 9999 FEW025 BKN300 30/22 Q1005 WS LDG RWY 13/31 NOSIG
0,[Mostly Cloudy],1996-9-12,[22.0 °C],[],[-],[34.4 °C],[58%],[N/A],[1005 hPa],[31.0 °C],[9:00 AM],[10.0 km],[ENE],"[25.9 km/h
		/ 7.2 m/s]",METAR VHHH 120100Z 06014KT 010V130 9999 FEW025 BKN300 31/22 Q1005 WS LDG RWY 13/31 NOSIG
0,[Mostly Cloudy],1996-9-12,[21.0 °C],[],"[53.7 km/h
		/ 14.9 m/s]",[34.9 °C],[52%],[N/A],[1005 hPa],[32.0 °C],[10:00 AM],[10.0 km],[East],"[29.6 km/h
		/ 8.2 m/s]",METAR VHHH 120200Z 08016G29KT 040V120 9999 FEW025 BKN120 32/21 Q1005 WS LDG RWY 13/31 NOSIG
0,[Mostly Cloudy],1996-9-12,[22.0 °C],[],"[46.3 km/h
		/ 12.9 m/s]",[35.6 °C],[55%],[N/A],[1005 hPa],[32.0 °C],[11:00 AM],[10.0 km],[ENE],"[25.9 km/h
		/ 7.2 m/s]",METAR VHHH 120300Z 07014G25KT 340V130 9999 FEW030 BKN100 32/22 Q1005 WS LDG RWY 13/31 NOSIG
0,[Mostly Cloudy],1996-9-12,[21.0 °C],[],[-],[34.9 °C],[52%],[N/A],[1005 hPa],[32.0 °C],[12:00 PM],[10.0 km],[ENE],"[18.5 km/h
		/ 5.1 m/s]",METAR VHHH 120400Z 06010KT 290V130 9999 SCT030 BKN100 32/21 Q1005 WS LDG RWY 13/31 NOSIG
0,[Mostly Cloudy],1996-9-12,[22.0 °C],[],[-],[35.6 °C],[55%],[N/A],[1005 hPa],[32.0 °C],[1:00 PM],[10.0 km],[East],"[22.2 km/h
		/ 6.2 m/s]",METAR VHHH 120500Z 09012KT 040V130 9999 SCT030 BKN100 32/22 Q1005 WS LDG RWY 13/31 NOSIG
0,[Mostly Cloudy],1996-9-12,[24.0 °C],[],[-],[36.4 °C],[66%],[N/A],[1004 hPa],[31.0 °C],[2:00 PM],[10.0 km],[SE],"[18.5 km/h
		/ 5.1 m/s]",METAR VHHH 120600Z 14010KT 060V180 9999 SCT030 BKN100 31/24 Q1004 WS LDG RWY 13/31 TEMPO 4000 SHRA NOSIG
0,[Mostly Cloudy],1996-9-12,[23.0 °C],[],[-],[36.8 °C],[59%],[N/A],[1003 hPa],[32.0 °C],[3:00 PM],[10.0 km],[East],"[18.5 km/h
		/ 5.1 m/s]",METAR VHHH 120700Z 09010KT 050V140 9999 FEW025 SCT035 BKN100 32/23 Q1003 NOSIG
0,[Mostly Cloudy],1996-9-12,[24.0 °C],[],"[48.2 km/h
		/ 13.4 m/s]",[36.4 °C],[66%],[N/A],[1002 hPa],[31.0 °C],[4:00 PM],[10.0 km],[ENE],"[24.1 km/h
		/ 6.7 m/s]",METAR VHHH 120800Z 06013G26KT 020V100 9999 FEW025 SCT100 BKN300 31/24 Q1002 WS LDG RWY 13/31 NOSIG
0,[Mostly Cloudy],1996-9-12,[24.0 °C],[],"[50.0 km/h
		/ 13.9 m/s]",[37.7 °C],[62%],[N/A],[1003 hPa],[32.0 °C],[5:00 PM],[10.0 km],[East],"[27.8 km/h
		/ 7.7 m/s]",METAR VHHH 120900Z 09015G27KT 030V140 9999 FEW022 SCT035 BKN100 32/24 Q1003 WS LDG RWY 13/31 NOSIG
0,[Mostly Cloudy],1996-9-12,[23.0 °C],[],"[53.7 km/h
		/ 14.9 m/s]",[36.8 °C],[59%],[N/A],[1003 hPa],[32.0 °C],[6:00 PM],[10.0 km],[East],"[29.6 km/h
		/ 8.2 m/s]",METAR VHHH 121000Z 09016G29KT 060V130 9999 FEW022 SCT030 BKN300 32/23 Q1003 WS LDG RWY 13/31 NOSIG
0,[Mostly Cloudy],1996-9-12,[24.0 °C],[],[-],[36.4 °C],[66%],[N/A],[1006 hPa],[31.0 °C],[9:00 PM],[10.0 km],[East],"[24.1 km/h
		/ 6.7 m/s]",METAR VHHH 121300Z 08013KT 030V140 9999 FEW025 BKN035 31/24 Q1006 TEMPO 4000 SHRA WS LDG RWY 13/31
0,[Light Rain Showers],1996-9-12,[25.0 °C],[Rain],[-],[36.0 °C],[74%],[N/A],[1006 hPa],[30.0 °C],[10:00 PM],[10.0 km],[East],"[29.6 km/h
		/ 8.2 m/s]",METAR VHHH 121400Z 09016KT 040V150 9999 -SHRA FEW025 BKN030 30/25 Q1006 TEMPO 4000 SHRA WS LDG RWY 13/31
0,[Rain Showers],1996-9-12,[25.0 °C],[Rain],"[59.3 km/h
		/ 16.5 m/s]",[34.5 °C],[79%],[N/A],[1006 hPa],[29.0 °C],[11:00 PM],[7.0 km],[East],"[31.5 km/h
		/ 8.7 m/s]",METAR VHHH 121500Z 09017G32KT 050V120 7000 SHRA FEW018 BKN025 29/25 Q1006 TEMPO 4000 SHRA WS LDG RWY 13/31
0,[Rain Showers],1996-9-13,[25.0 °C],[Rain],"[53.7 km/h
		/ 14.9 m/s]",[32.7 °C],[84%],[N/A],[1005 hPa],[28.0 °C],[12:00 AM],[7.0 km],[East],"[31.5 km/h
		/ 8.7 m/s]",METAR VHHH 121600Z 09017G29KT 040V130 7000 SHRA FEW012 SCT025 BKN080 28/25 Q1005 WS LDG RWY 13/31 TEMPO 4000 SHRA
0,[Rain Showers],1996-9-13,[26.0 °C],[Rain],[-],[31.2 °C],[94%],[N/A],[1005 hPa],[27.0 °C],[1:00 AM],[7.0 km],[East],"[24.1 km/h
		/ 6.7 m/s]",METAR VHHH 121700Z 08013KT 030V120 7000 SHRA FEW010 SCT025 BKN080 27/26 Q1005 RETS WS LDG RWY 13/31 TEMPO VRB18G32KT 3000 TSRA FEW012 FEW015CB BKN080
0,[Light Rain Showers],1996-9-13,[25.0 °C],[Rain],"[51.9 km/h
		/ 14.4 m/s]",[30.6 °C],[89%],[N/A],[1004 hPa],[27.0 °C],[3:00 AM],[10.0 km],[East],"[29.6 km/h
		/ 8.2 m/s]",METAR VHHH 121900Z 08016G28KT 030V120 9999 -SHRA FEW014 SCT025 BKN080 27/25 Q1004 DIST LGTN TO N WS LDG RWY 13/31 TEMPO VRB18G32KT 3000 TSRA FEW012 FEW015CB BKN080
0,[Rain Showers],1996-9-13,[24.0 °C],[Rain],[-],[-],[89%],[N/A],[1004 hPa],[26.0 °C],[4:00 AM],[6.0 km],[ENE],"[27.8 km/h
		/ 7.7 m/s]",METAR VHHH 122000Z 07015KT 030V110 6000 SHRA FEW010 SCT020 BKN080 26/24 Q1004 WS LDG RWY 13/31 TEMPO VRB18G32KT 3000 TSRA FEW012 FEW015CB BKN080
0,[Mostly Cloudy],1996-9-13,[23.0 °C],[],[-],[-],[83%],[N/A],[1004 hPa],[26.0 °C],[5:00 AM],[10.0 km],[East],"[14.8 km/h
		/ 4.1 m/s]",METAR VHHH 122100Z 08008KT 040V110 9999 FEW010 SCT018 BKN080 26/23 Q1004 RERA WS LDG RWY 13/31 TEMPO VRB18G32KT 3000 TSRA FEW012 FEW015CB BKN080
0,[Mostly Cloudy],1996-9-13,[24.0 °C],[],[-],[30.1 °C],[84%],[N/A],[1004 hPa],[27.0 °C],[6:00 AM],[10.0 km],[East],"[27.8 km/h
		/ 7.7 m/s]",METAR VHHH 122200Z 08015KT 040V130 9999 FEW012 SCT020 BKN080 27/24 Q1004 WS LDG RWY 13/31 TEMPO VRB18G32KT 3000 TSRA FEW012 FEW015CB BKN080
0,[Mostly Cloudy],1996-9-13,[24.0 °C],[],[-],[30.1 °C],[84%],[N/A],[1005 hPa],[27.0 °C],[7:00 AM],[10.0 km],[East],"[22.2 km/h
		/ 6.2 m/s]",METAR VHHH 122300Z 08012KT 020V120 9999 FEW012 SCT018 BKN080 27/24 Q1005 WS LDG RWY 13/31 TEMPO VRB18G32KT 3000 TSRA FEW012 FEW015CB BKN080
0,[Mostly Cloudy],1996-9-13,[25.0 °C],[],"[53.7 km/h
		/ 14.9 m/s]",[32.7 °C],[84%],[N/A],[1005 hPa],[28.0 °C],[8:00 AM],[10.0 km],[East],"[33.3 km/h
		/ 9.3 m/s]",METAR VHHH 130000Z 09018G29KT 050V120 9999 FEW011 SCT018 BKN080 28/25 Q1005 WS LDG RWY 13/31 TEMPO VRB18G32KT 3000 TSRA FEW012 FEW015CB BKN080
0,[Mostly Cloudy],1996-9-13,[24.0 °C],[],"[46.3 km/h
		/ 12.9 m/s]",[33.5 °C],[74%],[N/A],[1005 hPa],[29.0 °C],[9:00 AM],[10.0 km],[East],"[25.9 km/h
		/ 7.2 m/s]",METAR VHHH 130100Z 08014G25KT 040V120 9999 FEW015 SCT022 BKN100 29/24 Q1005 WS LDG RWY 13/31 TEMPO 09020G35KT 3000 +SHRA
0,[Mostly Cloudy],1996-9-13,[24.0 °C],[],"[50.0 km/h
		/ 13.9 m/s]",[33.5 °C],[74%],[N/A],[1006 hPa],[29.0 °C],[10:00 AM],[10.0 km],[East],"[25.9 km/h
		/ 7.2 m/s]",METAR VHHH 130200Z 08014G27KT 030V140 9999 FEW015 SCT022 BKN100 29/24 Q1006 WS LDG RWY 13/31 NOSIG
0,[Mostly Cloudy],1996-9-13,[25.0 °C],[],[-],[34.5 °C],[79%],[N/A],[1006 hPa],[29.0 °C],[11:00 AM],[10.0 km],[East],"[29.6 km/h
		/ 8.2 m/s]",METAR VHHH 130300Z 09016KT 030V130 9999 FEW015 SCT022 BKN100 29/25 Q1006 WS LDG RWY 13/31 NOSIG
0,[Mostly Cloudy],1996-9-13,[25.0 °C],[],"[42.6 km/h
		/ 11.8 m/s]",[36.0 °C],[74%],[N/A],[1005 hPa],[30.0 °C],[1:00 PM],[10.0 km],[East],"[22.2 km/h
		/ 6.2 m/s]",METAR VHHH 130500Z 09012G23KT 040V130 9999 FEW016 SCT022 BKN100 30/25 Q1005 WS LDG RWY 13/31 NOSIG
0,[Mostly Cloudy],1996-9-13,[25.0 °C],[],[-],[36.0 °C],[74%],[N/A],[1004 hPa],[30.0 °C],[2:00 PM],[10.0 km],[East],"[22.2 km/h
		/ 6.2 m/s]",METAR VHHH 130600Z 09012KT 040V140 9999 FEW015 SCT022 BKN100 30/25 Q1004 WS LDG RWY 13/31 NOSIG
0,[Mostly Cloudy],1996-9-13,[25.0 °C],[],"[51.9 km/h
		/ 14.4 m/s]",[36.0 °C],[74%],[N/A],[1004 hPa],[30.0 °C],[3:00 PM],[10.0 km],[East],"[27.8 km/h
		/ 7.7 m/s]",METAR VHHH 130700Z 09015G28KT 010V130 9999 FEW015 SCT022 BKN100 30/25 Q1004 WS LDG RWY 13/31 TEMPO 4000 SHRA
0,[Mostly Cloudy],1996-9-13,[25.0 °C],[],[-],[36.0 °C],[74%],[N/A],[1004 hPa],[30.0 °C],[4:00 PM],[10.0 km],[East],"[27.8 km/h
		/ 7.7 m/s]",METAR VHHH 130800Z 09015KT 050V150 9999 FEW015 SCT022 BKN100 30/25 Q1004 TEMPO 4000 SHRA WS LDG RWY 13/31
0,[Rain Showers],1996-9-13,[26.0 °C],[Rain],"[42.6 km/h
		/ 11.8 m/s]",[35.6 °C],[84%],[N/A],[1003 hPa],[29.0 °C],[5:00 PM],[-],[East],"[20.4 km/h
		/ 5.7 m/s]",METAR VHHH 130900Z 08011G23KT 270V130 4200SE SHRA FEW012 SCT020 BKN100 29/26 Q1003 12KM TO NW TEMPO 4000 SHRA WS LDG RWY 13/31
0,[Mostly Cloudy],1996-9-13,[25.0 °C],[],"[51.9 km/h
		/ 14.4 m/s]",[32.7 °C],[84%],[N/A],[1004 hPa],[28.0 °C],[6:00 PM],[10.0 km],[East],"[31.5 km/h
		/ 8.7 m/s]",METAR VHHH 131000Z 09017G28KT 050V120 9999 FEW012 SCT018 BKN100 28/25 Q1004 WS LDG RWY 13/31 TEMPO 4000 SHRA
0,[Mostly Cloudy],1996-9-13,[25.0 °C],[],[-],[34.5 °C],[79%],[N/A],[1004 hPa],[29.0 °C],[7:00 PM],[10.0 km],[East],"[25.9 km/h
		/ 7.2 m/s]",METAR VHHH 131100Z 08014KT 010V120 9999 FEW010 SCT018 BKN100 29/25 Q1004 WS LDG RWY 13/31 TEMPO 4000 SHRA
0,[Light Rain Showers],1996-9-13,[25.0 °C],[Rain],[-],[32.7 °C],[84%],[N/A],[1005 hPa],[28.0 °C],[8:00 PM],[8.0 km],[East],"[13.0 km/h
		/ 3.6 m/s]",METAR VHHH 131200Z 09007KT 040V150 8000 -SHRA FEW010 SCT018 BKN080 28/25 Q1005 WS LDG RWY 13/31 TEMPO 4000 SHRA
0,[Mostly Cloudy],1996-9-13,[25.0 °C],[],"[42.6 km/h
		/ 11.8 m/s]",[32.7 °C],[84%],[N/A],[1006 hPa],[28.0 °C],[9:00 PM],[6.0 km],[East],"[24.1 km/h
		/ 6.7 m/s]",METAR VHHH 131300Z 09013G23KT 040V140 6000 FEW010 SCT016 BKN080 28/25 Q1006 WS LDG RWY 13/31 TEMPO VRB18G35KT 2000 +TSRA FEW008 FEW014CB BKN025
0,[Thunderstorms and Rain],1996-9-13,[25.0 °C],"[Rain
	,
Thunderstorm]","[42.6 km/h
		/ 11.8 m/s]",[30.6 °C],[89%],[N/A],[1006 hPa],[27.0 °C],[10:00 PM],[8.0 km],[ENE],"[24.1 km/h
		/ 6.7 m/s]",METAR VHHH 131400Z 07013G23KT 020V140 8000 TSRA FEW010 FEW016CB BKN020 27/25 Q1006 WS LDG RWY 13/31 TEMPO VRB18G35KT 2000 +TSRA FEW008 FEW014CB BKN025
0,[Mostly Cloudy],1996-9-14,[25.0 °C],[],"[38.9 km/h
		/ 10.8 m/s]",[32.7 °C],[84%],[N/A],[1005 hPa],[28.0 °C],[12:00 AM],[10.0 km],[East],"[20.4 km/h
		/ 5.7 m/s]",METAR VHHH 131600Z 09011G21KT 020V140 9999 FEW011 SCT016 BKN080 28/25 Q1005 WS LDG RWY 13/31 TEMPO VRB18G35KT 2000 +TSRA FEW008 FEW014CB BKN025
0,[Light Rain Showers],1996-9-14,[26.0 °C],[Rain],[-],[33.6 °C],[89%],[N/A],[1005 hPa],[28.0 °C],[1:00 AM],[10.0 km],[East],"[18.5 km/h
		/ 5.1 m/s]",METAR VHHH 131700Z 09010KT 060V120 9999 -SHRA FEW011 SCT016 BKN080 28/26 Q1005 WS LDG RWY 13/31 TEMPO VRB18G35KT 2000 +TSRA FEW008 FEW014CB BKN025
0,[Heavy Rain],1996-9-14,[25.0 °C],[Rain],"[44.4 km/h
		/ 12.3 m/s]",[-],[94%],[N/A],[1004 hPa],[26.0 °C],[2:00 AM],[7.0 km],[East],"[22.2 km/h
		/ 6.2 m/s]",METAR VHHH 131800Z 10012G24KT 070V150 7000 +RA FEW011 SCT016 BKN080 26/25 Q1004 WS LDG RWY 13/31 TEMPO VRB18G35KT 2000 +TSRA FEW008 FEW014CB BKN025
0,[Light Rain Showers],1996-9-14,[24.0 °C],[Rain],"[63.0 km/h
		/ 17.5 m/s]",[-],[89%],[N/A],[1004 hPa],[26.0 °C],[3:00 AM],[8.0 km],[East],"[35.2 km/h
		/ 9.8 m/s]",METAR VHHH 131900Z 08019G34KT 040V110 8000 -SHRA FEW011 SCT016 BKN080 26/24 Q1004 WS LDG RWY 13/31 TEMPO VRB18G35KT 2000 +TSRA FEW008 FEW014CB BKN025
0,[Rain Showers],1996-9-14,[23.0 °C],[Rain],"[72.2 km/h
		/ 20.1 m/s]",[-],[89%],[N/A],[1004 hPa],[25.0 °C],[4:00 AM],[7.0 km],[East],"[35.2 km/h
		/ 9.8 m/s]",METAR VHHH 132000Z 10019G39KT 070V150 7000 SHRA FEW012 SCT018 BKN080 25/23 Q1004 WS LDG RWY 13/31 TEMPO VRB18G35KT 2000 +TSRA FEW008 FEW014CB BKN025
0,[Light Rain Showers],1996-9-14,[23.0 °C],[Rain],[-],[-],[83%],[N/A],[1004 hPa],[26.0 °C],[5:00 AM],[9.0 km],[East],"[18.5 km/h
		/ 5.1 m/s]",METAR VHHH 132100Z 08010KT 050V130 9000 -SHRA FEW016 SCT025 BKN080 26/23 Q1004 WS LDG RWY 13/31 TEMPO VRB18G35KT 2000 +TSRA FEW008 FEW014CB BKN025
0,[Mostly Cloudy],1996-9-14,[25.0 °C],[],[-],[32.7 °C],[84%],[N/A],[1004 hPa],[28.0 °C],[6:00 AM],[10.0 km],[East],"[20.4 km/h
		/ 5.7 m/s]",METAR VHHH 132200Z 09011KT 040V120 9999 FEW016 BKN025 BKN080 28/25 Q1004 WS LDG RWY 13/31 TEMPO 4000 SHRA
0,[Mostly Cloudy],1996-9-14,[25.0 °C],[],"[48.2 km/h
		/ 13.4 m/s]",[32.7 °C],[84%],[N/A],[1004 hPa],[28.0 °C],[7:00 AM],[10.0 km],[East],"[27.8 km/h
		/ 7.7 m/s]",METAR VHHH 132300Z 10015G26KT 060V160 9999 FEW014 SCT025 BKN080 28/25 Q1004 SIG WIND SHEAR AND MOD TURB IN APCH TEMPO VIS 4000M MOD SHWR
0,[Light Rain Showers],1996-9-14,[26.0 °C],[Rain],"[53.7 km/h
		/ 14.9 m/s]",[33.6 °C],[89%],[N/A],[1004 hPa],[28.0 °C],[8:00 AM],[9.0 km],[East],"[27.8 km/h
		/ 7.7 m/s]",METAR VHHH 140000Z 09015G29KT 050V120 9000 -SHRA FEW011 SCT016 BKN080 28/26 Q1004 TEMPO 3000 +SHRA WS LDG RWY 13/31
0,[Light Rain Showers],1996-9-14,[26.0 °C],[Rain],"[51.9 km/h
		/ 14.4 m/s]",[33.6 °C],[89%],[N/A],[1005 hPa],[28.0 °C],[9:00 AM],[9.0 km],[East],"[25.9 km/h
		/ 7.2 m/s]",METAR VHHH 140100Z 08014G28KT 340V120 9000 -SHRA FEW014 SCT018 BKN080 28/26 Q1005 RERA TEMPO 3000 +SHRA WS LDG RWY 13/31
0,[Mostly Cloudy],1996-9-14,[25.0 °C],[],"[53.7 km/h
		/ 14.9 m/s]",[34.5 °C],[79%],[N/A],[1005 hPa],[29.0 °C],[10:00 AM],[10.0 km],[East],"[29.6 km/h
		/ 8.2 m/s]",METAR VHHH 140200Z 09016G29KT 040V130 9999 FEW015 SCT020 BKN080 29/25 Q1005 TEMPO 3000 +SHRA WS LDG RWY 13/31
0,[Mostly Cloudy],1996-9-14,[25.0 °C],[],[-],[36.0 °C],[74%],[N/A],[1005 hPa],[30.0 °C],[11:00 AM],[10.0 km],[East],"[29.6 km/h
		/ 8.2 m/s]",METAR VHHH 140300Z 09016KT 040V120 9999 FEW015 SCT020 BKN080 30/25 Q1005 TEMPO 3000 +SHRA WS LDG RWY 13/31
0,[Light Rain Showers],1996-9-14,[26.0 °C],[Rain],"[51.9 km/h
		/ 14.4 m/s]",[35.6 °C],[84%],[N/A],[1005 hPa],[29.0 °C],[12:00 PM],[-],[East],"[27.8 km/h
		/ 7.7 m/s]",METAR VHHH 140400Z 08015G28KT 020V130 3800 -SHRA FEW012 SCT020 BKN080 29/26 Q1005 WS LDG RWY 13/31 TEMPO VRB18G35KT 1500 +TSRA/+SHRA FEW008 FEW012CB BKN025
0,[Light Rain Showers],1996-9-14,[26.0 °C],[Rain],"[38.9 km/h
		/ 10.8 m/s]",[-],[100%],[N/A],[1005 hPa],[26.0 °C],[1:00 PM],[4.0 km],[SE],"[18.5 km/h
		/ 5.1 m/s]",METAR VHHH 140500Z 13010G21KT 080V180 4000SE -SHRA FEW010 SCT016 BKN080 26/26 Q1005 WS LDG RWY 13/31 TEMPO VRB18G35KT 1500 +TSRA/+SHRA FEW008 FEW012CB BKN025
0,[Light Rain Showers],1996-9-14,[25.0 °C],[Rain],"[37.0 km/h
		/ 10.3 m/s]",[-],[100%],[N/A],[1004 hPa],[25.0 °C],[2:00 PM],[4.5 km],[SE],"[14.8 km/h
		/ 4.1 m/s]",METAR VHHH 140600Z 14008G20KT 100V210 4500NW -SHRA FEW010 SCT016 BKN080 25/25 Q1004 WS LDG RWY 13/31 TEMPO VRB18G35KT 1500 +TSRA FEW008 FEW014CB BKN025
0,[Rain Showers],1996-9-14,[25.0 °C],[Rain],"[44.4 km/h
		/ 12.3 m/s]",[-],[94%],[N/A],[1004 hPa],[26.0 °C],[3:00 PM],[4.0 km],[ESE],"[22.2 km/h
		/ 6.2 m/s]",METAR VHHH 140700Z 12012G24KT 090V160 4000SE SHRA FEW010 SCT016 BKN080 26/25 Q1004 WS LDG RWY 13/31 TEMPO VRB18G38KT 1500 +SHRA +TSRA FEW008 FEW014CB BKN025
0,[Rain Showers],1996-9-14,[25.0 °C],[Rain],"[37.0 km/h
		/ 10.3 m/s]",[30.6 °C],[89%],[N/A],[1004 hPa],[27.0 °C],[5:00 PM],[4.0 km],[ESE],"[13.0 km/h
		/ 3.6 m/s]",METAR VHHH 140900Z 12007G20KT 030V180 4000 SHRA FEW012 SCT018 BKN080 27/25 Q1004 WS LDG RWY 13/31 TEMPO VRB18G338KT 1500 +SHRA +TSRA FEW008 FEW014CB BKN025
0,[Light Rain Showers],1996-9-14,[23.0 °C],[Rain],"[57.4 km/h
		/ 15.9 m/s]",[-],[89%],[N/A],[1004 hPa],[25.0 °C],[6:00 PM],[9.0 km],[ENE],"[25.9 km/h
		/ 7.2 m/s]",METAR VHHH 141000Z 07014G31KT 350V130 9000 -SHRA FEW010 SCT018 BKN080 25/23 Q1004 WS LDG RWY 13/31 TEMPO VRB18G38KT 1500 +SHRA +TSRA FEW008 FEW014CB BKN025
0,[Mostly Cloudy],1996-9-14,[23.0 °C],[],[-],[29.6 °C],[79%],[N/A],[1005 hPa],[27.0 °C],[7:00 PM],[10.0 km],[East],"[14.8 km/h
		/ 4.1 m/s]",METAR VHHH 141100Z 09008KT 030V140 9999 FEW015 SCT020 BKN080 27/23 Q1005 WS LDG RWY 13/31 TEMPO VRB18G38KT 1500 +SHRA +TSRA FEW008 FEW014CB BKN025
0,[Heavy Rain Showers],1996-9-14,[23.0 °C],[Rain],[-],[-],[83%],[N/A],[1006 hPa],[26.0 °C],[8:00 PM],[-],[East],"[18.5 km/h
		/ 5.1 m/s]",METAR VHHH 141200Z 10010KT 070V150 4600 +SHRA FEW013 SCT018 OVC080 26/23 Q1006 RERA WS LDG RWY 13/31 TEMPO 4000 SHRA FEW008 FEW015CB SCT018 BKN080
0,[Light Rain Showers],1996-9-14,[23.0 °C],[Rain],[-],[-],[89%],[N/A],[1006 hPa],[25.0 °C],[9:00 PM],[9.0 km],[East],"[20.4 km/h
		/ 5.7 m/s]",METAR VHHH 141300Z 09011KT 010V160 9000 -SHRA FEW010 SCT020 OVC080 25/23 Q1006 RERA WS LDG RWY 13/31 TEMPO 4000 SHRA FEW008 FEW015CB SCT018 BKN080
0,[Overcast],1996-9-14,[23.0 °C],[],[-],[29.6 °C],[79%],[N/A],[1006 hPa],[27.0 °C],[10:00 PM],[10.0 km],[ENE],"[18.5 km/h
		/ 5.1 m/s]",METAR VHHH 141400Z 06010KT 030V100 9999 FEW008 SCT025 OVC080 27/23 Q1006 WS LDG RWY 13/31 TEMPO 4000 SHRA FEW008 FEW015CB SCT018 BKN080
0,[Heavy Rain Showers],1996-9-14,[24.0 °C],[Rain],"[53.7 km/h
		/ 14.9 m/s]",[-],[89%],[N/A],[1006 hPa],[26.0 °C],[11:00 PM],[-],[ENE],"[20.4 km/h
		/ 5.7 m/s]",METAR VHHH 141500Z 06011G29KT 010V100 3600 +SHRA FEW008 SCT018 OVC080 26/24 Q1006 WS LDG RWY 13/31 TEMPO 4000 SHRA
0,[Rain Showers],1996-9-15,[25.0 °C],[Rain],"[55.6 km/h
		/ 15.4 m/s]",[30.6 °C],[89%],[N/A],[1006 hPa],[27.0 °C],[1:00 AM],[7.0 km],[East],"[33.3 km/h
		/ 9.3 m/s]",METAR VHHH 141700Z 10018G30KT 040V150 7000 SHRA FEW008 SCT018 OVC080 27/25 Q1006 RERA WS LDG RWY 13/31 TEMPO VRB18G38KT 2000 +SHRA FEW008 FEW014CB BKN025
0,[Rain Showers],1996-9-15,[25.0 °C],[Rain],"[42.6 km/h
		/ 11.8 m/s]",[30.6 °C],[89%],[N/A],[1005 hPa],[27.0 °C],[2:00 AM],[8.0 km],[East],"[22.2 km/h
		/ 6.2 m/s]",METAR VHHH 141800Z 10012G23KT 060V140 8000 SHRA FEW008 SCT018 OVC080 27/25 Q1005 RERA WS LDG RWY 13/31 TEMPO VRB18G38KT 2000 +SHRA FEW008 FEW014CB BKN025
0,[Heavy Rain Showers],1996-9-15,[23.0 °C],[Rain],"[53.7 km/h
		/ 14.9 m/s]",[-],[94%],[N/A],[1005 hPa],[24.0 °C],[3:00 AM],[7.0 km],[East],"[31.5 km/h
		/ 8.7 m/s]",METAR VHHH 141900Z 10017G29KT 060V160 7000 +SHRA FEW008 SCT018 OVC080 24/23 Q1005 RERA WS LDG RWY 13/31 TEMPO VRB18G38KT 2000 +SHRA FEW008 FEW014CB BKN025
0,[Light Rain Showers],1996-9-15,[24.0 °C],[Rain],[-],[-],[89%],[N/A],[1005 hPa],[26.0 °C],[4:00 AM],[9.0 km],[East],"[18.5 km/h
		/ 5.1 m/s]",METAR VHHH 142000Z 09010KT 9000 -SHRA FEW008 SCT018 OVC080 26/24 Q1005 WS LDG RWY 13/31 TEMPO VRB18G38KT 2000 +SHRA FEW008 FEW014CB BKN025
0,[Light Rain Showers],1996-9-15,[25.0 °C],[Rain],[-],[30.6 °C],[89%],[N/A],[1005 hPa],[27.0 °C],[5:00 AM],[9.0 km],[East],"[24.1 km/h
		/ 6.7 m/s]",METAR VHHH 142100Z 10013KT 060V140 9000 -SHRA FEW008 SCT018 OVC080 27/25 Q1005 WS LDG RWY 13/31 TEMPO VRB18G38KT 2000 +SHRA FEW008 FEW014CB BKN025
0,[Light Rain Showers],1996-9-15,[25.0 °C],[Rain],[-],[30.6 °C],[89%],[N/A],[1005 hPa],[27.0 °C],[6:00 AM],[8.0 km],[East],"[25.9 km/h
		/ 7.2 m/s]",METAR VHHH 142200Z 10014KT 8000 -SHRA FEW008 SCT018 OVC080 27/25 Q1005 WS LDG RWY 13/31 TEMPO VRB18G38KT 2000 +SHRA FEW008 FEW014CB BKN025
0,[Rain Showers],1996-9-15,[25.0 °C],[Rain],"[50.0 km/h
		/ 13.9 m/s]",[30.6 °C],[89%],[N/A],[1006 hPa],[27.0 °C],[7:00 AM],[-],[East],"[24.1 km/h
		/ 6.7 m/s]",METAR VHHH 142300Z 09013G27KT 050V110 4200 SHRA FEW008 SCT016 OVC080 27/25 Q1006 WS LDG RWY 13/31 TEMPO VRB18G38KT 2000 +SHRA FEW008 FEW014CB BKN025
0,[Mostly Cloudy],1996-9-15,[25.0 °C],[],[-],[32.7 °C],[84%],[N/A],[1007 hPa],[28.0 °C],[8:00 AM],[10.0 km],[East],"[20.4 km/h
		/ 5.7 m/s]",METAR VHHH 150000Z 09011KT 020V160 9999 FEW013 SCT020 BKN080 28/25 Q1007 WS LDG RWY 13/31 TEMPO 4000 SHRA
0,[Mostly Cloudy],1996-9-15,[25.0 °C],[],[-],[34.5 °C],[79%],[N/A],[1007 hPa],[29.0 °C],[9:00 AM],[10.0 km],[East],"[18.5 km/h
		/ 5.1 m/s]",METAR VHHH 150100Z 10010KT 030V150 9999 FEW013 SCT018 BKN080 29/25 Q1007 WS LDG RWY 13/31 TEMPO 4000 SHRA
0,[Mostly Cloudy],1996-9-15,[25.0 °C],[],"[42.6 km/h
		/ 11.8 m/s]",[34.5 °C],[79%],[N/A],[1007 hPa],[29.0 °C],[10:00 AM],[10.0 km],[East],"[24.1 km/h
		/ 6.7 m/s]",METAR VHHH 150200Z 09013G23KT 030V140 9999 SCT015 SCT020 BKN080 29/25 Q1007 WS LDG RWY 13/31 TEMPO 4000 SHRA
0,[Light Rain Showers],1996-9-15,[25.0 °C],[Rain],"[42.6 km/h
		/ 11.8 m/s]",[32.7 °C],[84%],[N/A],[1007 hPa],[28.0 °C],[11:00 AM],[10.0 km],[ENE],"[24.1 km/h
		/ 6.7 m/s]",METAR VHHH 150300Z 07013G23KT 030V160 9999 -SHRA FEW014 SCT018 BKN080 28/25 Q1007 WS LDG RWY 13/31 TEMPO 4000 SHRA
0,[Mostly Cloudy],1996-9-15,[25.0 °C],[],"[40.7 km/h
		/ 11.3 m/s]",[34.5 °C],[79%],[N/A],[1007 hPa],[29.0 °C],[12:00 PM],[10.0 km],[East],"[22.2 km/h
		/ 6.2 m/s]",METAR VHHH 150400Z 09012G22KT 050V130 9999 FEW016 SCT022 BKN080 29/25 Q1007 WS LDG RWY 13/31 TEMPO 4000 SHRA
0,[Light Rain Showers],1996-9-15,[25.0 °C],[Rain],[-],[32.7 °C],[84%],[N/A],[1006 hPa],[28.0 °C],[1:00 PM],[10.0 km],[East],"[25.9 km/h
		/ 7.2 m/s]",METAR VHHH 150500Z 10014KT 060V130 9999 -SHRA FEW014 SCT020 BKN080 28/25 Q1006 WS LDG RWY 13/31 TEMPO 4000 SHRA
0,[Light Rain],1996-9-15,[25.0 °C],[Rain],"[40.7 km/h
		/ 11.3 m/s]",[32.7 °C],[84%],[N/A],[1005 hPa],[28.0 °C],[2:00 PM],[10.0 km],[East],"[22.2 km/h
		/ 6.2 m/s]",METAR VHHH 150600Z 08012G22KT 050V130 9999 -RA FEW015 SCT022 BKN080 28/25 Q1005 WS LDG RWY 13/31 TEMPO 4000 SHRA
0,[Mostly Cloudy],1996-9-15,[25.0 °C],[],"[44.4 km/h
		/ 12.3 m/s]",[34.5 °C],[79%],[N/A],[1005 hPa],[29.0 °C],[3:00 PM],[10.0 km],[East],"[24.1 km/h
		/ 6.7 m/s]",METAR VHHH 150700Z 09013G24KT 060V120 9999 FEW015 SCT022 BKN080 29/25 Q1005 WS LDG RWY 13/31 NOSIG
0,[Mostly Cloudy],1996-9-15,[25.0 °C],[],[-],[34.5 °C],[79%],[N/A],[1005 hPa],[29.0 °C],[4:00 PM],[10.0 km],[East],"[25.9 km/h
		/ 7.2 m/s]",METAR VHHH 150800Z 09014KT 060V120 9999 FEW016 SCT030 BKN080 29/25 Q1005 WS LDG RWY 13/31 NOSIG
0,[Mostly Cloudy],1996-9-15,[25.0 °C],[],[-],[34.5 °C],[79%],[N/A],[1005 hPa],[29.0 °C],[5:00 PM],[10.0 km],[East],"[20.4 km/h
		/ 5.7 m/s]",METAR VHHH 150900Z 09011KT 020V130 9999 FEW016 SCT030 BKN080 29/25 Q1005 WS LDG RWY 13/31 NOSIG
0,[Mostly Cloudy],1996-9-15,[25.0 °C],[],[-],[34.5 °C],[79%],[N/A],[1005 hPa],[29.0 °C],[6:00 PM],[10.0 km],[East],"[16.7 km/h
		/ 4.6 m/s]",METAR VHHH 151000Z 09009KT 020V130 9999 FEW016 SCT030 BKN080 29/25 Q1005 NOSIG
0,[Mostly Cloudy],1996-9-15,[25.0 °C],[],[-],[34.5 °C],[79%],[N/A],[1005 hPa],[29.0 °C],[7:00 PM],[10.0 km],[East],"[13.0 km/h
		/ 3.6 m/s]",METAR VHHH 151100Z 09007KT 070V150 9999 FEW016 SCT030 BKN080 29/25 Q1005 NOSIG
0,[Mostly Cloudy],1996-9-15,[25.0 °C],[],[-],[34.5 °C],[79%],[N/A],[1006 hPa],[29.0 °C],[8:00 PM],[10.0 km],[East],"[16.7 km/h
		/ 4.6 m/s]",METAR VHHH 151200Z 10009KT 070V140 9999 FEW016 SCT030 BKN080 29/25 Q1006 NOSIG
0,[Mostly Cloudy],1996-9-15,[25.0 °C],[],[-],[34.5 °C],[79%],[N/A],[1008 hPa],[29.0 °C],[10:00 PM],[10.0 km],[East],"[14.8 km/h
		/ 4.1 m/s]",METAR VHHH 151400Z 08008KT 050V140 9999 FEW016 SCT030 BKN090 29/25 Q1008 NOSIG
0,[Light Rain Showers],1996-9-15,[25.0 °C],[Rain],[-],[34.5 °C],[79%],[N/A],[1007 hPa],[29.0 °C],[11:00 PM],[10.0 km],[East],"[13.0 km/h
		/ 3.6 m/s]",METAR VHHH 151500Z 08007KT 040V120 9999 -SHRA FEW016 SCT022 BKN080 29/25 Q1007 NOSIG
0,[Mostly Cloudy],1996-9-16,[25.0 °C],[],[-],[32.7 °C],[84%],[N/A],[1007 hPa],[28.0 °C],[12:00 AM],[10.0 km],[East],"[9.3 km/h
		/ 2.6 m/s]",METAR VHHH 151600Z 09005KT 030V130 9999 FEW016 SCT025 BKN080 28/25 Q1007 NOSIG
0,[Mostly Cloudy],1996-9-16,[25.0 °C],[],[-],[32.7 °C],[84%],[N/A],[1007 hPa],[28.0 °C],[1:00 AM],[10.0 km],[East],"[13.0 km/h
		/ 3.6 m/s]",METAR VHHH 151700Z 09007KT 040V140 9999 FEW016 SCT025 BKN100 28/25 Q1007 NOSIG
0,[Mostly Cloudy],1996-9-16,[25.0 °C],[],[-],[32.7 °C],[84%],[N/A],[1006 hPa],[28.0 °C],[2:00 AM],[10.0 km],[East],"[16.7 km/h
		/ 4.6 m/s]",METAR VHHH 151800Z 08009KT 050V140 9999 FEW016 SCT025 BKN100 28/25 Q1006 NOSIG
0,[Mostly Cloudy],1996-9-16,[25.0 °C],[],[-],[32.7 °C],[84%],[N/A],[1006 hPa],[28.0 °C],[3:00 AM],[10.0 km],[East],"[11.1 km/h
		/ 3.1 m/s]",METAR VHHH 151900Z 08006KT 040V130 9999 FEW015 SCT025 BKN100 28/25 Q1006 NOSIG
0,[Mostly Cloudy],1996-9-16,[25.0 °C],[],[-],[32.7 °C],[84%],[N/A],[1006 hPa],[28.0 °C],[4:00 AM],[10.0 km],[East],"[11.1 km/h
		/ 3.1 m/s]",METAR VHHH 152000Z 09006KT 040V130 9999 FEW017 SCT025 BKN100 28/25 Q1006 NOSIG
0,[Mostly Cloudy],1996-9-16,[25.0 °C],[],[-],[32.7 °C],[84%],[N/A],[1006 hPa],[28.0 °C],[5:00 AM],[10.0 km],[East],"[13.0 km/h
		/ 3.6 m/s]",METAR VHHH 152100Z 09007KT 060V140 9999 FEW017 SCT025 BKN100 28/25 Q1006 NOSIG
0,[Mostly Cloudy],1996-9-16,[24.0 °C],[],[-],[31.9 °C],[79%],[N/A],[1006 hPa],[28.0 °C],[6:00 AM],[10.0 km],[East],"[18.5 km/h
		/ 5.1 m/s]",METAR VHHH 152200Z 09010KT 020V130 9999 SCT020 BKN100 28/24 Q1006 NOSIG
0,[Mostly Cloudy],1996-9-16,[24.0 °C],[],[-],[31.9 °C],[79%],[N/A],[1006 hPa],[28.0 °C],[7:00 AM],[10.0 km],[East],"[24.1 km/h
		/ 6.7 m/s]",METAR VHHH 152300Z 10013KT 070V140 9999 SCT018 BKN300 28/24 Q1006 NOSIG
0,[Mostly Cloudy],1996-9-16,[24.0 °C],[],[-],[33.5 °C],[74%],[N/A],[1006 hPa],[29.0 °C],[8:00 AM],[10.0 km],[East],"[18.5 km/h
		/ 5.1 m/s]",METAR VHHH 160000Z 10010KT 9999 FEW018 BKN300 29/24 Q1006 NOSIG
0,[Scattered Clouds],1996-9-16,[25.0 °C],[],[-],[36.0 °C],[74%],[N/A],[1007 hPa],[30.0 °C],[9:00 AM],[10.0 km],[East],"[18.5 km/h
		/ 5.1 m/s]",METAR VHHH 160100Z 10010KT 070V130 9999 FEW020 SCT300 30/25 Q1007 NOSIG
0,[Mostly Cloudy],1996-9-16,[25.0 °C],[],[-],[37.6 °C],[70%],[N/A],[1007 hPa],[31.0 °C],[10:00 AM],[10.0 km],[East],"[14.8 km/h
		/ 4.1 m/s]",METAR VHHH 160200Z 08008KT 050V120 9999 FEW025 BKN300 31/25 Q1007 NOSIG
0,[Mostly Cloudy],1996-9-16,[24.0 °C],[],[-],[36.4 °C],[66%],[N/A],[1007 hPa],[31.0 °C],[11:00 AM],[10.0 km],[East],"[13.0 km/h
		/ 3.6 m/s]",METAR VHHH 160300Z 10007KT 020V140 9999 FEW025 BKN300 31/24 Q1007 NOSIG
0,[Scattered Clouds],1996-9-16,[23.0 °C],[],[-],[37.8 °C],[55%],[N/A],[1006 hPa],[33.0 °C],[12:00 PM],[10.0 km],[SE],"[18.5 km/h
		/ 5.1 m/s]",METAR VHHH 160400Z 13010KT 080V170 9999 FEW025 SCT300 33/23 Q1006 NOSIG
0,[Mostly Cloudy],1996-9-16,[23.0 °C],[],[-],[36.8 °C],[59%],[N/A],[1005 hPa],[32.0 °C],[1:00 PM],[10.0 km],[SE],"[22.2 km/h
		/ 6.2 m/s]",METAR VHHH 160500Z 14012KT 100V170 9999 FEW025 BKN300 32/23 Q1005 NOSIG
0,[Mostly Cloudy],1996-9-16,[23.0 °C],[],[-],[36.8 °C],[59%],[N/A],[1004 hPa],[32.0 °C],[2:00 PM],[10.0 km],[SE],"[22.2 km/h
		/ 6.2 m/s]",METAR VHHH 160600Z 14012KT 9999 FEW025 BKN300 32/23 Q1004 NOSIG
0,[Mostly Cloudy],1996-9-16,[24.0 °C],[],[-],[35.0 °C],[70%],[N/A],[1004 hPa],[30.0 °C],[3:00 PM],[10.0 km],[SE],"[18.5 km/h
		/ 5.1 m/s]",METAR VHHH 160700Z 13010KT 9999 FEW025 BKN120 30/24 Q1004 NOSIG
0,[Mostly Cloudy],1996-9-16,[24.0 °C],[],[-],[36.4 °C],[66%],[N/A],[1004 hPa],[31.0 °C],[4:00 PM],[10.0 km],[SE],"[14.8 km/h
		/ 4.1 m/s]",METAR VHHH 160800Z 14008KT 9999 FEW025 BKN120 31/24 Q1004 NOSIG
0,[Mostly Cloudy],1996-9-16,[24.0 °C],[],[-],[33.5 °C],[74%],[N/A],[1004 hPa],[29.0 °C],[5:00 PM],[10.0 km],[SE],"[16.7 km/h
		/ 4.6 m/s]",METAR VHHH 160900Z 13009KT 9999 FEW030 BKN100 29/24 Q1004 NOSIG
0,[Mostly Cloudy],1996-9-16,[24.0 °C],[],[-],[33.5 °C],[74%],[N/A],[1004 hPa],[29.0 °C],[6:00 PM],[10.0 km],[SE],"[13.0 km/h
		/ 3.6 m/s]",METAR VHHH 161000Z 13007KT 9999 FEW030 BKN300 29/24 Q1004 NOSIG
0,[Mostly Cloudy],1996-9-16,[24.0 °C],[],[-],[31.9 °C],[79%],[N/A],[1004 hPa],[28.0 °C],[7:00 PM],[10.0 km],[ESE],"[9.3 km/h
		/ 2.6 m/s]",METAR VHHH 161100Z 12005KT 090V150 9999 FEW018 SCT025 BKN300 28/24 Q1004 NOSIG
0,[Mostly Cloudy],1996-9-16,[24.0 °C],[],[-],[33.5 °C],[74%],[N/A],[1006 hPa],[29.0 °C],[9:00 PM],[10.0 km],[ESE],"[11.1 km/h
		/ 3.1 m/s]",METAR VHHH 161300Z 12006KT 080V150 9999 FEW018 SCT025 BKN080 29/24 Q1006 NOSIG
0,[Scattered Clouds],1996-9-16,[23.0 °C],[],[-],[32.7 °C],[70%],[N/A],[1006 hPa],[29.0 °C],[11:00 PM],[10.0 km],[East],"[14.8 km/h
		/ 4.1 m/s]",METAR VHHH 161500Z 10008KT 9999 FEW020 SCT030 29/23 Q1006 NOSIG
0,[Scattered Clouds],1996-9-17,[24.0 °C],[],[-],[33.5 °C],[74%],[N/A],[1006 hPa],[29.0 °C],[12:00 AM],[10.0 km],[East],"[11.1 km/h
		/ 3.1 m/s]",METAR VHHH 161600Z 10006KT 9999 FEW025 SCT035 29/24 Q1006 NOSIG
0,[Scattered Clouds],1996-9-17,[24.0 °C],[],[-],[31.9 °C],[79%],[N/A],[1006 hPa],[28.0 °C],[1:00 AM],[10.0 km],[ESE],"[9.3 km/h
		/ 2.6 m/s]",METAR VHHH 161700Z 12005KT 090V150 9999 FEW022 SCT040 28/24 Q1006 NOSIG
0,[Scattered Clouds],1996-9-17,[24.0 °C],[],[-],[31.9 °C],[79%],[N/A],[1005 hPa],[28.0 °C],[3:00 AM],[10.0 km],[East],"[9.3 km/h
		/ 2.6 m/s]",METAR VHHH 161900Z 10005KT 9999 FEW025 SCT080 28/24 Q1005 NOSIG
0,[Partly Cloudy],1996-9-17,[24.0 °C],[],[-],[31.9 °C],[79%],[N/A],[1004 hPa],[28.0 °C],[4:00 AM],[10.0 km],[East],"[5.6 km/h
		/ 1.5 m/s]",METAR VHHH 162000Z 09003KT 9999 FEW020 28/24 Q1004 NOSIG
0,[Scattered Clouds],1996-9-17,[24.0 °C],[],[-],[31.9 °C],[79%],[N/A],[1004 hPa],[28.0 °C],[5:00 AM],[10.0 km],[East],"[7.4 km/h
		/ 2.1 m/s]",METAR VHHH 162100Z 09004KT 9999 FEW020 SCT080 28/24 Q1004 NOSIG
0,[Mostly Cloudy],1996-9-17,[24.0 °C],[],[-],[31.9 °C],[79%],[N/A],[1004 hPa],[28.0 °C],[6:00 AM],[10.0 km],[East],"[9.3 km/h
		/ 2.6 m/s]",METAR VHHH 162200Z 10005KT 060V130 9999 FEW015 BKN080 28/24 Q1004 NOSIG
0,[Mostly Cloudy],1996-9-17,[24.0 °C],[],[-],[31.9 °C],[79%],[N/A],[1004 hPa],[28.0 °C],[7:00 AM],[10.0 km],[East],"[9.3 km/h
		/ 2.6 m/s]",METAR VHHH 162300Z 09005KT 050V120 9999 FEW016 BKN080 28/24 Q1004 NOSIG
0,[Mostly Cloudy],1996-9-17,[24.0 °C],[],[-],[35.0 °C],[70%],[N/A],[1005 hPa],[30.0 °C],[8:00 AM],[10.0 km],[ENE],"[16.7 km/h
		/ 4.6 m/s]",METAR VHHH 170000Z 07009KT 050V120 9999 FEW020 BKN300 30/24 Q1005 NOSIG
0,[Mostly Cloudy],1996-9-17,[24.0 °C],[],[-],[35.0 °C],[70%],[N/A],[1005 hPa],[30.0 °C],[9:00 AM],[10.0 km],[East],"[18.5 km/h
		/ 5.1 m/s]",METAR VHHH 170100Z 08010KT 010V150 9999 FEW020 BKN100 30/24 Q1005 NOSIG
0,[Mostly Cloudy],1996-9-17,[23.0 °C],[],[-],[35.4 °C],[62%],[N/A],[1005 hPa],[31.0 °C],[10:00 AM],[10.0 km],[East],"[16.7 km/h
		/ 4.6 m/s]",METAR VHHH 170200Z 08009KT 360V110 9999 FEW020 SCT030 BKN080 31/23 Q1005 NOSIG
0,[Mostly Cloudy],1996-9-17,[23.0 °C],[],[-],[35.4 °C],[62%],[N/A],[1005 hPa],[31.0 °C],[11:00 AM],[10.0 km],[East],"[18.5 km/h
		/ 5.1 m/s]",METAR VHHH 170300Z 09010KT 040V120 9999 FEW020 SCT030 BKN080 31/23 Q1005 NOSIG
0,[Mostly Cloudy],1996-9-17,[23.0 °C],[],[-],[34.1 °C],[66%],[N/A],[1005 hPa],[30.0 °C],[12:00 PM],[10.0 km],[East],"[14.8 km/h
		/ 4.1 m/s]",METAR VHHH 170400Z 09008KT 050V140 9999 FEW022 SCT030 BKN080 30/23 Q1005 NOSIG
0,[Mostly Cloudy],1996-9-17,[23.0 °C],[],[-],[35.4 °C],[62%],[N/A],[1004 hPa],[31.0 °C],[1:00 PM],[10.0 km],[ENE],"[18.5 km/h
		/ 5.1 m/s]",METAR VHHH 170500Z 06010KT 010V110 9999 FEW020 SCT030 BKN080 31/23 Q1004 NOSIG
0,[Mostly Cloudy],1996-9-17,[23.0 °C],[],[-],[35.4 °C],[62%],[N/A],[1004 hPa],[31.0 °C],[2:00 PM],[10.0 km],[ENE],"[16.7 km/h
		/ 4.6 m/s]",METAR VHHH 170600Z 06009KT 350V100 9999 FEW020 SCT030 BKN300 31/23 Q1004 NOSIG
0,[Mostly Cloudy],1996-9-17,[22.0 °C],[],[-],[34.4 °C],[58%],[N/A],[1003 hPa],[31.0 °C],[3:00 PM],[10.0 km],[East],"[14.8 km/h
		/ 4.1 m/s]",METAR VHHH 170700Z 09008KT 340V130 9999 FEW025 BKN300 31/22 Q1003 NOSIG
0,[Scattered Clouds],1996-9-17,[22.0 °C],[],[-],[34.4 °C],[58%],[N/A],[1003 hPa],[31.0 °C],[4:00 PM],[10.0 km],[East],"[11.1 km/h
		/ 3.1 m/s]",METAR VHHH 170800Z 08006KT 010V140 9999 FEW025 SCT120 31/22 Q1003 NOSIG
0,[Clear],1996-9-17,[22.0 °C],[],[-],[33.2 °C],[62%],[N/A],[1003 hPa],[30.0 °C],[5:00 PM],[-],[ENE],"[13.0 km/h
		/ 3.6 m/s]",METAR VHHH 170900Z 07007KT 010V140 CAVOK 30/22 Q1003 NOSIG
0,[Scattered Clouds],1996-9-17,[25.0 °C],[],[-],[34.5 °C],[79%],[N/A],[1003 hPa],[29.0 °C],[7:00 PM],[10.0 km],[East],"[13.0 km/h
		/ 3.6 m/s]",METAR VHHH 171100Z 10007KT 070V140 9999 FEW018 SCT120 29/25 Q1003 NOSIG
0,[Scattered Clouds],1996-9-17,[24.0 °C],[],[-],[33.5 °C],[74%],[N/A],[1003 hPa],[29.0 °C],[8:00 PM],[10.0 km],[ESE],"[14.8 km/h
		/ 4.1 m/s]",METAR VHHH 171200Z 11008KT 040V160 9999 FEW016 SCT120 29/24 Q1003 NOSIG
0,[Scattered Clouds],1996-9-17,[24.0 °C],[],[-],[33.5 °C],[74%],[N/A],[1004 hPa],[29.0 °C],[9:00 PM],[10.0 km],[East],"[14.8 km/h
		/ 4.1 m/s]",METAR VHHH 171300Z 10008KT 060V120 9999 SCT020 SCT120 29/24 Q1004 NOSIG
0,[Scattered Clouds],1996-9-17,[24.0 °C],[],[-],[33.5 °C],[74%],[N/A],[1004 hPa],[29.0 °C],[10:00 PM],[10.0 km],[East],"[13.0 km/h
		/ 3.6 m/s]",METAR VHHH 171400Z 10007KT 070V130 9999 FEW018 SCT120 29/24 Q1004 NOSIG
0,[Mostly Cloudy],1996-9-17,[24.0 °C],[],[-],[33.5 °C],[74%],[N/A],[1005 hPa],[29.0 °C],[11:00 PM],[10.0 km],[East],"[18.5 km/h
		/ 5.1 m/s]",METAR VHHH 171500Z 10010KT 060V140 9999 FEW020 SCT025 BKN100 29/24 Q1005 NOSIG
0,[Mostly Cloudy],1996-9-18,[24.0 °C],[],[-],[31.9 °C],[79%],[N/A],[1005 hPa],[28.0 °C],[12:00 AM],[10.0 km],[ESE],"[11.1 km/h
		/ 3.1 m/s]",METAR VHHH 171600Z 12006KT 080V150 9999 FEW020 SCT025 BKN080 28/24 Q1005 NOSIG
0,[Mostly Cloudy],1996-9-18,[24.0 °C],[],[-],[31.9 °C],[79%],[N/A],[1004 hPa],[28.0 °C],[1:00 AM],[10.0 km],[ESE],"[9.3 km/h
		/ 2.6 m/s]",METAR VHHH 171700Z 11005KT 090V150 9999 FEW020 SCT025 BKN080 28/24 Q1004 NOSIG
0,[Mostly Cloudy],1996-9-18,[24.0 °C],[],[-],[31.9 °C],[79%],[N/A],[1004 hPa],[28.0 °C],[2:00 AM],[10.0 km],[East],"[13.0 km/h
		/ 3.6 m/s]",METAR VHHH 171800Z 10007KT 070V130 9999 FEW020 SCT025 BKN080 28/24 Q1004 NOSIG
0,[Mostly Cloudy],1996-9-18,[25.0 °C],[],[-],[32.7 °C],[84%],[N/A],[1003 hPa],[28.0 °C],[3:00 AM],[10.0 km],[ESE],"[13.0 km/h
		/ 3.6 m/s]",METAR VHHH 171900Z 11007KT 090V150 9999 FEW016 SCT025 BKN080 28/25 Q1003 NOSIG
0,[Mostly Cloudy],1996-9-18,[25.0 °C],[],[-],[32.7 °C],[84%],[N/A],[1003 hPa],[28.0 °C],[4:00 AM],[10.0 km],[East],"[13.0 km/h
		/ 3.6 m/s]",METAR VHHH 172000Z 10007KT 050V130 9999 FEW014 SCT025 BKN080 28/25 Q1003 NOSIG
0,[Mostly Cloudy],1996-9-18,[25.0 °C],[],[-],[32.7 °C],[84%],[N/A],[1003 hPa],[28.0 °C],[5:00 AM],[10.0 km],[East],"[13.0 km/h
		/ 3.6 m/s]",METAR VHHH 172100Z 08007KT 310V130 9999 FEW014 SCT020 BKN080 28/25 Q1003 NOSIG
0,[Scattered Clouds],1996-9-18,[24.0 °C],[],[-],[31.9 °C],[79%],[N/A],[1003 hPa],[28.0 °C],[6:00 AM],[10.0 km],[East],"[16.7 km/h
		/ 4.6 m/s]",METAR VHHH 172200Z 08009KT 360V160 9999 FEW016 SCT020 28/24 Q1003 NOSIG
0,[Scattered Clouds],1996-9-18,[24.0 °C],[],[-],[33.5 °C],[74%],[N/A],[1004 hPa],[29.0 °C],[8:00 AM],[10.0 km],[ENE],"[14.8 km/h
		/ 4.1 m/s]",METAR VHHH 180000Z 07008KT 310V130 9999 FEW016 SCT025 29/24 Q1004 NOSIG
0,[Mostly Cloudy],1996-9-18,[24.0 °C],[],[-],[35.0 °C],[70%],[N/A],[1004 hPa],[30.0 °C],[9:00 AM],[10.0 km],[East],"[16.7 km/h
		/ 4.6 m/s]",METAR VHHH 180100Z 09009KT 360V140 9999 FEW016 SCT025 BKN300 30/24 Q1004 NOSIG
0,[Scattered Clouds],1996-9-18,[25.0 °C],[],[-],[36.0 °C],[74%],[N/A],[1004 hPa],[30.0 °C],[10:00 AM],[10.0 km],[East],"[22.2 km/h
		/ 6.2 m/s]",METAR VHHH 180200Z 08012KT 360V120 9999 FEW016 SCT025 30/25 Q1004 WS LDG RWY 13/31 NOSIG
0,[Scattered Clouds],1996-9-18,[24.0 °C],[],[-],[37.7 °C],[62%],[N/A],[1004 hPa],[32.0 °C],[11:00 AM],[10.0 km],[ESE],"[22.2 km/h
		/ 6.2 m/s]",METAR VHHH 180300Z 11012KT 070V150 9999 FEW018 SCT025 32/24 Q1004 WS LDG RWY 13/31 NOSIG
0,[Scattered Clouds],1996-9-18,[23.0 °C],[],[-],[35.4 °C],[62%],[N/A],[1004 hPa],[31.0 °C],[12:00 PM],[10.0 km],[ESE],"[22.2 km/h
		/ 6.2 m/s]",METAR VHHH 180400Z 11012KT 050V150 9999 FEW018 SCT025 31/23 Q1004 WS LDG RWY 13/31 NOSIG
0,[Mostly Cloudy],1996-9-18,[24.0 °C],[],[-],[36.4 °C],[66%],[N/A],[1003 hPa],[31.0 °C],[1:00 PM],[10.0 km],[ESE],"[24.1 km/h
		/ 6.7 m/s]",METAR VHHH 180500Z 11013KT 080V150 9999 FEW018 SCT025 BKN100 31/24 Q1003 WS LDG RWY 13/31 NOSIG
0,[Mostly Cloudy],1996-9-18,[24.0 °C],[],[-],[36.4 °C],[66%],[N/A],[1003 hPa],[31.0 °C],[2:00 PM],[10.0 km],[East],"[18.5 km/h
		/ 5.1 m/s]",METAR VHHH 180600Z 10010KT 030V130 9999 FEW018 SCT025 BKN100 31/24 Q1003 NOSIG
0,[Mostly Cloudy],1996-9-18,[25.0 °C],[],[-],[36.0 °C],[74%],[N/A],[1002 hPa],[30.0 °C],[3:00 PM],[10.0 km],[East],"[22.2 km/h
		/ 6.2 m/s]",METAR VHHH 180700Z 09012KT 010V120 9999 FEW016 SCT025 BKN100 30/25 Q1002 WS LDG RWY 13/31 NOSIG
0,[Rain Showers],1996-9-18,[26.0 °C],[Rain],[-],[31.2 °C],[94%],[N/A],[1002 hPa],[27.0 °C],[4:00 PM],[-],[East],"[22.2 km/h
		/ 6.2 m/s]",METAR VHHH 180800Z 10012KT 070V130 3200 SHRA FEW012 SCT018 BKN100 27/26 Q1002 RERA WS LDG RWY 13/31 TEMPO 4000 SHRA
0,[Mostly Cloudy],1996-9-18,[25.0 °C],[],[-],[30.6 °C],[89%],[N/A],[1002 hPa],[27.0 °C],[5:00 PM],[10.0 km],[East],"[18.5 km/h
		/ 5.1 m/s]",METAR VHHH 180900Z 09010KT 040V120 9999 FEW010 SCT018 BKN100 27/25 Q1002 RERA WS LDG RWY 13/31 TEMPO 4000 SHRA
0,[Mostly Cloudy],1996-9-18,[25.0 °C],[],[-],[32.7 °C],[84%],[N/A],[1002 hPa],[28.0 °C],[6:00 PM],[10.0 km],[ENE],"[14.8 km/h
		/ 4.1 m/s]",METAR VHHH 181000Z 06008KT 360V110 9999 FEW010 SCT020 BKN100 28/25 Q1002 NOSIG
0,[Mostly Cloudy],1996-9-18,[25.0 °C],[],[-],[32.7 °C],[84%],[N/A],[1003 hPa],[28.0 °C],[7:00 PM],[10.0 km],[East],"[13.0 km/h
		/ 3.6 m/s]",METAR VHHH 181100Z 09007KT 020V140 9999 FEW008 SCT016 BKN100 28/25 Q1003 NOSIG
0,[Mostly Cloudy],1996-9-18,[26.0 °C],[],[-],[33.6 °C],[89%],[N/A],[1003 hPa],[28.0 °C],[8:00 PM],[10.0 km],[East],"[18.5 km/h
		/ 5.1 m/s]",METAR VHHH 181200Z 09010KT 060V130 9999 FEW008 SCT016 BKN100 28/26 Q1003 TEMPO 4000 SHRA
0,[Scattered Clouds],1996-9-18,[25.0 °C],[],[-],[32.7 °C],[84%],[N/A],[1004 hPa],[28.0 °C],[9:00 PM],[10.0 km],[East],"[7.4 km/h
		/ 2.1 m/s]",METAR VHHH 181300Z 09004KT 060V140 9999 FEW016 SCT022 28/25 Q1004 TEMPO 4000 SHRA
0,[Light Rain Showers],1996-9-18,[25.0 °C],[Rain],[-],[32.7 °C],[84%],[N/A],[1004 hPa],[28.0 °C],[10:00 PM],[10.0 km],[East],"[16.7 km/h
		/ 4.6 m/s]",METAR VHHH 181400Z 08009KT 030V110 9999 -SHRA FEW010 BKN022 28/25 Q1004 TEMPO 4000 SHRA
0,[Mostly Cloudy],1996-9-18,[25.0 °C],[],[-],[32.7 °C],[84%],[N/A],[1004 hPa],[28.0 °C],[11:00 PM],[10.0 km],[East],"[13.0 km/h
		/ 3.6 m/s]",METAR VHHH 181500Z 09007KT 070V130 9999 FEW012 SCT022 BKN080 28/25 Q1004 TEMPO 4000 SHRA
0,[Mostly Cloudy],1996-9-19,[25.0 °C],[],[-],[32.7 °C],[84%],[N/A],[1004 hPa],[28.0 °C],[12:00 AM],[10.0 km],[East],"[11.1 km/h
		/ 3.1 m/s]",METAR VHHH 181600Z 09006KT 060V180 9999 FEW015 SCT025 BKN300 28/25 Q1004 TEMPO 4000 SHRA
0,[Light Rain Showers],1996-9-19,[25.0 °C],[Rain],[-],[32.7 °C],[84%],[N/A],[1003 hPa],[28.0 °C],[1:00 AM],[10.0 km],[East],"[13.0 km/h
		/ 3.6 m/s]",METAR VHHH 181700Z 09007KT 060V120 9999 -SHRA FEW012 BKN025 28/25 Q1003 TEMPO 4000 SHRA
0,[Mostly Cloudy],1996-9-19,[26.0 °C],[],[-],[33.6 °C],[89%],[N/A],[1003 hPa],[28.0 °C],[2:00 AM],[10.0 km],[East],"[18.5 km/h
		/ 5.1 m/s]",METAR VHHH 181800Z 10010KT 9999 FEW012 BKN025 28/26 Q1003 TEMPO 4000 SHRA
0,[Scattered Clouds],1996-9-19,[25.0 °C],[],[-],[32.7 °C],[84%],[N/A],[1002 hPa],[28.0 °C],[3:00 AM],[10.0 km],[East],"[18.5 km/h
		/ 5.1 m/s]",METAR VHHH 181900Z 08010KT 050V120 9999 FEW015 SCT025 28/25 Q1002 TEMPO 4000 SHRA
0,[Scattered Clouds],1996-9-19,[25.0 °C],[],[-],[32.7 °C],[84%],[N/A],[1003 hPa],[28.0 °C],[4:00 AM],[10.0 km],[East],"[14.8 km/h
		/ 4.1 m/s]",METAR VHHH 182000Z 08008KT 050V110 9999 FEW016 SCT025 28/25 Q1003 TEMPO 4000 SHRA
0,[Scattered Clouds],1996-9-19,[25.0 °C],[],[-],[32.7 °C],[84%],[N/A],[1002 hPa],[28.0 °C],[5:00 AM],[10.0 km],[East],"[13.0 km/h
		/ 3.6 m/s]",METAR VHHH 182100Z 08007KT 050V110 9999 FEW012 SCT025 28/25 Q1002 TEMPO 4000 SHRA
0,[Scattered Clouds],1996-9-19,[25.0 °C],[],[-],[32.7 °C],[84%],[N/A],[1003 hPa],[28.0 °C],[6:00 AM],[10.0 km],[East],"[13.0 km/h
		/ 3.6 m/s]",METAR VHHH 182200Z 08007KT 050V120 9999 FEW012 SCT025 28/25 Q1003 TEMPO 4000 SHRA
0,[Scattered Clouds],1996-9-19,[25.0 °C],[],[-],[32.7 °C],[84%],[N/A],[1003 hPa],[28.0 °C],[7:00 AM],[10.0 km],[East],"[16.7 km/h
		/ 4.6 m/s]",METAR VHHH 182300Z 09009KT 9999 FEW012 SCT025 28/25 Q1003 TEMPO 4000 SHRA
0,[Scattered Clouds],1996-9-19,[26.0 °C],[],[-],[35.6 °C],[84%],[N/A],[1004 hPa],[29.0 °C],[8:00 AM],[10.0 km],[East],"[16.7 km/h
		/ 4.6 m/s]",METAR VHHH 190000Z 09009KT 030V120 9999 FEW012 SCT022 29/26 Q1004 NOSIG
0,[Scattered Clouds],1996-9-19,[25.0 °C],[],[-],[36.0 °C],[74%],[N/A],[1004 hPa],[30.0 °C],[9:00 AM],[10.0 km],[East],"[18.5 km/h
		/ 5.1 m/s]",METAR VHHH 190100Z 09010KT 060V150 9999 FEW015 SCT022 30/25 Q1004 NOSIG
0,[Scattered Clouds],1996-9-19,[25.0 °C],[],[-],[36.0 °C],[74%],[N/A],[1004 hPa],[30.0 °C],[10:00 AM],[10.0 km],[East],"[16.7 km/h
		/ 4.6 m/s]",METAR VHHH 190200Z 09009KT 020V170 9999 FEW015 SCT025 30/25 Q1004 NOSIG
0,[Scattered Clouds],1996-9-19,[26.0 °C],[],[-],[35.6 °C],[84%],[N/A],[1004 hPa],[29.0 °C],[11:00 AM],[10.0 km],[East],"[18.5 km/h
		/ 5.1 m/s]",METAR VHHH 190300Z 10010KT 060V130 9999 FEW012 SCT022 29/26 Q1004 TEMPO 4000 SHRA
0,[Light Rain Showers],1996-9-19,[26.0 °C],[Rain],[-],[35.6 °C],[84%],[N/A],[1004 hPa],[29.0 °C],[12:00 PM],[8.0 km],[East],"[31.5 km/h
		/ 8.7 m/s]",METAR VHHH 190400Z 09017KT 060V120 8000 -SHRA FEW010 SCT020 29/26 Q1004 WS LDG RWY 13/31 TEMPO VRB18G32KT 2500 TSRA SHRA FEW008 FEW012CB SCT018 BKN080
0,[Light Rain Showers],1996-9-19,[25.0 °C],[Rain],"[48.2 km/h
		/ 13.4 m/s]",[34.5 °C],[79%],[N/A],[1003 hPa],[29.0 °C],[1:00 PM],[10.0 km],[ESE],"[29.6 km/h
		/ 8.2 m/s]",METAR VHHH 190500Z 11016G26KT 060V120 9999 -SHRA FEW009 SCT018 BKN080 29/25 Q1003 WS LDG RWY 13/31 TEMPO VRB18G32KT 2500 TSRA FEW008 FEW012CB SCT018 BKN080
0,[Light Rain Showers],1996-9-19,[26.0 °C],[Rain],[-],[33.6 °C],[89%],[N/A],[1002 hPa],[28.0 °C],[2:00 PM],[6.0 km],[ESE],"[18.5 km/h
		/ 5.1 m/s]",METAR VHHH 190600Z 11010KT 060V140 6000 -SHRA FEW015 SCT022 BKN100 28/26 Q1002 TEMPO 2500 SHRA
0,[Light Rain Showers],1996-9-19,[25.0 °C],[Rain],"[59.3 km/h
		/ 16.5 m/s]",[-],[100%],[N/A],[1002 hPa],[25.0 °C],[3:00 PM],[6.0 km],[ESE],"[22.2 km/h
		/ 6.2 m/s]",METAR VHHH 190700Z 12012G32KT 090V150 6000 -SHRA FEW015CB SCT025 BKN100 25/25 Q1002 RETS WS LDG RWY 13/31 TEMPO VRB18G32KT 2500 SHRA/TSRA FEW008 FEW012CB SCT018 BKN080
0,[Mostly Cloudy],1996-9-19,[25.0 °C],[],[-],[34.5 °C],[79%],[N/A],[1002 hPa],[29.0 °C],[4:00 PM],[10.0 km],[East],"[24.1 km/h
		/ 6.7 m/s]",METAR VHHH 190800Z 09013KT 060V130 9999 FEW012 SCT022 BKN100 29/25 Q1002 WS LDG RWY 13/31 TEMPO VRB18G32KT 2500 SHRA/TSRA FEW008 FEW012CB SCT018 BKN080
0,[Mostly Cloudy],1996-9-19,[26.0 °C],[],[-],[35.6 °C],[84%],[N/A],[1002 hPa],[29.0 °C],[5:00 PM],[10.0 km],[East],"[25.9 km/h
		/ 7.2 m/s]",METAR VHHH 190900Z 10014KT 9999 FEW014 SCT020 BKN100 29/26 Q1002 WS LDG RWY 13/31 TEMPO VRB18G32KT 2500 SHRA/TSRA FEW008 FEW012CB SCT018 BKN080
0,[Mostly Cloudy],1996-9-19,[26.0 °C],[],[-],[33.6 °C],[89%],[N/A],[1003 hPa],[28.0 °C],[6:00 PM],[10.0 km],[East],"[25.9 km/h
		/ 7.2 m/s]",METAR VHHH 191000Z 09014KT 050V120 9999 FEW014 SCT020 BKN100 28/26 Q1003 WS LDG RWY 13/31 TEMPO VRB18G32KT 2500 SHRA/TSRA FEW008 FEW012CB SCT018 BKN080
0,[Mostly Cloudy],1996-9-19,[25.0 °C],[],[-],[32.7 °C],[84%],[N/A],[1004 hPa],[28.0 °C],[9:00 PM],[10.0 km],[East],"[20.4 km/h
		/ 5.7 m/s]",METAR VHHH 191300Z 09011KT 050V140 9999 FEW011 SCT020 BKN100 28/25 Q1004 WS LDG RWY 13/31 TEMPO 4000 SHRA
0,[Mostly Cloudy],1996-9-19,[26.0 °C],[],[-],[35.6 °C],[84%],[N/A],[1004 hPa],[29.0 °C],[10:00 PM],[10.0 km],[ENE],"[20.4 km/h
		/ 5.7 m/s]",METAR VHHH 191400Z 07011KT 020V100 9999 FEW011 SCT018 BKN100 29/26 Q1004 WS LDG RWY 13/31 TEMPO 4000 SHRA
0,[Mostly Cloudy],1996-9-20,[25.0 °C],[],[-],[32.7 °C],[84%],[N/A],[1005 hPa],[28.0 °C],[12:00 AM],[10.0 km],[East],"[22.2 km/h
		/ 6.2 m/s]",METAR VHHH 191600Z 09012KT 060V170 9999 FEW010 SCT020 BKN100 28/25 Q1005 TEMPO 4000 SHRA
0,[Mostly Cloudy],1996-9-20,[25.0 °C],[],[-],[32.7 °C],[84%],[N/A],[1004 hPa],[28.0 °C],[1:00 AM],[10.0 km],[East],"[20.4 km/h
		/ 5.7 m/s]",METAR VHHH 191700Z 10011KT 070V140 9999 FEW010 SCT020 BKN100 28/25 Q1004 TEMPO 4000 SHRA
0,[Mostly Cloudy],1996-9-20,[25.0 °C],[],[-],[32.7 °C],[84%],[N/A],[1004 hPa],[28.0 °C],[2:00 AM],[10.0 km],[East],"[18.5 km/h
		/ 5.1 m/s]",METAR VHHH 191800Z 10010KT 070V130 9999 FEW010 SCT020 BKN100 28/25 Q1004 TEMPO 4000 SHRA
0,[Light Rain Showers],1996-9-20,[26.0 °C],[Rain],[-],[33.6 °C],[89%],[N/A],[1004 hPa],[28.0 °C],[3:00 AM],[10.0 km],[East],"[20.4 km/h
		/ 5.7 m/s]",METAR VHHH 191900Z 08011KT 040V120 9999 -SHRA FEW010 SCT020 BKN100 28/26 Q1004 TEMPO 4000 SHRA
0,[Scattered Clouds],1996-9-20,[25.0 °C],[],[-],[32.7 °C],[84%],[N/A],[1003 hPa],[28.0 °C],[4:00 AM],[10.0 km],[East],"[16.7 km/h
		/ 4.6 m/s]",METAR VHHH 192000Z 08009KT 9999 FEW013 SCT020 28/25 Q1003 TEMPO 4000 SHRA
0,[Rain Showers],1996-9-20,[26.0 °C],[Rain],[-],[31.2 °C],[94%],[N/A],[1004 hPa],[27.0 °C],[5:00 AM],[4.0 km],[SE],"[27.8 km/h
		/ 7.7 m/s]",METAR VHHH 192100Z 13015KT 070V180 4000S R31/1100VP2000D R13/P2000N SHRA FEW008 SCT018 BKN070 27/26 Q1004 TEMPO 4000 SHRA
0,[Mostly Cloudy],1996-9-20,[25.0 °C],[],[-],[30.6 °C],[89%],[N/A],[1004 hPa],[27.0 °C],[6:00 AM],[10.0 km],[East],"[20.4 km/h
		/ 5.7 m/s]",METAR VHHH 192200Z 09011KT 060V120 9999 FEW014 SCT020 BKN080 27/25 Q1004 TEMPO 4000 SHRA
0,[Mostly Cloudy],1996-9-20,[25.0 °C],[],[-],[30.6 °C],[89%],[N/A],[1005 hPa],[27.0 °C],[7:00 AM],[10.0 km],[East],"[18.5 km/h
		/ 5.1 m/s]",METAR VHHH 192300Z 10010KT 050V130 9999 FEW014 SCT025 BKN080 27/25 Q1005 TEMPO 4000 MOD SHWR
0,[Mostly Cloudy],1996-9-20,[25.0 °C],[],[-],[32.7 °C],[84%],[N/A],[1006 hPa],[28.0 °C],[8:00 AM],[10.0 km],[ESE],"[11.1 km/h
		/ 3.1 m/s]",METAR VHHH 200000Z 11006KT 090V150 9999 FEW008 SCT018 BKN100 28/25 Q1006 TEMPO 4000 SHRA
0,[Mostly Cloudy],1996-9-20,[25.0 °C],[],[-],[32.7 °C],[84%],[N/A],[1006 hPa],[28.0 °C],[9:00 AM],[10.0 km],[ENE],"[14.8 km/h
		/ 4.1 m/s]",METAR VHHH 200100Z 07008KT 020V110 9999 FEW010 SCT018 BKN100 28/25 Q1006 TEMPO 4000 SHRA
0,[Mostly Cloudy],1996-9-20,[26.0 °C],[],[-],[35.6 °C],[84%],[N/A],[1006 hPa],[29.0 °C],[10:00 AM],[10.0 km],[East],"[14.8 km/h
		/ 4.1 m/s]",METAR VHHH 200200Z 08008KT 030V110 9999 FEW010 SCT018 BKN100 29/26 Q1006 TEMPO 4000 SHRA
0,[Light Rain],1996-9-20,[25.0 °C],[Rain],[-],[30.6 °C],[89%],[N/A],[1006 hPa],[27.0 °C],[11:00 AM],[10.0 km],[ESE],"[14.8 km/h
		/ 4.1 m/s]",METAR VHHH 200300Z 12008KT 060V140 9999 -RA FEW008 SCT020 BKN100 27/25 Q1006 RETS WS LDG RWY 13/31 TEMPO VRB18G32KT 2500 SHRA TSRA FEW008 FEW012CB SCT018 BKN080
0,[Mostly Cloudy],1996-9-20,[26.0 °C],[],[-],[35.6 °C],[84%],[N/A],[1006 hPa],[29.0 °C],[12:00 PM],[10.0 km],[East],"[13.0 km/h
		/ 3.6 m/s]",METAR VHHH 200400Z 10007KT 060V150 9999 FEW012 SCT017 BKN100 29/26 Q1006 WS LDG RWY 13/31 TEMPO 4000 SHRA FEW008 FEW015CB SCT018 BKN080
0,[Light Rain Showers],1996-9-20,[26.0 °C],[Rain],[-],[35.6 °C],[84%],[N/A],[1005 hPa],[29.0 °C],[1:00 PM],[6.0 km],[East],"[22.2 km/h
		/ 6.2 m/s]",METAR VHHH 200500Z 09012KT 6000 -SHRA FEW012 SCT017 BKN100 29/26 Q1005 WS LDG RWY 13/31 TEMPO 4000 SHRA FEW008 FEW015CB SCT018 BKN080
0,[Mostly Cloudy],1996-9-20,[25.0 °C],[],[-],[34.5 °C],[79%],[N/A],[1004 hPa],[29.0 °C],[2:00 PM],[10.0 km],[East],"[18.5 km/h
		/ 5.1 m/s]",METAR VHHH 200600Z 09010KT 050V140 9999 FEW012 SCT017 BKN080 29/25 Q1004 TEMPO 4000 SHRA
0,[Mostly Cloudy],1996-9-20,[26.0 °C],[],[-],[35.6 °C],[84%],[N/A],[1004 hPa],[29.0 °C],[3:00 PM],[10.0 km],[ESE],"[16.7 km/h
		/ 4.6 m/s]",METAR VHHH 200700Z 11009KT 080V150 9999 FEW012 SCT018 BKN120 29/26 Q1004 NOSIG
0,[Mostly Cloudy],1996-9-20,[26.0 °C],[],[-],[37.4 °C],[79%],[N/A],[1004 hPa],[30.0 °C],[4:00 PM],[10.0 km],[East],"[13.0 km/h
		/ 3.6 m/s]",METAR VHHH 200800Z 08007KT 060V150 9999 FEW010 SCT020 BKN120 30/26 Q1004 NOSIG
0,[Mostly Cloudy],1996-9-20,[26.0 °C],[],[-],[35.6 °C],[84%],[N/A],[1005 hPa],[29.0 °C],[5:00 PM],[6.0 km],[ESE],"[13.0 km/h
		/ 3.6 m/s]",METAR VHHH 200900Z 11007KT 080V140 6000 FEW014 SCT020 BKN100 29/26 Q1005 TEMPO 4000 SHRA
0,[Light Rain Showers],1996-9-20,[26.0 °C],[Rain],[-],[35.6 °C],[84%],[N/A],[1005 hPa],[29.0 °C],[6:00 PM],[9.0 km],[ENE],"[7.4 km/h
		/ 2.1 m/s]",METAR VHHH 201000Z 06004KT 330V110 9000 -SHRA FEW012 SCT020 BKN100 29/26 Q1005 TEMPO 4000 SHRA
0,[Light Rain Showers],1996-9-20,[25.0 °C],[Rain],[-],[32.7 °C],[84%],[N/A],[1006 hPa],[28.0 °C],[7:00 PM],[10.0 km],[East],"[13.0 km/h
		/ 3.6 m/s]",METAR VHHH 201100Z 08007KT 050V130 9999 -SHRA FEW013 SCT018 BKN100 28/25 Q1006 WS LDG RWY 13/31 TEMPO VRB18G32KT 2500 SHRA/TSRA FEW008 FEW012CB SCT018 BKN080
0,[Mostly Cloudy],1996-9-20,[26.0 °C],[],[-],[35.6 °C],[84%],[N/A],[1006 hPa],[29.0 °C],[8:00 PM],[10.0 km],[East],"[18.5 km/h
		/ 5.1 m/s]",METAR VHHH 201200Z 09010KT 060V120 9999 FEW011 SCT016 BKN100 29/26 Q1006 TEMPO 4000 SHRA
0,[Mostly Cloudy],1996-9-20,[25.0 °C],[],[-],[32.7 °C],[84%],[N/A],[1007 hPa],[28.0 °C],[9:00 PM],[10.0 km],[ESE],"[14.8 km/h
		/ 4.1 m/s]",METAR VHHH 201300Z 12008KT 9999 FEW012 SCT025 BKN100 28/25 Q1007 TEMPO 4000 SHRA
0,[Mostly Cloudy],1996-9-20,[24.0 °C],[],[-],[31.9 °C],[79%],[N/A],[1008 hPa],[28.0 °C],[10:00 PM],[10.0 km],[ESE],"[13.0 km/h
		/ 3.6 m/s]",METAR VHHH 201400Z 11007KT 9999 FEW016 SCT030 BKN100 28/24 Q1008 NOSIG
0,[Scattered Clouds],1996-9-20,[25.0 °C],[],[-],[32.7 °C],[84%],[N/A],[1008 hPa],[28.0 °C],[11:00 PM],[10.0 km],[ESE],"[9.3 km/h
		/ 2.6 m/s]",METAR VHHH 201500Z 11005KT 9999 FEW016 SCT030 28/25 Q1008 NOSIG
0,[Scattered Clouds],1996-9-21,[26.0 °C],[],[-],[33.6 °C],[89%],[N/A],[1008 hPa],[28.0 °C],[12:00 AM],[10.0 km],[East],"[11.1 km/h
		/ 3.1 m/s]",METAR VHHH 201600Z 08006KT 020V100 9999 FEW015 SCT022 28/26 Q1008 NOSIG
0,[Scattered Clouds],1996-9-21,[26.0 °C],[],[-],[33.6 °C],[89%],[N/A],[1007 hPa],[28.0 °C],[1:00 AM],[10.0 km],[East],"[14.8 km/h
		/ 4.1 m/s]",METAR VHHH 201700Z 10008KT 9999 FEW013 SCT022 28/26 Q1007 NOSIG
0,[Light Rain Showers],1996-9-21,[26.0 °C],[Rain],[-],[33.6 °C],[89%],[N/A],[1007 hPa],[28.0 °C],[2:00 AM],[9.0 km],[ESE],"[11.1 km/h
		/ 3.1 m/s]",METAR VHHH 201800Z 11006KT 9000 -SHRA FEW012 SCT020 28/26 Q1007 NOSIG
0,[Light Rain Showers],1996-9-21,[25.0 °C],[Rain],[-],[-],[94%],[N/A],[1006 hPa],[26.0 °C],[3:00 AM],[10.0 km],[SE],"[3.7 km/h
		/ 1.0 m/s]",METAR VHHH 201900Z 13002KT 9999 -SHRA FEW011 SCT022 26/25 Q1006 NOSIG
0,[Mostly Cloudy],1996-9-21,[25.0 °C],[],[-],[-],[94%],[N/A],[1006 hPa],[26.0 °C],[4:00 AM],[10.0 km],[ESE],"[1.9 km/h
		/ 0.5 m/s]",METAR VHHH 202000Z 12001KT 9999 FEW012 SCT025 BKN090 26/25 Q1006 NOSIG
0,[Scattered Clouds],1996-9-21,[25.0 °C],[],[-],[30.6 °C],[89%],[N/A],[1006 hPa],[27.0 °C],[5:00 AM],[10.0 km],[ESE],"[7.4 km/h
		/ 2.1 m/s]",METAR VHHH 202100Z 11004KT 9999 FEW013 SCT025 27/25 Q1006 NOSIG
0,[Mostly Cloudy],1996-9-21,[26.0 °C],[],[-],[31.2 °C],[94%],[N/A],[1007 hPa],[27.0 °C],[6:00 AM],[7.0 km],[East],"[1.9 km/h
		/ 0.5 m/s]",METAR VHHH 202200Z 10001KT 7000 FEW013 SCT020 BKN080 27/26 Q1007 NOSIG
0,[Thunderstorm],1996-9-21,[25.0 °C],[Thunderstorm],[-],[30.6 °C],[89%],[N/A],[1008 hPa],[27.0 °C],[7:00 AM],[10.0 km],[ENE],"[13.0 km/h
		/ 3.6 m/s]",METAR VHHH 202300Z 06007KT 020V130 9999 TS FEW009 SCT025CB BKN080 27/25 Q1008 WS LDG RWY 13/31 TEMPO VRB18G32KT 2500 +SHRA TSRA FEW008 FEW012CB SCT018 BKN080
0,[Light Rain Showers],1996-9-21,[25.0 °C],[Rain],[-],[30.6 °C],[89%],[N/A],[1009 hPa],[27.0 °C],[9:00 AM],[6.0 km],[East],"[11.1 km/h
		/ 3.1 m/s]",METAR VHHH 210100Z 09006KT 020V120 6000 -SHRA FEW009 SCT016 BKN080 27/25 Q1009 WS LDG RWY 13/31 TEMPO 4000 SHRA FEW008 FEW015CB SCT018 BKN080
0,[Mostly Cloudy],1996-9-21,[25.0 °C],[],[-],[30.6 °C],[89%],[N/A],[1009 hPa],[27.0 °C],[10:00 AM],[9.0 km],[ENE],"[13.0 km/h
		/ 3.6 m/s]",METAR VHHH 210200Z 07007KT 310V130 9000 FEW008 SCT015 BKN080 27/25 Q1009 WS LDG RWY 13/31 TEMPO 2500 +SHRA FEW008 FEW015CB SCT018 BKN080
0,[Mostly Cloudy],1996-9-21,[25.0 °C],[],[-],[-],[94%],[N/A],[1010 hPa],[26.0 °C],[11:00 AM],[10.0 km],[ENE],"[13.0 km/h
		/ 3.6 m/s]",METAR VHHH 210300Z 07007KT 350V110 9999 FEW009 SCT016 BKN080 26/25 Q1010 WS LDG RWY 13/31 TEMPO 2500 +SHRA TSRA FEW008 FEW015CB SCT018 BKN080
0,[Mostly Cloudy],1996-9-21,[25.0 °C],[],[-],[30.6 °C],[89%],[N/A],[1009 hPa],[27.0 °C],[12:00 PM],[10.0 km],[ENE],"[14.8 km/h
		/ 4.1 m/s]",METAR VHHH 210400Z 07008KT 020V120 9999 FEW010 SCT015 BKN090 27/25 Q1009 WS LDG RWY 13/31 TEMPO 2500 +SHRA FEW008 FEW015CB SCT018 BKN080
0,[Light Rain Showers],1996-9-21,[25.0 °C],[Rain],[-],[32.7 °C],[84%],[N/A],[1008 hPa],[28.0 °C],[1:00 PM],[-],[East],"[14.8 km/h
		/ 4.1 m/s]",METAR VHHH 210500Z 09008KT 030V170 4800SE -SHRA FEW010 SCT016 BKN090 28/25 Q1008 WS LDG RWY 13/31 TEMPO VRB18G32KT 2500 +SHRA/TSRA FEW008 FEW012CB SCT018 BKN080
0,[Light Rain Showers],1996-9-21,[25.0 °C],[Rain],[-],[30.6 °C],[89%],[N/A],[1008 hPa],[27.0 °C],[2:00 PM],[10.0 km],[East],"[13.0 km/h
		/ 3.6 m/s]",METAR VHHH 210600Z 09007KT 360V120 9999 -SHRA FEW012 SCT016 BKN080 27/25 Q1008 RERA WS LDG RWY 13/31 TEMPO VRB18G32KT 2000 +SHRA +TSRA FEW004 FEW014CB BKN025
0,[Heavy Rain Showers],1996-9-21,[24.0 °C],[Rain],[-],[-],[100%],[N/A],[1008 hPa],[24.0 °C],[3:00 PM],[1.6 km],[SW],"[14.8 km/h
		/ 4.1 m/s]",METAR VHHH 210700Z 23008KT 150V290 1600 R31/1100VP2000U R13/1100VP2000D +SHRA FEW008 SCT014 BKN080 24/24 Q1008 WS LDG RWY 13/31 TEMPO VRB18G32KT 2000 +SHRA +TSRA FEW004 FEW014CB BKN025
0,[Light Rain Showers],1996-9-21,[24.0 °C],[Rain],[-],[-],[89%],[N/A],[1007 hPa],[26.0 °C],[4:00 PM],[10.0 km],[North],"[1.9 km/h
		/ 0.5 m/s]",METAR VHHH 210800Z 01001KT 9999 -SHRA FEW015 BKN080 26/24 Q1007 RERA WS LDG RWY 13/31 TEMPO VRB18G32KT 2000 +SHRA +TSRA FEW004 FEW014CB BKN025
0,[Light Rain Showers],1996-9-21,[24.0 °C],[Rain],[-],[-],[89%],[N/A],[1008 hPa],[26.0 °C],[5:00 PM],[10.0 km],[ESE],"[9.3 km/h
		/ 2.6 m/s]",METAR VHHH 210900Z 12005KT 080V150 9999 -SHRA FEW015 BKN080 26/24 Q1008 TEMPO 3000 SHRA
0,[Light Rain Showers],1996-9-21,[24.0 °C],[Rain],[-],[-],[89%],[N/A],[1008 hPa],[26.0 °C],[6:00 PM],[10.0 km],[SE],"[1.9 km/h
		/ 0.5 m/s]",METAR VHHH 211000Z 13001KT 9999 -SHRA FEW010 BKN080 26/24 Q1008 TEMPO 3000 SHRA
0,[Light Rain Showers],1996-9-21,[24.0 °C],[Rain],[-],[-],[89%],[N/A],[1009 hPa],[26.0 °C],[7:00 PM],[10.0 km],[SE],"[5.6 km/h
		/ 1.5 m/s]",METAR VHHH 211100Z 13003KT 9999 -SHRA FEW010 BKN080 26/24 Q1009 TEMPO 3000 SHRA
0,[Mostly Cloudy],1996-9-21,[24.0 °C],[],[-],[30.1 °C],[84%],[N/A],[1009 hPa],[27.0 °C],[8:00 PM],[10.0 km],[ESE],"[3.7 km/h
		/ 1.0 m/s]",METAR VHHH 211200Z 11002KT 9999 FEW012 BKN080 27/24 Q1009 TEMPO 3000 SHRA
0,[Mostly Cloudy],1996-9-21,[24.0 °C],[],[-],[-],[89%],[N/A],[1010 hPa],[26.0 °C],[9:00 PM],[10.0 km],[ESE],"[13.0 km/h
		/ 3.6 m/s]",METAR VHHH 211300Z 11007KT 070V140 9999 FEW010 SCT020 BKN090 26/24 Q1010 NOSIG
0,[Mostly Cloudy],1996-9-21,[24.0 °C],[],[-],[30.1 °C],[84%],[N/A],[1010 hPa],[27.0 °C],[10:00 PM],[10.0 km],[ESE],"[13.0 km/h
		/ 3.6 m/s]",METAR VHHH 211400Z 11007KT 080V140 9999 FEW010 SCT022 BKN090 27/24 Q1010 NOSIG
0,[Mostly Cloudy],1996-9-21,[24.0 °C],[],[-],[30.1 °C],[84%],[N/A],[1010 hPa],[27.0 °C],[11:00 PM],[10.0 km],[East],"[9.3 km/h
		/ 2.6 m/s]",METAR VHHH 211500Z 08005KT 010V140 9999 FEW010 SCT020 BKN080 27/24 Q1010 NOSIG
0,[Mostly Cloudy],1996-9-22,[24.0 °C],[],[-],[30.1 °C],[84%],[N/A],[1010 hPa],[27.0 °C],[12:00 AM],[10.0 km],[ENE],"[11.1 km/h
		/ 3.1 m/s]",METAR VHHH 211600Z 07006KT 040V130 9999 FEW012 SCT025 BKN080 27/24 Q1010 NOSIG
0,[Mostly Cloudy],1996-9-22,[24.0 °C],[],[-],[30.1 °C],[84%],[N/A],[1009 hPa],[27.0 °C],[1:00 AM],[10.0 km],[SE],"[9.3 km/h
		/ 2.6 m/s]",METAR VHHH 211700Z 13005KT 070V200 9999 FEW013 SCT025 BKN100 27/24 Q1009 NOSIG
0,[Mostly Cloudy],1996-9-22,[24.0 °C],[],[-],[-],[89%],[N/A],[1009 hPa],[26.0 °C],[2:00 AM],[10.0 km],[East],"[13.0 km/h
		/ 3.6 m/s]",METAR VHHH 211800Z 08007KT 040V120 9999 FEW013 SCT020 BKN100 26/24 Q1009 NOSIG
0,[Rain Showers],1996-9-22,[25.0 °C],"[Rain
	,
Thunderstorm]",[-],[-],[94%],[N/A],[1008 hPa],[26.0 °C],[3:00 AM],[-],[SSE],"[3.7 km/h
		/ 1.0 m/s]",METAR VHHH 211900Z 16002KT 4800SE TSSHRA FEW010 FEW014CB SCT025 BKN080 26/25 Q1008 WS LDG RWY 13/31 TEMPO VRB15G30KT 2000 +TSRA FEW005 FEW014CB BKN025
0,[Mostly Cloudy],1996-9-22,[24.0 °C],[],[-],[-],[89%],[N/A],[1008 hPa],[26.0 °C],[4:00 AM],[10.0 km],[East],"[11.1 km/h
		/ 3.1 m/s]",METAR VHHH 212000Z 08006KT 320V140 9999 FEW010 SCT025 BKN080 26/24 Q1008 WS LDG RWY 13/31 TEMPO VRB15G30KT 2000 +TSRA FEW005 FEW014CB BKN025
0,[Mostly Cloudy],1996-9-22,[24.0 °C],[],[-],[-],[89%],[N/A],[1008 hPa],[26.0 °C],[5:00 AM],[10.0 km],[East],"[16.7 km/h
		/ 4.6 m/s]",METAR VHHH 212100Z 09009KT 040V150 9999 FEW010 SCT025 BKN080 26/24 Q1008 TEMPO VIS 4000M MOD SHWR
0,[Rain Showers],1996-9-22,[24.0 °C],[Rain],[-],[-],[89%],[N/A],[1008 hPa],[26.0 °C],[6:00 AM],[7.0 km],[ENE],"[9.3 km/h
		/ 2.6 m/s]",METAR VHHH 212200Z 07005KT 020V110 7000 SHRA FEW010 SCT025 BKN080 26/24 Q1008 TEMPO VIS 4000M MOD SHWR
0,[Mostly Cloudy],1996-9-22,[24.0 °C],[],[-],[30.1 °C],[84%],[N/A],[1008 hPa],[27.0 °C],[7:00 AM],[7.0 km],[ENE],"[11.1 km/h
		/ 3.1 m/s]",METAR VHHH 212300Z 07006KT 010V110 7000 FEW012 SCT025 BKN080 27/24 Q1008 TEMPO 4000 SHRA
0,[Mostly Cloudy],1996-9-22,[25.0 °C],[],[-],[30.6 °C],[89%],[N/A],[1009 hPa],[27.0 °C],[8:00 AM],[7.0 km],[East],"[16.7 km/h
		/ 4.6 m/s]",METAR VHHH 220000Z 08009KT 050V130 7000 FEW013 SCT018 BKN080 27/25 Q1009 TEMPO 4000 SHRA
0,[Mostly Cloudy],1996-9-22,[25.0 °C],[],[-],[34.5 °C],[79%],[N/A],[1010 hPa],[29.0 °C],[9:00 AM],[8.0 km],[East],"[14.8 km/h
		/ 4.1 m/s]",METAR VHHH 220100Z 08008KT 040V120 8000 FEW012 SCT020 BKN080 29/25 Q1010 TEMPO 3000 SHRA
0,[Mostly Cloudy],1996-9-22,[25.0 °C],[],[-],[34.5 °C],[79%],[N/A],[1010 hPa],[29.0 °C],[10:00 AM],[8.0 km],[East],"[16.7 km/h
		/ 4.6 m/s]",METAR VHHH 220200Z 10009KT 060V130 8000 FEW012 SCT020 BKN080 29/25 Q1010 TEMPO 3000 SHRA
0,[Mostly Cloudy],1996-9-22,[25.0 °C],[],[-],[36.0 °C],[74%],[N/A],[1010 hPa],[30.0 °C],[11:00 AM],[10.0 km],[East],"[20.4 km/h
		/ 5.7 m/s]",METAR VHHH 220300Z 08011KT 010V140 9999 FEW012 SCT016 BKN080 30/25 Q1010 TEMPO 3000 SHRA
0,[Mostly Cloudy],1996-9-22,[24.0 °C],[],[-],[31.9 °C],[79%],[N/A],[1010 hPa],[28.0 °C],[12:00 PM],[10.0 km],[East],"[16.7 km/h
		/ 4.6 m/s]",METAR VHHH 220400Z 08009KT 010V160 9999 FEW013 SCT020 BKN080 28/24 Q1010 TEMPO 3000 SHRA
0,[Mostly Cloudy],1996-9-22,[24.0 °C],[],[-],[33.5 °C],[74%],[N/A],[1009 hPa],[29.0 °C],[1:00 PM],[10.0 km],[East],"[18.5 km/h
		/ 5.1 m/s]",METAR VHHH 220500Z 08010KT 010V120 9999 FEW014 SCT020 BKN080 29/24 Q1009 TEMPO 3000 SHRA
0,[Mostly Cloudy],1996-9-22,[24.0 °C],[],[-],[33.5 °C],[74%],[N/A],[1008 hPa],[29.0 °C],[2:00 PM],[10.0 km],[East],"[20.4 km/h
		/ 5.7 m/s]",METAR VHHH 220600Z 09011KT 030V130 9999 FEW014 SCT020 BKN100 29/24 Q1008 NOSIG
0,[Mostly Cloudy],1996-9-22,[24.0 °C],[],[-],[33.5 °C],[74%],[N/A],[1007 hPa],[29.0 °C],[3:00 PM],[10.0 km],[East],"[13.0 km/h
		/ 3.6 m/s]",METAR VHHH 220700Z 08007KT 030V180 9999 SCT015 BKN300 29/24 Q1007 NOSIG
0,[Mostly Cloudy],1996-9-22,[24.0 °C],[],[-],[33.5 °C],[74%],[N/A],[1007 hPa],[29.0 °C],[4:00 PM],[10.0 km],[East],"[13.0 km/h
		/ 3.6 m/s]",METAR VHHH 220800Z 08007KT 030V170 9999 FEW015 SCT025 BKN300 29/24 Q1007 NOSIG
0,[Mostly Cloudy],1996-9-22,[24.0 °C],[],[-],[31.9 °C],[79%],[N/A],[1007 hPa],[28.0 °C],[5:00 PM],[10.0 km],[East],"[9.3 km/h
		/ 2.6 m/s]",METAR VHHH 220900Z 09005KT 050V150 9999 FEW015 SCT080 BKN300 28/24 Q1007 NOSIG
0,[Mostly Cloudy],1996-9-22,[24.0 °C],[],[-],[31.9 °C],[79%],[N/A],[1008 hPa],[28.0 °C],[6:00 PM],[10.0 km],[East],"[7.4 km/h
		/ 2.1 m/s]",METAR VHHH 221000Z 09004KT 050V120 9999 FEW015 SCT080 BKN300 28/24 Q1008 NOSIG
0,[Mostly Cloudy],1996-9-22,[24.0 °C],[],[-],[31.9 °C],[79%],[N/A],[1009 hPa],[28.0 °C],[11:00 PM],[10.0 km],[ENE],"[1.9 km/h
		/ 0.5 m/s]",METAR VHHH 221500Z 06001KT 9999 FEW015 SCT030 BKN090 28/24 Q1009 TEMPO 4000 SHRA
0,[Mostly Cloudy],1996-9-23,[24.0 °C],[],[-],[30.1 °C],[84%],[N/A],[1008 hPa],[27.0 °C],[3:00 AM],[10.0 km],[NE],"[7.4 km/h
		/ 2.1 m/s]",METAR VHHH 221900Z 04004KT 340V080 9999 FEW014 SCT035 BKN080 27/24 Q1008 DIST LGTN TO E WS LDG RWY 13/31 TEMPO VRB15G30KT 2000 +TSRA FEW008 FEW014CB BKN025
0,[Mostly Cloudy],1996-9-23,[24.0 °C],[],[-],[30.1 °C],[84%],[N/A],[1008 hPa],[27.0 °C],[5:00 AM],[10.0 km],[ENE],"[1.9 km/h
		/ 0.5 m/s]",METAR VHHH 222100Z 07001KT 9999 FEW014 SCT035 BKN080 27/24 Q1008 RERA TEMPO 4000 SHRA
0,[Mostly Cloudy],1996-9-23,[23.0 °C],[],[-],[29.6 °C],[79%],[N/A],[1008 hPa],[27.0 °C],[6:00 AM],[10.0 km],[ENE],"[7.4 km/h
		/ 2.1 m/s]",METAR VHHH 222200Z 06004KT 030V110 9999 FEW014 SCT035 BKN080 27/23 Q1008 TEMPO 4000 SHRA
0,[Mostly Cloudy],1996-9-23,[23.0 °C],[],[-],[29.6 °C],[79%],[N/A],[1009 hPa],[27.0 °C],[7:00 AM],[10.0 km],[North],"[1.9 km/h
		/ 0.5 m/s]",METAR VHHH 222300Z 01001KT 9999 FEW014 SCT030 BKN080 27/23 Q1009 TEMPO 4000 SHRA
0,[Mostly Cloudy],1996-9-23,[22.0 °C],[],[-],[29.2 °C],[74%],[N/A],[1010 hPa],[27.0 °C],[8:00 AM],[10.0 km],[ENE],"[3.7 km/h
		/ 1.0 m/s]",METAR VHHH 230000Z 07002KT 9999 FEW015 SCT030 BKN080 27/22 Q1010 TEMPO 4000 SHRA
0,[Mostly Cloudy],1996-9-23,[23.0 °C],[],[-],[31.2 °C],[74%],[N/A],[1010 hPa],[28.0 °C],[9:00 AM],[10.0 km],[NNE],"[7.4 km/h
		/ 2.1 m/s]",METAR VHHH 230100Z 03004KT 9999 FEW015 SCT030 BKN100 28/23 Q1010 TEMPO 4000 SHRA
0,[Mostly Cloudy],1996-9-23,[22.0 °C],[],[-],[30.7 °C],[70%],[N/A],[1010 hPa],[28.0 °C],[10:00 AM],[10.0 km],[NNE],"[1.9 km/h
		/ 0.5 m/s]",METAR VHHH 230200Z 03001KT 9999 FEW015 SCT030 BKN100 28/22 Q1010 TEMPO 4000 SHRA
0,[Mostly Cloudy],1996-9-23,[23.0 °C],[],[-],[32.7 °C],[70%],[N/A],[1010 hPa],[29.0 °C],[11:00 AM],[10.0 km],[NE],"[7.4 km/h
		/ 2.1 m/s]",METAR VHHH 230300Z 05004KT 010V090 9999 FEW018 SCT025 BKN100 29/23 Q1010 TEMPO 4000 SHRA
0,[Mostly Cloudy],1996-9-23,[23.0 °C],[],[-],[32.7 °C],[70%],[N/A],[1010 hPa],[29.0 °C],[12:00 PM],[10.0 km],[ENE],"[7.4 km/h
		/ 2.1 m/s]",METAR VHHH 230400Z 06004KT 020V120 9999 FEW018 SCT025 BKN100 29/23 Q1010 NOSIG
0,[Mostly Cloudy],1996-9-23,[22.0 °C],[],[-],[32.0 °C],[66%],[N/A],[1009 hPa],[29.0 °C],[1:00 PM],[10.0 km],[ENE],"[13.0 km/h
		/ 3.6 m/s]",METAR VHHH 230500Z 06007KT 340V120 9999 FEW020 SCT025 BKN100 29/22 Q1009 NOSIG
0,[Mostly Cloudy],1996-9-23,[22.0 °C],[],[-],[32.0 °C],[66%],[N/A],[1008 hPa],[29.0 °C],[2:00 PM],[10.0 km],[ENE],"[11.1 km/h
		/ 3.1 m/s]",METAR VHHH 230600Z 07006KT 360V150 9999 FEW025 SCT030 BKN100 29/22 Q1008 NOSIG
0,[Mostly Cloudy],1996-9-23,[23.0 °C],[],[-],[32.7 °C],[70%],[N/A],[1008 hPa],[29.0 °C],[3:00 PM],[10.0 km],[NNE],"[13.0 km/h
		/ 3.6 m/s]",METAR VHHH 230700Z 02007KT 330V070 9999 FEW025 SCT035 BKN100 29/23 Q1008 NOSIG
0,[Mostly Cloudy],1996-9-23,[23.0 °C],[],[-],[32.7 °C],[70%],[N/A],[1008 hPa],[29.0 °C],[4:00 PM],[10.0 km],[NE],"[11.1 km/h
		/ 3.1 m/s]",METAR VHHH 230800Z 04006KT 350V100 9999 FEW025 SCT035 BKN100 29/23 Q1008 NOSIG
0,[Mostly Cloudy],1996-9-23,[23.0 °C],[],[-],[32.7 °C],[70%],[N/A],[1008 hPa],[29.0 °C],[5:00 PM],[9.0 km],[NE],"[7.4 km/h
		/ 2.1 m/s]",METAR VHHH 230900Z 05004KT 360V110 9000 FEW025 SCT035 BKN100 29/23 Q1008 NOSIG
0,[Mostly Cloudy],1996-9-23,[23.0 °C],[],[-],[31.2 °C],[74%],[N/A],[1008 hPa],[28.0 °C],[6:00 PM],[8.0 km],[NE],"[11.1 km/h
		/ 3.1 m/s]",METAR VHHH 231000Z 04006KT 330V070 8000 FEW018 SCT022 BKN100 28/23 Q1008 NOSIG
0,[Mostly Cloudy],1996-9-23,[23.0 °C],[],[-],[31.2 °C],[74%],[N/A],[1009 hPa],[28.0 °C],[7:00 PM],[7.0 km],[ENE],"[5.6 km/h
		/ 1.5 m/s]",METAR VHHH 231100Z 07003KT 7000 FEW015 SCT022 BKN080 28/23 Q1009 NOSIG
0,[Light Rain],1996-9-23,[23.0 °C],[Rain],[-],[29.6 °C],[79%],[N/A],[1010 hPa],[27.0 °C],[8:00 PM],[-],[ENE],"[13.0 km/h
		/ 3.6 m/s]",METAR VHHH 231200Z 06007KT 350V110 -RA FEW014 SCT022 BKN080 27/23 Q1010 NOSIG
0,[Mostly Cloudy],1996-9-23,[23.0 °C],[],"[29.6 km/h
		/ 8.2 m/s]",[29.6 °C],[79%],[N/A],[1010 hPa],[27.0 °C],[9:00 PM],[10.0 km],[NE],"[11.1 km/h
		/ 3.1 m/s]",METAR VHHH 231300Z 05006G16KT 350V100 9999 FEW015 SCT025 BKN080 27/23 Q1010 NOSIG
0,[Mostly Cloudy],1996-9-23,[23.0 °C],[],[-],[29.6 °C],[79%],[N/A],[1011 hPa],[27.0 °C],[10:00 PM],[10.0 km],[ENE],"[11.1 km/h
		/ 3.1 m/s]",METAR VHHH 231400Z 06006KT 330V120 9999 FEW014 SCT025 BKN080 27/23 Q1011 NOSIG
0,[Mostly Cloudy],1996-9-23,[23.0 °C],[],[-],[29.6 °C],[79%],[N/A],[1011 hPa],[27.0 °C],[11:00 PM],[10.0 km],[ENE],"[9.3 km/h
		/ 2.6 m/s]",METAR VHHH 231500Z 07005KT 360V150 9999 FEW014 SCT025 BKN080 27/23 Q1011 NOSIG
0,[Mostly Cloudy],1996-9-24,[22.0 °C],[],[-],[29.2 °C],[74%],[N/A],[1011 hPa],[27.0 °C],[12:00 AM],[10.0 km],[NNE],"[7.4 km/h
		/ 2.1 m/s]",METAR VHHH 231600Z 03004KT 320V100 9999 FEW015 SCT025 BKN080 27/22 Q1011 NOSIG
0,[Mostly Cloudy],1996-9-24,[23.0 °C],[],[-],[29.6 °C],[79%],[N/A],[1011 hPa],[27.0 °C],[1:00 AM],[10.0 km],[ENE],"[13.0 km/h
		/ 3.6 m/s]",METAR VHHH 231700Z 06007KT 010V110 9999 FEW018 SCT025 BKN080 27/23 Q1011 NOSIG
0,[Mostly Cloudy],1996-9-24,[22.0 °C],[],[-],[-],[78%],[N/A],[1010 hPa],[26.0 °C],[2:00 AM],[10.0 km],[East],"[11.1 km/h
		/ 3.1 m/s]",METAR VHHH 231800Z 10006KT 030V160 9999 FEW018 SCT025 BKN080 26/22 Q1010 NOSIG
0,[Mostly Cloudy],1996-9-24,[22.0 °C],[],[-],[-],[78%],[N/A],[1010 hPa],[26.0 °C],[3:00 AM],[10.0 km],[East],"[13.0 km/h
		/ 3.6 m/s]",METAR VHHH 231900Z 09007KT 060V130 9999 FEW018 SCT025 BKN080 26/22 Q1010 NOSIG
0,[Light Rain],1996-9-24,[22.0 °C],[Rain],[-],[-],[78%],[N/A],[1010 hPa],[26.0 °C],[4:00 AM],[10.0 km],[East],"[11.1 km/h
		/ 3.1 m/s]",METAR VHHH 232000Z 08006KT 050V120 9999 -RA FEW015 SCT022 BKN080 26/22 Q1010 NOSIG
0,[Mostly Cloudy],1996-9-24,[-],[],[-],[-],[N/A%],[N/A],[1010 hPa],[-],[6:00 AM],[7.0 km],[East],"[18.5 km/h
		/ 5.1 m/s]",METAR VHHH 232200Z 09010KT 060V130 7000 FEW014 SCT020 BKN080 Q1010 NOSIG
0,[Mostly Cloudy],1996-9-24,[22.0 °C],[],"[42.6 km/h
		/ 11.8 m/s]",[-],[78%],[N/A],[1010 hPa],[26.0 °C],[7:00 AM],[10.0 km],[ENE],"[20.4 km/h
		/ 5.7 m/s]",METAR VHHH 232300Z 06011G23KT 320V130 9999 FEW014 SCT020 BKN080 26/22 Q1010 WS LDG RWY 13/31 NOSIG
0,[Mostly Cloudy],1996-9-24,[21.0 °C],[],[-],[-],[74%],[N/A],[1011 hPa],[26.0 °C],[8:00 AM],[10.0 km],[NE],"[13.0 km/h
		/ 3.6 m/s]",METAR VHHH 240000Z 05007KT 290V120 9999 FEW014 SCT025 BKN080 26/21 Q1011 WS LDG RWY 13/31 NOSIG
0,[Mostly Cloudy],1996-9-24,[21.0 °C],[],[-],[28.9 °C],[70%],[N/A],[1012 hPa],[27.0 °C],[9:00 AM],[10.0 km],[NE],"[16.7 km/h
		/ 4.6 m/s]",METAR VHHH 240100Z 05009KT 330V100 9999 FEW014 SCT025 BKN080 27/21 Q1012 WS LDG RWY 13/31 NOSIG
0,[Mostly Cloudy],1996-9-24,[22.0 °C],[],[-],[30.7 °C],[70%],[N/A],[1012 hPa],[28.0 °C],[10:00 AM],[10.0 km],[NE],"[13.0 km/h
		/ 3.6 m/s]",METAR VHHH 240200Z 04007KT 340V100 9999 FEW018 SCT025 BKN080 28/22 Q1012 WS LDG RWY 13/31 NOSIG
0,[Mostly Cloudy],1996-9-24,[22.0 °C],[],[-],[30.7 °C],[70%],[N/A],[1012 hPa],[28.0 °C],[11:00 AM],[10.0 km],[NE],"[18.5 km/h
		/ 5.1 m/s]",METAR VHHH 240300Z 05010KT 300V150 9999 FEW020 SCT025 BKN080 28/22 Q1012 WS LDG RWY 13/31 NOSIG
0,[Mostly Cloudy],1996-9-24,[22.0 °C],[],[-],[30.7 °C],[70%],[N/A],[1011 hPa],[28.0 °C],[12:00 PM],[10.0 km],[ENE],"[16.7 km/h
		/ 4.6 m/s]",METAR VHHH 240400Z 06009KT 010V140 9999 FEW018 SCT025 BKN080 28/22 Q1011 TEMPO 5000 -RA
0,[Mostly Cloudy],1996-9-24,[22.0 °C],[],[-],[30.7 °C],[70%],[N/A],[1011 hPa],[28.0 °C],[1:00 PM],[10.0 km],[ENE],"[18.5 km/h
		/ 5.1 m/s]",METAR VHHH 240500Z 06010KT 260V140 9999 FEW015 SCT020 BKN080 28/22 Q1011 TEMPO 5000 -RA
0,[Mostly Cloudy],1996-9-24,[23.0 °C],[],[-],[31.2 °C],[74%],[N/A],[1010 hPa],[28.0 °C],[2:00 PM],[10.0 km],[ENE],"[22.2 km/h
		/ 6.2 m/s]",METAR VHHH 240600Z 06012KT 320V130 9999 FEW016 SCT020 BKN080 28/23 Q1010 WS LDG RWY 13/31 NOSIG
0,[Light Rain],1996-9-24,[23.0 °C],[Rain],[-],[31.2 °C],[74%],[N/A],[1010 hPa],[28.0 °C],[3:00 PM],[10.0 km],[NE],"[14.8 km/h
		/ 4.1 m/s]",METAR VHHH 240700Z 05008KT 350V080 9999 -RA FEW016 SCT020 BKN080 28/23 Q1010 WS LDG RWY 13/31 TEMPO 5000 -RA
0,[Light Rain],1996-9-24,[23.0 °C],[Rain],[-],[31.2 °C],[74%],[N/A],[1010 hPa],[28.0 °C],[4:00 PM],[10.0 km],[NE],"[13.0 km/h
		/ 3.6 m/s]",METAR VHHH 240800Z 04007KT 340V110 9999 -RA FEW015 SCT022 BKN080 28/23 Q1010 WS LDG RWY 13/31 TEMPO 5000 -RA
0,[Light Rain],1996-9-24,[24.0 °C],[Rain],[-],[-],[89%],[N/A],[1010 hPa],[26.0 °C],[5:00 PM],[6.0 km],[NNE],"[9.3 km/h
		/ 2.6 m/s]",METAR VHHH 240900Z 03005KT 350V080 6000NW -RA FEW016 SCT022 BKN080 26/24 Q1010 WS LDG RWY 13/31 TEMPO 5000 -RA
0,[Light Rain],1996-9-24,[24.0 °C],[Rain],[-],[30.1 °C],[84%],[N/A],[1010 hPa],[27.0 °C],[6:00 PM],[10.0 km],[NNE],"[13.0 km/h
		/ 3.6 m/s]",METAR VHHH 241000Z 03007KT 350V100 9999 -RA FEW014 SCT020 BKN080 27/24 Q1010 TEMPO 5000 -RA
0,[Mostly Cloudy],1996-9-24,[23.0 °C],[],[-],[29.6 °C],[79%],[N/A],[1010 hPa],[27.0 °C],[7:00 PM],[10.0 km],[ENE],"[13.0 km/h
		/ 3.6 m/s]",METAR VHHH 241100Z 07007KT 360V120 9999 SCT013 SCT020 BKN080 27/23 Q1010 TEMPO 5000 -RA
0,[Mostly Cloudy],1996-9-24,[23.0 °C],[],[-],[29.6 °C],[79%],[N/A],[1011 hPa],[27.0 °C],[8:00 PM],[10.0 km],[NE],"[9.3 km/h
		/ 2.6 m/s]",METAR VHHH 241200Z 04005KT 320V130 9999 FEW014 SCT020 BKN100 27/23 Q1011 NOSIG
0,[Mostly Cloudy],1996-9-24,[23.0 °C],[],[-],[29.6 °C],[79%],[N/A],[1011 hPa],[27.0 °C],[9:00 PM],[10.0 km],[NNE],"[13.0 km/h
		/ 3.6 m/s]",METAR VHHH 241300Z 03007KT 360V090 9999 FEW013 SCT025 BKN100 27/23 Q1011 NOSIG
0,[Light Rain],1996-9-24,[23.0 °C],[Rain],[-],[29.6 °C],[79%],[N/A],[1012 hPa],[27.0 °C],[10:00 PM],[10.0 km],[NE],"[11.1 km/h
		/ 3.1 m/s]",METAR VHHH 241400Z 04006KT 330V120 9999 -RA FEW013 SCT020 BKN080 27/23 Q1012 NOSIG
0,[Mostly Cloudy],1996-9-24,[23.0 °C],[],[-],[29.6 °C],[79%],[N/A],[1012 hPa],[27.0 °C],[11:00 PM],[10.0 km],[NE],"[11.1 km/h
		/ 3.1 m/s]",METAR VHHH 241500Z 05006KT 340V120 9999 FEW013 SCT020 BKN080 27/23 Q1012 NOSIG
0,[Mostly Cloudy],1996-9-25,[23.0 °C],[],[-],[29.6 °C],[79%],[N/A],[1012 hPa],[27.0 °C],[12:00 AM],[10.0 km],[NE],"[11.1 km/h
		/ 3.1 m/s]",METAR VHHH 241600Z 04006KT 340V120 9999 FEW014 SCT020 BKN080 27/23 Q1012 NOSIG
0,[Mostly Cloudy],1996-9-25,[23.0 °C],[],[-],[29.6 °C],[79%],[N/A],[1011 hPa],[27.0 °C],[1:00 AM],[10.0 km],[NE],"[13.0 km/h
		/ 3.6 m/s]",METAR VHHH 241700Z 04007KT 310V100 9999 FEW014 SCT020 BKN080 27/23 Q1011 NOSIG
0,[Rain],1996-9-25,[23.0 °C],[Rain],[-],[-],[83%],[N/A],[1011 hPa],[26.0 °C],[2:00 AM],[10.0 km],[ENE],"[1.9 km/h
		/ 0.5 m/s]",METAR VHHH 241800Z 06001KT 9999 RA FEW012 SCT020 BKN080 26/23 Q1011 NOSIG
0,[Rain],1996-9-25,[23.0 °C],[Rain],[-],[-],[83%],[N/A],[1010 hPa],[26.0 °C],[3:00 AM],[6.0 km],[NE],"[7.4 km/h
		/ 2.1 m/s]",METAR VHHH 241900Z 05004KT 330V150 6000 RA FEW012 SCT025 BKN080 26/23 Q1010 TEMPO 4000 RA
0,[Rain],1996-9-25,[23.0 °C],[Rain],[-],[-],[89%],[N/A],[1010 hPa],[25.0 °C],[4:00 AM],[8.0 km],[ENE],"[9.3 km/h
		/ 2.6 m/s]",METAR VHHH 242000Z 07005KT 360V150 8000 RA FEW012 SCT025 BKN080 25/23 Q1010 RERA TEMPO 4000 RA
0,[Rain],1996-9-25,[23.0 °C],[Rain],[-],[-],[83%],[N/A],[1010 hPa],[26.0 °C],[5:00 AM],[7.0 km],[East],"[5.6 km/h
		/ 1.5 m/s]",METAR VHHH 242100Z 08003KT 010V350 7000 RA FEW012 SCT020 BKN080 26/23 Q1010 TEMPO 4000 RA
0,[Rain],1996-9-25,[23.0 °C],[Rain],[-],[-],[89%],[N/A],[1010 hPa],[25.0 °C],[6:00 AM],[6.0 km],[East],"[16.7 km/h
		/ 4.6 m/s]",METAR VHHH 242200Z 08009KT 360V180 6000 RA FEW015 SCT020 BKN080 25/23 Q1010 TEMPO 4000 RA
0,[Rain],1996-9-25,[23.0 °C],[Rain],[-],[-],[89%],[N/A],[1011 hPa],[25.0 °C],[7:00 AM],[9.0 km],[East],"[13.0 km/h
		/ 3.6 m/s]",METAR VHHH 242300Z 10007KT 030V140 9000 RA FEW012 SCT018 BKN080 25/23 Q1011 TEMPO 4000 RA
0,[Light Rain],1996-9-25,[23.0 °C],[Rain],[-],[-],[83%],[N/A],[1011 hPa],[26.0 °C],[8:00 AM],[9.0 km],[East],"[14.8 km/h
		/ 4.1 m/s]",METAR VHHH 250000Z 09008KT 050V150 9000 -RA FEW013 SCT020 BKN090 26/23 Q1011 TEMPO 4000 RA
0,[Mostly Cloudy],1996-9-25,[23.0 °C],[],[-],[29.6 °C],[79%],[N/A],[1011 hPa],[27.0 °C],[9:00 AM],[10.0 km],[ENE],"[16.7 km/h
		/ 4.6 m/s]",METAR VHHH 250100Z 07009KT 020V130 9999 SCT014 SCT020 BKN090 27/23 Q1011 TEMPO 4000 RA
0,[Mostly Cloudy],1996-9-25,[22.0 °C],[],"[35.2 km/h
		/ 9.8 m/s]",[29.2 °C],[74%],[N/A],[1011 hPa],[27.0 °C],[10:00 AM],[10.0 km],[NE],"[16.7 km/h
		/ 4.6 m/s]",METAR VHHH 250200Z 05009G19KT 300V100 9999 SCT015 SCT022 BKN090 27/22 Q1011 TEMPO 4000 RA
0,[Mostly Cloudy],1996-9-25,[23.0 °C],[],"[37.0 km/h
		/ 10.3 m/s]",[31.2 °C],[74%],[N/A],[1011 hPa],[28.0 °C],[11:00 AM],[10.0 km],[ENE],"[16.7 km/h
		/ 4.6 m/s]",METAR VHHH 250300Z 07009G20KT 320V140 9999 SCT016 SCT022 BKN090 28/23 Q1011 TEMPO 4000 RA
0,[Light Rain],1996-9-25,[23.0 °C],[Rain],[-],[31.2 °C],[74%],[N/A],[1011 hPa],[28.0 °C],[12:00 PM],[10.0 km],[ENE],"[20.4 km/h
		/ 5.7 m/s]",METAR VHHH 250400Z 07011KT 010V120 9999 -RA FEW017 SCT022 BKN090 28/23 Q1011 TEMPO 4000 RA
0,[Light Rain],1996-9-25,[23.0 °C],[Rain],[-],[31.2 °C],[74%],[N/A],[1011 hPa],[28.0 °C],[1:00 PM],[10.0 km],[ENE],"[20.4 km/h
		/ 5.7 m/s]",METAR VHHH 250500Z 07011KT 360V120 9999 -RA FEW017 SCT022 BKN090 28/23 Q1011 NOSIG
0,[Mostly Cloudy],1996-9-25,[23.0 °C],[],"[42.6 km/h
		/ 11.8 m/s]",[32.7 °C],[70%],[N/A],[1010 hPa],[29.0 °C],[2:00 PM],[10.0 km],[East],"[22.2 km/h
		/ 6.2 m/s]",METAR VHHH 250600Z 09012G23KT 040V130 9999 FEW017 SCT022 BKN090 29/23 Q1010 WS LDG RWY 13/31 NOSIG
0,[Mostly Cloudy],1996-9-25,[23.0 °C],[],[-],[31.2 °C],[74%],[N/A],[1010 hPa],[28.0 °C],[3:00 PM],[10.0 km],[East],"[20.4 km/h
		/ 5.7 m/s]",METAR VHHH 250700Z 08011KT 040V110 9999 FEW016 SCT022 BKN090 28/23 Q1010 WS LDG RWY 13/31 NOSIG
0,[Light Rain],1996-9-25,[24.0 °C],[Rain],[-],[31.9 °C],[79%],[N/A],[1010 hPa],[28.0 °C],[4:00 PM],[10.0 km],[ENE],"[14.8 km/h
		/ 4.1 m/s]",METAR VHHH 250800Z 07008KT 350V140 9999 -RA FEW015 SCT022 BKN090 28/24 Q1010 TEMPO 5000 RA
0,[Mostly Cloudy],1996-9-25,[24.0 °C],[],[-],[30.1 °C],[84%],[N/A],[1010 hPa],[27.0 °C],[5:00 PM],[10.0 km],[ENE],"[14.8 km/h
		/ 4.1 m/s]",METAR VHHH 250900Z 07008KT 010V180 9999 FEW014 SCT020 BKN090 27/24 Q1010 TEMPO 5000 RA
0,[Mostly Cloudy],1996-9-25,[23.0 °C],[],[-],[29.6 °C],[79%],[N/A],[1010 hPa],[27.0 °C],[6:00 PM],[10.0 km],[East],"[11.1 km/h
		/ 3.1 m/s]",METAR VHHH 251000Z 08006KT 020V150 9999 FEW014 SCT022 BKN090 27/23 Q1010 TEMPO 5000 RA
0,[Mostly Cloudy],1996-9-25,[23.0 °C],[],"[31.5 km/h
		/ 8.7 m/s]",[29.6 °C],[79%],[N/A],[1010 hPa],[27.0 °C],[7:00 PM],[10.0 km],[East],"[13.0 km/h
		/ 3.6 m/s]",METAR VHHH 251100Z 08007G17KT 340V120 9999 FEW015 SCT022 BKN080 27/23 Q1010 NOSIG
0,[Mostly Cloudy],1996-9-25,[23.0 °C],[],[-],[31.2 °C],[74%],[N/A],[1010 hPa],[28.0 °C],[8:00 PM],[10.0 km],[East],"[13.0 km/h
		/ 3.6 m/s]",METAR VHHH 251200Z 08007KT 010V130 9999 FEW014 SCT022 BKN090 28/23 Q1010 NOSIG
0,[Mostly Cloudy],1996-9-25,[23.0 °C],[],[-],[29.6 °C],[79%],[N/A],[1011 hPa],[27.0 °C],[9:00 PM],[10.0 km],[NE],"[11.1 km/h
		/ 3.1 m/s]",METAR VHHH 251300Z 05006KT 350V110 9999 FEW015 SCT022 BKN100 27/23 Q1011 NOSIG
0,[Mostly Cloudy],1996-9-25,[23.0 °C],[],[-],[29.6 °C],[79%],[N/A],[1011 hPa],[27.0 °C],[10:00 PM],[10.0 km],[ENE],"[13.0 km/h
		/ 3.6 m/s]",METAR VHHH 251400Z 06007KT 350V130 9999 FEW016 SCT022 BKN120 27/23 Q1011 NOSIG
0,[Mostly Cloudy],1996-9-25,[22.0 °C],[],[-],[30.7 °C],[70%],[N/A],[1011 hPa],[28.0 °C],[11:00 PM],[10.0 km],[NE],"[13.0 km/h
		/ 3.6 m/s]",METAR VHHH 251500Z 05007KT 350V130 9999 FEW018 SCT025 BKN300 28/22 Q1011 NOSIG
0,[Mostly Cloudy],1996-9-26,[22.0 °C],[],[-],[29.2 °C],[74%],[N/A],[1010 hPa],[27.0 °C],[12:00 AM],[10.0 km],[NE],"[13.0 km/h
		/ 3.6 m/s]",METAR VHHH 251600Z 04007KT 330V110 9999 FEW018 SCT030 BKN100 27/22 Q1010 NOSIG
0,[Mostly Cloudy],1996-9-26,[22.0 °C],[],[-],[29.2 °C],[74%],[N/A],[1010 hPa],[27.0 °C],[1:00 AM],[10.0 km],[NE],"[14.8 km/h
		/ 4.1 m/s]",METAR VHHH 251700Z 04008KT 340V080 9999 FEW018 SCT030 BKN100 27/22 Q1010 NOSIG
0,[Mostly Cloudy],1996-9-26,[22.0 °C],[],[-],[29.2 °C],[74%],[N/A],[1009 hPa],[27.0 °C],[2:00 AM],[10.0 km],[East],"[14.8 km/h
		/ 4.1 m/s]",METAR VHHH 251800Z 08008KT 360V130 9999 FEW018 SCT030 BKN100 27/22 Q1009 NOSIG
0,[Mostly Cloudy],1996-9-26,[22.0 °C],[],[-],[29.2 °C],[74%],[N/A],[1009 hPa],[27.0 °C],[3:00 AM],[10.0 km],[ENE],"[13.0 km/h
		/ 3.6 m/s]",METAR VHHH 251900Z 07007KT 300V130 9999 FEW017 SCT025 BKN080 27/22 Q1009 NOSIG
0,[Mostly Cloudy],1996-9-26,[22.0 °C],[],[-],[29.2 °C],[74%],[N/A],[1009 hPa],[27.0 °C],[4:00 AM],[10.0 km],[ENE],"[5.6 km/h
		/ 1.5 m/s]",METAR VHHH 252000Z 07003KT 9999 SCT022 BKN080 27/22 Q1009 NOSIG
0,[Mostly Cloudy],1996-9-26,[22.0 °C],[],[-],[29.2 °C],[74%],[N/A],[1009 hPa],[27.0 °C],[5:00 AM],[10.0 km],[East],"[13.0 km/h
		/ 3.6 m/s]",METAR VHHH 252100Z 08007KT 030V120 9999 SCT0222 BKN080 27/22 Q1009 NOSIG
0,[Mostly Cloudy],1996-9-26,[22.0 °C],[],[-],[29.2 °C],[74%],[N/A],[1009 hPa],[27.0 °C],[6:00 AM],[10.0 km],[NE],"[7.4 km/h
		/ 2.1 m/s]",METAR VHHH 252200Z 05004KT 330V130 9999 SCT022 BKN080 27/22 Q1009 NOSIG
0,[Mostly Cloudy],1996-9-26,[22.0 °C],[],[-],[29.2 °C],[74%],[N/A],[1010 hPa],[27.0 °C],[7:00 AM],[10.0 km],[NE],"[7.4 km/h
		/ 2.1 m/s]",METAR VHHH 252300Z 05004KT 340V110 9999 FEW019 SCT025 BKN080 27/22 Q1010 NOSIG
0,[Scattered Clouds],1996-9-26,[22.0 °C],[],[-],[30.7 °C],[70%],[N/A],[1010 hPa],[28.0 °C],[8:00 AM],[10.0 km],[East],"[13.0 km/h
		/ 3.6 m/s]",METAR VHHH 260000Z 08007KT 360V230 9999 FEW022 SCT300 28/22 Q1010 NOSIG
0,[Scattered Clouds],1996-9-26,[23.0 °C],[],"[35.2 km/h
		/ 9.8 m/s]",[32.7 °C],[70%],[N/A],[1011 hPa],[29.0 °C],[9:00 AM],[10.0 km],[ENE],"[14.8 km/h
		/ 4.1 m/s]",METAR VHHH 260100Z 07008G19KT 360V110 9999 FEW022 SCT300 29/23 Q1011 NOSIG
0,[Scattered Clouds],1996-9-26,[21.0 °C],[],[-],[32.4 °C],[58%],[N/A],[-],[30.0 °C],[10:00 AM],[10.0 km],[East],"[24.1 km/h
		/ 6.7 m/s]",METAR VHHH 260200Z 09013KT 060V130 9999 FEW025 SCT300 30/21 1011 NOSIG
0,[Scattered Clouds],1996-9-26,[21.0 °C],[],[-],[33.7 °C],[55%],[N/A],[1011 hPa],[31.0 °C],[11:00 AM],[10.0 km],[East],"[22.2 km/h
		/ 6.2 m/s]",METAR VHHH 260300Z 09012KT 040V140 9999 FEW025 SCT300 31/21 Q1011 NOSIG
0,[Scattered Clouds],1996-9-26,[21.0 °C],[],[-],[34.9 °C],[52%],[N/A],[1010 hPa],[32.0 °C],[12:00 PM],[10.0 km],[East],"[13.0 km/h
		/ 3.6 m/s]",METAR VHHH 260400Z 09007KT 020V130 9999 FEW025 SCT100 32/21 Q1010 NOSIG
0,[Scattered Clouds],1996-9-26,[23.0 °C],[],[-],[35.4 °C],[62%],[N/A],[1009 hPa],[31.0 °C],[1:00 PM],[10.0 km],[East],"[20.4 km/h
		/ 5.7 m/s]",METAR VHHH 260500Z 10011KT 070V140 9999 FEW025 SCT300 31/23 Q1009 NOSIG
0,[Scattered Clouds],1996-9-26,[23.0 °C],[],[-],[35.4 °C],[62%],[N/A],[1009 hPa],[31.0 °C],[2:00 PM],[10.0 km],[ESE],"[22.2 km/h
		/ 6.2 m/s]",METAR VHHH 260600Z 12012KT 080V160 9999 SCT025 SCT100 31/23 Q1009 NOSIG
0,[Mostly Cloudy],1996-9-26,[22.0 °C],[],[-],[33.2 °C],[62%],[N/A],[1009 hPa],[30.0 °C],[3:00 PM],[10.0 km],[SE],"[22.2 km/h
		/ 6.2 m/s]",METAR VHHH 260700Z 13012KT 9999 FEW020 SCT030 BKN100 30/22 Q1009 NOSIG
0,[Mostly Cloudy],1996-9-26,[22.0 °C],[],[-],[33.2 °C],[62%],[N/A],[1008 hPa],[30.0 °C],[4:00 PM],[10.0 km],[East],"[18.5 km/h
		/ 5.1 m/s]",METAR VHHH 260800Z 10010KT 080V140 9999 FEW020 SCT100 BKN300 30/22 Q1008 NOSIG
0,[Mostly Cloudy],1996-9-26,[23.0 °C],[],[-],[32.7 °C],[70%],[N/A],[1009 hPa],[29.0 °C],[5:00 PM],[10.0 km],[East],"[13.0 km/h
		/ 3.6 m/s]",METAR VHHH 260900Z 10007KT 050V140 9999 FEW020 BKN100 29/23 Q1009 NOSIG
0,[Mostly Cloudy],1996-9-26,[23.0 °C],[],[-],[31.2 °C],[74%],[N/A],[1009 hPa],[28.0 °C],[6:00 PM],[10.0 km],[East],"[18.5 km/h
		/ 5.1 m/s]",METAR VHHH 261000Z 10010KT 070V150 9999 FEW018 SCT030 BKN100 28/23 Q1009 NOSIG
0,[Mostly Cloudy],1996-9-26,[23.0 °C],[],[-],[31.2 °C],[74%],[N/A],[1010 hPa],[28.0 °C],[7:00 PM],[10.0 km],[East],"[18.5 km/h
		/ 5.1 m/s]",METAR VHHH 261100Z 10010KT 070V130 9999 FEW020 SCT030 BKN100 28/23 Q1010 NOSIG
0,[Mostly Cloudy],1996-9-26,[23.0 °C],[],[-],[31.2 °C],[74%],[N/A],[1010 hPa],[28.0 °C],[8:00 PM],[10.0 km],[East],"[11.1 km/h
		/ 3.1 m/s]",METAR VHHH 261200Z 09006KT 050V130 9999 FEW018 SCT025 BKN100 28/23 Q1010 NOSIG
0,[Mostly Cloudy],1996-9-26,[23.0 °C],[],[-],[31.2 °C],[74%],[N/A],[1011 hPa],[28.0 °C],[9:00 PM],[10.0 km],[East],"[13.0 km/h
		/ 3.6 m/s]",METAR VHHH 261300Z 09007KT 020V130 9999 FEW018 SCT025 BKN100 28/23 Q1011 NOSIG
0,[Mostly Cloudy],1996-9-26,[23.0 °C],[],[-],[31.2 °C],[74%],[N/A],[1011 hPa],[28.0 °C],[10:00 PM],[10.0 km],[East],"[11.1 km/h
		/ 3.1 m/s]",METAR VHHH 261400Z 09006KT 060V130 9999 FEW018 SCT025 BKN100 28/23 Q1011 NOSIG
0,[Mostly Cloudy],1996-9-26,[23.0 °C],[],[-],[31.2 °C],[74%],[N/A],[1011 hPa],[28.0 °C],[11:00 PM],[10.0 km],[East],"[18.5 km/h
		/ 5.1 m/s]",METAR VHHH 261500Z 09010KT 060V130 9999 FEW020 SCT030 BKN100 28/23 Q1011 NOSIG
0,[Mostly Cloudy],1996-9-27,[23.0 °C],[],[-],[31.2 °C],[74%],[N/A],[1011 hPa],[28.0 °C],[12:00 AM],[10.0 km],[East],"[13.0 km/h
		/ 3.6 m/s]",METAR VHHH 261600Z 09007KT 060V130 9999 FEW020 SCT030 BKN100 28/23 Q1011 NOSIG
0,[Mostly Cloudy],1996-9-27,[23.0 °C],[],[-],[31.2 °C],[74%],[N/A],[1010 hPa],[28.0 °C],[1:00 AM],[10.0 km],[East],"[14.8 km/h
		/ 4.1 m/s]",METAR VHHH 261700Z 09008KT 050V130 9999 FEW018 SCT030 BKN100 28/23 Q1010 NOSIG
0,[Mostly Cloudy],1996-9-27,[23.0 °C],[],[-],[29.6 °C],[79%],[N/A],[1010 hPa],[27.0 °C],[2:00 AM],[10.0 km],[ENE],"[11.1 km/h
		/ 3.1 m/s]",METAR VHHH 261800Z 06006KT 360V120 9999 FEW018 SCT028 BKN100 27/23 Q1010 NOSIG
0,[Light Rain Showers],1996-9-27,[24.0 °C],[Rain],[-],[-],[89%],[N/A],[1010 hPa],[26.0 °C],[3:00 AM],[10.0 km],[SE],"[24.1 km/h
		/ 6.7 m/s]",METAR VHHH 261900Z 14013KT 110V180 9999 -SHRA FEW012 SCT020 BKN100 26/24 Q1010 WS LDG RWY 13/31 TEMPO 5000 SHRA
0,[Light Rain Showers],1996-9-27,[24.0 °C],[Rain],[-],[-],[89%],[N/A],[1009 hPa],[26.0 °C],[4:00 AM],[9.0 km],[Variable],"[1.9 km/h
		/ 0.5 m/s]",METAR VHHH 262000Z VRB01KT 9000 -SHRA FEW015 SCT020 BKN100 26/24 Q1009 TEMPO VIS 5000M MOD SHWR SIG WIND SHEAR IN APCH
0,[Mostly Cloudy],1996-9-27,[22.0 °C],[],[-],[29.2 °C],[74%],[N/A],[1009 hPa],[27.0 °C],[5:00 AM],[10.0 km],[ESE],"[13.0 km/h
		/ 3.6 m/s]",METAR VHHH 262100Z 11007KT 040V140 9999 FEW015 SCT025 BKN080 27/22 Q1009 TEMPO 5000 SHRA
0,[Scattered Clouds],1996-9-27,[23.0 °C],[],[-],[29.6 °C],[79%],[N/A],[1010 hPa],[27.0 °C],[6:00 AM],[10.0 km],[East],"[9.3 km/h
		/ 2.6 m/s]",METAR VHHH 262200Z 10005KT 020V140 9999 FEW018 SCT080 27/23 Q1010 TEMPO 5000 SHRA
0,[Mostly Cloudy],1996-9-27,[23.0 °C],[],[-],[29.6 °C],[79%],[N/A],[1010 hPa],[27.0 °C],[7:00 AM],[10.0 km],[East],"[13.0 km/h
		/ 3.6 m/s]",METAR VHHH 262300Z 10007KT 050V140 9999 FEW017 SCT025 BKN080 27/23 Q1010 TEMPO 5000 SHRA NOSIG
0,[Scattered Clouds],1996-9-27,[23.0 °C],[],[-],[29.6 °C],[79%],[N/A],[1011 hPa],[27.0 °C],[8:00 AM],[10.0 km],[East],"[16.7 km/h
		/ 4.6 m/s]",METAR VHHH 270000Z 09009KT 030V130 9999 FEW017 SCT080 27/23 Q1011 NOSIG
0,[Partly Cloudy],1996-9-27,[22.0 °C],[],[-],[33.2 °C],[62%],[N/A],[1012 hPa],[30.0 °C],[9:00 AM],[10.0 km],[ENE],"[18.5 km/h
		/ 5.1 m/s]",METAR VHHH 270100Z 07010KT 350V120 9999 FEW025 30/22 Q1012 NOSIG
0,[Partly Cloudy],1996-9-27,[21.0 °C],[],[-],[32.4 °C],[58%],[N/A],[1012 hPa],[30.0 °C],[10:00 AM],[10.0 km],[East],"[18.5 km/h
		/ 5.1 m/s]",METAR VHHH 270200Z 09010KT 060V120 9999 FEW025 30/21 Q1012 NOSIG
0,[Partly Cloudy],1996-9-27,[21.0 °C],[],[-],[33.7 °C],[55%],[N/A],[1012 hPa],[31.0 °C],[11:00 AM],[10.0 km],[East],"[13.0 km/h
		/ 3.6 m/s]",METAR VHHH 270300Z 09007KT 030V130 9999 FEW025 31/21 Q1012 NOSIG
0,[Scattered Clouds],1996-9-27,[22.0 °C],[],[-],[33.2 °C],[62%],[N/A],[1011 hPa],[30.0 °C],[12:00 PM],[10.0 km],[ESE],"[16.7 km/h
		/ 4.6 m/s]",METAR VHHH 270400Z 12009KT 100V170 9999 FEW025 SCT030 30/22 Q1011 NOSIG
0,[Mostly Cloudy],1996-9-27,[22.0 °C],[],[-],[34.4 °C],[58%],[N/A],[1010 hPa],[31.0 °C],[1:00 PM],[10.0 km],[SE],"[22.2 km/h
		/ 6.2 m/s]",METAR VHHH 270500Z 14012KT 120V190 9999 FEW025 SCT030 BKN080 31/22 Q1010 NOSIG
0,[Mostly Cloudy],1996-9-27,[23.0 °C],[],[-],[34.1 °C],[66%],[N/A],[1009 hPa],[30.0 °C],[2:00 PM],[10.0 km],[SE],"[18.5 km/h
		/ 5.1 m/s]",METAR VHHH 270600Z 13010KT 110V180 9999 FEW025 SCT035 BKN100 30/23 Q1009 NOSIG
0,[Mostly Cloudy],1996-9-27,[23.0 °C],[],[-],[34.1 °C],[66%],[N/A],[1008 hPa],[30.0 °C],[3:00 PM],[10.0 km],[SE],"[14.8 km/h
		/ 4.1 m/s]",METAR VHHH 270700Z 13008KT 9999 FEW025 SCT100 BKN300 30/23 Q1008 NOSIG
0,[Mostly Cloudy],1996-9-27,[23.0 °C],[],[-],[34.1 °C],[66%],[N/A],[1008 hPa],[30.0 °C],[4:00 PM],[10.0 km],[South],"[9.3 km/h
		/ 2.6 m/s]",METAR VHHH 270800Z 17005KT 070V230 9999 FEW022 SCT030 BKN100 30/23 Q1008 NOSIG
0,[Mostly Cloudy],1996-9-27,[22.0 °C],[],[-],[33.2 °C],[62%],[N/A],[1008 hPa],[30.0 °C],[5:00 PM],[10.0 km],[SE],"[14.8 km/h
		/ 4.1 m/s]",METAR VHHH 270900Z 14008KT 120V190 9999 FEW025 BKN100 30/22 Q1008 NOSIG
0,[Light Rain Showers],1996-9-27,[23.0 °C],[Rain],[-],[32.7 °C],[70%],[N/A],[1009 hPa],[29.0 °C],[6:00 PM],[10.0 km],[ESE],"[13.0 km/h
		/ 3.6 m/s]",METAR VHHH 271000Z 12007KT 9999 -SHRA FEW020 FEW025CB SCT030 BKN080 29/23 Q1009 WS LDG RWY 13 TEMPO 4000 SHRA
0,[Light Rain Showers],1996-9-27,[24.0 °C],[Rain],[-],[-],[89%],[N/A],[1009 hPa],[26.0 °C],[7:00 PM],[8.0 km],[NW],"[13.0 km/h
		/ 3.6 m/s]",METAR VHHH 271100Z 32007KT 8000 -SHRA FEW018 SCT025 BKN080 26/24 Q1009 WS LDG RWY 13 TEMPO 4000 SHRA
0,[Mostly Cloudy],1996-9-27,[23.0 °C],[],[-],[29.6 °C],[79%],[N/A],[1009 hPa],[27.0 °C],[8:00 PM],[10.0 km],[West],"[13.0 km/h
		/ 3.6 m/s]",METAR VHHH 271200Z 26007KT 210V310 9999 FEW025 SCT035 BKN100 27/23 Q1009 NOSIG
0,[Mostly Cloudy],1996-9-27,[23.0 °C],[],[-],[31.2 °C],[74%],[N/A],[1010 hPa],[28.0 °C],[9:00 PM],[10.0 km],[Variable],"[1.9 km/h
		/ 0.5 m/s]",METAR VHHH 271300Z VRB01KT 9999 FEW025 SCT035 BKN080 28/23 Q1010 NOSIG
0,[Mostly Cloudy],1996-9-27,[23.0 °C],[],[-],[29.6 °C],[79%],[N/A],[1011 hPa],[27.0 °C],[10:00 PM],[10.0 km],[NW],"[11.1 km/h
		/ 3.1 m/s]",METAR VHHH 271400Z 31006KT 280V350 9999 FEW025 BKN080 27/23 Q1011 NOSIG
0,[Scattered Clouds],1996-9-27,[22.0 °C],[],[-],[29.2 °C],[74%],[N/A],[1010 hPa],[27.0 °C],[11:00 PM],[10.0 km],[NW],"[11.1 km/h
		/ 3.1 m/s]",METAR VHHH 271500Z 31006KT 280V340 9999 FEW025 SCT080 27/22 Q1010 NOSIG
0,[Partly Cloudy],1996-9-28,[22.0 °C],[],[-],[-],[78%],[N/A],[1010 hPa],[26.0 °C],[12:00 AM],[10.0 km],[NNW],"[7.4 km/h
		/ 2.1 m/s]",METAR VHHH 271600Z 33004KT 280V010 9999 FEW025 26/22 Q1010 NOSIG
0,[Partly Cloudy],1996-9-28,[21.0 °C],[],[-],[-],[74%],[N/A],[1010 hPa],[26.0 °C],[1:00 AM],[10.0 km],[North],"[5.6 km/h
		/ 1.5 m/s]",METAR VHHH 271700Z 36003KT 9999 FEW035 26/21 Q1010 NOSIG
0,[Partly Cloudy],1996-9-28,[21.0 °C],[],[-],[-],[74%],[N/A],[1009 hPa],[26.0 °C],[2:00 AM],[10.0 km],[SSW],"[1.9 km/h
		/ 0.5 m/s]",METAR VHHH 271800Z 20001KT 9999 FEW035 26/21 Q1009 NOSIG
0,[Partly Cloudy],1996-9-28,[20.0 °C],[],[-],[-],[69%],[N/A],[1009 hPa],[26.0 °C],[3:00 AM],[10.0 km],[Variable],"[1.9 km/h
		/ 0.5 m/s]",METAR VHHH 271900Z VRB01KT 9999 FEW035 26/20 Q1009 NOSIG
0,[Clear],1996-9-28,[20.0 °C],[],[-],[-],[74%],[N/A],[1009 hPa],[25.0 °C],[4:00 AM],[-],[NW],"[1.9 km/h
		/ 0.5 m/s]",METAR VHHH 272000Z 32001KT CAVOK 25/20 Q1009 NOSIG
0,[Clear],1996-9-28,[20.0 °C],[],[-],[-],[74%],[N/A],[1009 hPa],[25.0 °C],[5:00 AM],[-],[NW],"[7.4 km/h
		/ 2.1 m/s]",METAR VHHH 272100Z 32004KT 290V360 CAVOK 25/20 Q1009 NOSIG
0,[Clear],1996-9-28,[19.0 °C],[],[-],[-],[69%],[N/A],[1009 hPa],[25.0 °C],[6:00 AM],[-],[NNW],"[9.3 km/h
		/ 2.6 m/s]",METAR VHHH 272200Z 33005KT 280V010 CAVOK 25/19 Q1009 NOSIG
0,[Partly Cloudy],1996-9-28,[19.0 °C],[],[-],[-],[69%],[N/A],[1010 hPa],[25.0 °C],[7:00 AM],[10.0 km],[NNW],"[9.3 km/h
		/ 2.6 m/s]",METAR VHHH 272300Z 33005KT 280V010 9999 FEW035 25/19 Q1010 NOSIG
0,[Clear],1996-9-28,[19.0 °C],[],[-],[-],[65%],[N/A],[1010 hPa],[26.0 °C],[8:00 AM],[-],[NW],"[14.8 km/h
		/ 4.1 m/s]",METAR VHHH 280000Z 31008KT 270V360 CAVOK 26/19 Q1010 NOSIG
0,[Clear],1996-9-28,[18.0 °C],[],[-],[27.9 °C],[58%],[N/A],[1010 hPa],[27.0 °C],[9:00 AM],[-],[NNW],"[9.3 km/h
		/ 2.6 m/s]",METAR VHHH 280100Z 33005KT 280V030 CAVOK 27/18 Q1010 NOSIG
0,[Clear],1996-9-28,[18.0 °C],[],[-],[30.7 °C],[48%],[N/A],[1010 hPa],[30.0 °C],[11:00 AM],[-],[WNW],"[11.1 km/h
		/ 3.1 m/s]",METAR VHHH 280300Z 30006KT 270V110 CAVOK 30/18 Q1010 NOSIG
0,[Clear],1996-9-28,[18.0 °C],[],[-],[31.9 °C],[46%],[N/A],[1009 hPa],[31.0 °C],[12:00 PM],[-],[NNW],"[18.5 km/h
		/ 5.1 m/s]",METAR VHHH 280400Z 34010KT 280V020 CAVOK 31/18 Q1009 WS LDG RWY 13/31 NOSIG
0,[Partly Cloudy],1996-9-28,[18.0 °C],[],[-],[31.9 °C],[46%],[N/A],[1008 hPa],[31.0 °C],[1:00 PM],[10.0 km],[NNW],"[20.4 km/h
		/ 5.7 m/s]",METAR VHHH 280500Z 33011KT 290V010 9999 FEW018 31/18 Q1008 WS LDG RWY 13/31 NOSIG
0,[Partly Cloudy],1996-9-28,[17.0 °C],[],[-],[31.4 °C],[43%],[N/A],[1007 hPa],[31.0 °C],[2:00 PM],[10.0 km],[NNW],"[22.2 km/h
		/ 6.2 m/s]",METAR VHHH 280600Z 33012KT 240V020 9999 FEW035 31/17 Q1007 WS LDG RWY 13/31 NOSIG
0,[Partly Cloudy],1996-9-28,[17.0 °C],[],[-],[31.4 °C],[43%],[N/A],[1006 hPa],[31.0 °C],[3:00 PM],[10.0 km],[North],"[14.8 km/h
		/ 4.1 m/s]",METAR VHHH 280700Z 36008KT 210V170 9999 FEW030 31/17 Q1006 WS LDG RWY 13/31 NOSIG
0,[Partly Cloudy],1996-9-28,[17.0 °C],[],[-],[32.3 °C],[40%],[N/A],[1006 hPa],[32.0 °C],[4:00 PM],[10.0 km],[NNW],"[14.8 km/h
		/ 4.1 m/s]",METAR VHHH 280800Z 34008KT 280V040 9999 FEW030 32/17 Q1006 WS LDG RWY 13/31 NOSIG
0,[Clear],1996-9-28,[19.0 °C],[],[-],[31.2 °C],[51%],[N/A],[1006 hPa],[30.0 °C],[5:00 PM],[-],[NNW],"[16.7 km/h
		/ 4.6 m/s]",METAR VHHH 280900Z 33009KT 270V020 CAVOK 30/19 Q1006 WS LDG RWY 13/31 NOSIG
0,[Clear],1996-9-28,[16.0 °C],[],[-],[30.1 °C],[43%],[N/A],[1006 hPa],[30.0 °C],[6:00 PM],[-],[NW],"[16.7 km/h
		/ 4.6 m/s]",METAR VHHH 281000Z 32009KT 290V360 CAVOK 30/16 Q1006 WS LDG RWY 13/31 NOSIG
0,[Clear],1996-9-28,[17.0 °C],[],[-],[29.4 °C],[48%],[N/A],[1007 hPa],[29.0 °C],[7:00 PM],[-],[NNW],"[3.7 km/h
		/ 1.0 m/s]",METAR VHHH 281100Z 33002KT CAVOK 29/17 Q1007 WS LDG RWY 13/31 NOSIG
0,[Clear],1996-9-28,[17.0 °C],[],[-],[29.4 °C],[48%],[N/A],[1007 hPa],[29.0 °C],[8:00 PM],[-],[North],"[1.9 km/h
		/ 0.5 m/s]",METAR VHHH 281200Z 36001KT CAVOK 29/17 Q1007 WS LDG RWY 13/31 NOSIG
0,[Clear],1996-9-28,[18.0 °C],[],[-],[28.8 °C],[54%],[N/A],[1008 hPa],[28.0 °C],[9:00 PM],[-],[Variable],"[1.9 km/h
		/ 0.5 m/s]",METAR VHHH 281300Z VRB01KT CAVOK 28/18 Q1008 NOSIG
0,[Clear],1996-9-28,[18.0 °C],[],"[29.6 km/h
		/ 8.2 m/s]",[28.8 °C],[54%],[N/A],[1008 hPa],[28.0 °C],[10:00 PM],[-],[North],"[5.6 km/h
		/ 1.5 m/s]",METAR VHHH 281400Z 01003G16KT CAVOK 28/18 Q1008 NOSIG
0,[Clear],1996-9-28,[15.0 °C],[],[-],[27.3 °C],[48%],[N/A],[1008 hPa],[27.0 °C],[11:00 PM],[-],[North],"[14.8 km/h
		/ 4.1 m/s]",METAR VHHH 281500Z 35008KT 320V100 CAVOK 27/15 Q1008 NOSIG
0,[Clear],1996-9-29,[15.0 °C],[],[-],[27.3 °C],[48%],[N/A],[1008 hPa],[27.0 °C],[12:00 AM],[-],[North],"[14.8 km/h
		/ 4.1 m/s]",METAR VHHH 281600Z 36008KT 270V110 CAVOK 27/15 Q1008 NOSIG
0,[Clear],1996-9-29,[16.0 °C],[],[-],[-],[54%],[N/A],[1007 hPa],[26.0 °C],[1:00 AM],[-],[NW],"[9.3 km/h
		/ 2.6 m/s]",METAR VHHH 281700Z 32005KT 280V130 CAVOK 26/16 Q1007 NOSIG
0,[Clear],1996-9-29,[16.0 °C],[],[-],[-],[54%],[N/A],[1007 hPa],[26.0 °C],[2:00 AM],[-],[North],"[7.4 km/h
		/ 2.1 m/s]",METAR VHHH 281800Z 35004KT 280V090 CAVOK 26/16 Q1007 NOSIG
0,[Clear],1996-9-29,[16.0 °C],[],[-],[-],[54%],[N/A],[1006 hPa],[26.0 °C],[3:00 AM],[-],[West],"[1.9 km/h
		/ 0.5 m/s]",METAR VHHH 281900Z 28001KT CAVOK 26/16 Q1006 NOSIG
0,[Clear],1996-9-29,[17.0 °C],[],[-],[-],[61%],[N/A],[1006 hPa],[25.0 °C],[4:00 AM],[-],[WSW],"[3.7 km/h
		/ 1.0 m/s]",METAR VHHH 282000Z 25002KT CAVOK 25/17 Q1006 NOSIG
0,[Clear],1996-9-29,[18.0 °C],[],[-],[-],[65%],[N/A],[1007 hPa],[25.0 °C],[6:00 AM],[-],[NE],"[7.4 km/h
		/ 2.1 m/s]",METAR VHHH 282200Z 05004KT CAVOK 25/18 Q1007 NOSIG
0,[Clear],1996-9-29,[18.0 °C],[],[-],[-],[65%],[N/A],[1007 hPa],[25.0 °C],[7:00 AM],[-],[NNW],"[9.3 km/h
		/ 2.6 m/s]",METAR VHHH 282300Z 34005KT 220V050 CAVOK 25/18 Q1007 NOSIG
0,[Partly Cloudy],1996-9-29,[18.0 °C],[],[-],[-],[61%],[N/A],[1008 hPa],[26.0 °C],[8:00 AM],[10.0 km],[Variable],"[1.9 km/h
		/ 0.5 m/s]",METAR VHHH 290000Z VRB01KT 9999 FEW020 26/18 Q1008 NOSIG
0,[Partly Cloudy],1996-9-29,[18.0 °C],[],[-],[27.9 °C],[58%],[N/A],[1008 hPa],[27.0 °C],[9:00 AM],[10.0 km],[NW],"[13.0 km/h
		/ 3.6 m/s]",METAR VHHH 290100Z 32007KT 270V360 9999 FEW030 27/18 Q1008 NOSIG
0,[Partly Cloudy],1996-9-29,[18.0 °C],[],[-],[29.8 °C],[51%],[N/A],[1008 hPa],[29.0 °C],[10:00 AM],[10.0 km],[North],"[13.0 km/h
		/ 3.6 m/s]",METAR VHHH 290200Z 35007KT 300V040 9999 FEW040 29/18 Q1008 NOSIG
0,[Clear],1996-9-29,[18.0 °C],[],[-],[30.7 °C],[48%],[N/A],[1008 hPa],[30.0 °C],[11:00 AM],[-],[NNW],"[11.1 km/h
		/ 3.1 m/s]",METAR VHHH 290300Z 34006KT 260V100 CAVOK 30/18 Q1008 NOSIG
0,[Partly Cloudy],1996-9-29,[19.0 °C],[],[-],[32.4 °C],[49%],[N/A],[1007 hPa],[31.0 °C],[1:00 PM],[10.0 km],[South],"[3.7 km/h
		/ 1.0 m/s]",METAR VHHH 290500Z 18002KT 9999 FEW030 31/19 Q1007 NOSIG
0,[Partly Cloudy],1996-9-29,[19.0 °C],[],[-],[33.5 °C],[46%],[N/A],[1006 hPa],[32.0 °C],[2:00 PM],[10.0 km],[ENE],"[13.0 km/h
		/ 3.6 m/s]",METAR VHHH 290600Z 06007KT 010V190 9999 FEW030 32/19 Q1006 NOSIG
0,[Partly Cloudy],1996-9-29,[19.0 °C],[],[-],[33.5 °C],[46%],[N/A],[1005 hPa],[32.0 °C],[3:00 PM],[10.0 km],[ENE],"[13.0 km/h
		/ 3.6 m/s]",METAR VHHH 290700Z 07007KT 020V120 9999 FEW025 32/19 Q1005 NOSIG
0,[Partly Cloudy],1996-9-29,[19.0 °C],[],[-],[33.5 °C],[46%],[N/A],[1005 hPa],[32.0 °C],[4:00 PM],[10.0 km],[NNE],"[14.8 km/h
		/ 4.1 m/s]",METAR VHHH 290800Z 03008KT 270V120 9999 FEW025 32/19 Q1005 NOSIG
0,[Partly Cloudy],1996-9-29,[20.0 °C],[],[-],[33.0 °C],[52%],[N/A],[1005 hPa],[31.0 °C],[5:00 PM],[10.0 km],[North],"[14.8 km/h
		/ 4.1 m/s]",METAR VHHH 290900Z 36008KT 310V060 9999 FEW025 31/20 Q1005 NOSIG
0,[Partly Cloudy],1996-9-29,[20.0 °C],[],[-],[31.9 °C],[55%],[N/A],[1005 hPa],[30.0 °C],[6:00 PM],[10.0 km],[NNW],"[7.4 km/h
		/ 2.1 m/s]",METAR VHHH 291000Z 34004KT 310V040 9999 FEW025 30/20 Q1005 NOSIG
0,[Scattered Clouds],1996-9-29,[20.0 °C],[],[-],[31.9 °C],[55%],[N/A],[1006 hPa],[30.0 °C],[7:00 PM],[10.0 km],[North],"[9.3 km/h
		/ 2.6 m/s]",METAR VHHH 291100Z 01005KT 330V060 9999 FEW030 SCT100 30/20 Q1006 NOSIG
0,[Clear],1996-9-29,[21.0 °C],[],[-],[31.3 °C],[62%],[N/A],[1006 hPa],[29.0 °C],[8:00 PM],[-],[NNW],"[5.6 km/h
		/ 1.5 m/s]",METAR VHHH 291200Z 33003KT CAVOK 29/21 Q1006 NOSIG
0,[Clear],1996-9-29,[19.0 °C],[],[-],[30.3 °C],[55%],[N/A],[1007 hPa],[29.0 °C],[9:00 PM],[-],[North],"[14.8 km/h
		/ 4.1 m/s]",METAR VHHH 291300Z 01008KT 320V080 CAVOK 29/19 Q1007 NOSIG
0,[Partly Cloudy],1996-9-29,[17.0 °C],[],[-],[29.4 °C],[48%],[N/A],[1007 hPa],[29.0 °C],[10:00 PM],[10.0 km],[North],"[11.1 km/h
		/ 3.1 m/s]",METAR VHHH 291400Z 01006KT 310V050 9999 FEW040 29/17 Q1007 NOSIG
0,[Partly Cloudy],1996-9-29,[17.0 °C],[],[-],[28.5 °C],[51%],[N/A],[1007 hPa],[28.0 °C],[11:00 PM],[10.0 km],[North],"[11.1 km/h
		/ 3.1 m/s]",METAR VHHH 291500Z 01006KT 310V080 9999 FEW040 28/17 Q1007 WS LDG RWY 13/31 NOSIG
0,[Partly Cloudy],1996-9-30,[17.0 °C],[],[-],[28.5 °C],[51%],[N/A],[1007 hPa],[28.0 °C],[12:00 AM],[10.0 km],[North],"[18.5 km/h
		/ 5.1 m/s]",METAR VHHH 291600Z 36010KT 330V090 9999 FEW040 28/17 Q1007 WS LDG RWY 13/31 NOSIG
0,[Partly Cloudy],1996-9-30,[18.0 °C],[],[-],[27.9 °C],[58%],[N/A],[1007 hPa],[27.0 °C],[1:00 AM],[10.0 km],[NNE],"[13.0 km/h
		/ 3.6 m/s]",METAR VHHH 291700Z 02007KT 330V120 9999 FEW040 27/18 Q1007 WS LDG RWY 13/31 NOSIG
0,[Partly Cloudy],1996-9-30,[18.0 °C],[],[-],[27.9 °C],[58%],[N/A],[1007 hPa],[27.0 °C],[2:00 AM],[10.0 km],[North],"[11.1 km/h
		/ 3.1 m/s]",METAR VHHH 291800Z 36006KT 300V090 9999 FEW040 27/18 Q1007 WS LDG RWY 13/31 NOSIG
0,[Partly Cloudy],1996-9-30,[17.0 °C],[],[-],[27.7 °C],[54%],[N/A],[1007 hPa],[27.0 °C],[3:00 AM],[10.0 km],[North],"[13.0 km/h
		/ 3.6 m/s]",METAR VHHH 291900Z 36007KT 310V030 9999 FEW040 27/17 Q1007 WS LDG RWY 13/31 NOSIG
0,[Scattered Clouds],1996-9-30,[17.0 °C],[],[-],[27.7 °C],[54%],[N/A],[1007 hPa],[27.0 °C],[4:00 AM],[10.0 km],[North],"[5.6 km/h
		/ 1.5 m/s]",METAR VHHH 292000Z 36003KT 9999 FEW040 SCT100 27/17 Q1007 WS LDG RWY 13/31 NOSIG
0,[Scattered Clouds],1996-9-30,[18.0 °C],[],[-],[-],[61%],[N/A],[1007 hPa],[26.0 °C],[5:00 AM],[10.0 km],[North],"[7.4 km/h
		/ 2.1 m/s]",METAR VHHH 292100Z 01004KT 270V050 9999 FEW040 SCT100 26/18 Q1007 NOSIG
0,[Scattered Clouds],1996-9-30,[18.0 °C],[],[-],[-],[61%],[N/A],[1008 hPa],[26.0 °C],[6:00 AM],[10.0 km],[SSW],"[1.9 km/h
		/ 0.5 m/s]",METAR VHHH 292200Z 21001KT 9999 FEW040 SCT100 26/18 Q1008 NOSIG
0,[Clear],1996-9-30,[18.0 °C],[],[-],[-],[61%],[N/A],[1008 hPa],[26.0 °C],[7:00 AM],[-],[Variable],"[1.9 km/h
		/ 0.5 m/s]",METAR VHHH 292300Z VRB01KT CAVOK 26/18 Q1008 NOSIG
0,[Clear],1996-9-30,[18.0 °C],[],[-],[27.9 °C],[58%],[N/A],[1009 hPa],[27.0 °C],[8:00 AM],[-],[West],"[3.7 km/h
		/ 1.0 m/s]",METAR VHHH 300000Z 26002KT CAVOK 27/18 Q1009 NOSIG
0,[Clear],1996-9-30,[18.0 °C],[],[-],[28.8 °C],[54%],[N/A],[1009 hPa],[28.0 °C],[9:00 AM],[-],[WNW],"[9.3 km/h
		/ 2.6 m/s]",METAR VHHH 300100Z 30005KT CAVOK 28/18 Q1009 NOSIG
0,[Clear],1996-9-30,[19.0 °C],[],[-],[30.3 °C],[55%],[N/A],[1010 hPa],[29.0 °C],[10:00 AM],[-],[NW],"[11.1 km/h
		/ 3.1 m/s]",METAR VHHH 300200Z 31006KT CAVOK 29/19 Q1010 NOSIG
0,[Partly Cloudy],1996-9-30,[18.0 °C],[],[-],[30.7 °C],[48%],[N/A],[1010 hPa],[30.0 °C],[11:00 AM],[10.0 km],[North],"[7.4 km/h
		/ 2.1 m/s]",METAR VHHH 300300Z 35004KT 240V120 9999 FEW030 30/18 Q1010 NOSIG
0,[Partly Cloudy],1996-9-30,[19.0 °C],[],[-],[32.4 °C],[49%],[N/A],[1009 hPa],[31.0 °C],[12:00 PM],[10.0 km],[East],"[13.0 km/h
		/ 3.6 m/s]",METAR VHHH 300400Z 09007KT 360V130 9999 FEW025 31/19 Q1009 NOSIG
0,[Scattered Clouds],1996-9-30,[20.0 °C],[],[-],[33.0 °C],[52%],[N/A],[1008 hPa],[31.0 °C],[1:00 PM],[10.0 km],[SSE],"[11.1 km/h
		/ 3.1 m/s]",METAR VHHH 300500Z 15006KT 070V210 9999 SCT025 31/20 Q1008 NOSIG
0,[Scattered Clouds],1996-9-30,[19.0 °C],[],[-],[32.4 °C],[49%],[N/A],[1007 hPa],[31.0 °C],[2:00 PM],[10.0 km],[ESE],"[9.3 km/h
		/ 2.6 m/s]",METAR VHHH 300600Z 12005KT 060V170 9999 FEW025 SCT030 31/19 Q1007 NOSIG
0,[Mostly Cloudy],1996-9-30,[19.0 °C],[],[-],[31.2 °C],[51%],[N/A],[1007 hPa],[30.0 °C],[3:00 PM],[10.0 km],[SE],"[14.8 km/h
		/ 4.1 m/s]",METAR VHHH 300700Z 14008KT 110V230 9999 FEW025 BKN040 30/19 Q1007 NOSIG
0,[Mostly Cloudy],1996-9-30,[20.0 °C],[],[-],[30.7 °C],[58%],[N/A],[1007 hPa],[29.0 °C],[4:00 PM],[10.0 km],[SSE],"[14.8 km/h
		/ 4.1 m/s]",METAR VHHH 300800Z 15008KT 120V210 9999 FEW025 BKN035 29/20 Q1007 NOSIG
0,[Scattered Clouds],1996-9-30,[20.0 °C],[],[-],[30.7 °C],[58%],[N/A],[1007 hPa],[29.0 °C],[5:00 PM],[10.0 km],[NE],"[9.3 km/h
		/ 2.6 m/s]",METAR VHHH 300900Z 04005KT 320V120 9999 FEW025 SCT035 29/20 Q1007 NOSIG
0,[Scattered Clouds],1996-9-30,[19.0 °C],[],[-],[31.2 °C],[51%],[N/A],[1008 hPa],[30.0 °C],[6:00 PM],[10.0 km],[SE],"[11.1 km/h
		/ 3.1 m/s]",METAR VHHH 301000Z 13006KT 9999 FEW025 SCT100 30/19 Q1008 NOSIG
0,[Partly Cloudy],1996-9-30,[20.0 °C],[],[-],[30.7 °C],[58%],[N/A],[1008 hPa],[29.0 °C],[7:00 PM],[10.0 km],[ESE],"[9.3 km/h
		/ 2.6 m/s]",METAR VHHH 301100Z 12005KT 070V160 9999 FEW025 29/20 Q1008 NOSIG
0,[Partly Cloudy],1996-9-30,[19.0 °C],[],[-],[30.3 °C],[55%],[N/A],[1009 hPa],[29.0 °C],[8:00 PM],[10.0 km],[ENE],"[7.4 km/h
		/ 2.1 m/s]",METAR VHHH 301200Z 06004KT 020V090 9999 FEW025 29/19 Q1009 NOSIG
0,[Partly Cloudy],1996-9-30,[18.0 °C],[],[-],[29.8 °C],[51%],[N/A],[1010 hPa],[29.0 °C],[9:00 PM],[10.0 km],[NNE],"[5.6 km/h
		/ 1.5 m/s]",METAR VHHH 301300Z 03003KT 9999 FEW025 29/18 Q1010 NOSIG
0,[Partly Cloudy],1996-9-30,[17.0 °C],[],[-],[28.5 °C],[51%],[N/A],[1010 hPa],[28.0 °C],[10:00 PM],[10.0 km],[ENE],"[7.4 km/h
		/ 2.1 m/s]",METAR VHHH 301400Z 07004KT 010V130 9999 FEW025 28/17 Q1010 NOSIG
0,[Partly Cloudy],1996-9-30,[17.0 °C],[],[-],[28.5 °C],[51%],[N/A],[1010 hPa],[28.0 °C],[11:00 PM],[10.0 km],[NNE],"[7.4 km/h
		/ 2.1 m/s]",METAR VHHH 301500Z 03004KT 360V180 9999 FEW025 28/17 Q1010 NOSIG
0,[Partly Cloudy],1996-10-1,[18.0 °C],[],[-],[28.8 °C],[54%],[N/A],[1011 hPa],[28.0 °C],[12:00 AM],[10.0 km],[ENE],"[1.9 km/h
		/ 0.5 m/s]",METAR VHHH 301600Z 07001KT 9999 FEW025 28/18 Q1011 NOSIG
0,[Scattered Clouds],1996-10-1,[21.0 °C],[],[-],[-],[74%],[N/A],[1010 hPa],[26.0 °C],[3:00 AM],[10.0 km],[SSE],"[1.9 km/h
		/ 0.5 m/s]",METAR VHHH 301900Z 16001KT 9999 FEW020 SCT030 26/21 Q1010 NOSIG
0,[Scattered Clouds],1996-10-1,[20.0 °C],[],[-],[-],[69%],[N/A],[1010 hPa],[26.0 °C],[4:00 AM],[10.0 km],[NE],"[3.7 km/h
		/ 1.0 m/s]",METAR VHHH 302000Z 04002KT 9999 FEW020 SCT035 26/20 Q1010 NOSIG
0,[Mostly Cloudy],1996-10-1,[21.0 °C],[],[-],[-],[78%],[N/A],[1011 hPa],[25.0 °C],[5:00 AM],[10.0 km],[Variable],"[1.9 km/h
		/ 0.5 m/s]",METAR VHHH 302100Z VRB01KT 9999 FEW025 BKN035 25/21 Q1011 NOSIG
0,[Mostly Cloudy],1996-10-1,[20.0 °C],[],[-],[28.5 °C],[65%],[N/A],[1011 hPa],[27.0 °C],[6:00 AM],[10.0 km],[North],"[5.6 km/h
		/ 1.5 m/s]",METAR VHHH 302200Z 35003KT 280V050 9999 FEW025 SCT035 BKN080 27/20 Q1011 NOSIG
0,[Mostly Cloudy],1996-10-1,[21.0 °C],[],[-],[28.9 °C],[70%],[N/A],[1014 hPa],[27.0 °C],[10:00 AM],[10.0 km],[East],"[16.7 km/h
		/ 4.6 m/s]",METAR VHHH 010200Z 09009KT 060V170 9999 FEW022 SCT035 BKN100 27/21 Q1014 TEMPO 5000 -RA
0,[Mostly Cloudy],1996-10-1,[22.0 °C],[],[-],[29.2 °C],[74%],[N/A],[1014 hPa],[27.0 °C],[11:00 AM],[10.0 km],[ESE],"[20.4 km/h
		/ 5.7 m/s]",METAR VHHH 010300Z 11011KT 040V140 9999 FEW015 SCT030 BKN080 27/22 Q1014 TEMPO 5000 -RA
0,[Mostly Cloudy],1996-10-1,[22.0 °C],[],[-],[29.2 °C],[74%],[N/A],[1013 hPa],[27.0 °C],[12:00 PM],[10.0 km],[East],"[18.5 km/h
		/ 5.1 m/s]",METAR VHHH 010400Z 10010KT 030V160 9999 FEW018 SCT040 BKN080 27/22 Q1013 NOSIG
0,[Mostly Cloudy],1996-10-1,[21.0 °C],[],"[48.2 km/h
		/ 13.4 m/s]",[31.3 °C],[62%],[N/A],[1013 hPa],[29.0 °C],[1:00 PM],[10.0 km],[East],"[22.2 km/h
		/ 6.2 m/s]",METAR VHHH 010500Z 10012G26KT 040V160 9999 FEW016 BKN080 29/21 Q1013 NOSIG
0,[Mostly Cloudy],1996-10-1,[21.0 °C],[],"[55.6 km/h
		/ 15.4 m/s]",[32.4 °C],[58%],[N/A],[1012 hPa],[30.0 °C],[2:00 PM],[10.0 km],[ESE],"[18.5 km/h
		/ 5.1 m/s]",METAR VHHH 010600Z 11010G30KT 050V160 9999 FEW020 BKN090 30/21 Q1012 NOSIG
0,[Scattered Clouds],1996-10-1,[22.0 °C],[],"[37.0 km/h
		/ 10.3 m/s]",[32.0 °C],[66%],[N/A],[1012 hPa],[29.0 °C],[3:00 PM],[10.0 km],[ESE],"[18.5 km/h
		/ 5.1 m/s]",METAR VHHH 010700Z 11010G20KT 040V140 9999 FEW020 SCT030 29/22 Q1012 NOSIG
0,[Partly Cloudy],1996-10-1,[22.0 °C],[],[-],[30.7 °C],[70%],[N/A],[1012 hPa],[28.0 °C],[5:00 PM],[10.0 km],[SE],"[18.5 km/h
		/ 5.1 m/s]",METAR VHHH 010900Z 13010KT 080V140 9999 FEW020 28/22 Q1012 NOSIG
0,[Scattered Clouds],1996-10-1,[22.0 °C],[],[-],[30.7 °C],[70%],[N/A],[1012 hPa],[28.0 °C],[6:00 PM],[10.0 km],[ESE],"[13.0 km/h
		/ 3.6 m/s]",METAR VHHH 011000Z 12007KT 090V150 9999 FEW020 SCT100 28/22 Q1012 NOSIG
0,[Mostly Cloudy],1996-10-1,[21.0 °C],[],[-],[30.2 °C],[66%],[N/A],[1013 hPa],[28.0 °C],[7:00 PM],[10.0 km],[SE],"[13.0 km/h
		/ 3.6 m/s]",METAR VHHH 011100Z 13007KT 9999 FEW025 BKN080 28/21 Q1013 NOSIG
0,[Mostly Cloudy],1996-10-1,[22.0 °C],[],[-],[29.2 °C],[74%],[N/A],[1014 hPa],[27.0 °C],[8:00 PM],[10.0 km],[SE],"[11.1 km/h
		/ 3.1 m/s]",METAR VHHH 011200Z 13006KT 9999 FEW025 BKN080 27/22 Q1014 NOSIG
0,[Mostly Cloudy],1996-10-1,[22.0 °C],[],[-],[29.2 °C],[74%],[N/A],[1014 hPa],[27.0 °C],[9:00 PM],[10.0 km],[ESE],"[9.3 km/h
		/ 2.6 m/s]",METAR VHHH 011300Z 11005KT 9999 FEW025 SCT035 BKN080 27/22 Q1014 NOSIG
0,[Mostly Cloudy],1996-10-1,[21.0 °C],[],[-],[30.2 °C],[66%],[N/A],[1015 hPa],[28.0 °C],[10:00 PM],[10.0 km],[ESE],"[9.3 km/h
		/ 2.6 m/s]",METAR VHHH 011400Z 12005KT 9999 FEW025 BKN080 28/21 Q1015 NOSIG
0,[Scattered Clouds],1996-10-1,[21.0 °C],[],[-],[28.9 °C],[70%],[N/A],[1015 hPa],[27.0 °C],[11:00 PM],[10.0 km],[ESE],"[9.3 km/h
		/ 2.6 m/s]",METAR VHHH 011500Z 12005KT 9999 FEW025 SCT080 27/21 Q1015 NOSIG
0,[Scattered Clouds],1996-10-2,[21.0 °C],[],[-],[28.9 °C],[70%],[N/A],[1015 hPa],[27.0 °C],[12:00 AM],[10.0 km],[SE],"[5.6 km/h
		/ 1.5 m/s]",METAR VHHH 011600Z 13003KT 9999 FEW022 SCT100 27/21 Q1015 NOSIG
0,[Mostly Cloudy],1996-10-2,[22.0 °C],[],[-],[-],[78%],[N/A],[1014 hPa],[26.0 °C],[1:00 AM],[10.0 km],[SE],"[1.9 km/h
		/ 0.5 m/s]",METAR VHHH 011700Z 14001KT 9999 FEW025 SCT030 BKN100 26/22 Q1014 NOSIG
0,[Scattered Clouds],1996-10-2,[22.0 °C],[],[-],[-],[83%],[N/A],[1014 hPa],[25.0 °C],[2:00 AM],[10.0 km],[SE],"[1.9 km/h
		/ 0.5 m/s]",METAR VHHH 011800Z 13001KT 9999 FEW030 SCT100 25/22 Q1014 NOSIG
0,[Mostly Cloudy],1996-10-2,[22.0 °C],[],[-],[-],[78%],[N/A],[1013 hPa],[26.0 °C],[3:00 AM],[10.0 km],[SE],"[1.9 km/h
		/ 0.5 m/s]",METAR VHHH 011900Z 14001KT 9999 FEW025 BKN100 26/22 Q1013 NOSIG
0,[Partly Cloudy],1996-10-2,[22.0 °C],[],[-],[-],[83%],[N/A],[1013 hPa],[25.0 °C],[4:00 AM],[10.0 km],[SSE],"[1.9 km/h
		/ 0.5 m/s]",METAR VHHH 012000Z 16001KT 9999 FEW025 25/22 Q1013 NOSIG
0,[Scattered Clouds],1996-10-2,[21.0 °C],[],[-],[-],[78%],[N/A],[1013 hPa],[25.0 °C],[5:00 AM],[10.0 km],[ESE],"[1.9 km/h
		/ 0.5 m/s]",METAR VHHH 012100Z 12001KT 9999 FEW025 SCT100 25/21 Q1013 NOSIG
0,[Partly Cloudy],1996-10-2,[21.0 °C],[],[-],[-],[74%],[N/A],[1014 hPa],[26.0 °C],[6:00 AM],[10.0 km],[Calm],[Calm],METAR VHHH 012200Z 00000KT 9999 FEW030 26/21 Q1014 NOSIG
0,[Partly Cloudy],1996-10-2,[21.0 °C],[],[-],[-],[74%],[N/A],[1014 hPa],[26.0 °C],[7:00 AM],[10.0 km],[Variable],"[1.9 km/h
		/ 0.5 m/s]",METAR VHHH 012300Z VRB01KT 9999 FEW035 26/21 Q1014 NOSIG
0,[Partly Cloudy],1996-10-2,[22.0 °C],[],[-],[30.7 °C],[70%],[N/A],[1015 hPa],[28.0 °C],[8:00 AM],[10.0 km],[Calm],[Calm],METAR VHHH 020000Z 00000KT 9999 FEW020 28/22 Q1015 NOSIG
0,[Scattered Clouds],1996-10-2,[21.0 °C],[],[-],[30.2 °C],[66%],[N/A],[1015 hPa],[28.0 °C],[9:00 AM],[10.0 km],[South],"[3.7 km/h
		/ 1.0 m/s]",METAR VHHH 020100Z 17002KT 9999 SCT020 28/21 Q1015 NOSIG
0,[Scattered Clouds],1996-10-2,[21.0 °C],[],[-],[32.4 °C],[58%],[N/A],[1015 hPa],[30.0 °C],[10:00 AM],[9.0 km],[Variable],"[1.9 km/h
		/ 0.5 m/s]",METAR VHHH 020200Z VRB01KT 9000 FEW020 SCT025 30/21 Q1015 NOSIG
0,[Scattered Clouds],1996-10-2,[22.0 °C],[],[-],[34.4 °C],[58%],[N/A],[1014 hPa],[31.0 °C],[11:00 AM],[9.0 km],[SE],"[13.0 km/h
		/ 3.6 m/s]",METAR VHHH 020300Z 13007KT 060V170 9000 FEW025 SCT030 31/22 Q1014 NOSIG
0,[Mostly Cloudy],1996-10-2,[23.0 °C],[],[-],[31.2 °C],[74%],[N/A],[1014 hPa],[28.0 °C],[12:00 PM],[9.0 km],[SSE],"[18.5 km/h
		/ 5.1 m/s]",METAR VHHH 020400Z 16010KT 130V190 9000 FEW018 BKN030 28/23 Q1014 NOSIG
0,[Light Rain Showers],1996-10-2,[23.0 °C],[Rain],[-],[31.2 °C],[74%],[N/A],[1013 hPa],[28.0 °C],[1:00 PM],[10.0 km],[SE],"[18.5 km/h
		/ 5.1 m/s]",METAR VHHH 020500Z 13010KT 9999 -SHRA FEW020 SCT030 BKN080 28/23 Q1013 NOSIG
0,[Mostly Cloudy],1996-10-2,[23.0 °C],[],[-],[31.2 °C],[74%],[N/A],[1012 hPa],[28.0 °C],[2:00 PM],[10.0 km],[SE],"[14.8 km/h
		/ 4.1 m/s]",METAR VHHH 020600Z 13008KT 9999 FEW022 SCT030 BKN080 28/23 Q1012 TEMPO 5000 -SHRA
0,[Mostly Cloudy],1996-10-2,[23.0 °C],[],[-],[31.2 °C],[74%],[N/A],[1012 hPa],[28.0 °C],[3:00 PM],[10.0 km],[SE],"[14.8 km/h
		/ 4.1 m/s]",METAR VHHH 020700Z 13008KT 9999 FEW022 SCT030 BKN080 28/23 Q1012 TEMPO 5000 -SHRA
0,[Mostly Cloudy],1996-10-2,[23.0 °C],[],[-],[31.2 °C],[74%],[N/A],[1011 hPa],[28.0 °C],[4:00 PM],[9.0 km],[SSW],"[9.3 km/h
		/ 2.6 m/s]",METAR VHHH 020800Z 20005KT 160V300 9000 FEW022 SCT030 BKN080 28/23 Q1011 TEMPO 5000 -SHRA
0,[Light Rain Showers],1996-10-2,[23.0 °C],[Rain],[-],[31.2 °C],[74%],[N/A],[1012 hPa],[28.0 °C],[5:00 PM],[9.0 km],[SSW],"[9.3 km/h
		/ 2.6 m/s]",METAR VHHH 020900Z 21005KT 190V250 9000 -SHRA FEW022 SCT030 BKN080 28/23 Q1012 TEMPO 5000 -SHRA
0,[Mostly Cloudy],1996-10-2,[23.0 °C],[],[-],[29.6 °C],[79%],[N/A],[1012 hPa],[27.0 °C],[6:00 PM],[7.0 km],[SSE],"[7.4 km/h
		/ 2.1 m/s]",METAR VHHH 021000Z 15004KT 120V250 7000 SCT030 BKN080 27/23 Q1012 TEMPO 5000 -SHRA
0,[Mostly Cloudy],1996-10-2,[23.0 °C],[],[-],[31.2 °C],[74%],[N/A],[1012 hPa],[28.0 °C],[7:00 PM],[8.0 km],[SSW],"[9.3 km/h
		/ 2.6 m/s]",METAR VHHH 021100Z 20005KT 8000 SCT030 BKN080 28/23 Q1012 TEMPO 5000 -SHRA
0,[Mostly Cloudy],1996-10-2,[23.0 °C],[],[-],[31.2 °C],[74%],[N/A],[1013 hPa],[28.0 °C],[8:00 PM],[9.0 km],[South],"[5.6 km/h
		/ 1.5 m/s]",METAR VHHH 021200Z 18003KT 9000 SCT030 BKN080 28/23 Q1013 TEMPO 5000 -SHRA
0,[Mostly Cloudy],1996-10-2,[23.0 °C],[],[-],[29.6 °C],[79%],[N/A],[1013 hPa],[27.0 °C],[9:00 PM],[9.0 km],[WSW],"[9.3 km/h
		/ 2.6 m/s]",METAR VHHH 021300Z 24005KT 120V280 9000 FEW022 BKN080 27/23 Q1013 NOSIG
0,[Mostly Cloudy],1996-10-2,[23.0 °C],[],[-],[29.6 °C],[79%],[N/A],[1013 hPa],[27.0 °C],[10:00 PM],[8.0 km],[WSW],"[9.3 km/h
		/ 2.6 m/s]",METAR VHHH 021400Z 24005KT 8000 FEW025 BKN080 27/23 Q1013 NOSIG
0,[Mostly Cloudy],1996-10-2,[23.0 °C],[],[-],[29.6 °C],[79%],[N/A],[1013 hPa],[27.0 °C],[11:00 PM],[8.0 km],[WSW],"[7.4 km/h
		/ 2.1 m/s]",METAR VHHH 021500Z 24004KT 180V270 8000 FEW020 BKN080 27/23 Q1013 NOSIG
0,[Mostly Cloudy],1996-10-3,[23.0 °C],[],[-],[29.6 °C],[79%],[N/A],[1012 hPa],[27.0 °C],[1:00 AM],[8.0 km],[West],"[13.0 km/h
		/ 3.6 m/s]",METAR VHHH 021700Z 27007KT 8000 FEW020 BKN080 27/23 Q1012 NOSIG
0,[Scattered Clouds],1996-10-3,[23.0 °C],[],[-],[-],[83%],[N/A],[1011 hPa],[26.0 °C],[2:00 AM],[7.0 km],[West],"[7.4 km/h
		/ 2.1 m/s]",METAR VHHH 021800Z 27004KT 7000 FEW020 SCT080 26/23 Q1011 NOSIG
0,[Scattered Clouds],1996-10-3,[23.0 °C],[],[-],[-],[83%],[N/A],[1011 hPa],[26.0 °C],[3:00 AM],[7.0 km],[WNW],"[3.7 km/h
		/ 1.0 m/s]",METAR VHHH 021900Z 29002KT 7000 FEW020 SCT080 26/23 Q1011 NOSIG
0,[Scattered Clouds],1996-10-3,[23.0 °C],[],[-],[-],[83%],[N/A],[1011 hPa],[26.0 °C],[4:00 AM],[7.0 km],[NW],"[5.6 km/h
		/ 1.5 m/s]",METAR VHHH 022000Z 32003KT 7000 FEW020 SCT080 26/23 Q1011 NOSIG
0,[Scattered Clouds],1996-10-3,[23.0 °C],[],[-],[-],[83%],[N/A],[1012 hPa],[26.0 °C],[5:00 AM],[7.0 km],[NW],"[5.6 km/h
		/ 1.5 m/s]",METAR VHHH 022100Z 32003KT 7000 FEW020 SCT080 26/23 Q1012 NOSIG
0,[Scattered Clouds],1996-10-3,[23.0 °C],[],[-],[-],[83%],[N/A],[1012 hPa],[26.0 °C],[6:00 AM],[7.0 km],[WNW],"[1.9 km/h
		/ 0.5 m/s]",METAR VHHH 022200Z 30001KT 7000 FEW020 SCT080 26/23 Q1012 NOSIG
0,[Haze],1996-10-3,[23.0 °C],[],[-],[29.6 °C],[79%],[N/A],[1013 hPa],[27.0 °C],[7:00 AM],[-],[WNW],"[1.9 km/h
		/ 0.5 m/s]",METAR VHHH 022300Z 29001KT 4800SE HZ FEW020 BKN080 27/23 Q1013 TEMPO 5000 HZ
0,[Scattered Clouds],1996-10-3,[23.0 °C],[],[-],[31.2 °C],[74%],[N/A],[1013 hPa],[28.0 °C],[8:00 AM],[-],[WNW],"[1.9 km/h
		/ 0.5 m/s]",METAR VHHH 030000Z 29001KT 4800 FEW018 SCT080 28/23 Q1013 TEMPO 5000 HZ
0,[Haze],1996-10-3,[23.0 °C],[],[-],[31.2 °C],[74%],[N/A],[1013 hPa],[28.0 °C],[9:00 AM],[5.0 km],[WSW],"[13.0 km/h
		/ 3.6 m/s]",METAR VHHH 030100Z 25007KT 190V350 5000 HZ FEW025 28/23 Q1013 TEMPO 5000 HZ
0,[Partly Cloudy],1996-10-3,[23.0 °C],[],[-],[32.7 °C],[70%],[N/A],[1013 hPa],[29.0 °C],[10:00 AM],[6.0 km],[WSW],"[9.3 km/h
		/ 2.6 m/s]",METAR VHHH 030200Z 25005KT 200V330 6000 FEW025 29/23 Q1013 TEMPO 5000 HZ
0,[Scattered Clouds],1996-10-3,[23.0 °C],[],[-],[34.1 °C],[66%],[N/A],[1013 hPa],[30.0 °C],[11:00 AM],[6.0 km],[SW],"[14.8 km/h
		/ 4.1 m/s]",METAR VHHH 030300Z 22008KT 180V250 6000 FEW025 SCT080 30/23 Q1013 TEMPO 5000 HZ
0,[Scattered Clouds],1996-10-3,[22.0 °C],[],[-],[33.2 °C],[62%],[N/A],[1012 hPa],[30.0 °C],[12:00 PM],[6.0 km],[WSW],"[9.3 km/h
		/ 2.6 m/s]",METAR VHHH 030400Z 25005KT 180V300 6000 FEW025 SCT080 30/22 Q1012 TEMPO 5000 HZ
0,[Scattered Clouds],1996-10-3,[22.0 °C],[],[-],[34.4 °C],[58%],[N/A],[1011 hPa],[31.0 °C],[1:00 PM],[6.0 km],[West],"[11.1 km/h
		/ 3.1 m/s]",METAR VHHH 030500Z 27006KT 210V310 6000 FEW025 SCT080 31/22 Q1011 TEMPO 5000 HZ
0,[Scattered Clouds],1996-10-3,[22.0 °C],[],[-],[34.4 °C],[58%],[N/A],[1010 hPa],[31.0 °C],[2:00 PM],[6.0 km],[SE],"[7.4 km/h
		/ 2.1 m/s]",METAR VHHH 030600Z 14004KT 060V200 6000 FEW025 SCT080 31/22 Q1010 TEMPO 4000 HZ
0,[Scattered Clouds],1996-10-3,[23.0 °C],[],[-],[35.4 °C],[62%],[N/A],[1010 hPa],[31.0 °C],[3:00 PM],[6.0 km],[East],"[14.8 km/h
		/ 4.1 m/s]",METAR VHHH 030700Z 10008KT 6000 SCT025 SCT080 31/23 Q1010 TEMPO 4000 HZ
0,[Light Rain Showers],1996-10-3,[23.0 °C],[Rain],[-],[34.1 °C],[66%],[N/A],[1010 hPa],[30.0 °C],[4:00 PM],[-],[ENE],"[5.6 km/h
		/ 1.5 m/s]",METAR VHHH 030800Z 06003KT 4600 -SHRA HZ FEW025 SCT030 BKN080 30/23 Q1010 TEMPO 4000 HZ
0,[Haze],1996-10-3,[23.0 °C],[],[-],[34.1 °C],[66%],[N/A],[1010 hPa],[30.0 °C],[5:00 PM],[-],[ESE],"[5.6 km/h
		/ 1.5 m/s]",METAR VHHH 030900Z 12003KT 4800 HZ FEW025 SCT080 30/23 Q1010 TEMPO 4000 HZ
0,[Scattered Clouds],1996-10-3,[23.0 °C],[],[-],[32.7 °C],[70%],[N/A],[1010 hPa],[29.0 °C],[6:00 PM],[6.0 km],[SSW],"[7.4 km/h
		/ 2.1 m/s]",METAR VHHH 031000Z 20004KT 160V290 6000 FEW025 SCT100 29/23 Q1010 TEMPO 4000 HZ
0,[Scattered Clouds],1996-10-3,[23.0 °C],[],"[29.6 km/h
		/ 8.2 m/s]",[32.7 °C],[70%],[N/A],[1011 hPa],[29.0 °C],[7:00 PM],[7.0 km],[SSW],"[9.3 km/h
		/ 2.6 m/s]",METAR VHHH 031100Z 20005G16KT 360V330 7000 FEW025 SCT100 29/23 Q1011 TEMPO 4000 HZ
0,[Scattered Clouds],1996-10-3,[23.0 °C],[],[-],[31.2 °C],[74%],[N/A],[1011 hPa],[28.0 °C],[8:00 PM],[8.0 km],[SW],"[13.0 km/h
		/ 3.6 m/s]",METAR VHHH 031200Z 22007KT 180V330 8000 FEW025 SCT100 28/23 Q1011 TEMPO 4000 HZ
0,[Scattered Clouds],1996-10-3,[23.0 °C],[],[-],[31.2 °C],[74%],[N/A],[1012 hPa],[28.0 °C],[9:00 PM],[8.0 km],[South],"[7.4 km/h
		/ 2.1 m/s]",METAR VHHH 031300Z 18004KT 160V340 8000 FEW025 SCT100 28/23 Q1012 NOSIG
0,[Scattered Clouds],1996-10-3,[23.0 °C],[],[-],[31.2 °C],[74%],[N/A],[1012 hPa],[28.0 °C],[10:00 PM],[8.0 km],[SSW],"[11.1 km/h
		/ 3.1 m/s]",METAR VHHH 031400Z 21006KT 080V260 8000 FEW025 SCT100 28/23 Q1012 NOSIG
0,[Scattered Clouds],1996-10-3,[24.0 °C],[],[-],[31.9 °C],[79%],[N/A],[1012 hPa],[28.0 °C],[11:00 PM],[7.0 km],[Variable],"[1.9 km/h
		/ 0.5 m/s]",METAR VHHH 031500Z VRB01KT 7000 FEW025 SCT100 28/24 Q1012 NOSIG
0,[Scattered Clouds],1996-10-4,[24.0 °C],[],[-],[31.9 °C],[79%],[N/A],[1012 hPa],[28.0 °C],[12:00 AM],[7.0 km],[SSW],"[3.7 km/h
		/ 1.0 m/s]",METAR VHHH 031600Z 21002KT 7000 FEW022 SCT100 28/24 Q1012 TEMPO 5000 HZ
0,[Scattered Clouds],1996-10-4,[24.0 °C],[],[-],[30.1 °C],[84%],[N/A],[1011 hPa],[27.0 °C],[1:00 AM],[7.0 km],[Calm],[Calm],METAR VHHH 031700Z 00000KT 7000 SCT025 SCT100 27/24 Q1011 TEMPO 5000 HZ
0,[Scattered Clouds],1996-10-4,[24.0 °C],[],[-],[30.1 °C],[84%],[N/A],[1011 hPa],[27.0 °C],[2:00 AM],[7.0 km],[WSW],"[5.6 km/h
		/ 1.5 m/s]",METAR VHHH 031800Z 24003KT 7000 SCT025 SCT100 27/24 Q1011 TEMPO 5000 HZ
0,[Scattered Clouds],1996-10-4,[24.0 °C],[],[-],[30.1 °C],[84%],[N/A],[1011 hPa],[27.0 °C],[3:00 AM],[7.0 km],[West],"[7.4 km/h
		/ 2.1 m/s]",METAR VHHH 031900Z 27004KT 7000 FEW025 SCT100 27/24 Q1011 TEMPO 5000 HZ
0,[Partly Cloudy],1996-10-4,[24.0 °C],[],[-],[30.1 °C],[84%],[N/A],[1011 hPa],[27.0 °C],[4:00 AM],[7.0 km],[West],"[3.7 km/h
		/ 1.0 m/s]",METAR VHHH 032000Z 28002KT 7000 FEW025 27/24 Q1011 TEMPO 5000 HZ
0,[Partly Cloudy],1996-10-4,[23.0 °C],[],[-],[-],[83%],[N/A],[1011 hPa],[26.0 °C],[5:00 AM],[7.0 km],[West],"[7.4 km/h
		/ 2.1 m/s]",METAR VHHH 032100Z 28004KT 7000 FEW025 26/23 Q1011 TEMPO 5000 HZ
0,[Partly Cloudy],1996-10-4,[23.0 °C],[],[-],[29.6 °C],[79%],[N/A],[1012 hPa],[27.0 °C],[6:00 AM],[7.0 km],[West],"[1.9 km/h
		/ 0.5 m/s]",METAR VHHH 032200Z 27001KT 7000 FEW025 27/23 Q1012 TEMPO 5000 HZ
0,[Partly Cloudy],1996-10-4,[23.0 °C],[],[-],[29.6 °C],[79%],[N/A],[1013 hPa],[27.0 °C],[7:00 AM],[6.0 km],[West],"[3.7 km/h
		/ 1.0 m/s]",METAR VHHH 032300Z 28002KT 6000 FEW025 27/23 Q1013 TEMPO 5000 HZ
0,[Partly Cloudy],1996-10-4,[23.0 °C],[],[-],[31.2 °C],[74%],[N/A],[1013 hPa],[28.0 °C],[8:00 AM],[6.0 km],[West],"[7.4 km/h
		/ 2.1 m/s]",METAR VHHH 040000Z 27004KT 6000 FEW020 28/23 Q1013 TEMPO 5000 HZ
0,[Partly Cloudy],1996-10-4,[23.0 °C],[],[-],[31.2 °C],[74%],[N/A],[1014 hPa],[28.0 °C],[9:00 AM],[6.0 km],[WSW],"[7.4 km/h
		/ 2.1 m/s]",METAR VHHH 040100Z 25004KT 140V330 6000 FEW020 28/23 Q1014 TEMPO 5000 HZ
0,[Scattered Clouds],1996-10-4,[23.0 °C],[],[-],[34.1 °C],[66%],[N/A],[1013 hPa],[30.0 °C],[11:00 AM],[6.0 km],[SE],"[11.1 km/h
		/ 3.1 m/s]",METAR VHHH 040300Z 13006KT 110V180 6000 FEW020 SCT025 30/23 Q1013 TEMPO 5000 HZ
0,[Scattered Clouds],1996-10-4,[24.0 °C],[],[-],[33.5 °C],[74%],[N/A],[1013 hPa],[29.0 °C],[12:00 PM],[7.0 km],[ESE],"[7.4 km/h
		/ 2.1 m/s]",METAR VHHH 040400Z 12004KT 100V170 7000 FEW018 SCT025 29/24 Q1013 TEMPO 5000 HZ
0,[Scattered Clouds],1996-10-4,[23.0 °C],[],[-],[32.7 °C],[70%],[N/A],[1012 hPa],[29.0 °C],[1:00 PM],[7.0 km],[SSE],"[9.3 km/h
		/ 2.6 m/s]",METAR VHHH 040500Z 16005KT 110V160 7000 FEW018 SCT025 29/23 Q1012 TEMPO 5000 HZ
0,[Scattered Clouds],1996-10-4,[24.0 °C],[],[-],[35.0 °C],[70%],[N/A],[1011 hPa],[30.0 °C],[2:00 PM],[7.0 km],[ESE],"[7.4 km/h
		/ 2.1 m/s]",METAR VHHH 040600Z 12004KT 7000 FEW018 SCT030 30/24 Q1011 TEMPO 5000 HZ
0,[Scattered Clouds],1996-10-4,[22.0 °C],[],[-],[33.2 °C],[62%],[N/A],[1010 hPa],[30.0 °C],[3:00 PM],[9.0 km],[ESE],"[11.1 km/h
		/ 3.1 m/s]",METAR VHHH 040700Z 11006KT 9000 FEW018 SCT030 30/22 Q1010 TEMPO 5000 HZ
0,[Scattered Clouds],1996-10-4,[21.0 °C],[],[-],[32.4 °C],[58%],[N/A],[1010 hPa],[30.0 °C],[4:00 PM],[8.0 km],[SE],"[13.0 km/h
		/ 3.6 m/s]",METAR VHHH 040800Z 13007KT 100V170 8000 FEW018 SCT035 30/21 Q1010 TEMPO 5000 HZ
0,[Scattered Clouds],1996-10-4,[22.0 °C],[],[-],[32.0 °C],[66%],[N/A],[1010 hPa],[29.0 °C],[5:00 PM],[9.0 km],[SE],"[14.8 km/h
		/ 4.1 m/s]",METAR VHHH 040900Z 13008KT 070V230 9000 FEW018 SCT025 29/22 Q1010 NOSIG
0,[Scattered Clouds],1996-10-4,[23.0 °C],[],[-],[31.2 °C],[74%],[N/A],[1010 hPa],[28.0 °C],[6:00 PM],[9.0 km],[ESE],"[13.0 km/h
		/ 3.6 m/s]",METAR VHHH 041000Z 12007KT 090V150 9000 FEW018 SCT300 28/23 Q1010 NOSIG
0,[Scattered Clouds],1996-10-4,[24.0 °C],[],[-],[31.9 °C],[79%],[N/A],[1011 hPa],[28.0 °C],[7:00 PM],[9.0 km],[ESE],"[13.0 km/h
		/ 3.6 m/s]",METAR VHHH 041100Z 11007KT 9000 FEW020 SCT100 28/24 Q1011 NOSIG
0,[Scattered Clouds],1996-10-4,[23.0 °C],[],[-],[31.2 °C],[74%],[N/A],[1011 hPa],[28.0 °C],[8:00 PM],[9.0 km],[ESE],"[11.1 km/h
		/ 3.1 m/s]",METAR VHHH 041200Z 11006KT 9000 FEW018 SCT100 28/23 Q1011 NOSIG
0,[Scattered Clouds],1996-10-4,[23.0 °C],[],[-],[31.2 °C],[74%],[N/A],[1012 hPa],[28.0 °C],[9:00 PM],[9.0 km],[ESE],"[7.4 km/h
		/ 2.1 m/s]",METAR VHHH 041300Z 11004KT 9000 SCT020 SCT100 28/23 Q1012 NOSIG
0,[Mostly Cloudy],1996-10-4,[23.0 °C],[],[-],[31.2 °C],[74%],[N/A],[1012 hPa],[28.0 °C],[10:00 PM],[8.0 km],[ESE],"[18.5 km/h
		/ 5.1 m/s]",METAR VHHH 041400Z 11010KT 8000 FEW018 SCT025 BKN100 28/23 Q1012 NOSIG
0,[Heavy Rain Showers],1996-10-4,[24.0 °C],[Rain],[-],[-],[94%],[N/A],[1013 hPa],[25.0 °C],[11:00 PM],[3.5 km],[NE],"[11.1 km/h
		/ 3.1 m/s]",METAR VHHH 041500Z 05006KT 340V120 3500NW +SHRA FEW012 SCT020 BKN080 25/24 Q1013 TEMPO 2500 SHRA
0,[Mostly Cloudy],1996-10-5,[24.0 °C],[],[-],[30.1 °C],[84%],[N/A],[1012 hPa],[27.0 °C],[12:00 AM],[10.0 km],[ESE],"[18.5 km/h
		/ 5.1 m/s]",METAR VHHH 041600Z 11010KT 9999 FEW016 SCT025 BKN080 27/24 Q1012 NOSIG
0,[Mostly Cloudy],1996-10-5,[23.0 °C],[],[-],[29.6 °C],[79%],[N/A],[1012 hPa],[27.0 °C],[1:00 AM],[10.0 km],[ESE],"[14.8 km/h
		/ 4.1 m/s]",METAR VHHH 041700Z 11008KT 080V150 9999 SCT022 BKN080 27/23 Q1012 NOSIG
0,[Scattered Clouds],1996-10-5,[22.0 °C],[],[-],[29.2 °C],[74%],[N/A],[1012 hPa],[27.0 °C],[2:00 AM],[10.0 km],[ESE],"[18.5 km/h
		/ 5.1 m/s]",METAR VHHH 041800Z 11010KT 9999 FEW022 SCT080 27/22 Q1012 NOSIG
0,[Mostly Cloudy],1996-10-5,[22.0 °C],[],[-],[29.2 °C],[74%],[N/A],[1012 hPa],[27.0 °C],[3:00 AM],[10.0 km],[ESE],"[11.1 km/h
		/ 3.1 m/s]",METAR VHHH 041900Z 11006KT 070V140 9999 SCT022 BKN080 27/22 Q1012 NOSIG
0,[Scattered Clouds],1996-10-5,[22.0 °C],[],[-],[-],[78%],[N/A],[1012 hPa],[26.0 °C],[4:00 AM],[10.0 km],[East],"[9.3 km/h
		/ 2.6 m/s]",METAR VHHH 042000Z 09005KT 9999 FEW022 SCT080 26/22 Q1012 NOSIG
0,[Scattered Clouds],1996-10-5,[22.0 °C],[],[-],[-],[78%],[N/A],[1012 hPa],[26.0 °C],[5:00 AM],[10.0 km],[East],"[11.1 km/h
		/ 3.1 m/s]",METAR VHHH 042100Z 10006KT 060V150 9999 FEW022 SCT080 26/22 Q1012 NOSIG
0,[Scattered Clouds],1996-10-5,[22.0 °C],[],[-],[-],[78%],[N/A],[1012 hPa],[26.0 °C],[6:00 AM],[10.0 km],[East],"[16.7 km/h
		/ 4.6 m/s]",METAR VHHH 042200Z 09009KT 9999 FEW022 SCT080 26/22 Q1012 NOSIG
0,[Scattered Clouds],1996-10-5,[22.0 °C],[],[-],[29.2 °C],[74%],[N/A],[1012 hPa],[27.0 °C],[7:00 AM],[10.0 km],[East],"[13.0 km/h
		/ 3.6 m/s]",METAR VHHH 042300Z 10007KT 060V130 9999 FEW020 SCT025 27/22 Q1012 NOSIG
0,[Partly Cloudy],1996-10-5,[22.0 °C],[],[-],[30.7 °C],[70%],[N/A],[1013 hPa],[28.0 °C],[8:00 AM],[9.0 km],[East],"[14.8 km/h
		/ 4.1 m/s]",METAR VHHH 050000Z 10008KT 070V130 9000 FEW020 28/22 Q1013 NOSIG
0,[Scattered Clouds],1996-10-5,[23.0 °C],[],[-],[32.7 °C],[70%],[N/A],[1013 hPa],[29.0 °C],[9:00 AM],[10.0 km],[East],"[18.5 km/h
		/ 5.1 m/s]",METAR VHHH 050100Z 10010KT 070V140 9999 FEW020 SCT025 29/23 Q1013 NOSIG
0,[Scattered Clouds],1996-10-5,[22.0 °C],[],[-],[32.0 °C],[66%],[N/A],[1013 hPa],[29.0 °C],[10:00 AM],[10.0 km],[East],"[18.5 km/h
		/ 5.1 m/s]",METAR VHHH 050200Z 10010KT 060V130 9999 FEW020 SCT025 29/22 Q1013 NOSIG
0,[Scattered Clouds],1996-10-5,[22.0 °C],[],[-],[32.0 °C],[66%],[N/A],[1013 hPa],[29.0 °C],[11:00 AM],[10.0 km],[ESE],"[24.1 km/h
		/ 6.7 m/s]",METAR VHHH 050300Z 12013KT 080V150 9999 FEW020 SCT025 29/22 Q1013 NOSIG
0,[Scattered Clouds],1996-10-5,[22.0 °C],[],[-],[33.2 °C],[62%],[N/A],[1012 hPa],[30.0 °C],[12:00 PM],[10.0 km],[ESE],"[22.2 km/h
		/ 6.2 m/s]",METAR VHHH 050400Z 12012KT 070V150 9999 FEW020 SCT025 30/22 Q1012 NOSIG
0,[Scattered Clouds],1996-10-5,[22.0 °C],[],[-],[32.0 °C],[66%],[N/A],[1011 hPa],[29.0 °C],[1:00 PM],[10.0 km],[ESE],"[20.4 km/h
		/ 5.7 m/s]",METAR VHHH 050500Z 12011KT 080V130 9999 FEW020 SCT025 29/22 Q1011 NOSIG
0,[Scattered Clouds],1996-10-5,[22.0 °C],[],[-],[33.2 °C],[62%],[N/A],[1011 hPa],[30.0 °C],[2:00 PM],[10.0 km],[ESE],"[20.4 km/h
		/ 5.7 m/s]",METAR VHHH 050600Z 11011KT 050V150 9999 FEW025 SCT030 30/22 Q1011 NOSIG
0,[Scattered Clouds],1996-10-5,[22.0 °C],[],[-],[32.0 °C],[66%],[N/A],[1010 hPa],[29.0 °C],[3:00 PM],[10.0 km],[East],"[13.0 km/h
		/ 3.6 m/s]",METAR VHHH 050700Z 09007KT 010V190 9999 FEW025 SCT030 29/22 Q1010 NOSIG
0,[Scattered Clouds],1996-10-5,[23.0 °C],[],[-],[32.7 °C],[70%],[N/A],[1010 hPa],[29.0 °C],[4:00 PM],[10.0 km],[ESE],"[25.9 km/h
		/ 7.2 m/s]",METAR VHHH 050800Z 12014KT 090V150 9999 FEW020 SCT025 29/23 Q1010 NOSIG
0,[Scattered Clouds],1996-10-5,[22.0 °C],[],[-],[32.0 °C],[66%],[N/A],[1011 hPa],[29.0 °C],[5:00 PM],[10.0 km],[ESE],"[24.1 km/h
		/ 6.7 m/s]",METAR VHHH 050900Z 11013KT 9999 FEW020 SCT025 29/22 Q1011 NOSIG
0,[Scattered Clouds],1996-10-5,[22.0 °C],[],[-],[30.7 °C],[70%],[N/A],[1011 hPa],[28.0 °C],[6:00 PM],[10.0 km],[ESE],"[9.3 km/h
		/ 2.6 m/s]",METAR VHHH 051000Z 12005KT 080V150 9999 FEW020 SCT025 28/22 Q1011 NOSIG
0,[Scattered Clouds],1996-10-5,[22.0 °C],[],[-],[30.7 °C],[70%],[N/A],[1012 hPa],[28.0 °C],[7:00 PM],[10.0 km],[ESE],"[18.5 km/h
		/ 5.1 m/s]",METAR VHHH 051100Z 11010KT 080V150 9999 FEW020 SCT025 28/22 Q1012 NOSIG
0,[Scattered Clouds],1996-10-5,[23.0 °C],[],[-],[29.6 °C],[79%],[N/A],[1013 hPa],[27.0 °C],[9:00 PM],[10.0 km],[East],"[14.8 km/h
		/ 4.1 m/s]",METAR VHHH 051300Z 10008KT 060V140 9999 FEW018 SCT025 27/23 Q1013 NOSIG
0,[Scattered Clouds],1996-10-5,[23.0 °C],[],[-],[29.6 °C],[79%],[N/A],[1013 hPa],[27.0 °C],[11:00 PM],[10.0 km],[East],"[13.0 km/h
		/ 3.6 m/s]",METAR VHHH 051500Z 08007KT 040V110 9999 FEW016 SCT025 27/23 Q1013 NOSIG
0,[Scattered Clouds],1996-10-6,[23.0 °C],[],[-],[29.6 °C],[79%],[N/A],[1013 hPa],[27.0 °C],[12:00 AM],[10.0 km],[East],"[13.0 km/h
		/ 3.6 m/s]",METAR VHHH 051600Z 09007KT 060V120 9999 FEW016 SCT025 27/23 Q1013 NOSIG
0,[Scattered Clouds],1996-10-6,[23.0 °C],[],[-],[29.6 °C],[79%],[N/A],[1012 hPa],[27.0 °C],[1:00 AM],[10.0 km],[East],"[18.5 km/h
		/ 5.1 m/s]",METAR VHHH 051700Z 10010KT 9999 FEW016 SCT025 27/23 Q1012 NOSIG
0,[Mostly Cloudy],1996-10-6,[24.0 °C],[],[-],[30.1 °C],[84%],[N/A],[1011 hPa],[27.0 °C],[2:00 AM],[10.0 km],[East],"[14.8 km/h
		/ 4.1 m/s]",METAR VHHH 051800Z 09008KT 060V140 9999 FEW016 SCT022 BKN120 27/24 Q1011 NOSIG
0,[Scattered Clouds],1996-10-6,[24.0 °C],[],[-],[30.1 °C],[84%],[N/A],[1011 hPa],[27.0 °C],[3:00 AM],[10.0 km],[East],"[13.0 km/h
		/ 3.6 m/s]",METAR VHHH 051900Z 10007KT 060V130 9999 FEW016 SCT023 27/24 Q1011 NOSIG
0,[Scattered Clouds],1996-10-6,[23.0 °C],[],[-],[29.6 °C],[79%],[N/A],[1011 hPa],[27.0 °C],[4:00 AM],[10.0 km],[ESE],"[13.0 km/h
		/ 3.6 m/s]",METAR VHHH 052000Z 11007KT 070V140 9999 FEW015 SCT023 27/23 Q1011 NOSIG
0,[Mostly Cloudy],1996-10-6,[24.0 °C],[],[-],[30.1 °C],[84%],[N/A],[1011 hPa],[27.0 °C],[5:00 AM],[10.0 km],[East],"[14.8 km/h
		/ 4.1 m/s]",METAR VHHH 052100Z 08008KT 9999 FEW016 BKN025 27/24 Q1011 NOSIG
0,[Scattered Clouds],1996-10-6,[24.0 °C],[],[-],[30.1 °C],[84%],[N/A],[1011 hPa],[27.0 °C],[6:00 AM],[10.0 km],[ESE],"[16.7 km/h
		/ 4.6 m/s]",METAR VHHH 052200Z 11009KT 080V150 9999 FEW016 SCT023 27/24 Q1011 NOSIG
0,[Mostly Cloudy],1996-10-6,[24.0 °C],[],[-],[-],[89%],[N/A],[1012 hPa],[26.0 °C],[7:00 AM],[9.0 km],[ESE],"[13.0 km/h
		/ 3.6 m/s]",METAR VHHH 052300Z 11007KT 060V220 9000 FEW015 BKN025 26/24 Q1012 TEMPO 5000 -SHRA
0,[Light Rain Showers],1996-10-6,[24.0 °C],[Rain],[-],[-],[94%],[N/A],[1013 hPa],[25.0 °C],[8:00 AM],[7.0 km],[WNW],"[7.4 km/h
		/ 2.1 m/s]",METAR VHHH 060000Z 30004KT 230V350 7000 -SHRA FEW015 BKN025 25/24 Q1013 TEMPO 4000 SHRA
0,[Mostly Cloudy],1996-10-6,[25.0 °C],[],[-],[30.6 °C],[89%],[N/A],[1013 hPa],[27.0 °C],[9:00 AM],[10.0 km],[ESE],"[18.5 km/h
		/ 5.1 m/s]",METAR VHHH 060100Z 11010KT 080V160 9999 FEW015 SCT025 BKN080 27/25 Q1013 NOSIG
0,[Scattered Clouds],1996-10-6,[25.0 °C],[],[-],[34.5 °C],[79%],[N/A],[1013 hPa],[29.0 °C],[10:00 AM],[10.0 km],[ESE],"[20.4 km/h
		/ 5.7 m/s]",METAR VHHH 060200Z 11011KT 070V160 9999 FEW015 SCT022 29/25 Q1013 NOSIG
0,[Scattered Clouds],1996-10-6,[25.0 °C],[],[-],[36.0 °C],[74%],[N/A],[1013 hPa],[30.0 °C],[11:00 AM],[10.0 km],[ESE],"[14.8 km/h
		/ 4.1 m/s]",METAR VHHH 060300Z 12008KT 070V150 9999 FEW015 SCT025 30/25 Q1013 NOSIG
0,[Mostly Cloudy],1996-10-6,[24.0 °C],[],[-],[36.4 °C],[66%],[N/A],[1013 hPa],[31.0 °C],[12:00 PM],[10.0 km],[ESE],"[18.5 km/h
		/ 5.1 m/s]",METAR VHHH 060400Z 11010KT 070V150 9999 FEW018 BKN025 31/24 Q1013 NOSIG
0,[Scattered Clouds],1996-10-6,[24.0 °C],[],[-],[36.4 °C],[66%],[N/A],[1012 hPa],[31.0 °C],[1:00 PM],[10.0 km],[ESE],"[20.4 km/h
		/ 5.7 m/s]",METAR VHHH 060500Z 12011KT 9999 FEW018 SCT025 31/24 Q1012 NOSIG
0,[Scattered Clouds],1996-10-6,[24.0 °C],[],[-],[36.4 °C],[66%],[N/A],[1011 hPa],[31.0 °C],[2:00 PM],[10.0 km],[SE],"[22.2 km/h
		/ 6.2 m/s]",METAR VHHH 060600Z 13012KT 9999 FEW018 SCT025 31/24 Q1011 NOSIG
0,[Scattered Clouds],1996-10-6,[25.0 °C],[],[-],[37.6 °C],[70%],[N/A],[1011 hPa],[31.0 °C],[3:00 PM],[10.0 km],[ESE],"[20.4 km/h
		/ 5.7 m/s]",METAR VHHH 060700Z 12011KT 080V140 9999 FEW018 SCT025 31/25 Q1011 NOSIG
0,[Scattered Clouds],1996-10-6,[24.0 °C],[],[-],[35.0 °C],[70%],[N/A],[1011 hPa],[30.0 °C],[4:00 PM],[10.0 km],[East],"[18.5 km/h
		/ 5.1 m/s]",METAR VHHH 060800Z 10010KT 080V140 9999 FEW018 SCT025 30/24 Q1011 NOSIG
0,[Scattered Clouds],1996-10-6,[24.0 °C],[],[-],[33.5 °C],[74%],[N/A],[1011 hPa],[29.0 °C],[5:00 PM],[10.0 km],[East],"[22.2 km/h
		/ 6.2 m/s]",METAR VHHH 060900Z 09012KT 9999 FEW017 SCT025 29/24 Q1011 NOSIG
0,[Scattered Clouds],1996-10-6,[24.0 °C],[],[-],[33.5 °C],[74%],[N/A],[1012 hPa],[29.0 °C],[6:00 PM],[10.0 km],[East],"[18.5 km/h
		/ 5.1 m/s]",METAR VHHH 061000Z 10010KT 080V150 9999 FEW017 SCT025 29/24 Q1012 NOSIG
0,[Scattered Clouds],1996-10-6,[24.0 °C],[],[-],[33.5 °C],[74%],[N/A],[1012 hPa],[29.0 °C],[7:00 PM],[10.0 km],[East],"[16.7 km/h
		/ 4.6 m/s]",METAR VHHH 061100Z 10009KT 9999 FEW017 SCT025 29/24 Q1012 NOSIG
0,[Scattered Clouds],1996-10-6,[24.0 °C],[],[-],[31.9 °C],[79%],[N/A],[1012 hPa],[28.0 °C],[8:00 PM],[10.0 km],[East],"[16.7 km/h
		/ 4.6 m/s]",METAR VHHH 061200Z 09009KT 070V140 9999 FEW016 SCT025 28/24 Q1012 NOSIG
0,[Scattered Clouds],1996-10-6,[24.0 °C],[],[-],[31.9 °C],[79%],[N/A],[1013 hPa],[28.0 °C],[9:00 PM],[10.0 km],[East],"[16.7 km/h
		/ 4.6 m/s]",METAR VHHH 061300Z 10009KT 060V130 9999 FEW015 SCT025 28/24 Q1013 NOSIG
0,[Light Rain Showers],1996-10-6,[25.0 °C],[Rain],[-],[32.7 °C],[84%],[N/A],[1013 hPa],[28.0 °C],[10:00 PM],[10.0 km],[ESE],"[13.0 km/h
		/ 3.6 m/s]",METAR VHHH 061400Z 11007KT 090V150 9999 -SHRA FEW015 BKN025 28/25 Q1013 NOSIG
0,[Scattered Clouds],1996-10-6,[24.0 °C],[],[-],[31.9 °C],[79%],[N/A],[1014 hPa],[28.0 °C],[11:00 PM],[10.0 km],[ESE],"[16.7 km/h
		/ 4.6 m/s]",METAR VHHH 061500Z 11009KT 9999 FEW015 SCT025 28/24 Q1014 NOSIG
0,[Partly Cloudy],1996-10-7,[24.0 °C],[],[-],[30.1 °C],[84%],[N/A],[1013 hPa],[27.0 °C],[3:00 AM],[10.0 km],[East],"[11.1 km/h
		/ 3.1 m/s]",METAR VHHH 061900Z 08006KT 9999 FEW015 27/24 Q1013 NOSIG
0,[Scattered Clouds],1996-10-7,[24.0 °C],[],[-],[30.1 °C],[84%],[N/A],[1013 hPa],[27.0 °C],[4:00 AM],[-],[North],[-],METAR VHHH 062000Z 08005MT 9999 FEW015 SCT025 27/24 Q1013 NOSIG
0,[Partly Cloudy],1996-10-7,[24.0 °C],[],[-],[30.1 °C],[84%],[N/A],[1012 hPa],[27.0 °C],[5:00 AM],[10.0 km],[East],"[9.3 km/h
		/ 2.6 m/s]",METAR VHHH 062100Z 09005KT 360V120 9999 FEW015 27/24 Q1012 NOSIG
0,[Partly Cloudy],1996-10-7,[24.0 °C],[],[-],[30.1 °C],[84%],[N/A],[1013 hPa],[27.0 °C],[6:00 AM],[10.0 km],[ENE],"[9.3 km/h
		/ 2.6 m/s]",METAR VHHH 062200Z 07005KT 040V120 9999 FEW015 27/24 Q1013 NOSIG
0,[Partly Cloudy],1996-10-7,[24.0 °C],[],[-],[30.1 °C],[84%],[N/A],[1013 hPa],[27.0 °C],[7:00 AM],[10.0 km],[East],"[11.1 km/h
		/ 3.1 m/s]",METAR VHHH 062300Z 08006KT 060V120 9999 FEW015 27/24 Q1013 NOSIG
0,[Scattered Clouds],1996-10-7,[24.0 °C],[],[-],[33.5 °C],[74%],[N/A],[1014 hPa],[29.0 °C],[8:00 AM],[10.0 km],[East],"[9.3 km/h
		/ 2.6 m/s]",METAR VHHH 070000Z 08005KT 050V110 9999 FEW016 SCT025 29/24 Q1014 NOSIG
0,[Scattered Clouds],1996-10-7,[24.0 °C],[],[-],[33.5 °C],[74%],[N/A],[1015 hPa],[29.0 °C],[9:00 AM],[10.0 km],[East],"[18.5 km/h
		/ 5.1 m/s]",METAR VHHH 070100Z 10010KT 070V140 9999 FEW018 SCT025 29/24 Q1015 NOSIG
0,[Scattered Clouds],1996-10-7,[24.0 °C],[],[-],[36.4 °C],[66%],[N/A],[1015 hPa],[31.0 °C],[10:00 AM],[10.0 km],[East],"[13.0 km/h
		/ 3.6 m/s]",METAR VHHH 070200Z 08007KT 340V120 9999 FEW018 SCT025 31/24 Q1015 NOSIG
0,[Scattered Clouds],1996-10-7,[24.0 °C],[],[-],[37.7 °C],[62%],[N/A],[1014 hPa],[32.0 °C],[12:00 PM],[10.0 km],[East],"[13.0 km/h
		/ 3.6 m/s]",METAR VHHH 070400Z 09007KT 060V130 9999 SCT025 32/24 Q1014 NOSIG
0,[Scattered Clouds],1996-10-7,[24.0 °C],[],[-],[36.4 °C],[66%],[N/A],[1013 hPa],[31.0 °C],[1:00 PM],[10.0 km],[SE],"[20.4 km/h
		/ 5.7 m/s]",METAR VHHH 070500Z 13011KT 070V150 9999 SCT022 31/24 Q1013 NOSIG
0,[Scattered Clouds],1996-10-7,[24.0 °C],[],[-],[36.4 °C],[66%],[N/A],[1012 hPa],[31.0 °C],[2:00 PM],[10.0 km],[ESE],"[18.5 km/h
		/ 5.1 m/s]",METAR VHHH 070600Z 12010KT 090V170 9999 FEW018 SCT025 31/24 Q1012 NOSIG
0,[Scattered Clouds],1996-10-7,[24.0 °C],[],[-],[36.4 °C],[66%],[N/A],[1012 hPa],[31.0 °C],[3:00 PM],[10.0 km],[ESE],"[20.4 km/h
		/ 5.7 m/s]",METAR VHHH 070700Z 12011KT 090V160 9999 FEW017 SCT025 31/24 Q1012 NOSIG
0,[Scattered Clouds],1996-10-7,[24.0 °C],[],[-],[35.0 °C],[70%],[N/A],[1012 hPa],[30.0 °C],[4:00 PM],[10.0 km],[East],"[14.8 km/h
		/ 4.1 m/s]",METAR VHHH 070800Z 09008KT 050V120 9999 FEW017 SCT025 30/24 Q1012 NOSIG
0,[Scattered Clouds],1996-10-7,[24.0 °C],[],[-],[35.0 °C],[70%],[N/A],[1012 hPa],[30.0 °C],[5:00 PM],[10.0 km],[ENE],"[13.0 km/h
		/ 3.6 m/s]",METAR VHHH 070900Z 07007KT 010V130 9999 FEW017 SCT022 30/24 Q1012 NOSIG
0,[Scattered Clouds],1996-10-7,[25.0 °C],[],[-],[34.5 °C],[79%],[N/A],[1013 hPa],[29.0 °C],[6:00 PM],[10.0 km],[ESE],"[16.7 km/h
		/ 4.6 m/s]",METAR VHHH 071000Z 12009KT 070V150 9999 FEW015 SCT022 29/25 Q1013 NOSIG
0,[Scattered Clouds],1996-10-7,[25.0 °C],[],[-],[34.5 °C],[79%],[N/A],[1013 hPa],[29.0 °C],[7:00 PM],[10.0 km],[East],"[16.7 km/h
		/ 4.6 m/s]",METAR VHHH 071100Z 09009KT 050V110 9999 FEW015 SCT022 29/25 Q1013 NOSIG
0,[Scattered Clouds],1996-10-7,[25.0 °C],[],[-],[34.5 °C],[79%],[N/A],[1014 hPa],[29.0 °C],[8:00 PM],[10.0 km],[East],"[14.8 km/h
		/ 4.1 m/s]",METAR VHHH 071200Z 09008KT 9999 FEW015 SCT022 29/25 Q1014 NOSIG
0,[Scattered Clouds],1996-10-7,[25.0 °C],[],[-],[34.5 °C],[79%],[N/A],[1015 hPa],[29.0 °C],[9:00 PM],[10.0 km],[East],"[13.0 km/h
		/ 3.6 m/s]",METAR VHHH 071300Z 10007KT 070V130 9999 FEW013 SCT020 29/25 Q1015 NOSIG
0,[Scattered Clouds],1996-10-7,[25.0 °C],[],[-],[34.5 °C],[79%],[N/A],[1015 hPa],[29.0 °C],[10:00 PM],[10.0 km],[East],"[14.8 km/h
		/ 4.1 m/s]",METAR VHHH 071400Z 09008KT 060V130 9999 FEW014 SCT020 29/25 Q1015 NOSIG
0,[Scattered Clouds],1996-10-7,[25.0 °C],[],[-],[32.7 °C],[84%],[N/A],[1015 hPa],[28.0 °C],[11:00 PM],[10.0 km],[East],"[11.1 km/h
		/ 3.1 m/s]",METAR VHHH 071500Z 08006KT 040V110 9999 FEW014 SCT020 28/25 Q1015 NOSIG
0,[Scattered Clouds],1996-10-8,[25.0 °C],[],[-],[32.7 °C],[84%],[N/A],[1015 hPa],[28.0 °C],[12:00 AM],[10.0 km],[ESE],"[7.4 km/h
		/ 2.1 m/s]",METAR VHHH 071600Z 11004KT 080V160 9999 FEW013 SCT020 28/25 Q1015 NOSIG
0,[Scattered Clouds],1996-10-8,[25.0 °C],[],[-],[32.7 °C],[84%],[N/A],[1015 hPa],[28.0 °C],[1:00 AM],[10.0 km],[ESE],"[3.7 km/h
		/ 1.0 m/s]",METAR VHHH 071700Z 11002KT 9999 FEW014 SCT020 28/25 Q1015 NOSIG
0,[Scattered Clouds],1996-10-8,[25.0 °C],[],[-],[30.6 °C],[89%],[N/A],[1015 hPa],[27.0 °C],[2:00 AM],[10.0 km],[ESE],"[1.9 km/h
		/ 0.5 m/s]",METAR VHHH 071800Z 11001KT 9999 FEW013 SCT020 27/25 Q1015 TEMPO 5000 SHRA
0,[Scattered Clouds],1996-10-8,[25.0 °C],[],[-],[30.6 °C],[89%],[N/A],[1014 hPa],[27.0 °C],[3:00 AM],[10.0 km],[NE],"[1.9 km/h
		/ 0.5 m/s]",METAR VHHH 071900Z 05001KT 9999 FEW013 SCT020 27/25 Q1014 TEMPO 5000 SHRA
0,[Scattered Clouds],1996-10-8,[25.0 °C],[],[-],[30.6 °C],[89%],[N/A],[1014 hPa],[27.0 °C],[4:00 AM],[10.0 km],[North],"[9.3 km/h
		/ 2.6 m/s]",METAR VHHH 072000Z 36005KT 330V060 9999 FEW013 SCT020 27/25 Q1014 TEMPO 5000 SHRA
0,[Scattered Clouds],1996-10-8,[24.0 °C],[],[-],[30.1 °C],[84%],[N/A],[1014 hPa],[27.0 °C],[5:00 AM],[10.0 km],[NNE],"[7.4 km/h
		/ 2.1 m/s]",METAR VHHH 072100Z 03004KT 350V070 9999 FEW015 SCT020 27/24 Q1014 TEMPO 5000 SHRA
0,[Scattered Clouds],1996-10-8,[23.0 °C],[],[-],[-],[83%],[N/A],[1014 hPa],[26.0 °C],[6:00 AM],[10.0 km],[NW],"[1.9 km/h
		/ 0.5 m/s]",METAR VHHH 072200Z 32001KT 9999 FEW014 SCT020 26/23 Q1014 TEMPO 5000 SHRA
0,[Scattered Clouds],1996-10-8,[23.0 °C],[],[-],[29.6 °C],[79%],[N/A],[1015 hPa],[27.0 °C],[7:00 AM],[10.0 km],[NW],"[5.6 km/h
		/ 1.5 m/s]",METAR VHHH 072300Z 31003KT 9999 FEW016 SCT020 27/23 Q1015 NOSIG
0,[Partly Cloudy],1996-10-8,[23.0 °C],[],[-],[31.2 °C],[74%],[N/A],[1015 hPa],[28.0 °C],[8:00 AM],[10.0 km],[East],"[1.9 km/h
		/ 0.5 m/s]",METAR VHHH 080000Z 09001KT 9999 FEW016 28/23 Q1015 NOSIG
0,[Scattered Clouds],1996-10-8,[23.0 °C],[],[-],[31.2 °C],[74%],[N/A],[1016 hPa],[28.0 °C],[9:00 AM],[10.0 km],[NW],"[5.6 km/h
		/ 1.5 m/s]",METAR VHHH 080100Z 32003KT 9999 FEW018 SCT080 28/23 Q1016 NOSIG
0,[Scattered Clouds],1996-10-8,[23.0 °C],[],[-],[34.1 °C],[66%],[N/A],[1016 hPa],[30.0 °C],[10:00 AM],[10.0 km],[ENE],"[11.1 km/h
		/ 3.1 m/s]",METAR VHHH 080200Z 06006KT 300V180 9999 FEW020 SCT025 30/23 Q1016 NOSIG
0,[Scattered Clouds],1996-10-8,[23.0 °C],[],[-],[34.1 °C],[66%],[N/A],[1016 hPa],[30.0 °C],[11:00 AM],[10.0 km],[NNW],"[9.3 km/h
		/ 2.6 m/s]",METAR VHHH 080300Z 34005KT 240V070 9999 FEW020 SCT025 30/23 Q1016 NOSIG
0,[Scattered Clouds],1996-10-8,[24.0 °C],[],[-],[37.7 °C],[62%],[N/A],[1015 hPa],[32.0 °C],[12:00 PM],[10.0 km],[East],"[16.7 km/h
		/ 4.6 m/s]",METAR VHHH 080400Z 08009KT 030V130 9999 FEW020 SCT030 32/24 Q1015 NOSIG
0,[Scattered Clouds],1996-10-8,[23.0 °C],[],[-],[32.7 °C],[70%],[N/A],[1014 hPa],[29.0 °C],[1:00 PM],[10.0 km],[East],"[9.3 km/h
		/ 2.6 m/s]",METAR VHHH 080500Z 08005KT 360V130 9999 FEW020 SCT030 29/23 Q1014 NOSIG
0,[Scattered Clouds],1996-10-8,[23.0 °C],[],[-],[32.7 °C],[70%],[N/A],[1013 hPa],[29.0 °C],[2:00 PM],[9.0 km],[SW],"[16.7 km/h
		/ 4.6 m/s]",METAR VHHH 080600Z 23009KT 190V280 9000 FEW020 SCT030 29/23 Q1013 NOSIG
0,[Haze],1996-10-8,[23.0 °C],[],[-],[32.7 °C],[70%],[N/A],[1013 hPa],[29.0 °C],[3:00 PM],[-],[West],"[16.7 km/h
		/ 4.6 m/s]",METAR VHHH 080700Z 26009KT 190V320 4800 HZ FEW020 SCT030 29/23 Q1013 TEMPO 4000 HZ
0,[Scattered Clouds],1996-10-8,[22.0 °C],[],[-],[32.0 °C],[66%],[N/A],[1013 hPa],[29.0 °C],[4:00 PM],[6.0 km],[WSW],"[16.7 km/h
		/ 4.6 m/s]",METAR VHHH 080800Z 24009KT 200V310 6000 FEW020 SCT030 29/22 Q1013 TEMPO 4000 HZ
0,[Light Rain Showers],1996-10-8,[23.0 °C],[Rain],[-],[31.2 °C],[74%],[N/A],[1013 hPa],[28.0 °C],[5:00 PM],[8.0 km],[WSW],"[16.7 km/h
		/ 4.6 m/s]",METAR VHHH 080900Z 25009KT 210V310 8000 -SHRA(80) FEW018 SCT030 28/23 Q1013 TEMPO 4000 HZ
0,[Light Rain Showers],1996-10-8,[23.0 °C],[Rain],[-],[-],[83%],[N/A],[1013 hPa],[26.0 °C],[6:00 PM],[8.0 km],[West],"[7.4 km/h
		/ 2.1 m/s]",METAR VHHH 081000Z 28004KT 210V320 8000 -SHRA FEW018 SCT025 26/23 Q1013 NOSIG
0,[Scattered Clouds],1996-10-8,[22.0 °C],[],[-],[29.2 °C],[74%],[N/A],[1014 hPa],[27.0 °C],[7:00 PM],[9.0 km],[NNW],"[7.4 km/h
		/ 2.1 m/s]",METAR VHHH 081100Z 33004KT 290V020 9000 FEW018 SCT030 27/22 Q1014 NOSIG
0,[Scattered Clouds],1996-10-8,[22.0 °C],[],[-],[29.2 °C],[74%],[N/A],[1014 hPa],[27.0 °C],[8:00 PM],[9.0 km],[NNW],"[13.0 km/h
		/ 3.6 m/s]",METAR VHHH 081200Z 34007KT 270V030 9000 FEW020 SCT030 27/22 Q1014 NOSIG
0,[Scattered Clouds],1996-10-8,[22.0 °C],[],[-],[29.2 °C],[74%],[N/A],[1015 hPa],[27.0 °C],[9:00 PM],[9.0 km],[NNW],"[22.2 km/h
		/ 6.2 m/s]",METAR VHHH 081300Z 33012KT 280V360 9000 FEW020 SCT030 27/22 Q1015 NOSIG
0,[Scattered Clouds],1996-10-8,[21.0 °C],[],[-],[-],[74%],[N/A],[1015 hPa],[26.0 °C],[10:00 PM],[10.0 km],[NNW],"[20.4 km/h
		/ 5.7 m/s]",METAR VHHH 081400Z 33011KT 9999 FEW020 SCT040 26/21 Q1015 NOSIG
0,[Mostly Cloudy],1996-10-9,[20.0 °C],[],[-],[-],[74%],[N/A],[1015 hPa],[25.0 °C],[1:00 AM],[10.0 km],[NW],"[5.6 km/h
		/ 1.5 m/s]",METAR VHHH 081700Z 31003KT 9999 FEW020 BKN080 25/20 Q1015 NOSIG
0,[Scattered Clouds],1996-10-9,[20.0 °C],[],[-],[-],[74%],[N/A],[1015 hPa],[25.0 °C],[2:00 AM],[10.0 km],[ESE],"[3.7 km/h
		/ 1.0 m/s]",METAR VHHH 081800Z 12002KT 9999 FEW020 SCT030 25/20 Q1015 NOSIG
0,[Scattered Clouds],1996-10-9,[19.0 °C],[],[-],[-],[69%],[N/A],[1014 hPa],[25.0 °C],[3:00 AM],[10.0 km],[NW],"[9.3 km/h
		/ 2.6 m/s]",METAR VHHH 081900Z 31005KT 280V330 9999 FEW025 SCT035 25/19 Q1014 NOSIG
0,[Scattered Clouds],1996-10-9,[19.0 °C],[],[-],[-],[69%],[N/A],[1014 hPa],[25.0 °C],[4:00 AM],[10.0 km],[NW],"[3.7 km/h
		/ 1.0 m/s]",METAR VHHH 082000Z 32002KT 9999 FEW025 SCT040 25/19 Q1014 NOSIG
0,[Mostly Cloudy],1996-10-9,[19.0 °C],[],[-],[-],[73%],[N/A],[1014 hPa],[24.0 °C],[5:00 AM],[10.0 km],[NW],"[5.6 km/h
		/ 1.5 m/s]",METAR VHHH 082100Z 32003KT 9999 FEW025 BKN040 24/19 Q1014 NOSIG
0,[Mostly Cloudy],1996-10-9,[19.0 °C],[],[-],[-],[73%],[N/A],[1015 hPa],[24.0 °C],[6:00 AM],[10.0 km],[NNW],"[9.3 km/h
		/ 2.6 m/s]",METAR VHHH 082200Z 33005KT 290V350 9999 FEW025 BKN045 24/19 Q1015 NOSIG
0,[Mostly Cloudy],1996-10-9,[19.0 °C],[],[-],[-],[73%],[N/A],[1015 hPa],[24.0 °C],[7:00 AM],[10.0 km],[NW],"[3.7 km/h
		/ 1.0 m/s]",METAR VHHH 082300Z 32002KT 9999 FEW030 BKN050 24/19 Q1015 NOSIG
0,[Mostly Cloudy],1996-10-9,[19.0 °C],[],[-],[-],[69%],[N/A],[1016 hPa],[25.0 °C],[8:00 AM],[10.0 km],[NNW],"[5.6 km/h
		/ 1.5 m/s]",METAR VHHH 090000Z 33003KT 9999 FEW025 SCT035 BKN080 25/19 Q1016 NOSIG
0,[Mostly Cloudy],1996-10-9,[20.0 °C],[],[-],[-],[69%],[N/A],[1016 hPa],[26.0 °C],[9:00 AM],[10.0 km],[WNW],"[5.6 km/h
		/ 1.5 m/s]",METAR VHHH 090100Z 30003KT 9999 FEW025 SCT035 BKN080 26/20 Q1016 NOSIG
0,[Mostly Cloudy],1996-10-9,[19.0 °C],[],[-],[-],[65%],[N/A],[1016 hPa],[26.0 °C],[10:00 AM],[10.0 km],[NNW],"[9.3 km/h
		/ 2.6 m/s]",METAR VHHH 090200Z 33005KT 290V090 9999 FEW025 SCT035 BKN080 26/19 Q1016 NOSIG
0,[Mostly Cloudy],1996-10-9,[19.0 °C],[],[-],[-],[65%],[N/A],[1016 hPa],[26.0 °C],[11:00 AM],[10.0 km],[North],"[11.1 km/h
		/ 3.1 m/s]",METAR VHHH 090300Z 36006KT 230V100 9999 FEW025 SCT035 BKN080 26/19 Q1016 NOSIG
0,[Mostly Cloudy],1996-10-9,[20.0 °C],[],[-],[-],[69%],[N/A],[1015 hPa],[26.0 °C],[12:00 PM],[10.0 km],[WNW],"[9.3 km/h
		/ 2.6 m/s]",METAR VHHH 090400Z 30005KT 240V060 9999 FEW025 SCT035 BKN080 26/20 Q1015 NOSIG
0,[Mostly Cloudy],1996-10-9,[20.0 °C],[],[-],[-],[69%],[N/A],[1015 hPa],[26.0 °C],[1:00 PM],[10.0 km],[NW],"[13.0 km/h
		/ 3.6 m/s]",METAR VHHH 090500Z 31007KT 9999 FEW025 SCT035 BKN080 26/20 Q1015 NOSIG
0,[Mostly Cloudy],1996-10-9,[20.0 °C],[],[-],[28.5 °C],[65%],[N/A],[1014 hPa],[27.0 °C],[2:00 PM],[10.0 km],[North],"[7.4 km/h
		/ 2.1 m/s]",METAR VHHH 090600Z 35004KT 290V060 9999 FEW025 SCT035 BKN080 27/20 Q1014 NOSIG
0,[Mostly Cloudy],1996-10-9,[21.0 °C],[],[-],[30.2 °C],[66%],[N/A],[1013 hPa],[28.0 °C],[3:00 PM],[10.0 km],[NE],"[11.1 km/h
		/ 3.1 m/s]",METAR VHHH 090700Z 04006KT 320V090 9999 FEW025 BKN120 28/21 Q1013 NOSIG
0,[Scattered Clouds],1996-10-9,[20.0 °C],[],[-],[29.7 °C],[62%],[N/A],[1013 hPa],[28.0 °C],[4:00 PM],[10.0 km],[East],"[11.1 km/h
		/ 3.1 m/s]",METAR VHHH 090800Z 08006KT 290V110 9999 FEW025 SCT040 28/20 Q1013 NOSIG
0,[Mostly Cloudy],1996-10-9,[20.0 °C],[],[-],[28.5 °C],[65%],[N/A],[1013 hPa],[27.0 °C],[5:00 PM],[10.0 km],[North],"[1.9 km/h
		/ 0.5 m/s]",METAR VHHH 090900Z 35001KT 9999 FEW025 BKN040 27/20 Q1013 NOSIG
0,[Mostly Cloudy],1996-10-9,[20.0 °C],[],[-],[28.5 °C],[65%],[N/A],[1014 hPa],[27.0 °C],[6:00 PM],[10.0 km],[NNW],"[7.4 km/h
		/ 2.1 m/s]",METAR VHHH 091000Z 33004KT 9999 FEW025 SCT040 BKN100 27/20 Q1014 NOSIG
0,[Mostly Cloudy],1996-10-9,[21.0 °C],[],[-],[28.9 °C],[70%],[N/A],[1014 hPa],[27.0 °C],[7:00 PM],[10.0 km],[NW],"[9.3 km/h
		/ 2.6 m/s]",METAR VHHH 091100Z 32005KT 290V360 9999 FEW025 BKN100 27/21 Q1014 NOSIG
0,[Mostly Cloudy],1996-10-9,[20.0 °C],[],[-],[28.5 °C],[65%],[N/A],[1015 hPa],[27.0 °C],[8:00 PM],[10.0 km],[NNW],"[11.1 km/h
		/ 3.1 m/s]",METAR VHHH 091200Z 34006KT 9999 FEW025 BKN100 27/20 Q1015 NOSIG
0,[Scattered Clouds],1996-10-9,[20.0 °C],[],[-],[-],[69%],[N/A],[1015 hPa],[26.0 °C],[9:00 PM],[10.0 km],[ENE],"[7.4 km/h
		/ 2.1 m/s]",METAR VHHH 091300Z 07004KT 9999 FEW025 SCT100 26/20 Q1015 NOSIG
0,[Scattered Clouds],1996-10-9,[20.0 °C],[],[-],[-],[69%],[N/A],[1015 hPa],[26.0 °C],[10:00 PM],[10.0 km],[North],"[1.9 km/h
		/ 0.5 m/s]",METAR VHHH 091400Z 36001KT 9999 SCT030 SCT100 26/20 Q1015 NOSIG
0,[Mostly Cloudy],1996-10-9,[20.0 °C],[],[-],[-],[69%],[N/A],[1015 hPa],[26.0 °C],[11:00 PM],[10.0 km],[NW],"[1.9 km/h
		/ 0.5 m/s]",METAR VHHH 091500Z 31001KT 9999 FEW030 SCT035 BKN100 26/20 Q1015 NOSIG
0,[Mostly Cloudy],1996-10-10,[19.0 °C],[],[-],[-],[69%],[N/A],[1015 hPa],[25.0 °C],[12:00 AM],[10.0 km],[NE],"[1.9 km/h
		/ 0.5 m/s]",METAR VHHH 091600Z 04001KT 9999 FEW030 SCT035 BKN100 25/19 Q1015 NOSIG
0,[Mostly Cloudy],1996-10-10,[19.0 °C],[],[-],[-],[69%],[N/A],[1015 hPa],[25.0 °C],[1:00 AM],[10.0 km],[North],"[1.9 km/h
		/ 0.5 m/s]",METAR VHHH 091700Z 36001KT 9999 FEW030 SCT035 BKN100 25/19 Q1015 NOSIG
0,[Mostly Cloudy],1996-10-10,[19.0 °C],[],[-],[-],[69%],[N/A],[1014 hPa],[25.0 °C],[2:00 AM],[10.0 km],[NNW],"[7.4 km/h
		/ 2.1 m/s]",METAR VHHH 091800Z 33004KT 9999 FEW030 SCT035 BKN100 25/19 Q1014 NOSIG
0,[Mostly Cloudy],1996-10-10,[19.0 °C],[],[-],[-],[69%],[N/A],[1014 hPa],[25.0 °C],[3:00 AM],[10.0 km],[ENE],"[1.9 km/h
		/ 0.5 m/s]",METAR VHHH 091900Z 06001KT 9999 FEW030 SCT035 BKN100 25/19 Q1014 NOSIG
0,[Mostly Cloudy],1996-10-10,[19.0 °C],[],[-],[-],[73%],[N/A],[1013 hPa],[24.0 °C],[4:00 AM],[10.0 km],[ENE],"[3.7 km/h
		/ 1.0 m/s]",METAR VHHH 092000Z 07002KT 9999 FEW030 BKN100 24/19 Q1013 NOSIG
0,[Mostly Cloudy],1996-10-10,[19.0 °C],[],[-],[-],[73%],[N/A],[1014 hPa],[24.0 °C],[5:00 AM],[10.0 km],[ENE],"[9.3 km/h
		/ 2.6 m/s]",METAR VHHH 092100Z 06005KT 010V090 9999 FEW025 SCT035 BKN100 24/19 Q1014 NOSIG
0,[Mostly Cloudy],1996-10-10,[18.0 °C],[],[-],[-],[69%],[N/A],[1014 hPa],[24.0 °C],[6:00 AM],[10.0 km],[North],"[7.4 km/h
		/ 2.1 m/s]",METAR VHHH 092200Z 01004KT 9999 FEW030 SCT040 BKN100 24/18 Q1014 NOSIG
0,[Mostly Cloudy],1996-10-10,[18.0 °C],[],[-],[-],[69%],[N/A],[1015 hPa],[24.0 °C],[7:00 AM],[10.0 km],[NNE],"[7.4 km/h
		/ 2.1 m/s]",METAR VHHH 092300Z 03004KT 360V070 9999 FEW025 SCT035 BKN100 24/18 Q1015 NOSIG
0,[Mostly Cloudy],1996-10-10,[18.0 °C],[],[-],[-],[65%],[N/A],[1015 hPa],[25.0 °C],[8:00 AM],[10.0 km],[North],"[11.1 km/h
		/ 3.1 m/s]",METAR VHHH 100000Z 36006KT 9999 SCT035 BKN080 25/18 Q1015 NOSIG
0,[Scattered Clouds],1996-10-10,[18.0 °C],[],[-],[-],[61%],[N/A],[1016 hPa],[26.0 °C],[9:00 AM],[10.0 km],[ESE],"[11.1 km/h
		/ 3.1 m/s]",METAR VHHH 100100Z 11006KT 340V070 9999 FEW035 SCT100 26/18 Q1016 NOSIG
0,[Scattered Clouds],1996-10-10,[-],[],[-],[-],[N/A%],[N/A],[-],[-],[10:00 AM],[10.0 km],[ENE],"[13.0 km/h
		/ 3.6 m/s]",METAR VHHH 100200Z 06007KT 010V120 9999 FEW025 SCT300 NOSIG
0,[Partly Cloudy],1996-10-10,[19.0 °C],[],[-],[29.2 °C],[58%],[N/A],[1015 hPa],[28.0 °C],[11:00 AM],[10.0 km],[ENE],"[9.3 km/h
		/ 2.6 m/s]",METAR VHHH 100300Z 07005KT 020V190 9999 FEW025 28/19 Q1015 NOSIG
0,[Partly Cloudy],1996-10-10,[19.0 °C],[],[-],[30.3 °C],[55%],[N/A],[1015 hPa],[29.0 °C],[12:00 PM],[10.0 km],[ENE],"[9.3 km/h
		/ 2.6 m/s]",METAR VHHH 100400Z 06005KT 020V150 9999 FEW025 29/19 Q1015 NOSIG
0,[Partly Cloudy],1996-10-10,[20.0 °C],[],[-],[31.9 °C],[55%],[N/A],[1014 hPa],[30.0 °C],[1:00 PM],[10.0 km],[ENE],"[9.3 km/h
		/ 2.6 m/s]",METAR VHHH 100500Z 07005KT 350V130 9999 FEW025 30/20 Q1014 NOSIG
0,[Scattered Clouds],1996-10-10,[21.0 °C],[],[-],[32.4 °C],[58%],[N/A],[1013 hPa],[30.0 °C],[2:00 PM],[10.0 km],[NNE],"[13.0 km/h
		/ 3.6 m/s]",METAR VHHH 100600Z 02007KT 350V120 9999 SCT030 30/21 Q1013 NOSIG
0,[Scattered Clouds],1996-10-10,[21.0 °C],[],[-],[31.3 °C],[62%],[N/A],[1013 hPa],[29.0 °C],[3:00 PM],[10.0 km],[NNE],"[13.0 km/h
		/ 3.6 m/s]",METAR VHHH 100700Z 03007KT 330V100 9999 SCT030 29/21 Q1013 NOSIG
0,[Partly Cloudy],1996-10-10,[20.0 °C],[],[-],[31.9 °C],[55%],[N/A],[1013 hPa],[30.0 °C],[4:00 PM],[10.0 km],[North],"[11.1 km/h
		/ 3.1 m/s]",METAR VHHH 100800Z 36006KT 330V080 9999 FEW030 30/20 Q1013 NOSIG
0,[Partly Cloudy],1996-10-10,[21.0 °C],[],[-],[31.3 °C],[62%],[N/A],[1013 hPa],[29.0 °C],[5:00 PM],[10.0 km],[East],"[13.0 km/h
		/ 3.6 m/s]",METAR VHHH 100900Z 09007KT 050V110 9999 FEW030 29/21 Q1013 NOSIG
0,[Partly Cloudy],1996-10-10,[21.0 °C],[],[-],[30.2 °C],[66%],[N/A],[1013 hPa],[28.0 °C],[6:00 PM],[10.0 km],[ENE],"[7.4 km/h
		/ 2.1 m/s]",METAR VHHH 101000Z 06004KT 020V120 9999 FEW030 28/21 Q1013 NOSIG
0,[Partly Cloudy],1996-10-10,[21.0 °C],[],[-],[30.2 °C],[66%],[N/A],[1013 hPa],[28.0 °C],[7:00 PM],[10.0 km],[East],"[7.4 km/h
		/ 2.1 m/s]",METAR VHHH 101100Z 08004KT 010V100 9999 FEW030 28/21 Q1013 NOSIG
0,[Partly Cloudy],1996-10-10,[20.0 °C],[],[-],[28.5 °C],[65%],[N/A],[1014 hPa],[27.0 °C],[8:00 PM],[10.0 km],[ENE],"[7.4 km/h
		/ 2.1 m/s]",METAR VHHH 101200Z 07004KT 030V120 9999 FEW030 27/20 Q1014 NOSIG
0,[Partly Cloudy],1996-10-10,[20.0 °C],[],[-],[28.5 °C],[65%],[N/A],[1015 hPa],[27.0 °C],[9:00 PM],[10.0 km],[North],"[1.9 km/h
		/ 0.5 m/s]",METAR VHHH 101300Z 36001KT 9999 FEW025 27/20 Q1015 NOSIG
0,[Mostly Cloudy],1996-10-10,[20.0 °C],[],[-],[29.7 °C],[62%],[N/A],[1015 hPa],[28.0 °C],[10:00 PM],[10.0 km],[North],"[7.4 km/h
		/ 2.1 m/s]",METAR VHHH 101400Z 01004KT 330V060 9999 FEW025 BKN040 28/20 Q1015 NOSIG
0,[Partly Cloudy],1996-10-10,[20.0 °C],[],[-],[28.5 °C],[65%],[N/A],[1015 hPa],[27.0 °C],[11:00 PM],[10.0 km],[NNE],"[3.7 km/h
		/ 1.0 m/s]",METAR VHHH 101500Z 02002KT 9999 FEW025 27/20 Q1015 NOSIG
0,[Scattered Clouds],1996-10-11,[20.0 °C],[],[-],[-],[69%],[N/A],[1015 hPa],[26.0 °C],[12:00 AM],[10.0 km],[North],"[1.9 km/h
		/ 0.5 m/s]",METAR VHHH 101600Z 36001KT 9999 FEW025 SCT040 26/20 Q1015 NOSIG
0,[Scattered Clouds],1996-10-11,[20.0 °C],[],[-],[-],[69%],[N/A],[1015 hPa],[26.0 °C],[1:00 AM],[10.0 km],[ENE],"[9.3 km/h
		/ 2.6 m/s]",METAR VHHH 101700Z 06005KT 360V090 9999 FEW025 SCT050 26/20 Q1015 NOSIG
0,[Mostly Cloudy],1996-10-11,[20.0 °C],[],[-],[-],[69%],[N/A],[1014 hPa],[26.0 °C],[2:00 AM],[10.0 km],[NNE],"[9.3 km/h
		/ 2.6 m/s]",METAR VHHH 101800Z 02005KT 340V060 9999 FEW025 BKN035 26/20 Q1014 NOSIG
0,[Scattered Clouds],1996-10-11,[20.0 °C],[],[-],[-],[69%],[N/A],[1013 hPa],[26.0 °C],[3:00 AM],[10.0 km],[WNW],"[7.4 km/h
		/ 2.1 m/s]",METAR VHHH 101900Z 30004KT 9999 SCT025 SCT035 26/20 Q1013 NOSIG
0,[Scattered Clouds],1996-10-11,[20.0 °C],[],[-],[-],[74%],[N/A],[1013 hPa],[25.0 °C],[4:00 AM],[10.0 km],[North],"[13.0 km/h
		/ 3.6 m/s]",METAR VHHH 2000Z 10200Z 01007KT 340V050 9999 FEW025 SCT035 25/20 Q1013 NOSIG
0,[Partly Cloudy],1996-10-11,[20.0 °C],[],[-],[-],[74%],[N/A],[1013 hPa],[25.0 °C],[5:00 AM],[10.0 km],[Variable],"[5.6 km/h
		/ 1.5 m/s]",METAR VHHH 102100Z VRB03KT 9999 FEW030 25/20 Q1013 NOSIG
0,[Partly Cloudy],1996-10-11,[19.0 °C],[],[-],[-],[73%],[N/A],[1013 hPa],[24.0 °C],[6:00 AM],[10.0 km],[Variable],"[1.9 km/h
		/ 0.5 m/s]",METAR VHHH 102200Z VRB01KT 280V020 9999 FEW025 24/19 Q1013 NOSIG
0,[Scattered Clouds],1996-10-11,[18.0 °C],[],[-],[-],[65%],[N/A],[1014 hPa],[25.0 °C],[7:00 AM],[10.0 km],[West],"[1.9 km/h
		/ 0.5 m/s]",METAR VHHH 102300Z 27001KT 9999 FEW025 SCT035 25/18 Q1014 NOSIG
0,[Scattered Clouds],1996-10-11,[19.0 °C],[],[-],[-],[65%],[N/A],[1015 hPa],[26.0 °C],[8:00 AM],[10.0 km],[North],"[14.8 km/h
		/ 4.1 m/s]",METAR VHHH 110000Z 36008KT 310V070 9999 FEW025 SCT035 26/19 Q1015 NOSIG
0,[Scattered Clouds],1996-10-11,[19.0 °C],[],[-],[-],[65%],[N/A],[1016 hPa],[26.0 °C],[9:00 AM],[10.0 km],[NE],"[13.0 km/h
		/ 3.6 m/s]",METAR VHHH 110100Z 04007KT 350V090 9999 FEW030 SCT090 26/19 Q1016 NOSIG
0,[Partly Cloudy],1996-10-11,[20.0 °C],[],[-],[30.7 °C],[58%],[N/A],[1016 hPa],[29.0 °C],[10:00 AM],[10.0 km],[East],"[18.5 km/h
		/ 5.1 m/s]",METAR VHHH 110200Z 09010KT 050V140 9999 FEW030 29/20 Q1016 NOSIG
0,[Partly Cloudy],1996-10-11,[20.0 °C],[],[-],[30.7 °C],[58%],[N/A],[1016 hPa],[29.0 °C],[11:00 AM],[10.0 km],[NE],"[14.8 km/h
		/ 4.1 m/s]",METAR VHHH 110300Z 05008KT 340V100 9999 FEW030 29/20 Q1016 NOSIG
0,[Scattered Clouds],1996-10-11,[20.0 °C],[],[-],[30.7 °C],[58%],[N/A],[1015 hPa],[29.0 °C],[12:00 PM],[10.0 km],[East],"[9.3 km/h
		/ 2.6 m/s]",METAR VHHH 110400Z 09005KT 290V150 9999 SCT030 29/20 Q1015 NOSIG
0,[Scattered Clouds],1996-10-11,[20.0 °C],[],[-],[31.9 °C],[55%],[N/A],[1014 hPa],[30.0 °C],[1:00 PM],[10.0 km],[East],"[13.0 km/h
		/ 3.6 m/s]",METAR VHHH 110500Z 09007KT 020V360 9999 SCT030 30/20 Q1014 NOSIG
0,[Scattered Clouds],1996-10-11,[21.0 °C],[],[-],[33.7 °C],[55%],[N/A],[1013 hPa],[31.0 °C],[2:00 PM],[10.0 km],[NE],"[11.1 km/h
		/ 3.1 m/s]",METAR VHHH 110600Z 05006KT 020V130 9999 FEW022 SCT030 31/21 Q1013 NOSIG
0,[Scattered Clouds],1996-10-11,[21.0 °C],[],[-],[32.4 °C],[58%],[N/A],[1013 hPa],[30.0 °C],[3:00 PM],[10.0 km],[ENE],"[11.1 km/h
		/ 3.1 m/s]",METAR VHHH 110700Z 06006KT 340V170 9999 FEW022 SCT030 30/21 Q1013 NOSIG
0,[Scattered Clouds],1996-10-11,[21.0 °C],[],[-],[32.4 °C],[58%],[N/A],[1013 hPa],[30.0 °C],[4:00 PM],[10.0 km],[NE],"[14.8 km/h
		/ 4.1 m/s]",METAR VHHH 110800Z 05008KT 330V100 9999 SCT030 30/21 Q1013 NOSIG
0,[Scattered Clouds],1996-10-11,[20.0 °C],[],[-],[31.9 °C],[55%],[N/A],[1013 hPa],[30.0 °C],[5:00 PM],[10.0 km],[ENE],"[13.0 km/h
		/ 3.6 m/s]",METAR VHHH 110900Z 07007KT 330V110 9999 SCT030 SCT300 30/20 Q1013 NOSIG
0,[Scattered Clouds],1996-10-11,[22.0 °C],[],[-],[30.7 °C],[70%],[N/A],[1013 hPa],[28.0 °C],[6:00 PM],[10.0 km],[East],"[11.1 km/h
		/ 3.1 m/s]",METAR VHHH 111000Z 08006KT 050V150 9999 FEW030 SCT300 28/22 Q1013 NOSIG
0,[Mostly Cloudy],1996-10-11,[21.0 °C],[],[-],[30.2 °C],[66%],[N/A],[1014 hPa],[28.0 °C],[7:00 PM],[10.0 km],[East],"[14.8 km/h
		/ 4.1 m/s]",METAR VHHH 111100Z 08008KT 060V120 9999 FEW030 BKN080 28/21 Q1014 NOSIG
0,[Mostly Cloudy],1996-10-11,[22.0 °C],[],[-],[30.7 °C],[70%],[N/A],[1015 hPa],[28.0 °C],[8:00 PM],[10.0 km],[ESE],"[14.8 km/h
		/ 4.1 m/s]",METAR VHHH 111200Z 11008KT 060V150 9999 FEW030 BKN080 28/22 Q1015 NOSIG
0,[Mostly Cloudy],1996-10-11,[22.0 °C],[],[-],[29.2 °C],[74%],[N/A],[1015 hPa],[27.0 °C],[9:00 PM],[10.0 km],[East],"[3.7 km/h
		/ 1.0 m/s]",METAR VHHH 111300Z 09002KT 9999 FEW030 BKN080 27/22 Q1015 NOSIG
0,[Scattered Clouds],1996-10-11,[22.0 °C],[],[-],[30.7 °C],[70%],[N/A],[1016 hPa],[28.0 °C],[10:00 PM],[10.0 km],[East],"[9.3 km/h
		/ 2.6 m/s]",METAR VHHH 111400Z 10005KT 060V140 9999 FEW030 SCT080 28/22 Q1016 NOSIG
0,[Partly Cloudy],1996-10-11,[22.0 °C],[],[-],[29.2 °C],[74%],[N/A],[1015 hPa],[27.0 °C],[11:00 PM],[10.0 km],[NNE],"[5.6 km/h
		/ 1.5 m/s]",METAR VHHH 111500Z 03003KT 9999 FEW025 27/22 Q1015 NOSIG
0,[Scattered Clouds],1996-10-12,[20.0 °C],[],[-],[28.5 °C],[65%],[N/A],[1015 hPa],[27.0 °C],[12:00 AM],[10.0 km],[NNW],"[1.9 km/h
		/ 0.5 m/s]",METAR VHHH 111600Z 34001KT 9999 FEW022 SCT080 27/20 Q1015 NOSIG
0,[Partly Cloudy],1996-10-12,[20.0 °C],[],[-],[-],[69%],[N/A],[1015 hPa],[26.0 °C],[1:00 AM],[10.0 km],[NNE],"[1.9 km/h
		/ 0.5 m/s]",METAR VHHH 111700Z 03001KT 9999 FEW022 26/20 Q1015 NOSIG
0,[Partly Cloudy],1996-10-12,[21.0 °C],[],[-],[-],[74%],[N/A],[1014 hPa],[26.0 °C],[2:00 AM],[10.0 km],[NW],"[1.9 km/h
		/ 0.5 m/s]",METAR VHHH 111800Z 32001KT 9999 FEW025 26/21 Q1014 NOSIG
0,[Partly Cloudy],1996-10-12,[21.0 °C],[],[-],[-],[78%],[N/A],[1013 hPa],[25.0 °C],[3:00 AM],[10.0 km],[WNW],"[1.9 km/h
		/ 0.5 m/s]",METAR VHHH 111900Z 29001KT 9999 FEW025 25/21 Q1013 NOSIG
0,[Scattered Clouds],1996-10-12,[19.0 °C],[],[-],[-],[69%],[N/A],[1013 hPa],[25.0 °C],[4:00 AM],[10.0 km],[WNW],"[9.3 km/h
		/ 2.6 m/s]",METAR VHHH 112000Z 30005KT 270V350 9999 FEW025 SCT080 25/19 Q1013 NOSIG
0,[Scattered Clouds],1996-10-12,[19.0 °C],[],[-],[-],[69%],[N/A],[1013 hPa],[25.0 °C],[5:00 AM],[10.0 km],[WNW],"[5.6 km/h
		/ 1.5 m/s]",METAR VHHH 112100Z 30003KT 9999 FEW030 SCT080 25/19 Q1013 NOSIG
0,[Scattered Clouds],1996-10-12,[19.0 °C],[],[-],[-],[73%],[N/A],[1014 hPa],[24.0 °C],[6:00 AM],[10.0 km],[North],"[11.1 km/h
		/ 3.1 m/s]",METAR VHHH 112200Z 01006KT 330V040 9999 FEW030 SCT080 24/19 Q1014 NOSIG
0,[Clear],1996-10-12,[19.0 °C],[],[-],[-],[73%],[N/A],[1015 hPa],[24.0 °C],[7:00 AM],[-],[NW],"[11.1 km/h
		/ 3.1 m/s]",METAR VHHH 112300Z 31006KT CAVOK 24/19 Q1015 NOSIG
0,[Clear],1996-10-12,[18.0 °C],[],[-],[-],[61%],[N/A],[1015 hPa],[26.0 °C],[8:00 AM],[-],[Variable],"[1.9 km/h
		/ 0.5 m/s]",METAR VHHH 120000Z VRB01KT CAVOK 26/18 Q1015 NOSIG
0,[Mostly Cloudy],1996-10-12,[19.0 °C],[],[-],[28.2 °C],[61%],[N/A],[1016 hPa],[27.0 °C],[9:00 AM],[10.0 km],[North],"[7.4 km/h
		/ 2.1 m/s]",METAR VHHH 120100Z 01004KT 300V070 9999 FEW020 BKN300 27/19 Q1016 NOSIG
0,[Mostly Cloudy],1996-10-12,[19.0 °C],[],[-],[29.2 °C],[58%],[N/A],[1016 hPa],[28.0 °C],[10:00 AM],[10.0 km],[NNW],"[3.7 km/h
		/ 1.0 m/s]",METAR VHHH 120200Z 34002KT 9999 FEW030 BKN300 28/19 Q1016 NOSIG
0,[Clear],1996-10-12,[19.0 °C],[],[-],[31.2 °C],[51%],[N/A],[1015 hPa],[30.0 °C],[11:00 AM],[-],[North],"[1.9 km/h
		/ 0.5 m/s]",METAR VHHH 120300Z 35001KT CAVOK 30/19 Q1015 NOSIG
0,[Mostly Cloudy],1996-10-12,[19.0 °C],[],[-],[31.2 °C],[51%],[N/A],[1015 hPa],[30.0 °C],[12:00 PM],[10.0 km],[NE],"[7.4 km/h
		/ 2.1 m/s]",METAR VHHH 120400Z 04004KT 280V110 9999 FEW030 BKN300 30/19 Q1015 NOSIG
0,[Mostly Cloudy],1996-10-12,[19.0 °C],[],[-],[32.4 °C],[49%],[N/A],[1013 hPa],[31.0 °C],[1:00 PM],[10.0 km],[NE],"[20.4 km/h
		/ 5.7 m/s]",METAR VHHH 120500Z 05011KT 330V090 9999 FEW030 BKN300 31/19 Q1013 NOSIG
0,[Mostly Cloudy],1996-10-12,[21.0 °C],[],[-],[33.7 °C],[55%],[N/A],[1012 hPa],[31.0 °C],[2:00 PM],[10.0 km],[NNW],"[9.3 km/h
		/ 2.6 m/s]",METAR VHHH 120600Z 34005KT 260V090 9999 SCT035 BKN150 31/21 Q1012 NOSIG
0,[Scattered Clouds],1996-10-12,[20.0 °C],[],[-],[33.0 °C],[52%],[N/A],[1012 hPa],[31.0 °C],[3:00 PM],[10.0 km],[North],"[9.3 km/h
		/ 2.6 m/s]",METAR VHHH 120700Z 36005KT 290V090 9999 FEW035 SCT150 31/20 Q1012 NOSIG
0,[Scattered Clouds],1996-10-12,[21.0 °C],[],[-],[33.7 °C],[55%],[N/A],[1012 hPa],[31.0 °C],[4:00 PM],[10.0 km],[NNE],"[9.3 km/h
		/ 2.6 m/s]",METAR VHHH 120800Z 02005KT 300V100 9999 FEW035 SCT100 31/21 Q1012 NOSIG
0,[Mostly Cloudy],1996-10-12,[20.0 °C],[],[-],[31.9 °C],[55%],[N/A],[1012 hPa],[30.0 °C],[6:00 PM],[10.0 km],[NE],"[3.7 km/h
		/ 1.0 m/s]",METAR VHHH 121000Z 05002KT 9999 FEW035 BKN300 30/20 Q1012 NOSIG
0,[Mostly Cloudy],1996-10-12,[21.0 °C],[],[-],[31.3 °C],[62%],[N/A],[1012 hPa],[29.0 °C],[7:00 PM],[10.0 km],[NNW],"[7.4 km/h
		/ 2.1 m/s]",METAR VHHH 121100Z 33004KT 300V360 9999 FEW035 BKN300 29/21 Q1012 NOSIG
0,[Mostly Cloudy],1996-10-12,[20.0 °C],[],[-],[30.7 °C],[58%],[N/A],[1012 hPa],[29.0 °C],[8:00 PM],[10.0 km],[NW],"[9.3 km/h
		/ 2.6 m/s]",METAR VHHH 121200Z 31005KT 280V360 9999 FEW035 BKN300 29/20 Q1012 NOSIG
0,[Mostly Cloudy],1996-10-12,[20.0 °C],[],[-],[30.7 °C],[58%],[N/A],[1013 hPa],[29.0 °C],[9:00 PM],[10.0 km],[North],"[11.1 km/h
		/ 3.1 m/s]",METAR VHHH 121300Z 01006KT 290V100 9999 FEW035 BKN300 29/20 Q1013 NOSIG
0,[Mostly Cloudy],1996-10-12,[19.0 °C],[],[-],[28.2 °C],[61%],[N/A],[1013 hPa],[27.0 °C],[10:00 PM],[10.0 km],[NNW],"[18.5 km/h
		/ 5.1 m/s]",METAR VHHH 121400Z 34010KT 280V030 9999 FEW035 BKN300 27/19 Q1013 NOSIG
0,[Mostly Cloudy],1996-10-12,[18.0 °C],[],[-],[-],[61%],[N/A],[1013 hPa],[26.0 °C],[11:00 PM],[10.0 km],[WNW],"[13.0 km/h
		/ 3.6 m/s]",METAR VHHH 121500Z 29007KT 250V090 9999 FEW035 BKN300 26/18 Q1013 NOSIG
0,[Scattered Clouds],1996-10-13,[18.0 °C],[],[-],[-],[65%],[N/A],[1013 hPa],[25.0 °C],[1:00 AM],[10.0 km],[NNW],"[22.2 km/h
		/ 6.2 m/s]",METAR VHHH 121700Z 34012KT 310V010 9999 FEW030 SCT300 25/18 Q1013 NOSIG
0,[Mostly Cloudy],1996-10-13,[18.0 °C],[],[-],[-],[69%],[N/A],[1012 hPa],[24.0 °C],[2:00 AM],[10.0 km],[North],"[18.5 km/h
		/ 5.1 m/s]",METAR VHHH 121800Z 01010KT 330V040 9999 FEW035 BKN300 24/18 Q1012 NOSIG
0,[Mostly Cloudy],1996-10-13,[18.0 °C],[],[-],[-],[69%],[N/A],[1012 hPa],[24.0 °C],[3:00 AM],[10.0 km],[NNW],"[14.8 km/h
		/ 4.1 m/s]",METAR VHHH 121900Z 33008KT 310V010 9999 SCT030 BKN300 24/18 Q1012 NOSIG
0,[Mostly Cloudy],1996-10-13,[18.0 °C],[],[-],[-],[69%],[N/A],[1011 hPa],[24.0 °C],[4:00 AM],[10.0 km],[NNW],"[20.4 km/h
		/ 5.7 m/s]",METAR VHHH 122000Z 33011KT 9999 FEW035 BKN090 24/18 Q1011 NOSIG
0,[Mostly Cloudy],1996-10-13,[17.0 °C],[],[-],[-],[65%],[N/A],[1011 hPa],[24.0 °C],[6:00 AM],[10.0 km],[WSW],"[5.6 km/h
		/ 1.5 m/s]",METAR VHHH 122200Z 25003KT 9999 FEW030 SCT050 BKN090 24/17 Q1011 NOSIG
0,[Mostly Cloudy],1996-10-13,[18.0 °C],[],[-],[-],[69%],[N/A],[1012 hPa],[24.0 °C],[7:00 AM],[10.0 km],[NW],"[14.8 km/h
		/ 4.1 m/s]",METAR VHHH 122300Z 32008KT 270V120 9999 BKN040 24/18 Q1012 NOSIG
0,[Mostly Cloudy],1996-10-13,[18.0 °C],[],[-],[-],[65%],[N/A],[1013 hPa],[25.0 °C],[8:00 AM],[10.0 km],[NNW],"[14.8 km/h
		/ 4.1 m/s]",METAR VHHH 130000Z 33008KT 290V040 9999 FEW035 BKN090 25/18 Q1013 NOSIG
0,[Mostly Cloudy],1996-10-13,[18.0 °C],[],[-],[-],[65%],[N/A],[1013 hPa],[25.0 °C],[9:00 AM],[10.0 km],[NNW],"[14.8 km/h
		/ 4.1 m/s]",METAR VHHH 130100Z 34008KT 290V030 9999 FEW035 BKN080 25/18 Q1013 NOSIG
0,[Mostly Cloudy],1996-10-13,[19.0 °C],[],[-],[-],[65%],[N/A],[1013 hPa],[26.0 °C],[10:00 AM],[10.0 km],[NNW],"[13.0 km/h
		/ 3.6 m/s]",METAR VHHH 130200Z 33007KT 270V040 9999 FEW035 SCT040 BKN080 26/19 Q1013 NOSIG
0,[Scattered Clouds],1996-10-13,[18.0 °C],[],[-],[28.8 °C],[54%],[N/A],[1012 hPa],[28.0 °C],[11:00 AM],[10.0 km],[NW],"[22.2 km/h
		/ 6.2 m/s]",METAR VHHH 130300Z 32012KT 9999 FEW040 SCT150 28/18 Q1012 NOSIG
0,[Mostly Cloudy],1996-10-13,[20.0 °C],[],[-],[30.7 °C],[58%],[N/A],[1012 hPa],[29.0 °C],[12:00 PM],[10.0 km],[NNW],"[20.4 km/h
		/ 5.7 m/s]",METAR VHHH 130400Z 33011KT 280V010 9999 FEW040 BKN120 29/20 Q1012 NOSIG
0,[Scattered Clouds],1996-10-13,[20.0 °C],[],[-],[31.9 °C],[55%],[N/A],[1011 hPa],[30.0 °C],[1:00 PM],[10.0 km],[NNW],"[22.2 km/h
		/ 6.2 m/s]",METAR VHHH 130500Z 34012KT 280V030 9999 FEW040 SCT120 30/20 Q1011 NOSIG
0,[Mostly Cloudy],1996-10-13,[20.0 °C],[],[-],[31.9 °C],[55%],[N/A],[1010 hPa],[30.0 °C],[2:00 PM],[10.0 km],[NNW],"[20.4 km/h
		/ 5.7 m/s]",METAR VHHH 130600Z 34011KT 310V020 9999 FEW025 BKN050 30/20 Q1010 NOSIG
0,[Mostly Cloudy],1996-10-13,[20.0 °C],[],[-],[31.9 °C],[55%],[N/A],[1009 hPa],[30.0 °C],[3:00 PM],[10.0 km],[North],"[20.4 km/h
		/ 5.7 m/s]",METAR VHHH 130700Z 35011KT 310V140 9999 FEW025 BKN045 30/20 Q1009 NOSIG
0,[Mostly Cloudy],1996-10-13,[20.0 °C],[],[-],[31.9 °C],[55%],[N/A],[1009 hPa],[30.0 °C],[4:00 PM],[10.0 km],[NNW],"[13.0 km/h
		/ 3.6 m/s]",METAR VHHH 130800Z 34007KT 300V050 9999 FEW025 BKN045 30/20 Q1009 NOSIG
0,[Mostly Cloudy],1996-10-13,[20.0 °C],[],[-],[30.7 °C],[58%],[N/A],[1009 hPa],[29.0 °C],[5:00 PM],[10.0 km],[North],"[14.8 km/h
		/ 4.1 m/s]",METAR VHHH 130900Z 36008KT 290V050 9999 FEW025 BKN040 29/20 Q1009 NOSIG
0,[Scattered Clouds],1996-10-13,[21.0 °C],[],[-],[31.3 °C],[62%],[N/A],[1010 hPa],[29.0 °C],[6:00 PM],[10.0 km],[North],"[11.1 km/h
		/ 3.1 m/s]",METAR VHHH 131000Z 36006KT 300V080 9999 SCT030 SCT050 29/21 Q1010 NOSIG
0,[Scattered Clouds],1996-10-13,[20.0 °C],[],[-],[30.7 °C],[58%],[N/A],[1010 hPa],[29.0 °C],[7:00 PM],[10.0 km],[North],"[13.0 km/h
		/ 3.6 m/s]",METAR VHHH 131100Z 36007KT 300V100 9999 FEW030 SCT100 29/20 Q1010 NOSIG
0,[Scattered Clouds],1996-10-13,[20.0 °C],[],[-],[29.7 °C],[62%],[N/A],[1011 hPa],[28.0 °C],[9:00 PM],[10.0 km],[North],"[18.5 km/h
		/ 5.1 m/s]",METAR VHHH 131300Z 36010KT 310V060 9999 FEW030 SCT050 28/20 Q1011 NOSIG
0,[Mostly Cloudy],1996-10-13,[20.0 °C],[],[-],[29.7 °C],[62%],[N/A],[1011 hPa],[28.0 °C],[10:00 PM],[10.0 km],[NNE],"[14.8 km/h
		/ 4.1 m/s]",METAR VHHH 131400Z 02008KT 320V070 9999 FEW030 BKN050 28/20 Q1011 WS LDG RWY 13/31 NOSIG
0,[Scattered Clouds],1996-10-13,[20.0 °C],[],[-],[29.7 °C],[62%],[N/A],[1011 hPa],[28.0 °C],[11:00 PM],[10.0 km],[NNE],"[18.5 km/h
		/ 5.1 m/s]",METAR VHHH 131500Z 03010KT 330V070 9999 FEW030 SCT050 28/20 Q1011 WS LDG RWY 13/31 NOSIG
0,[Scattered Clouds],1996-10-14,[20.0 °C],[],[-],[28.5 °C],[65%],[N/A],[1010 hPa],[27.0 °C],[12:00 AM],[10.0 km],[NNE],"[18.5 km/h
		/ 5.1 m/s]",METAR VHHH 131600Z 02010KT 310V080 9999 FEW030 SCT100 27/20 Q1010 WS LDG RWY 13/31 NOSIG
0,[Scattered Clouds],1996-10-14,[20.0 °C],[],[-],[28.5 °C],[65%],[N/A],[1010 hPa],[27.0 °C],[1:00 AM],[10.0 km],[North],"[18.5 km/h
		/ 5.1 m/s]",METAR VHHH 131700Z 36010KT 220V080 9999 FEW030 SCT100 27/20 Q1010 WS LDG RWY 13/31 NOSIG
0,[Mostly Cloudy],1996-10-14,[20.0 °C],[],[-],[-],[69%],[N/A],[1010 hPa],[26.0 °C],[2:00 AM],[10.0 km],[NNE],"[11.1 km/h
		/ 3.1 m/s]",METAR VHHH 131800Z 03006KT 320V090 9999 FEW030 BKN100 26/20 Q1010 WS LDG RWY 13/31 NOSIG
0,[Scattered Clouds],1996-10-14,[20.0 °C],[],[-],[-],[69%],[N/A],[1010 hPa],[26.0 °C],[3:00 AM],[10.0 km],[NNE],"[14.8 km/h
		/ 4.1 m/s]",METAR VHHH 131900Z 02008KT 330V070 9999 FEW030 SCT100 26/20 Q1010 WS LDG RWY 13/31 NOSIG
0,[Scattered Clouds],1996-10-14,[19.0 °C],[],[-],[-],[65%],[N/A],[1009 hPa],[26.0 °C],[4:00 AM],[10.0 km],[North],[-],METAR VHHH 132000Z ///// 9999 FEW030 SCT100 26/19 Q1009 WS LDG RWY 13/31 NOSIG
0,[Scattered Clouds],1996-10-14,[19.0 °C],[],[-],[-],[65%],[N/A],[1008 hPa],[26.0 °C],[5:00 AM],[10.0 km],[North],"[13.0 km/h
		/ 3.6 m/s]",METAR VHHH 132100Z 01007KT 290V060 9999 FEW030 SCT100 26/19 Q1008 WS LDG RWY 13/31 NOSIG
0,[Scattered Clouds],1996-10-14,[19.0 °C],[],[-],[-],[65%],[N/A],[1009 hPa],[26.0 °C],[6:00 AM],[10.0 km],[North],"[20.4 km/h
		/ 5.7 m/s]",METAR VHHH 132200Z 01011KT 290V080 9999 FEW030 SCT300 26/19 Q1009 WS LDG RWY 13/31 NOSIG
0,[Mostly Cloudy],1996-10-14,[19.0 °C],[],[-],[-],[65%],[N/A],[1009 hPa],[26.0 °C],[7:00 AM],[10.0 km],[NNE],"[20.4 km/h
		/ 5.7 m/s]",METAR VHHH 132300Z 02011KT 300V070 9999 FEW030 SCT045 BKN080 26/19 Q1009 WS LDG RWY 13/31 NOSIG
0,[Mostly Cloudy],1996-10-14,[19.0 °C],[],[-],[28.2 °C],[61%],[N/A],[1010 hPa],[27.0 °C],[8:00 AM],[10.0 km],[NNE],"[14.8 km/h
		/ 4.1 m/s]",METAR VHHH 140000Z 03008KT 310V080 9999 SCT040 BKN120 27/19 Q1010 WS LDG RWY 13/31 NOSIG
0,[Scattered Clouds],1996-10-14,[19.0 °C],[],[-],[28.2 °C],[61%],[N/A],[1010 hPa],[27.0 °C],[9:00 AM],[10.0 km],[North],"[22.2 km/h
		/ 6.2 m/s]",METAR VHHH 140100Z 01012KT 330V080 9999 SCT035 SCT050 27/19 Q1010 WS LDG RWY 13/31 NOSIG
0,[Mostly Cloudy],1996-10-14,[20.0 °C],[],"[38.9 km/h
		/ 10.8 m/s]",[30.7 °C],[58%],[N/A],[1011 hPa],[29.0 °C],[11:00 AM],[10.0 km],[NE],"[18.5 km/h
		/ 5.1 m/s]",METAR VHHH 140300Z 05010G21KT 290V120 9999 FEW025 SCT040 BKN300 29/20 Q1011 WS LDG RWY 13/31 NOSIG
0,[Mostly Cloudy],1996-10-14,[20.0 °C],[],"[35.2 km/h
		/ 9.8 m/s]",[31.9 °C],[55%],[N/A],[1010 hPa],[30.0 °C],[12:00 PM],[10.0 km],[NE],"[16.7 km/h
		/ 4.6 m/s]",METAR VHHH 140400Z 04009G19KT 340V120 9999 SCT030 BKN120 30/20 Q1010 WS LDG RWY 13/31 NOSIG
0,[Mostly Cloudy],1996-10-14,[20.0 °C],[],[-],[31.9 °C],[55%],[N/A],[1009 hPa],[30.0 °C],[1:00 PM],[10.0 km],[NE],"[16.7 km/h
		/ 4.6 m/s]",METAR VHHH 140500Z 05009KT 330V120 9999 FEW025 SCT040 BKN120 30/20 Q1009 WS LDG RWY 13/31 NOSIG
0,[Mostly Cloudy],1996-10-14,[22.0 °C],[],[-],[32.0 °C],[66%],[N/A],[1008 hPa],[29.0 °C],[2:00 PM],[10.0 km],[ENE],"[16.7 km/h
		/ 4.6 m/s]",METAR VHHH 140600Z 07009KT 290V120 9999 SCT030 BKN100 29/22 Q1008 WS LDG RWY 13/31 NOSIG
0,[Mostly Cloudy],1996-10-14,[22.0 °C],[],[-],[32.0 °C],[66%],[N/A],[1008 hPa],[29.0 °C],[3:00 PM],[10.0 km],[East],"[16.7 km/h
		/ 4.6 m/s]",METAR VHHH 140700Z 10009KT 9999 FEW022 SCT030 BKN100 29/22 Q1008 WS LDG RWY 13/31 NOSIG
0,[Mostly Cloudy],1996-10-14,[23.0 °C],[],[-],[31.2 °C],[74%],[N/A],[1009 hPa],[28.0 °C],[4:00 PM],[9.0 km],[ESE],"[18.5 km/h
		/ 5.1 m/s]",METAR VHHH 140800Z 11010KT 050V140 9000 FEW016 SCT030 BKN100 28/23 Q1009 WS LDG RWY 13/31 TEMPO 5000 -SHRA
0,[Mostly Cloudy],1996-10-14,[23.0 °C],[],[-],[29.6 °C],[79%],[N/A],[1010 hPa],[27.0 °C],[5:00 PM],[10.0 km],[East],"[13.0 km/h
		/ 3.6 m/s]",METAR VHHH 140900Z 08007KT 020V120 9999 FEW016 SCT025 BKN100 27/23 Q1010 WS LDG RWY 13/31 TEMPO 5000 -SHRA
0,[Mostly Cloudy],1996-10-14,[23.0 °C],[],[-],[29.6 °C],[79%],[N/A],[1010 hPa],[27.0 °C],[6:00 PM],[10.0 km],[ENE],"[11.1 km/h
		/ 3.1 m/s]",METAR VHHH 141000Z 06006KT 350V180 9999 FEW015 SCT022 BKN100 27/23 Q1010 WS LDG RWY 13/31 TEMPO 5000 -SHRA
0,[Mostly Cloudy],1996-10-14,[23.0 °C],[],[-],[29.6 °C],[79%],[N/A],[1010 hPa],[27.0 °C],[7:00 PM],[10.0 km],[ENE],"[13.0 km/h
		/ 3.6 m/s]",METAR VHHH 141100Z 06007KT 360V100 9999 FEW015 SCT022 BKN100 27/23 Q1010 TEMPO 5000 -SHRA
0,[Mostly Cloudy],1996-10-14,[23.0 °C],[],[-],[29.6 °C],[79%],[N/A],[1011 hPa],[27.0 °C],[8:00 PM],[10.0 km],[East],"[13.0 km/h
		/ 3.6 m/s]",METAR VHHH 141200Z 08007KT 050V120 9999 FEW015 SCT025 BKN100 27/23 Q1011 NOSIG
0,[Mostly Cloudy],1996-10-14,[23.0 °C],[],[-],[29.6 °C],[79%],[N/A],[1011 hPa],[27.0 °C],[9:00 PM],[10.0 km],[ENE],"[13.0 km/h
		/ 3.6 m/s]",METAR VHHH 141300Z 06007KT 020V110 9999 FEW015 SCT025 BKN100 27/23 Q1011 NOSIG
0,[Mostly Cloudy],1996-10-14,[23.0 °C],[],[-],[29.6 °C],[79%],[N/A],[1011 hPa],[27.0 °C],[11:00 PM],[10.0 km],[East],"[5.6 km/h
		/ 1.5 m/s]",METAR VHHH 141500Z 08003KT 360V120 9999 FEW015 SCT025 BKN100 27/23 Q1011 TEMPO 5000 -SHRA
0,[Mostly Cloudy],1996-10-15,[21.0 °C],[],[-],[28.9 °C],[70%],[N/A],[1011 hPa],[27.0 °C],[1:00 AM],[10.0 km],[NNE],"[7.4 km/h
		/ 2.1 m/s]",METAR VHHH 141700Z 02004KT 340V060 9999 FEW015 SCT025 BKN080 27/21 Q1011 TEMPO 5000 -SHRA
0,[Mostly Cloudy],1996-10-15,[20.0 °C],[],[-],[-],[69%],[N/A],[1010 hPa],[26.0 °C],[2:00 AM],[10.0 km],[ENE],"[5.6 km/h
		/ 1.5 m/s]",METAR VHHH 141800Z 07003KT 9999 FEW018 SCT030 BKN100 26/20 Q1010 TEMPO 5000 -SHRA
0,[Mostly Cloudy],1996-10-15,[18.0 °C],[],[-],[-],[61%],[N/A],[1010 hPa],[26.0 °C],[3:00 AM],[10.0 km],[NE],"[11.1 km/h
		/ 3.1 m/s]",METAR VHHH 141900Z 05006KT 360V120 9999 FEW018 SCT030 BKN100 26/18 Q1010 TEMPO 5000 -SHRA
0,[Light Rain Showers],1996-10-15,[18.0 °C],[Rain],[-],[-],[61%],[N/A],[1010 hPa],[26.0 °C],[5:00 AM],[10.0 km],[East],"[7.4 km/h
		/ 2.1 m/s]",METAR VHHH 142100Z 09004KT 340V160 9999 -SHRA FEW018 SCT035 BKN100 26/18 Q1010 TEMPO 5000 -SHRA
0,[Scattered Clouds],1996-10-15,[17.0 °C],[],[-],[28.5 °C],[51%],[N/A],[1013 hPa],[28.0 °C],[10:00 AM],[10.0 km],[ENE],"[11.1 km/h
		/ 3.1 m/s]",METAR VHHH 150200Z 06006KT 340V120 9999 FEW030 SCT100 28/17 Q1013 NOSIG
0,[Scattered Clouds],1996-10-15,[20.0 °C],[],[-],[31.9 °C],[55%],[N/A],[1012 hPa],[30.0 °C],[12:00 PM],[10.0 km],[East],"[18.5 km/h
		/ 5.1 m/s]",METAR VHHH 150400Z 08010KT 020V140 9999 FEW030 SCT100 30/20 Q1012 NOSIG
0,[Mostly Cloudy],1996-10-15,[20.0 °C],[],[-],[31.9 °C],[55%],[N/A],[1010 hPa],[30.0 °C],[2:00 PM],[10.0 km],[East],"[20.4 km/h
		/ 5.7 m/s]",METAR VHHH 150600Z 10011KT 060V110 9999 FEW030 BKN100 30/20 Q1010 NOSIG
0,[Scattered Clouds],1996-10-15,[20.0 °C],[],[-],[29.7 °C],[62%],[N/A],[1010 hPa],[28.0 °C],[4:00 PM],[10.0 km],[East],"[18.5 km/h
		/ 5.1 m/s]",METAR VHHH 150800Z 09010KT 050V130 9999 FEW030 SCT100 28/20 Q1010 NOSIG
0,[Scattered Clouds],1996-10-15,[21.0 °C],[],[-],[30.2 °C],[66%],[N/A],[1010 hPa],[28.0 °C],[5:00 PM],[10.0 km],[East],"[18.5 km/h
		/ 5.1 m/s]",METAR VHHH 150900Z 09010KT 050V120 9999 FEW030 SCT100 28/21 Q1010 NOSIG
0,[Scattered Clouds],1996-10-15,[22.0 °C],[],[-],[29.2 °C],[74%],[N/A],[1011 hPa],[27.0 °C],[6:00 PM],[9.0 km],[East],"[14.8 km/h
		/ 4.1 m/s]",METAR VHHH 151000Z 08008KT 060V140 9000 FEW025 SCT100 27/22 Q1011 NOSIG
0,[Light Rain Showers],1996-10-15,[22.0 °C],[Rain],[-],[29.2 °C],[74%],[N/A],[1012 hPa],[27.0 °C],[8:00 PM],[9.0 km],[East],"[13.0 km/h
		/ 3.6 m/s]",METAR VHHH 151200Z 08007KT 020V140 9000 -SHRA FEW015 SCT030 BKN100 27/22 Q1012 NOSIG
0,[Mostly Cloudy],1996-10-15,[22.0 °C],[],[-],[-],[78%],[N/A],[1012 hPa],[26.0 °C],[11:00 PM],[7.0 km],[East],"[25.9 km/h
		/ 7.2 m/s]",METAR VHHH 151500Z 09014KT 060V120 7000 FEW014 SCT020 BKN080 26/22 Q1012 WS LDG RWY 31 TEMPO 4000 -SHRA
0,[Mostly Cloudy],1996-10-16,[21.0 °C],[],[-],[-],[78%],[N/A],[1012 hPa],[25.0 °C],[3:00 AM],[9.0 km],[East],"[16.7 km/h
		/ 4.6 m/s]",METAR VHHH 151900Z 08009KT 360V110 9000 FEW015 SCT022 BKN080 25/21 Q1012 WS LDG RWY 13/31 TEMPO 4000 -RA
0,[Mostly Cloudy],1996-10-16,[20.0 °C],[],[-],[-],[74%],[N/A],[1012 hPa],[25.0 °C],[4:00 AM],[9.0 km],[East],"[20.4 km/h
		/ 5.7 m/s]",METAR VHHH 152000Z 09011KT 290V130 9000 FEW015 SCT022 BKN080 25/20 Q1012 WS LDG RWY 13/31 TEMPO 4000 -RA
0,[Mostly Cloudy],1996-10-16,[16.0 °C],[],[-],[-],[57%],[N/A],[1014 hPa],[25.0 °C],[7:00 AM],[9.0 km],[East],"[22.2 km/h
		/ 6.2 m/s]",METAR VHHH 152300Z 08012KT 030V120 9000 FEW025 BKN080 25/16 Q1014 WS LDG RWY 13/31 NOSIG
0,[Partly Cloudy],1996-10-16,[16.0 °C],[],[-],[-],[54%],[N/A],[1015 hPa],[26.0 °C],[8:00 AM],[10.0 km],[ENE],"[11.1 km/h
		/ 3.1 m/s]",METAR VHHH 160000Z 07006KT 340V150 9999 FEW025 26/16 Q1015 WS LDG RWY 13/31 NOSIG
0,[Mostly Cloudy],1996-10-16,[16.0 °C],[],[-],[-],[54%],[N/A],[1015 hPa],[26.0 °C],[9:00 AM],[9.0 km],[East],"[24.1 km/h
		/ 6.7 m/s]",METAR VHHH 160100Z 09013KT 040V140 9000 FEW013 SCT100 BKN300 26/16 Q1015 NOSIG
0,[Scattered Clouds],1996-10-16,[17.0 °C],[],[-],[27.7 °C],[54%],[N/A],[1015 hPa],[27.0 °C],[10:00 AM],[10.0 km],[East],"[22.2 km/h
		/ 6.2 m/s]",METAR VHHH 160200Z 09012KT 050V160 9999 FEW035 SCT080 27/17 Q1015 NOSIG
0,[Scattered Clouds],1996-10-16,[16.0 °C],[],[-],[27.5 °C],[51%],[N/A],[1015 hPa],[27.0 °C],[11:00 AM],[10.0 km],[East],"[22.2 km/h
		/ 6.2 m/s]",METAR VHHH 160300Z 09012KT 040V130 9999 FEW030 SCT080 27/16 Q1015 NOSIG
0,[Scattered Clouds],1996-10-16,[15.0 °C],[],[-],[28.0 °C],[45%],[N/A],[1014 hPa],[28.0 °C],[12:00 PM],[10.0 km],[East],"[29.6 km/h
		/ 8.2 m/s]",METAR VHHH 160400Z 10016KT 060V150 9999 FEW030 SCT080 28/15 Q1014 NOSIG
0,[Scattered Clouds],1996-10-16,[14.0 °C],[],[-],[27.8 °C],[42%],[N/A],[1014 hPa],[28.0 °C],[1:00 PM],[10.0 km],[East],"[27.8 km/h
		/ 7.7 m/s]",METAR VHHH 160500Z 09015KT 050V140 9999 FEW035 SCT080 28/14 Q1014 NOSIG
0,[Mostly Cloudy],1996-10-16,[16.0 °C],[],"[48.2 km/h
		/ 13.4 m/s]",[28.3 °C],[48%],[N/A],[1013 hPa],[28.0 °C],[2:00 PM],[10.0 km],[East],"[25.9 km/h
		/ 7.2 m/s]",METAR VHHH 160600Z 10014G26KT 030V140 9999 FEW035 BKN100 28/16 Q1013 NOSIG
0,[Mostly Cloudy],1996-10-16,[16.0 °C],[],[-],[28.3 °C],[48%],[N/A],[1013 hPa],[28.0 °C],[3:00 PM],[10.0 km],[East],"[29.6 km/h
		/ 8.2 m/s]",METAR VHHH 160700Z 09016KT 050V140 9999 FEW035 BKN100 28/16 Q1013 WS LDG RWY 13/31 NOSIG
0,[Scattered Clouds],1996-10-16,[18.0 °C],[],[-],[27.9 °C],[58%],[N/A],[1013 hPa],[27.0 °C],[4:00 PM],[10.0 km],[East],"[24.1 km/h
		/ 6.7 m/s]",METAR VHHH 160800Z 09013KT 020V130 9999 FEW035 SCT100 27/18 Q1013 WS LDG RWY 13/31 NOSIG
0,[Scattered Clouds],1996-10-16,[19.0 °C],[],"[44.4 km/h
		/ 12.3 m/s]",[28.2 °C],[61%],[N/A],[1013 hPa],[27.0 °C],[5:00 PM],[9.0 km],[East],"[25.9 km/h
		/ 7.2 m/s]",METAR VHHH 160900Z 09014G24KT 050V140 9000 FEW035 SCT100 27/19 Q1013 WS LDG RWY 13/31 NOSIG
0,[Partly Cloudy],1996-10-16,[19.0 °C],[],"[51.9 km/h
		/ 14.4 m/s]",[28.2 °C],[61%],[N/A],[1013 hPa],[27.0 °C],[6:00 PM],[7.0 km],[East],"[31.5 km/h
		/ 8.7 m/s]",METAR VHHH 161000Z 09017G28KT 050V130 7000 FEW025 27/19 Q1013 WS LDG RWY 13/31 NOSIG
0,[Partly Cloudy],1996-10-16,[20.0 °C],[],"[48.2 km/h
		/ 13.4 m/s]",[28.5 °C],[65%],[N/A],[1013 hPa],[27.0 °C],[7:00 PM],[8.0 km],[East],"[29.6 km/h
		/ 8.2 m/s]",METAR VHHH 161100Z 09016G26KT 040V130 8000 FEW025 27/20 Q1013 WS LDG RWY 13/31 NOSIG
0,[Mostly Cloudy],1996-10-16,[20.0 °C],[],[-],[-],[69%],[N/A],[1014 hPa],[26.0 °C],[8:00 PM],[10.0 km],[East],"[29.6 km/h
		/ 8.2 m/s]",METAR VHHH 161200Z 08016KT 040V130 9999 SCT025 BKN080 26/20 Q1014 WS LDG RWY 13/31 NOSIG
0,[Mostly Cloudy],1996-10-16,[20.0 °C],[],"[48.2 km/h
		/ 13.4 m/s]",[-],[69%],[N/A],[1015 hPa],[26.0 °C],[9:00 PM],[10.0 km],[East],"[29.6 km/h
		/ 8.2 m/s]",METAR VHHH 161300Z 09016G26KT 030V120 9999 SCT025 BKN080 26/20 Q1015 WS LDG RWY 13/31 NOSIG
0,[Mostly Cloudy],1996-10-16,[18.0 °C],[],[-],[-],[61%],[N/A],[1015 hPa],[26.0 °C],[10:00 PM],[10.0 km],[East],"[22.2 km/h
		/ 6.2 m/s]",METAR VHHH 161400Z 09012KT 040V140 9999 SCT025 BKN080 26/18 Q1015 WS LDG RWY 13/31 NOSIG
0,[Mostly Cloudy],1996-10-16,[18.0 °C],[],[-],[-],[61%],[N/A],[1015 hPa],[26.0 °C],[11:00 PM],[10.0 km],[East],"[25.9 km/h
		/ 7.2 m/s]",METAR VHHH 161500Z 08014KT 020V120 9999 FEW025 BKN080 26/18 Q1015 WS LDG RWY 13/31 NOSIG
0,[Scattered Clouds],1996-10-17,[18.0 °C],[],"[44.4 km/h
		/ 12.3 m/s]",[-],[61%],[N/A],[1014 hPa],[26.0 °C],[12:00 AM],[10.0 km],[East],"[25.9 km/h
		/ 7.2 m/s]",METAR VHHH 161600Z 09014G24KT 050V130 9999 FEW025 SCT080 26/18 Q1014 WS LDG RWY 13/31 NOSIG
0,[Mostly Cloudy],1996-10-17,[19.0 °C],[],"[44.4 km/h
		/ 12.3 m/s]",[-],[65%],[N/A],[1014 hPa],[26.0 °C],[1:00 AM],[10.0 km],[East],"[25.9 km/h
		/ 7.2 m/s]",METAR VHHH 161700Z 09014G24KT 050V130 9999 FEW025 SCT030 BKN100 26/19 Q1014 WS LDG RWY 13/31 NOSIG
0,[Mostly Cloudy],1996-10-17,[20.0 °C],[],"[44.4 km/h
		/ 12.3 m/s]",[-],[69%],[N/A],[1014 hPa],[26.0 °C],[2:00 AM],[10.0 km],[East],"[25.9 km/h
		/ 7.2 m/s]",METAR VHHH 161800Z 10014G24KT 050V130 9999 FEW025 SCT030 BKN100 26/20 Q1014 WS LDG RWY 13/31 NOSIG
0,[Mostly Cloudy],1996-10-17,[20.0 °C],[],"[46.3 km/h
		/ 12.9 m/s]",[-],[69%],[N/A],[1014 hPa],[26.0 °C],[3:00 AM],[10.0 km],[East],"[25.9 km/h
		/ 7.2 m/s]",METAR VHHH 161900Z 08014G25KT 030V130 9999 SCT025 BKN080 26/20 Q1014 WS LDG RWY 13/31 NOSIG
0,[Mostly Cloudy],1996-10-17,[20.0 °C],[],"[42.6 km/h
		/ 11.8 m/s]",[-],[74%],[N/A],[1014 hPa],[25.0 °C],[4:00 AM],[10.0 km],[East],"[24.1 km/h
		/ 6.7 m/s]",METAR VHHH 162000Z 09013G23KT 050V140 9999 SCT025 BKN080 25/20 Q1014 WS LDG RWY 13/31 NOSIG
0,[Mostly Cloudy],1996-10-17,[20.0 °C],[],[-],[-],[74%],[N/A],[1014 hPa],[25.0 °C],[5:00 AM],[10.0 km],[East],"[14.8 km/h
		/ 4.1 m/s]",METAR VHHH 162100Z 08008KT 330V140 9999 SCT025 BKN080 25/20 Q1014 WS LDG RWY 13/31 NOSIG
0,[Mostly Cloudy],1996-10-17,[19.0 °C],[],[-],[-],[69%],[N/A],[1014 hPa],[25.0 °C],[6:00 AM],[10.0 km],[East],"[22.2 km/h
		/ 6.2 m/s]",METAR VHHH 162200Z 09012KT 040V140 9999 SCT025 BKN080 25/19 Q1014 WS LDG RWY 13/31 NOSIG
0,[Mostly Cloudy],1996-10-17,[18.0 °C],[],[-],[-],[65%],[N/A],[1015 hPa],[25.0 °C],[7:00 AM],[10.0 km],[East],"[16.7 km/h
		/ 4.6 m/s]",METAR VHHH 162300Z 09009KT 040V140 9999 SCT025 BKN080 25/18 Q1015 WS LDG RWY 13/31 NOSIG
0,[Mostly Cloudy],1996-10-17,[19.0 °C],[],[-],[-],[69%],[N/A],[1015 hPa],[25.0 °C],[8:00 AM],[10.0 km],[East],"[16.7 km/h
		/ 4.6 m/s]",METAR VHHH 170000Z 08009KT 030V140 9999 SCT030 BKN080 25/19 Q1015 WS LDG RWY 13/31 NOSIG
0,[Mostly Cloudy],1996-10-17,[18.0 °C],[],[-],[27.9 °C],[58%],[N/A],[1015 hPa],[27.0 °C],[9:00 AM],[10.0 km],[East],"[20.4 km/h
		/ 5.7 m/s]",METAR VHHH 170100Z 10011KT 050V130 9999 FEW040 BKN080 27/18 Q1015 WS LDG RWY 13/31 NOSIG
0,[Scattered Clouds],1996-10-17,[18.0 °C],[],[-],[28.8 °C],[54%],[N/A],[1016 hPa],[28.0 °C],[10:00 AM],[10.0 km],[North],[-],METAR VHHH 170200Z 08010T 260V150 9999 FEW040 SCT100 28/18 Q1016 NOSIG
0,[Partly Cloudy],1996-10-17,[18.0 °C],[],[-],[28.8 °C],[54%],[N/A],[1015 hPa],[28.0 °C],[11:00 AM],[10.0 km],[East],"[22.2 km/h
		/ 6.2 m/s]",METAR VHHH 170300Z 10012KT 9999 FEW040 28/18 Q1015 WS LDG RWY 13/31 NOSIG
0,[Partly Cloudy],1996-10-17,[18.0 °C],[],[-],[29.8 °C],[51%],[N/A],[1014 hPa],[29.0 °C],[12:00 PM],[10.0 km],[East],"[16.7 km/h
		/ 4.6 m/s]",METAR VHHH 170400Z 09009KT 050V140 9999 FEW040 29/18 Q1014 NOSIG
0,[Clear],1996-10-17,[19.0 °C],[],[-],[30.3 °C],[55%],[N/A],[1014 hPa],[29.0 °C],[1:00 PM],[-],[East],"[16.7 km/h
		/ 4.6 m/s]",METAR VHHH 170500Z 10009KT 030V150 CAVOK 29/19 Q1014 NOSIG
0,[Partly Cloudy],1996-10-17,[19.0 °C],[],[-],[30.3 °C],[55%],[N/A],[1013 hPa],[29.0 °C],[2:00 PM],[10.0 km],[SE],"[24.1 km/h
		/ 6.7 m/s]",METAR VHHH 170600Z 13013KT 090V150 9999 FEW025 29/19 Q1013 NOSIG
0,[Partly Cloudy],1996-10-17,[19.0 °C],[],[-],[30.3 °C],[55%],[N/A],[1012 hPa],[29.0 °C],[3:00 PM],[10.0 km],[SE],"[24.1 km/h
		/ 6.7 m/s]",METAR VHHH 170700Z 13013KT 100V180 9999 FEW025 29/19 Q1012 NOSIG
0,[Partly Cloudy],1996-10-17,[19.0 °C],[],[-],[29.2 °C],[58%],[N/A],[1012 hPa],[28.0 °C],[4:00 PM],[10.0 km],[SE],"[24.1 km/h
		/ 6.7 m/s]",METAR VHHH 170800Z 13013KT 9999 FEW025 28/19 Q1012 NOSIG
0,[Clear],1996-10-17,[19.0 °C],[],[-],[-],[65%],[N/A],[1012 hPa],[26.0 °C],[5:00 PM],[-],[SE],"[20.4 km/h
		/ 5.7 m/s]",METAR VHHH 170900Z 14011KT 090V160 CAVOK 26/19 Q1012 NOSIG
0,[Clear],1996-10-17,[19.0 °C],[],[-],[-],[65%],[N/A],[1013 hPa],[26.0 °C],[6:00 PM],[-],[ESE],"[14.8 km/h
		/ 4.1 m/s]",METAR VHHH 171000Z 12008KT 080V160 CAVOK 26/19 Q1013 NOSIG
0,[Clear],1996-10-17,[19.0 °C],[],[-],[-],[65%],[N/A],[1013 hPa],[26.0 °C],[7:00 PM],[-],[East],"[11.1 km/h
		/ 3.1 m/s]",METAR VHHH 171100Z 10006KT 050V140 CAVOK 26/19 Q1013 NOSIG
0,[Clear],1996-10-17,[20.0 °C],[],[-],[-],[69%],[N/A],[1014 hPa],[26.0 °C],[8:00 PM],[-],[ENE],"[9.3 km/h
		/ 2.6 m/s]",METAR VHHH 171200Z 06005KT 020V100 CAVOK 26/20 Q1014 NOSIG
0,[Clear],1996-10-17,[20.0 °C],[],[-],[-],[69%],[N/A],[1014 hPa],[26.0 °C],[9:00 PM],[-],[East],"[7.4 km/h
		/ 2.1 m/s]",METAR VHHH 171300Z 08004KT 340V120 CAVOK 26/20 Q1014 NOSIG
0,[Clear],1996-10-17,[20.0 °C],[],[-],[-],[69%],[N/A],[1015 hPa],[26.0 °C],[10:00 PM],[-],[East],"[9.3 km/h
		/ 2.6 m/s]",METAR VHHH 171400Z 08005KT CAVOK 26/20 Q1015 NOSIG
0,[Clear],1996-10-17,[20.0 °C],[],[-],[-],[69%],[N/A],[1015 hPa],[26.0 °C],[11:00 PM],[-],[East],"[7.4 km/h
		/ 2.1 m/s]",METAR VHHH 171500Z 08004KT 050V110 CAVOK 26/20 Q1015 NOSIG
0,[Clear],1996-10-18,[20.0 °C],[],[-],[-],[74%],[N/A],[1014 hPa],[25.0 °C],[12:00 AM],[-],[East],"[9.3 km/h
		/ 2.6 m/s]",METAR VHHH 171600Z 09005KT CAVOK 25/20 Q1014 NOSIG
0,[Clear],1996-10-18,[21.0 °C],[],[-],[-],[78%],[N/A],[1014 hPa],[25.0 °C],[1:00 AM],[-],[East],"[7.4 km/h
		/ 2.1 m/s]",METAR VHHH 171700Z 08004KT 040V100 CAVOK 25/21 Q1014 NOSIG
0,[Clear],1996-10-18,[21.0 °C],[],[-],[-],[78%],[N/A],[1013 hPa],[25.0 °C],[2:00 AM],[-],[East],"[7.4 km/h
		/ 2.1 m/s]",METAR VHHH 171800Z 09004KT 040V120 CAVOK 25/21 Q1013 NOSIG
0,[Clear],1996-10-18,[21.0 °C],[],[-],[-],[78%],[N/A],[1013 hPa],[25.0 °C],[3:00 AM],[-],[ESE],"[9.3 km/h
		/ 2.6 m/s]",METAR VHHH 171900Z 11005KT 080V150 CAVOK 25/21 Q1013 NOSIG
0,[Partly Cloudy],1996-10-18,[21.0 °C],[],[-],[-],[78%],[N/A],[1013 hPa],[25.0 °C],[4:00 AM],[10.0 km],[ESE],"[7.4 km/h
		/ 2.1 m/s]",METAR VHHH 172000Z 11004KT 040V140 9999 FEW030 25/21 Q1013 NOSIG
0,[Partly Cloudy],1996-10-18,[11.0 °C],[],[-],[-],[41%],[N/A],[1013 hPa],[25.0 °C],[5:00 AM],[10.0 km],[ENE],"[9.3 km/h
		/ 2.6 m/s]",METAR VHHH 172100Z 06005KT 030V100 9999 FEW019 25/11 Q1013 NOSIG
0,[Partly Cloudy],1996-10-18,[21.0 °C],[],[-],[-],[78%],[N/A],[1013 hPa],[25.0 °C],[6:00 AM],[10.0 km],[ENE],"[13.0 km/h
		/ 3.6 m/s]",METAR VHHH 172200Z 07007KT 030V100 9999 FEW018 25/21 Q1013 NOSIG
0,[Scattered Clouds],1996-10-18,[21.0 °C],[],[-],[-],[78%],[N/A],[1014 hPa],[25.0 °C],[7:00 AM],[10.0 km],[NNE],"[7.4 km/h
		/ 2.1 m/s]",METAR VHHH 172300Z 02004KT 360V060 9999 SCT016 25/21 Q1014 NOSIG
0,[Partly Cloudy],1996-10-18,[21.0 °C],[],[-],[-],[74%],[N/A],[1014 hPa],[26.0 °C],[8:00 AM],[8.0 km],[ENE],"[7.4 km/h
		/ 2.1 m/s]",METAR VHHH 180000Z 06004KT 310V120 8000 FEW018 26/21 Q1014 NOSIG
0,[Partly Cloudy],1996-10-18,[21.0 °C],[],[-],[28.9 °C],[70%],[N/A],[1014 hPa],[27.0 °C],[9:00 AM],[8.0 km],[East],"[9.3 km/h
		/ 2.6 m/s]",METAR VHHH 180100Z 10005KT 030V150 8000 FEW017 27/21 Q1014 NOSIG
0,[Scattered Clouds],1996-10-18,[21.0 °C],[],[-],[30.2 °C],[66%],[N/A],[1014 hPa],[28.0 °C],[10:00 AM],[8.0 km],[ESE],"[11.1 km/h
		/ 3.1 m/s]",METAR VHHH 180200Z 11006KT 050V160 8000 FEW017 SCT025 28/21 Q1014 NOSIG
0,[Scattered Clouds],1996-10-18,[22.0 °C],[],[-],[32.0 °C],[66%],[N/A],[1014 hPa],[29.0 °C],[11:00 AM],[8.0 km],[SE],"[16.7 km/h
		/ 4.6 m/s]",METAR VHHH 180300Z 13009KT 080V200 8000 FEW018 SCT025 29/22 Q1014 NOSIG
0,[Scattered Clouds],1996-10-18,[22.0 °C],[],[-],[30.7 °C],[70%],[N/A],[1013 hPa],[28.0 °C],[12:00 PM],[8.0 km],[SE],"[24.1 km/h
		/ 6.7 m/s]",METAR VHHH 180400Z 13013KT 8000 FEW018 SCT025 28/22 Q1013 NOSIG
0,[Partly Cloudy],1996-10-18,[22.0 °C],[],[-],[33.2 °C],[62%],[N/A],[1012 hPa],[30.0 °C],[1:00 PM],[8.0 km],[SSE],"[27.8 km/h
		/ 7.7 m/s]",METAR VHHH 180500Z 15015KT 120V180 8000 FEW020 30/22 Q1012 NOSIG
0,[Partly Cloudy],1996-10-18,[22.0 °C],[],[-],[32.0 °C],[66%],[N/A],[1011 hPa],[29.0 °C],[2:00 PM],[8.0 km],[SE],"[25.9 km/h
		/ 7.2 m/s]",METAR VHHH 180600Z 14014KT 8000 FEW025 29/22 Q1011 NOSIG
0,[Partly Cloudy],1996-10-18,[22.0 °C],[],[-],[32.0 °C],[66%],[N/A],[1011 hPa],[29.0 °C],[3:00 PM],[8.0 km],[SE],"[27.8 km/h
		/ 7.7 m/s]",METAR VHHH 180700Z 14015KT 8000 FEW025 29/22 Q1011 NOSIG
0,[Partly Cloudy],1996-10-18,[22.0 °C],[],[-],[32.0 °C],[66%],[N/A],[1011 hPa],[29.0 °C],[4:00 PM],[8.0 km],[SE],"[16.7 km/h
		/ 4.6 m/s]",METAR VHHH 180800Z 14009KT 8000 FEW025 29/22 Q1011 NOSIG
0,[Partly Cloudy],1996-10-18,[22.0 °C],[],[-],[29.2 °C],[74%],[N/A],[1012 hPa],[27.0 °C],[6:00 PM],[8.0 km],[ESE],"[18.5 km/h
		/ 5.1 m/s]",METAR VHHH 181000Z 12010KT 8000 FEW030 27/22 Q1012 NOSIG
0,[Partly Cloudy],1996-10-18,[22.0 °C],[],[-],[-],[78%],[N/A],[1012 hPa],[26.0 °C],[7:00 PM],[8.0 km],[ESE],"[16.7 km/h
		/ 4.6 m/s]",METAR VHHH 181100Z 11009KT 8000 FEW030 26/22 Q1012 NOSIG
0,[Partly Cloudy],1996-10-18,[22.0 °C],[],[-],[29.2 °C],[74%],[N/A],[1013 hPa],[27.0 °C],[10:00 PM],[8.0 km],[ESE],"[9.3 km/h
		/ 2.6 m/s]",METAR VHHH 181400Z 11005KT 8000 FEW030 27/22 Q1013 NOSIG
0,[Partly Cloudy],1996-10-18,[22.0 °C],[],[-],[-],[78%],[N/A],[1013 hPa],[26.0 °C],[11:00 PM],[8.0 km],[East],"[9.3 km/h
		/ 2.6 m/s]",METAR VHHH 181500Z 08005KT 8000 FEW030 26/22 Q1013 NOSIG
0,[Partly Cloudy],1996-10-19,[22.0 °C],[],[-],[-],[78%],[N/A],[1013 hPa],[26.0 °C],[12:00 AM],[8.0 km],[ENE],"[9.3 km/h
		/ 2.6 m/s]",METAR VHHH 181600Z 06005KT 360V090 8000 FEW030 26/22 Q1013 NOSIG
0,[Partly Cloudy],1996-10-19,[21.0 °C],[],[-],[-],[74%],[N/A],[1013 hPa],[26.0 °C],[1:00 AM],[8.0 km],[East],"[13.0 km/h
		/ 3.6 m/s]",METAR VHHH 181700Z 09007KT 050V130 8000 FEW030 26/21 Q1013 NOSIG
0,[Partly Cloudy],1996-10-19,[22.0 °C],[],[-],[-],[78%],[N/A],[1012 hPa],[26.0 °C],[2:00 AM],[8.0 km],[North],"[9.3 km/h
		/ 2.6 m/s]",METAR VHHH 181800Z 01005KT 330V050 8000 FEW030 26/22 Q1012 NOSIG
0,[Partly Cloudy],1996-10-19,[21.0 °C],[],[-],[-],[78%],[N/A],[1012 hPa],[25.0 °C],[3:00 AM],[8.0 km],[NNE],"[9.3 km/h
		/ 2.6 m/s]",METAR VHHH 181900Z 03005KT 340V060 8000 FEW020 25/21 Q1012 NOSIG
0,[Partly Cloudy],1996-10-19,[20.0 °C],[],[-],[-],[74%],[N/A],[1012 hPa],[25.0 °C],[4:00 AM],[8.0 km],[NE],"[13.0 km/h
		/ 3.6 m/s]",METAR VHHH 182000Z 04007KT 350V100 8000 FEW020 25/20 Q1012 NOSIG
0,[Partly Cloudy],1996-10-19,[20.0 °C],[],[-],[-],[74%],[N/A],[1013 hPa],[25.0 °C],[5:00 AM],[8.0 km],[NNE],"[13.0 km/h
		/ 3.6 m/s]",METAR VHHH 182100Z 03007KT 330V090 8000 FEW020 25/20 Q1013 NOSIG
0,[Scattered Clouds],1996-10-19,[20.0 °C],[],[-],[-],[74%],[N/A],[1013 hPa],[25.0 °C],[6:00 AM],[8.0 km],[NNE],"[9.3 km/h
		/ 2.6 m/s]",METAR VHHH 182200Z 03005KT 300V120 8000 FEW020 SCT035 25/20 Q1013 NOSIG
0,[Partly Cloudy],1996-10-19,[19.0 °C],[],[-],[-],[69%],[N/A],[1014 hPa],[25.0 °C],[7:00 AM],[7.0 km],[NNE],"[9.3 km/h
		/ 2.6 m/s]",METAR VHHH 182300Z 03005KT 300V090 7000 FEW025 25/19 Q1014 NOSIG
0,[Partly Cloudy],1996-10-19,[19.0 °C],[],[-],[-],[65%],[N/A],[1014 hPa],[26.0 °C],[8:00 AM],[6.0 km],[North],"[11.1 km/h
		/ 3.1 m/s]",METAR VHHH 190000Z 35006KT 330V030 6000 FEW025 26/19 Q1014 NOSIG
0,[Partly Cloudy],1996-10-19,[19.0 °C],[],[-],[28.2 °C],[61%],[N/A],[1014 hPa],[27.0 °C],[9:00 AM],[7.0 km],[East],"[14.8 km/h
		/ 4.1 m/s]",METAR VHHH 190100Z 08008KT 020V130 7000 FEW025 27/19 Q1014 NOSIG
0,[Scattered Clouds],1996-10-19,[18.0 °C],[],[-],[28.8 °C],[54%],[N/A],[1014 hPa],[28.0 °C],[10:00 AM],[8.0 km],[NE],"[14.8 km/h
		/ 4.1 m/s]",METAR VHHH 190200Z 05008KT 320V090 8000 FEW025 SCT300 28/18 Q1014 NOSIG
0,[Scattered Clouds],1996-10-19,[19.0 °C],[],[-],[30.3 °C],[55%],[N/A],[1014 hPa],[29.0 °C],[11:00 AM],[8.0 km],[ENE],"[9.3 km/h
		/ 2.6 m/s]",METAR VHHH 190300Z 06005KT 300V140 8000 FEW030 SCT080 29/19 Q1014 NOSIG
0,[Scattered Clouds],1996-10-19,[19.0 °C],[],[-],[29.2 °C],[58%],[N/A],[1014 hPa],[28.0 °C],[12:00 PM],[7.0 km],[NE],"[14.8 km/h
		/ 4.1 m/s]",METAR VHHH 190400Z 04008KT 340V110 7000 FEW030 SCT080 28/19 Q1014 NOSIG
0,[Scattered Clouds],1996-10-19,[19.0 °C],[],[-],[30.3 °C],[55%],[N/A],[1013 hPa],[29.0 °C],[1:00 PM],[8.0 km],[ENE],"[11.1 km/h
		/ 3.1 m/s]",METAR VHHH 190500Z 06006KT 040V110 8000 FEW030 SCT300 29/19 Q1013 NOSIG
0,[Scattered Clouds],1996-10-19,[19.0 °C],[],[-],[30.3 °C],[55%],[N/A],[1011 hPa],[29.0 °C],[2:00 PM],[9.0 km],[NE],"[3.7 km/h
		/ 1.0 m/s]",METAR VHHH 190600Z 04002KT 9000 FEW030 SCT300 29/19 Q1011 NOSIG
0,[Scattered Clouds],1996-10-19,[20.0 °C],[],[-],[30.7 °C],[58%],[N/A],[1011 hPa],[29.0 °C],[3:00 PM],[8.0 km],[SE],"[22.2 km/h
		/ 6.2 m/s]",METAR VHHH 190700Z 13012KT 8000 FEW030 SCT300 29/20 Q1011 NOSIG
0,[Scattered Clouds],1996-10-19,[20.0 °C],[],[-],[29.7 °C],[62%],[N/A],[1011 hPa],[28.0 °C],[4:00 PM],[8.0 km],[East],"[16.7 km/h
		/ 4.6 m/s]",METAR VHHH 190800Z 09009KT 8000 FEW030 SCT300 28/20 Q1011 NOSIG
0,[Scattered Clouds],1996-10-19,[21.0 °C],[],[-],[28.9 °C],[70%],[N/A],[1012 hPa],[27.0 °C],[5:00 PM],[7.0 km],[East],"[18.5 km/h
		/ 5.1 m/s]",METAR VHHH 190900Z 09010KT 7000 SCT030 SCT300 27/21 Q1012 NOSIG
0,[Scattered Clouds],1996-10-19,[21.0 °C],[],[-],[28.9 °C],[70%],[N/A],[1012 hPa],[27.0 °C],[6:00 PM],[7.0 km],[East],"[18.5 km/h
		/ 5.1 m/s]",METAR VHHH 191000Z 09010KT 7000 FEW030 SCT300 27/21 Q1012 NOSIG
0,[Scattered Clouds],1996-10-19,[21.0 °C],[],[-],[-],[74%],[N/A],[1012 hPa],[26.0 °C],[7:00 PM],[8.0 km],[East],"[13.0 km/h
		/ 3.6 m/s]",METAR VHHH 191100Z 09007KT 030V130 8000 FEW030 SCT300 26/21 Q1012 NOSIG
0,[Scattered Clouds],1996-10-19,[21.0 °C],[],[-],[-],[74%],[N/A],[1013 hPa],[26.0 °C],[8:00 PM],[8.0 km],[East],"[11.1 km/h
		/ 3.1 m/s]",METAR VHHH 191200Z 09006KT 010V140 8000 FEW025 SCT300 26/21 Q1013 NOSIG
0,[Mostly Cloudy],1996-10-19,[21.0 °C],[],[-],[28.9 °C],[70%],[N/A],[1014 hPa],[27.0 °C],[9:00 PM],[8.0 km],[East],"[20.4 km/h
		/ 5.7 m/s]",METAR VHHH 191300Z 10011KT 060V130 8000 FEW020 SCT030 BKN080 27/21 Q1014 NOSIG
0,[Mostly Cloudy],1996-10-19,[20.0 °C],[],[-],[28.5 °C],[65%],[N/A],[1014 hPa],[27.0 °C],[10:00 PM],[8.0 km],[East],"[25.9 km/h
		/ 7.2 m/s]",METAR VHHH 191400Z 10014KT 050V140 8000 FEW020 SCT030 BKN080 27/20 Q1014 NOSIG
0,[Mostly Cloudy],1996-10-19,[20.0 °C],[],[-],[-],[69%],[N/A],[1014 hPa],[26.0 °C],[11:00 PM],[8.0 km],[East],"[25.9 km/h
		/ 7.2 m/s]",METAR VHHH 191500Z 10014KT 040V130 8000 FEW020 SCT030 BKN080 26/20 Q1014 NOSIG
0,[Mostly Cloudy],1996-10-20,[20.0 °C],[],[-],,[69%],[N/A],[1014 hPa],[26.0 °C],[12:00 AM],[8.0 km],[East],"[24.1 km/h
		/ 6.7 m/s]",METAR VHHH 191600Z 10013KT 050V130 8000 FEW020 SCT030 BKN080 26/20 Q1014 NOSIG
0,[Mostly Cloudy],1996-10-20,[19.0 °C],[],[-],,[65%],[N/A],[1013 hPa],[26.0 °C],[1:00 AM],[8.0 km],[East],"[16.7 km/h
		/ 4.6 m/s]",METAR VHHH 191700Z 08009KT 020V130 8000 FEW020 SCT030 BKN080 26/19 Q1013 NOSIG
0,[Scattered Clouds],1996-10-20,[19.0 °C],[],[-],,[69%],[N/A],[1013 hPa],[25.0 °C],[2:00 AM],[8.0 km],[NE],"[9.3 km/h
		/ 2.6 m/s]",METAR VHHH 191800Z 05005KT 020V150 8000 FEW030 SCT080 25/19 Q1013 NOSIG
0,[Scattered Clouds],1996-10-20,[19.0 °C],[],[-],,[69%],[N/A],[1013 hPa],[25.0 °C],[3:00 AM],[8.0 km],[ENE],"[13.0 km/h
		/ 3.6 m/s]",METAR VHHH 191900Z 06007KT 320V120 8000 FEW030 SCT080 25/19 Q1013 NOSIG
0,[Scattered Clouds],1996-10-20,[18.0 °C],[],[-],,[65%],[N/A],[1012 hPa],[25.0 °C],[4:00 AM],[8.0 km],[ENE],"[14.8 km/h
		/ 4.1 m/s]",METAR VHHH 192000Z 07008KT 010V160 8000 FEW030 SCT080 25/18 Q1012 NOSIG
0,[Scattered Clouds],1996-10-20,[17.0 °C],[],[-],,[61%],[N/A],[1012 hPa],[25.0 °C],[5:00 AM],[8.0 km],[NNE],"[9.3 km/h
		/ 2.6 m/s]",METAR VHHH 192100Z 03005KT 320V120 8000 FEW030 SCT080 25/17 Q1012 NOSIG
0,[Scattered Clouds],1996-10-20,[17.0 °C],[],[-],,[61%],[N/A],[1013 hPa],[25.0 °C],[6:00 AM],[8.0 km],[NE],"[13.0 km/h
		/ 3.6 m/s]",METAR VHHH 192200Z 04007KT 330V090 8000 FEW030 SCT080 25/17 Q1013 NOSIG
0,[Scattered Clouds],1996-10-20,[18.0 °C],[],[-],,[69%],[N/A],[1014 hPa],[24.0 °C],[7:00 AM],[6.0 km],[NNE],"[5.6 km/h
		/ 1.5 m/s]",METAR VHHH 192300Z 03003KT 6000 FEW030 SCT080 24/18 Q1014 NOSIG
0,[Mostly Cloudy],1996-10-20,[19.0 °C],[],[-],,[69%],[N/A],[1014 hPa],[25.0 °C],[8:00 AM],[7.0 km],[ENE],"[11.1 km/h
		/ 3.1 m/s]",METAR VHHH 200000Z 06006KT 010V110 7000 FEW030 BKN080 25/19 Q1014 NOSIG
0,[Mostly Cloudy],1996-10-20,[17.0 °C],[],[-],,[57%],[N/A],[1015 hPa],[26.0 °C],[10:00 AM],[7.0 km],[NNE],"[13.0 km/h
		/ 3.6 m/s]",METAR VHHH 200200Z 02007KT 340V110 7000 FEW030 BKN080 26/17 Q1015 NOSIG
0,[Mostly Cloudy],1996-10-20,[16.0 °C],[],[-],,[54%],[N/A],[1015 hPa],[26.0 °C],[11:00 AM],[7.0 km],[NE],"[13.0 km/h
		/ 3.6 m/s]",METAR VHHH 200300Z 04007KT 360V120 7000 SCT035 BKN080 26/16 Q1015 TEMPO 5000 -RA
0,[Mostly Cloudy],1996-10-20,[16.0 °C],[],"[40.7 km/h
		/ 11.3 m/s]",,[57%],[N/A],[1014 hPa],[25.0 °C],[12:00 PM],[6.0 km],[East],"[13.0 km/h
		/ 3.6 m/s]",METAR VHHH 200400Z 08007G22KT 360V150 6000 SCT035 BKN080 25/16 Q1014 WS LDG RWY 13/31 TEMPO 5000 -RA
0,[Mostly Cloudy],1996-10-20,[17.0 °C],[],[-],,[61%],[N/A],[1013 hPa],[25.0 °C],[1:00 PM],[8.0 km],[ENE],"[9.3 km/h
		/ 2.6 m/s]",METAR VHHH 200500Z 07005KT 330V130 8000 SCT030 BKN080 25/17 Q1013 WS LDG RWY 13/31 TEMPO 5000 -RA
0,[Mostly Cloudy],1996-10-20,[17.0 °C],[],[-],,[65%],[N/A],[1012 hPa],[24.0 °C],[2:00 PM],[9.0 km],[NE],"[7.4 km/h
		/ 2.1 m/s]",METAR VHHH 200600Z 04004KT 310V170 9000 SCT030 BKN080 24/17 Q1012 WS LDG RWY 13/31 TEMPO 5000 -RA
0,[Light Rain],1996-10-20,[18.0 °C],[Rain],[-],,[69%],[N/A],[1012 hPa],[24.0 °C],[3:00 PM],[7.0 km],[ESE],"[11.1 km/h
		/ 3.1 m/s]",METAR VHHH 200700Z 12006KT 070V160 7000 -RA FEW020 SCT040 BKN090 24/18 Q1012 WS LDG RWY 13/31 TEMPO 5000 -RA
0,[Rain],1996-10-20,[19.0 °C],[Rain],[-],,[88%],[N/A],[1012 hPa],[21.0 °C],[4:00 PM],[4.5 km],[ENE],"[11.1 km/h
		/ 3.1 m/s]",METAR VHHH 200800Z 07006KT 350V130 4500 RA FEW014 SCT030 BKN090 21/19 Q1012 WS LDG RWY 13/31 TEMPO 5000 -RA
0,[Rain],1996-10-20,[19.0 °C],[Rain],[-],,[88%],[N/A],[1012 hPa],[21.0 °C],[5:00 PM],[-],[East],"[20.4 km/h
		/ 5.7 m/s]",METAR VHHH 200900Z 10011KT 050V160 4800SE RA FEW015 SCT030 BKN090 21/19 Q1012 WS LDG RWY 13/31 TEMPO 5000 -RA
0,[Mostly Cloudy],1996-10-20,[19.0 °C],[],[-],,[83%],[N/A],[1013 hPa],[22.0 °C],[7:00 PM],[9.0 km],[East],"[11.1 km/h
		/ 3.1 m/s]",METAR VHHH 201100Z 09006KT 010V170 9000 FEW014 SCT022 BKN090 22/19 Q1013 RERA WS LDG RWY 13/31 TEMPO 5000 -RA
0,[Rain],1996-10-20,[19.0 °C],[Rain],[-],,[83%],[N/A],[1014 hPa],[22.0 °C],[8:00 PM],[8.0 km],[East],"[20.4 km/h
		/ 5.7 m/s]",METAR VHHH 201200Z 09011KT 040V150 8000 RA FEW013 SCT025 BKN090 22/19 Q1014 WS LDG RWY 13/31 TEMPO 5000 -RA
0,[Light Rain],1996-10-20,[20.0 °C],[Rain],"[40.7 km/h
		/ 11.3 m/s]",,[88%],[N/A],[1015 hPa],[22.0 °C],[9:00 PM],[9.0 km],[East],"[22.2 km/h
		/ 6.2 m/s]",METAR VHHH 201300Z 09012G22KT 060V120 9000 -RA FEW012 SCT020 BKN090 22/20 Q1015 WS LDG RWY 13/31 TEMPO 5000 RA
0,[Light Rain],1996-10-20,[19.0 °C],[Rain],[-],,[83%],[N/A],[1014 hPa],[22.0 °C],[10:00 PM],[9.0 km],[East],"[18.5 km/h
		/ 5.1 m/s]",METAR VHHH 201400Z 09010KT 060V140 9000 -RA FEW013 SCT020 BKN090 22/19 Q1014 WS LDG RWY 13/31 TEMPO 5000 RA
0,[Mostly Cloudy],1996-10-20,[18.0 °C],[],[-],,[78%],[N/A],[1014 hPa],[22.0 °C],[11:00 PM],[10.0 km],[East],"[18.5 km/h
		/ 5.1 m/s]",METAR VHHH 201500Z 08010KT 340V130 9999 FEW013 SCT020 BKN090 22/18 Q1014 WS LDG RWY 13/31 TEWPO 5000 RA
0,[Light Rain],1996-10-21,[19.0 °C],[Rain],[-],[-],[83%],[N/A],[1013 hPa],[22.0 °C],[12:00 AM],[10.0 km],[East],"[20.4 km/h
		/ 5.7 m/s]",METAR VHHH 201600Z 09011KT 030V140 9999 -RA FEW013 SCT020 BKN090 22/19 Q1013 WS LDG RWY 13/31 TEMPO 5000 RA
0,[Mostly Cloudy],1996-10-21,[18.0 °C],[],[-],[-],[78%],[N/A],[1013 hPa],[22.0 °C],[1:00 AM],[10.0 km],[East],"[18.5 km/h
		/ 5.1 m/s]",METAR VHHH 201700Z 09010KT 050V120 9999 FEW015 SCT025 BKN090 22/18 Q1013 WS LDG RWY 13/31 TEMPO 5000 RA
0,[Light Rain],1996-10-21,[18.0 °C],[Rain],[-],[-],[78%],[N/A],[1012 hPa],[22.0 °C],[2:00 AM],[10.0 km],[East],"[20.4 km/h
		/ 5.7 m/s]",METAR VHHH 201800Z 09011KT 060V130 9999 -RA FEW015 SCT025 BKN090 22/18 Q1012 WS LDG RWY 13/31 TEMPO 5000 RA
0,[Mostly Cloudy],1996-10-21,[19.0 °C],[],[-],[-],[83%],[N/A],[1012 hPa],[22.0 °C],[3:00 AM],[10.0 km],[ENE],"[20.4 km/h
		/ 5.7 m/s]",METAR VHHH 201900Z 07011KT 360V120 9999 FEW015 SCT022 BKN090 22/19 Q1012 WS LDG RWY 13/31 TEMPO 5000 RA
0,[Mostly Cloudy],1996-10-21,[19.0 °C],[],"[38.9 km/h
		/ 10.8 m/s]",[-],[83%],[N/A],[1012 hPa],[22.0 °C],[4:00 AM],[10.0 km],[East],"[20.4 km/h
		/ 5.7 m/s]",METAR VHHH 202000Z 08011G21KT 030V120 9999 FEW015 SCT022 BKN090 22/19 Q1012 WS LDG RWY 13/31 TEMPO 5000 RA
0,[Mostly Cloudy],1996-10-21,[18.0 °C],[],[-],[-],[78%],[N/A],[1011 hPa],[22.0 °C],[5:00 AM],[10.0 km],[East],"[18.5 km/h
		/ 5.1 m/s]",METAR VHHH 202100Z 08010KT 040V130 9999 FEW015 SCT022 BKN090 22/18 Q1011 WS LDG RWY 13/31 TEMPO 5000 RA
0,[Mostly Cloudy],1996-10-21,[18.0 °C],[],[-],[-],[78%],[N/A],[1012 hPa],[22.0 °C],[6:00 AM],[10.0 km],[ENE],"[18.5 km/h
		/ 5.1 m/s]",METAR VHHH 202200Z 06010KT 040V110 9999 FEW016 SCT022 BKN090 22/18 Q1012 TEMPO 5000 -RA
0,[Mostly Cloudy],1996-10-21,[19.0 °C],[],[-],[-],[78%],[N/A],[1013 hPa],[23.0 °C],[7:00 AM],[10.0 km],[ENE],"[16.7 km/h
		/ 4.6 m/s]",METAR VHHH 202300Z 07009KT 020V100 9999 FEW015 SCT022 BKN090 23/19 Q1013 TEMPO 5000 -RA
0,[Mostly Cloudy],1996-10-21,[19.0 °C],[],[-],[-],[78%],[N/A],[1014 hPa],[23.0 °C],[8:00 AM],[10.0 km],[ENE],"[11.1 km/h
		/ 3.1 m/s]",METAR VHHH 210000Z 06006KT 360V120 9999 FEW016 SCT022 BKN090 23/19 Q1014 TEMPO 5000 -RA
0,[Mostly Cloudy],1996-10-21,[19.0 °C],[],[-],[-],[73%],[N/A],[1014 hPa],[24.0 °C],[9:00 AM],[10.0 km],[NE],"[9.3 km/h
		/ 2.6 m/s]",METAR VHHH 210100Z 04005KT 340V130 9999 FEW018 SCT022 BKN080 24/19 Q1014 NOSIG
0,[Mostly Cloudy],1996-10-21,[18.0 °C],[],[-],[-],[69%],[N/A],[1014 hPa],[24.0 °C],[10:00 AM],[10.0 km],[NE],"[14.8 km/h
		/ 4.1 m/s]",METAR VHHH 210200Z 05008KT 320V160 9999 SCT020 BKN080 24/18 Q1014 NOSIG
0,[Mostly Cloudy],1996-10-21,[19.0 °C],[],[-],[-],[69%],[N/A],[1014 hPa],[25.0 °C],[11:00 AM],[10.0 km],[ENE],"[14.8 km/h
		/ 4.1 m/s]",METAR VHHH 210300Z 07008KT 350V130 9999 FEW020 SCT035 BKN080 25/19 Q1014 NOSIG
0,[Mostly Cloudy],1996-10-21,[20.0 °C],[],[-],[-],[69%],[N/A],[1013 hPa],[26.0 °C],[12:00 PM],[10.0 km],[ENE],"[22.2 km/h
		/ 6.2 m/s]",METAR VHHH 210400Z 07012KT 010V100 9999 FEW020 SCT035 BKN080 26/20 Q1013 NOSIG
0,[Scattered Clouds],1996-10-21,[19.0 °C],[],"[44.4 km/h
		/ 12.3 m/s]",[28.2 °C],[61%],[N/A],[1012 hPa],[27.0 °C],[1:00 PM],[10.0 km],[East],"[20.4 km/h
		/ 5.7 m/s]",METAR VHHH 210500Z 08011G24KT 360V130 9999 SCT025 SCT100 27/19 Q1012 NOSIG
0,[Scattered Clouds],1996-10-21,[20.0 °C],[],[-],[28.5 °C],[65%],[N/A],[1011 hPa],[27.0 °C],[3:00 PM],[10.0 km],[NNE],"[9.3 km/h
		/ 2.6 m/s]",METAR VHHH 210700Z 03005KT 330V090 9999 FEW025 SCT040 27/20 Q1011 NOSIG
0,[Mostly Cloudy],1996-10-21,[20.0 °C],[],[-],[28.5 °C],[65%],[N/A],[1011 hPa],[27.0 °C],[4:00 PM],[10.0 km],[NNE],"[11.1 km/h
		/ 3.1 m/s]",METAR VHHH 210800Z 02006KT 310V060 9999 FEW025 BKN080 27/20 Q1011 NOSIG
0,[Mostly Cloudy],1996-10-21,[20.0 °C],[],[-],[28.5 °C],[65%],[N/A],[1011 hPa],[27.0 °C],[5:00 PM],[10.0 km],[ESE],"[13.0 km/h
		/ 3.6 m/s]",METAR VHHH 210900Z 11007KT 080V150 9999 FEW025 BKN080 27/20 Q1011 NOSIG
0,[Mostly Cloudy],1996-10-21,[20.0 °C],[],[-],[-],[69%],[N/A],[1012 hPa],[26.0 °C],[6:00 PM],[10.0 km],[East],"[13.0 km/h
		/ 3.6 m/s]",METAR VHHH 211000Z 08007KT 050V130 9999 FEW022 SCT035 BKN100 26/20 Q1012 NOSIG
0,[Mostly Cloudy],1996-10-21,[20.0 °C],[],[-],[-],[69%],[N/A],[1012 hPa],[26.0 °C],[7:00 PM],[10.0 km],[East],"[9.3 km/h
		/ 2.6 m/s]",METAR VHHH 211100Z 09005KT 030V140 9999 FEW020 SCT030 BKN100 26/20 Q1012 NOSIG
0,[Mostly Cloudy],1996-10-21,[20.0 °C],[],[-],[-],[74%],[N/A],[1013 hPa],[25.0 °C],[8:00 PM],[10.0 km],[East],"[16.7 km/h
		/ 4.6 m/s]",METAR VHHH 211200Z 08009KT 040V110 9999 FEW020 SCT030 BKN100 25/20 Q1013
0,[Mostly Cloudy],1996-10-21,[20.0 °C],[],[-],[-],[74%],[N/A],[1014 hPa],[25.0 °C],[9:00 PM],[10.0 km],[East],"[22.2 km/h
		/ 6.2 m/s]",METAR VHHH 211300Z 10012KT 050V120 9999 FEW020 SCT030 BKN100 25/20 Q1014 NOSIG
0,[Mostly Cloudy],1996-10-21,[20.0 °C],[],[-],[-],[74%],[N/A],[1014 hPa],[25.0 °C],[10:00 PM],[10.0 km],[East],"[25.9 km/h
		/ 7.2 m/s]",METAR VHHH 211400Z 10014KT 060V130 9999 FEW018 SCT025 BKN100 25/20 Q1014 NOSIG
0,[Mostly Cloudy],1996-10-21,[21.0 °C],[],[-],[-],[78%],[N/A],[1014 hPa],[25.0 °C],[11:00 PM],[10.0 km],[East],"[18.5 km/h
		/ 5.1 m/s]",METAR VHHH 211500Z 08010KT 030V130 9999 FEW018 SCT025 BKN100 25/21 Q1014 NOSIG
0,[Mostly Cloudy],1996-10-22,[21.0 °C],[],[-],[-],[78%],[N/A],[1013 hPa],[25.0 °C],[12:00 AM],[10.0 km],[East],"[20.4 km/h
		/ 5.7 m/s]",METAR VHHH 211600Z 08011KT 050V130 9999 FEW018 SCT025 BKN100 25/21 Q1013 NOSIG
0,[Mostly Cloudy],1996-10-22,[20.0 °C],[],[-],[-],[74%],[N/A],[1013 hPa],[25.0 °C],[1:00 AM],[10.0 km],[East],"[16.7 km/h
		/ 4.6 m/s]",METAR VHHH 211700Z 09009KT 040V130 9999 FEW018 SCT025 BKN100 25/20 Q1013 NOSIG
0,[Mostly Cloudy],1996-10-22,[21.0 °C],[],[-],[-],[78%],[N/A],[1012 hPa],[25.0 °C],[2:00 AM],[10.0 km],[East],"[16.7 km/h
		/ 4.6 m/s]",METAR VHHH 211800Z 10009KT 050V130 9999 FEW017 SCT025 BKN100 25/21 Q1012 NOSIG
0,[Scattered Clouds],1996-10-22,[20.0 °C],[],[-],[-],[74%],[N/A],[1012 hPa],[25.0 °C],[3:00 AM],[10.0 km],[East],"[11.1 km/h
		/ 3.1 m/s]",METAR VHHH 211900Z 10006KT 050V140 9999 FEW018 SCT025 25/20 Q1012 NOSIG
0,[Partly Cloudy],1996-10-22,[20.0 °C],[],[-],[-],[78%],[N/A],[1012 hPa],[24.0 °C],[4:00 AM],[10.0 km],[NNE],"[1.9 km/h
		/ 0.5 m/s]",METAR VHHH 212000Z 02001KT 9999 FEW020 24/20 Q1012 NOSIG
0,[Partly Cloudy],1996-10-22,[20.0 °C],[],[-],[-],[78%],[N/A],[1012 hPa],[24.0 °C],[5:00 AM],[10.0 km],[ENE],"[3.7 km/h
		/ 1.0 m/s]",METAR VHHH 212100Z 06002KT 9999 FEW025 24/20 Q1012 NOSIG
0,[Partly Cloudy],1996-10-22,[20.0 °C],[],[-],[-],[78%],[N/A],[1012 hPa],[24.0 °C],[6:00 AM],[10.0 km],[NNE],"[9.3 km/h
		/ 2.6 m/s]",METAR VHHH 212200Z 03005KT 300V100 9999 FEW020 24/20 Q1012 NOSIG
0,[Partly Cloudy],1996-10-22,[19.0 °C],[],[-],[-],[73%],[N/A],[1013 hPa],[24.0 °C],[7:00 AM],[10.0 km],[North],"[11.1 km/h
		/ 3.1 m/s]",METAR VHHH 212300Z 01006KT 320V100 9999 FEW020 24/19 Q1013 NOSIG
0,[Partly Cloudy],1996-10-22,[19.0 °C],[],[-],[-],[65%],[N/A],[1014 hPa],[26.0 °C],[8:00 AM],[10.0 km],[NE],"[16.7 km/h
		/ 4.6 m/s]",METAR VHHH 220000Z 05009KT 340V090 9999 FEW030 26/19 Q1014 NOSIG
0,[Partly Cloudy],1996-10-22,[18.0 °C],[],[-],[28.8 °C],[54%],[N/A],[1014 hPa],[28.0 °C],[9:00 AM],[10.0 km],[NNE],"[7.4 km/h
		/ 2.1 m/s]",METAR VHHH 220100Z 03004KT 300V180 9999 FEW025 28/18 Q1014 NOSIG
0,[Scattered Clouds],1996-10-22,[19.0 °C],[],[-],[29.2 °C],[58%],[N/A],[1014 hPa],[28.0 °C],[10:00 AM],[10.0 km],[ENE],"[13.0 km/h
		/ 3.6 m/s]",METAR VHHH 220200Z 07007KT 030V120 9999 FEW020 SCT030 28/19 Q1014 NOSIG
0,[Scattered Clouds],1996-10-22,[19.0 °C],[],[-],[29.2 °C],[58%],[N/A],[1014 hPa],[28.0 °C],[11:00 AM],[10.0 km],[ENE],"[18.5 km/h
		/ 5.1 m/s]",METAR VHHH 220300Z 06010KT 360V130 9999 FEW020 SCT030 28/19 Q1014 NOSIG
0,[Scattered Clouds],1996-10-22,[19.0 °C],[],"[42.6 km/h
		/ 11.8 m/s]",[29.2 °C],[58%],[N/A],[1013 hPa],[28.0 °C],[12:00 PM],[10.0 km],[East],"[22.2 km/h
		/ 6.2 m/s]",METAR VHHH 220400Z 09012G23KT 050V130 9999 FEW020 SCT030 28/19 Q1013 NOSIG
0,[Scattered Clouds],1996-10-22,[20.0 °C],[],[-],[29.7 °C],[62%],[N/A],[1012 hPa],[28.0 °C],[1:00 PM],[10.0 km],[East],"[25.9 km/h
		/ 7.2 m/s]",METAR VHHH 220500Z 10014KT 050V130 9999 FEW020 SCT030 28/20 Q1012 NOSIG
0,[Scattered Clouds],1996-10-22,[20.0 °C],[],[-],[29.7 °C],[62%],[N/A],[1012 hPa],[28.0 °C],[2:00 PM],[10.0 km],[East],"[22.2 km/h
		/ 6.2 m/s]",METAR VHHH 220600Z 10012KT 070V170 9999 FEW025 SCT035 28/20 Q1012 NOSIG
0,[Partly Cloudy],1996-10-22,[20.0 °C],[],[-],[30.7 °C],[58%],[N/A],[1012 hPa],[29.0 °C],[3:00 PM],[10.0 km],[East],"[20.4 km/h
		/ 5.7 m/s]",METAR VHHH 220700Z 09011KT 040V120 9999 FEW030 29/20 Q1012 NOSIG
0,[Partly Cloudy],1996-10-22,[20.0 °C],[],[-],[29.7 °C],[62%],[N/A],[1012 hPa],[28.0 °C],[4:00 PM],[10.0 km],[East],"[16.7 km/h
		/ 4.6 m/s]",METAR VHHH 220800Z 09009KT 030V130 9999 FEW030 28/20 Q1012 NOSIG
0,[Partly Cloudy],1996-10-22,[21.0 °C],[],[-],[28.9 °C],[70%],[N/A],[1012 hPa],[27.0 °C],[5:00 PM],[10.0 km],[East],"[14.8 km/h
		/ 4.1 m/s]",METAR VHHH 220900Z 10008KT 060V140 9999 FEW020 27/21 Q1012 NOSIG
0,[Scattered Clouds],1996-10-22,[21.0 °C],[],[-],[28.9 °C],[70%],[N/A],[1012 hPa],[27.0 °C],[6:00 PM],[10.0 km],[East],"[14.8 km/h
		/ 4.1 m/s]",METAR VHHH 221000Z 09008KT 030V150 9999 FEW020 SCT030 27/21 Q1012 NOSIG
0,[Scattered Clouds],1996-10-22,[21.0 °C],[],[-],[-],[74%],[N/A],[1013 hPa],[26.0 °C],[7:00 PM],[10.0 km],[East],"[9.3 km/h
		/ 2.6 m/s]",METAR VHHH 221100Z 10005KT 060V150 9999 FEW020 SCT035 26/21 Q1013 NOSIG
0,[Scattered Clouds],1996-10-22,[22.0 °C],[],[-],[-],[78%],[N/A],[1014 hPa],[26.0 °C],[8:00 PM],[10.0 km],[East],"[13.0 km/h
		/ 3.6 m/s]",METAR VHHH 221200Z 09007KT 040V130 9999 FEW020 SCT025 26/22 Q1014 NOSIG
0,[Mostly Cloudy],1996-10-22,[22.0 °C],[],[-],[-],[78%],[N/A],[1014 hPa],[26.0 °C],[9:00 PM],[10.0 km],[East],"[14.8 km/h
		/ 4.1 m/s]",METAR VHHH 221300Z 10008KT 060V140 9999 FEW018 SCT025 BKN080 26/22 Q1014 NOSIG
0,[Scattered Clouds],1996-10-23,[22.0 °C],[],[-],[-],[78%],[N/A],[1014 hPa],[26.0 °C],[12:00 AM],[10.0 km],[East],"[20.4 km/h
		/ 5.7 m/s]",METAR VHHH 221600Z 10011KT 050V130 9999 FEW016 SCT025 26/22 Q1014 NOSIG
0,[Mostly Cloudy],1996-10-23,[22.0 °C],[],[-],[-],[78%],[N/A],[1014 hPa],[26.0 °C],[1:00 AM],[10.0 km],[East],"[13.0 km/h
		/ 3.6 m/s]",METAR VHHH 221700Z 09007KT 020V140 9999 FEW016 BKN025 26/22 Q1014 NOSIG
0,[Scattered Clouds],1996-10-23,[21.0 °C],[],[-],[-],[78%],[N/A],[1013 hPa],[25.0 °C],[2:00 AM],[10.0 km],[East],"[7.4 km/h
		/ 2.1 m/s]",METAR VHHH 221800Z 09004KT 050V120 9999 FEW016 SCT025 25/21 Q1013 NOSIG
0,[Mostly Cloudy],1996-10-23,[21.0 °C],[],[-],[-],[78%],[N/A],[1013 hPa],[25.0 °C],[4:00 AM],[10.0 km],[East],"[27.8 km/h
		/ 7.7 m/s]",METAR VHHH 222000Z 10015KT 9999 FEW016 BKN025 25/21 Q1013 WS LDG RWY 13/31 NOSIG
0,[Scattered Clouds],1996-10-23,[21.0 °C],[],"[42.6 km/h
		/ 11.8 m/s]",[-],[78%],[N/A],[1013 hPa],[25.0 °C],[5:00 AM],[10.0 km],[East],"[20.4 km/h
		/ 5.7 m/s]",METAR VHHH 222100Z 10011G23KT 9999 FEW017 SCT030 25/21 Q1013 WS LDG RWY 13/31 NOSIG
0,[Scattered Clouds],1996-10-23,[21.0 °C],[],[-],[-],[78%],[N/A],[1014 hPa],[25.0 °C],[6:00 AM],[10.0 km],[East],"[22.2 km/h
		/ 6.2 m/s]",METAR VHHH 222200Z 10012KT 070V140 9999 SCT018 SCT025 25/21 Q1014 NOSIG
0,[Scattered Clouds],1996-10-23,[21.0 °C],[],[-],[-],[74%],[N/A],[1015 hPa],[26.0 °C],[7:00 AM],[10.0 km],[East],"[14.8 km/h
		/ 4.1 m/s]",METAR VHHH 222300Z 09008KT 060V130 9999 FEW019 SCT025 26/21 Q1015 NOSIG
0,[Scattered Clouds],1996-10-23,[20.0 °C],[],[-],[-],[69%],[N/A],[1016 hPa],[26.0 °C],[8:00 AM],[10.0 km],[East],"[13.0 km/h
		/ 3.6 m/s]",METAR VHHH 230000Z 09007KT 010V170 9999 FEW018 SCT025 26/20 Q1016 NOSIG
0,[Partly Cloudy],1996-10-23,[20.0 °C],[],[-],[28.5 °C],[65%],[N/A],[1016 hPa],[27.0 °C],[9:00 AM],[10.0 km],[East],"[20.4 km/h
		/ 5.7 m/s]",METAR VHHH 230100Z 09011KT 040V130 9999 FEW025 27/20 Q1016 NOSIG
0,[Partly Cloudy],1996-10-23,[19.0 °C],[],[-],[29.2 °C],[58%],[N/A],[1016 hPa],[28.0 °C],[10:00 AM],[10.0 km],[East],"[22.2 km/h
		/ 6.2 m/s]",METAR VHHH 230200Z 09012KT 010V140 9999 FEW025 28/19 Q1016 NOSIG
0,[Partly Cloudy],1996-10-23,[17.0 °C],[],"[48.2 km/h
		/ 13.4 m/s]",[29.4 °C],[48%],[N/A],[1015 hPa],[29.0 °C],[11:00 AM],[10.0 km],[East],"[25.9 km/h
		/ 7.2 m/s]",METAR VHHH 230300Z 08014G26KT 020V150 9999 FEW030 29/17 Q1015 WS LDG RWY 13/31 NOSIG
0,[Partly Cloudy],1996-10-23,[18.0 °C],[],"[48.2 km/h
		/ 13.4 m/s]",[29.8 °C],[51%],[N/A],[1015 hPa],[29.0 °C],[12:00 PM],[10.0 km],[East],"[24.1 km/h
		/ 6.7 m/s]",METAR VHHH 230400Z 09013G26KT 030V200 9999 FEW030 29/18 Q1015 WS LDG RWY 13/31 NOSIG
0,[Partly Cloudy],1996-10-23,[19.0 °C],[],[-],[30.3 °C],[55%],[N/A],[1014 hPa],[29.0 °C],[1:00 PM],[10.0 km],[East],"[18.5 km/h
		/ 5.1 m/s]",METAR VHHH 230500Z 09010KT 020V160 9999 FEW030 29/19 Q1014 WS LDG RWY 13/31 NOSIG
0,[Partly Cloudy],1996-10-23,[-],[],[-],[-],[N/A%],[N/A],[1013 hPa],[-],[2:00 PM],[10.0 km],[ESE],"[16.7 km/h
		/ 4.6 m/s]",METAR VHHH 230600Z 11009KT 060V150 9999 FEW025 Q1013 29/20 NOSIG
0,[Partly Cloudy],1996-10-23,[20.0 °C],[],[-],[30.7 °C],[58%],[N/A],[1013 hPa],[29.0 °C],[3:00 PM],[10.0 km],[East],"[24.1 km/h
		/ 6.7 m/s]",METAR VHHH 230700Z 09013KT 9999 FEW025 29/20 Q1013 NOSIG
0,[Partly Cloudy],1996-10-23,[21.0 °C],[],[-],[28.9 °C],[70%],[N/A],[1013 hPa],[27.0 °C],[5:00 PM],[10.0 km],[East],"[20.4 km/h
		/ 5.7 m/s]",METAR VHHH 230900Z 10011KT 060V130 9999 FEW025 27/21 Q1013 NOSIG
0,[Partly Cloudy],1996-10-23,[21.0 °C],[],[-],[28.9 °C],[70%],[N/A],[1013 hPa],[27.0 °C],[6:00 PM],[10.0 km],[East],"[9.3 km/h
		/ 2.6 m/s]",METAR VHHH 231000Z 10005KT 050V140 9999 FEW025 27/21 Q1013 NOSIG
0,[Partly Cloudy],1996-10-23,[21.0 °C],[],[-],[-],[74%],[N/A],[1014 hPa],[26.0 °C],[7:00 PM],[10.0 km],[East],"[16.7 km/h
		/ 4.6 m/s]",METAR VHHH 1100Z 09009KT 050V140 9999 FEW025 26/21 Q1014 NOSIG
0,[Scattered Clouds],1996-10-23,[21.0 °C],[],[-],[-],[74%],[N/A],[1015 hPa],[26.0 °C],[8:00 PM],[10.0 km],[East],"[22.2 km/h
		/ 6.2 m/s]",METAR VHHH 231200Z 09012KT 050V130 9999 SCT018 26/21 Q1015 NOSIG
0,[Scattered Clouds],1996-10-23,[21.0 °C],[],[-],[-],[74%],[N/A],[1015 hPa],[26.0 °C],[9:00 PM],[10.0 km],[East],"[24.1 km/h
		/ 6.7 m/s]",METAR VHHH 231300Z 09013KT 9999 FEW018 SCT025 26/21 Q1015 NOSIG
0,[Partly Cloudy],1996-10-23,[21.0 °C],[],[-],[-],[74%],[N/A],[1015 hPa],[26.0 °C],[10:00 PM],[10.0 km],[East],"[18.5 km/h
		/ 5.1 m/s]",METAR VHHH 231400Z 10010KT 050V120 9999 FEW020 26/21 Q1015 NOSIG
0,[Scattered Clouds],1996-10-23,[21.0 °C],[],[-],[-],[74%],[N/A],[1015 hPa],[26.0 °C],[11:00 PM],[10.0 km],[East],"[24.1 km/h
		/ 6.7 m/s]",METAR VHHH 231500Z 09013KT 040V130 9999 FEW018 SCT025 26/21 Q1015 NOSIG
0,[Scattered Clouds],1996-10-24,[21.0 °C],[],[-],[-],[74%],[N/A],[1015 hPa],[26.0 °C],[12:00 AM],[10.0 km],[East],"[22.2 km/h
		/ 6.2 m/s]",METAR VHHH 231600Z 09012KT 050V130 9999 FEW016 SCT025 26/21 Q1015 NOSIG
0,[Scattered Clouds],1996-10-24,[21.0 °C],[],[-],[-],[78%],[N/A],[1014 hPa],[25.0 °C],[1:00 AM],[10.0 km],[East],"[22.2 km/h
		/ 6.2 m/s]",METAR VHHH 231700Z 09012KT 060V130 9999 FEW016 SCT025 25/21 Q1014 NOSIG
0,[Partly Cloudy],1996-10-24,[20.0 °C],[],[-],[-],[74%],[N/A],[1014 hPa],[25.0 °C],[2:00 AM],[10.0 km],[East],"[14.8 km/h
		/ 4.1 m/s]",METAR VHHH 231800Z 08008KT 330V130 9999 FEW020 25/20 Q1014 NOSIG
0,[Partly Cloudy],1996-10-24,[20.0 °C],[],[-],[-],[74%],[N/A],[1014 hPa],[25.0 °C],[3:00 AM],[10.0 km],[NE],"[13.0 km/h
		/ 3.6 m/s]",METAR VHHH 231900Z 05007KT 300V120 9999 FEW020 25/20 Q1014 NOSIG
0,[Partly Cloudy],1996-10-24,[20.0 °C],[],[-],[-],[74%],[N/A],[1013 hPa],[25.0 °C],[4:00 AM],[10.0 km],[ENE],"[14.8 km/h
		/ 4.1 m/s]",METAR VHHH 232000Z 07008KT 030V120 9999 FEW020 25/20 Q1013 NOSIG
0,[Partly Cloudy],1996-10-24,[19.0 °C],[],[-],[-],[73%],[N/A],[1014 hPa],[24.0 °C],[5:00 AM],[10.0 km],[East],"[11.1 km/h
		/ 3.1 m/s]",METAR VHHH 232100Z 08006KT 040V120 9999 FEW020 24/19 Q1014 NOSIG
0,[Partly Cloudy],1996-10-24,[19.0 °C],[],[-],[-],[73%],[N/A],[1014 hPa],[24.0 °C],[6:00 AM],[10.0 km],[East],"[9.3 km/h
		/ 2.6 m/s]",METAR VHHH 232200Z 09005KT 9999 FEW020 24/19 Q1014 NOSIG
0,[Partly Cloudy],1996-10-24,[20.0 °C],[],[-],[-],[78%],[N/A],[1015 hPa],[24.0 °C],[7:00 AM],[10.0 km],[ENE],"[5.6 km/h
		/ 1.5 m/s]",METAR VHHH 232300Z 06003KT 330V140 9999 FEW025 24/20 Q1015 NOSIG
0,[Clear],1996-10-24,[19.0 °C],[],[-],[-],[65%],[N/A],[1015 hPa],[26.0 °C],[8:00 AM],[-],[NNE],"[7.4 km/h
		/ 2.1 m/s]",METAR VHHH 240000Z 03004KT 340V100 CAVOK 26/19 Q1015 NOSIG
0,[Partly Cloudy],1996-10-24,[19.0 °C],[],[-],[29.2 °C],[58%],[N/A],[1016 hPa],[28.0 °C],[9:00 AM],[10.0 km],[East],"[13.0 km/h
		/ 3.6 m/s]",METAR VHHH 240100Z 09007KT 040V140 9999 FEW030 28/19 Q1016 NOSIG
0,[Partly Cloudy],1996-10-24,[19.0 °C],[],[-],[29.2 °C],[58%],[N/A],[1016 hPa],[28.0 °C],[10:00 AM],[10.0 km],[North],"[7.4 km/h
		/ 2.1 m/s]",METAR VHHH 240200Z 36004KT 300V050 9999 FEW030 28/19 Q1016 NOSIG
0,[Partly Cloudy],1996-10-24,[19.0 °C],[],[-],[30.3 °C],[55%],[N/A],[1016 hPa],[29.0 °C],[11:00 AM],[10.0 km],[ENE],"[1.9 km/h
		/ 0.5 m/s]",METAR VHHH 240300Z 06001KT 9999 FEW030 29/19 Q1016 NOSIG
0,[Partly Cloudy],1996-10-24,[21.0 °C],[],[-],[32.4 °C],[58%],[N/A],[1015 hPa],[30.0 °C],[12:00 PM],[10.0 km],[SE],"[22.2 km/h
		/ 6.2 m/s]",METAR VHHH 240400Z 14012KT 9999 FEW030 30/21 Q1015 NOSIG
0,[Partly Cloudy],1996-10-24,[21.0 °C],[],[-],[32.4 °C],[58%],[N/A],[1014 hPa],[30.0 °C],[1:00 PM],[10.0 km],[SE],"[20.4 km/h
		/ 5.7 m/s]",METAR VHHH 240500Z 13011KT 9999 FEW030 30/21 Q1014 NOSIG
0,[Partly Cloudy],1996-10-24,[19.0 °C],[],[-],[30.3 °C],[55%],[N/A],[1013 hPa],[29.0 °C],[2:00 PM],[10.0 km],[SE],"[25.9 km/h
		/ 7.2 m/s]",METAR VHHH 240600Z 13014KT 9999 FEW030 29/19 Q1013 NOSIG
0,[Partly Cloudy],1996-10-24,[21.0 °C],[],[-],[28.9 °C],[70%],[N/A],[1013 hPa],[27.0 °C],[3:00 PM],[10.0 km],[SE],"[24.1 km/h
		/ 6.7 m/s]",METAR VHHH 240700Z 14013KT 9999 FEW030 27/21 Q1013 WS LDG RWY 13 NOSIG
0,[Partly Cloudy],1996-10-24,[19.0 °C],[],[-],[30.3 °C],[55%],[N/A],[1012 hPa],[29.0 °C],[4:00 PM],[10.0 km],[ESE],"[16.7 km/h
		/ 4.6 m/s]",METAR VHHH 240800Z 12009KT 9999 FEW030 29/19 Q1012 WS LDG RWY 13 NOSIG
0,[Partly Cloudy],1996-10-24,[14.0 °C],[],[-],[28.6 °C],[40%],[N/A],[1013 hPa],[29.0 °C],[5:00 PM],[10.0 km],[SE],"[13.0 km/h
		/ 3.6 m/s]",METAR VHHH 240900Z 14007KT 100V190 9999 FEW030 29/14 Q1013 WS LDG RWY 13 NOSIG
0,[Clear],1996-10-24,[15.0 °C],[],[-],[27.3 °C],[48%],[N/A],[1013 hPa],[27.0 °C],[6:00 PM],[-],[SE],"[9.3 km/h
		/ 2.6 m/s]",METAR VHHH 241000Z 14005KT CAVOK 27/15 Q1013 NOSIG
0,[Clear],1996-10-24,[16.0 °C],[],[-],[27.5 °C],[51%],[N/A],[-],[27.0 °C],[7:00 PM],[-],[SE],"[13.0 km/h
		/ 3.6 m/s]",METAR VHHH 241100Z 13007KT CAVOK 27/16 NOSIG
0,[Clear],1996-10-24,[16.0 °C],[],[-],[27.5 °C],[51%],[N/A],[1014 hPa],[27.0 °C],[8:00 PM],[-],[ESE],"[9.3 km/h
		/ 2.6 m/s]",METAR VHHH 241200Z 12005KT CAVOK 27/16 Q1014 NOSIG
0,[Clear],1996-10-24,[18.0 °C],[],[-],[-],[61%],[N/A],[1014 hPa],[26.0 °C],[9:00 PM],[-],[SE],"[11.1 km/h
		/ 3.1 m/s]",METAR VHHH 241300Z 14006KT 110V170 CAVOK 26/18 Q1014 NOSIG
0,[Clear],1996-10-24,[17.0 °C],[],[-],[-],[57%],[N/A],[1015 hPa],[26.0 °C],[10:00 PM],[-],[ESE],"[9.3 km/h
		/ 2.6 m/s]",METAR VHHH 241400Z 12005KT CAVOK 26/17 Q1015 NOSIG
0,[Clear],1996-10-24,[17.0 °C],[],[-],[-],[57%],[N/A],[1015 hPa],[26.0 °C],[11:00 PM],[-],[East],"[9.3 km/h
		/ 2.6 m/s]",METAR VHHH 241500Z 10005KT CAVOK 26/17 Q1015 NOSIG
0,[Clear],1996-10-25,[19.0 °C],[],[-],[-],[69%],[N/A],[1015 hPa],[25.0 °C],[12:00 AM],[-],[ESE],"[7.4 km/h
		/ 2.1 m/s]",METAR VHHH 241600Z 12004KT 080V150 CAVOK 25/19 Q1015 NOSIG
0,[Clear],1996-10-25,[19.0 °C],[],[-],[-],[69%],[N/A],[1015 hPa],[25.0 °C],[1:00 AM],[-],[East],"[11.1 km/h
		/ 3.1 m/s]",METAR VHHH 241700Z 10006KT CAVOK 25/19 Q1015 NOSIG
0,[Partly Cloudy],1996-10-25,[20.0 °C],[],[-],[-],[78%],[N/A],[1014 hPa],[24.0 °C],[2:00 AM],[10.0 km],[East],"[9.3 km/h
		/ 2.6 m/s]",METAR VHHH 241800Z 09005KT 040V120 9999 FEW025 24/20 Q1014 NOSIG
0,[Partly Cloudy],1996-10-25,[20.0 °C],[],[-],[-],[78%],[N/A],[1014 hPa],[24.0 °C],[3:00 AM],[10.0 km],[ESE],"[7.4 km/h
		/ 2.1 m/s]",METAR VHHH 241900Z 11004KT 070V140 9999 FEW025 24/20 Q1014 NOSIG
0,[Scattered Clouds],1996-10-25,[21.0 °C],[],[-],[-],[83%],[N/A],[1014 hPa],[24.0 °C],[4:00 AM],[10.0 km],[ESE],"[9.3 km/h
		/ 2.6 m/s]",METAR VHHH 242000Z 11005KT 060V150 9999 SCT020 24/21 Q1014 NOSIG
0,[Scattered Clouds],1996-10-25,[21.0 °C],[],[-],[-],[83%],[N/A],[1015 hPa],[24.0 °C],[6:00 AM],[10.0 km],[North],"[5.6 km/h
		/ 1.5 m/s]",METAR VHHH 242200Z 35003KT 9999 FEW018 SCT022 24/21 Q1015 NOSIG
0,[Partly Cloudy],1996-10-25,[18.0 °C],[],[-],[-],[65%],[N/A],[1016 hPa],[25.0 °C],[8:00 AM],[10.0 km],[North],"[9.3 km/h
		/ 2.6 m/s]",METAR VHHH 250000Z 36005KT 260V070 9999 FEW020 25/18 Q1016 NOSIG
0,[Clear],1996-10-25,[17.0 °C],[],[-],[27.7 °C],[54%],[N/A],[1016 hPa],[27.0 °C],[9:00 AM],[-],[Variable],"[5.6 km/h
		/ 1.5 m/s]",METAR VHHH 250100Z VRB03KT CAVOK 27/17 Q1016 NOSIG
0,[Clear],1996-10-25,[16.0 °C],[],[-],[28.3 °C],[48%],[N/A],[1017 hPa],[28.0 °C],[10:00 AM],[-],[North],"[7.4 km/h
		/ 2.1 m/s]",METAR VHHH 250200Z 01004KT 280V140 CAVOK 28/16 Q1017 NOSIG
0,[Clear],1996-10-25,[16.0 °C],[],[-],[29.1 °C],[45%],[N/A],[1016 hPa],[29.0 °C],[11:00 AM],[-],[NNE],"[11.1 km/h
		/ 3.1 m/s]",METAR VHHH 250300Z 02006KT 310V130 CAVOK 29/16 Q1016 WS LDG RWY 13/31 NOSIG
0,[Partly Cloudy],1996-10-25,[17.0 °C],[],[-],[30.3 °C],[45%],[N/A],[1015 hPa],[30.0 °C],[12:00 PM],[10.0 km],[East],"[11.1 km/h
		/ 3.1 m/s]",METAR VHHH 250400Z 08006KT 340V140 9999 FEW030 30/17 Q1015 WS LDG RWY 13/31 NOSIG
0,[Partly Cloudy],1996-10-25,[17.0 °C],[],[-],[31.4 °C],[43%],[N/A],[1014 hPa],[31.0 °C],[1:00 PM],[10.0 km],[NNE],"[18.5 km/h
		/ 5.1 m/s]",METAR VHHH 250500Z 03010KT 310V120 9999 FEW030 31/17 Q1014 WS LDG RWY 13/31 NOSIG
0,[Partly Cloudy],1996-10-25,[18.0 °C],[],[-],[32.8 °C],[43%],[N/A],[1013 hPa],[32.0 °C],[3:00 PM],[10.0 km],[North],"[11.1 km/h
		/ 3.1 m/s]",METAR VHHH 250700Z 36006KT 250V160 9999 FEW030 32/18 Q1013 WS LDG RWY 13/31 NOSIG
0,[Partly Cloudy],1996-10-25,[18.0 °C],[],[-],[31.9 °C],[46%],[N/A],[1013 hPa],[31.0 °C],[4:00 PM],[10.0 km],[NNW],"[13.0 km/h
		/ 3.6 m/s]",METAR VHHH 250800Z 33007KT 300V040 9999 FEW030 31/18 Q1013 WS LDG RWY 13/31 NOSIG
0,[Partly Cloudy],1996-10-25,[19.0 °C],[],[-],[30.3 °C],[55%],[N/A],[1013 hPa],[29.0 °C],[5:00 PM],[10.0 km],[North],"[9.3 km/h
		/ 2.6 m/s]",METAR VHHH 250900Z 01005KT 310V060 9999 FEW030 29/19 Q1013 NOSIG
0,[Partly Cloudy],1996-10-25,[18.0 °C],[],[-],[29.8 °C],[51%],[N/A],[1013 hPa],[29.0 °C],[6:00 PM],[10.0 km],[North],"[7.4 km/h
		/ 2.1 m/s]",METAR VHHH 251000Z 35004KT 280V050 9999 FEW035 29/18 Q1013 NOSIG
0,[Partly Cloudy],1996-10-25,[18.0 °C],[],[-],[29.8 °C],[51%],[N/A],[1014 hPa],[29.0 °C],[7:00 PM],[10.0 km],[North],"[16.7 km/h
		/ 4.6 m/s]",METAR VHHH 251100Z 01009KT 310V080 9999 FEW035 29/18 Q1014 NOSIG
0,[Scattered Clouds],1996-10-25,[16.0 °C],[],[-],[29.1 °C],[45%],[N/A],[1015 hPa],[29.0 °C],[8:00 PM],[10.0 km],[NE],"[7.4 km/h
		/ 2.1 m/s]",METAR VHHH 251200Z 04004KT 310V100 9999 FEW035 SCT050 29/16 Q1015 WS LDG RWY 13/31 NOSIG
0,[Scattered Clouds],1996-10-25,[15.0 °C],[],"[42.6 km/h
		/ 11.8 m/s]",[28.0 °C],[45%],[N/A],[1016 hPa],[28.0 °C],[9:00 PM],[10.0 km],[NE],"[18.5 km/h
		/ 5.1 m/s]",METAR VHHH 251300Z 04010G23KT 340V080 9999 FEW030 SCT080 28/15 Q1016 WS LDG RWY 13/31 NOSIG
0,[Scattered Clouds],1996-10-25,[15.0 °C],[],"[33.3 km/h
		/ 9.3 m/s]",[27.3 °C],[48%],[N/A],[1016 hPa],[27.0 °C],[10:00 PM],[10.0 km],[NNE],"[14.8 km/h
		/ 4.1 m/s]",METAR VHHH 251400Z 03008G18KT 340V090 9999 FEW030 SCT080 27/15 Q1016 WS LDG RWY 13/31 NOSIG
0,[Mostly Cloudy],1996-10-25,[15.0 °C],[],[-],[-],[51%],[N/A],[1017 hPa],[26.0 °C],[11:00 PM],[10.0 km],[East],"[7.4 km/h
		/ 2.1 m/s]",METAR VHHH 251500Z 08004KT 010V160 9999 FEW030 BKN080 26/15 Q1017 WS LDG RWY 13/31 NOSIG
0,[Scattered Clouds],1996-10-26,[16.0 °C],[],"[31.5 km/h
		/ 8.7 m/s]",[-],[57%],[N/A],[1016 hPa],[25.0 °C],[12:00 AM],[10.0 km],[Variable],"[7.4 km/h
		/ 2.1 m/s]",METAR VHHH 251600Z VRB04G17KT 210V110 9999 FEW030 SCT080 25/16 Q1016 WS LDG RWY 13/31 NOSIG
0,[Mostly Cloudy],1996-10-26,[16.0 °C],[],[-],[-],[57%],[N/A],[1016 hPa],[25.0 °C],[1:00 AM],[10.0 km],[NE],"[9.3 km/h
		/ 2.6 m/s]",METAR VHHH 251700Z 04005KT 220V100 9999 FEW030 BKN080 25/16 Q1016 WS LDG RWY 13/31 NOSIG
0,[Mostly Cloudy],1996-10-26,[15.0 °C],[],[-],[-],[57%],[N/A],[1016 hPa],[24.0 °C],[2:00 AM],[10.0 km],[NNE],"[14.8 km/h
		/ 4.1 m/s]",METAR VHHH 251800Z 03008KT 320V100 9999 FEW030 BKN080 24/15 Q1016 WS LDG RWY 13/31 NOSIG
0,[Mostly Cloudy],1996-10-26,[14.0 °C],[],[-],[-],[53%],[N/A],[1016 hPa],[24.0 °C],[4:00 AM],[10.0 km],[NNE],"[13.0 km/h
		/ 3.6 m/s]",METAR VHHH 252000Z 02007KT 350V060 9999 FEW030 BKN080 24/14 Q1016 WS LDG RWY 13/31 NOSIG
0,[Mostly Cloudy],1996-10-26,[14.0 °C],[],[-],[-],[53%],[N/A],[1016 hPa],[24.0 °C],[5:00 AM],[10.0 km],[North],"[9.3 km/h
		/ 2.6 m/s]",METAR VHHH 252100Z 35005KT 300V010 9999 FEW030 BKN080 24/14 Q1016 WS LDG RWY 13/31 NOSIG
0,[Mostly Cloudy],1996-10-26,[14.0 °C],[],[-],[-],[57%],[N/A],[1016 hPa],[23.0 °C],[6:00 AM],[10.0 km],[NNW],"[13.0 km/h
		/ 3.6 m/s]",METAR VHHH 252200Z 34007KT 270V030 9999 FEW030 BKN080 23/14 Q1016 WS LDG RWY 13/31 NOSIG
0,[Mostly Cloudy],1996-10-26,[14.0 °C],[],[-],[-],[57%],[N/A],[1017 hPa],[23.0 °C],[7:00 AM],[8.0 km],[North],"[14.8 km/h
		/ 4.1 m/s]",METAR VHHH 252300Z 36008KT 270V030 8000 FEW030 BKN080 23/14 Q1017 WS LDG RWY 13/31 NOSIG
0,[Mostly Cloudy],1996-10-26,[15.0 °C],[],[-],[-],[61%],[N/A],[1018 hPa],[23.0 °C],[8:00 AM],[10.0 km],[North],"[13.0 km/h
		/ 3.6 m/s]",METAR VHHH 260000Z 01007KT 280V060 9999 FEW030 BKN080 23/15 Q1018 WS LDG RWY 13/31 NOSIG
0,[Scattered Clouds],1996-10-26,[15.0 °C],[],[-],[-],[57%],[N/A],[1018 hPa],[24.0 °C],[9:00 AM],[7.0 km],[North],"[7.4 km/h
		/ 2.1 m/s]",METAR VHHH 260100Z 36004KT 290V070 7000 FEW035 SCT080 24/15 Q1018 WS LDG RWY 13/31 NOSIG
0,[Scattered Clouds],1996-10-26,[15.0 °C],[],[-],[-],[54%],[N/A],[1019 hPa],[25.0 °C],[10:00 AM],[7.0 km],[NNE],"[11.1 km/h
		/ 3.1 m/s]",METAR VHHH 260200Z 02006KT 310V070 7000 FEW035 SCT100 25/15 Q1019 WS LDG RWY 13/31 NOSIG
0,[Partly Cloudy],1996-10-26,[16.0 °C],[],[-],[27.5 °C],[51%],[N/A],[1019 hPa],[27.0 °C],[11:00 AM],[7.0 km],[NNE],"[13.0 km/h
		/ 3.6 m/s]",METAR VHHH 260300Z 03007KT 280V100 7000 FEW035 27/16 Q1019 WS LDG RWY 13/31 NOSIG
0,[Partly Cloudy],1996-10-26,[16.0 °C],[],[-],[28.3 °C],[48%],[N/A],[1018 hPa],[28.0 °C],[12:00 PM],[7.0 km],[North],"[13.0 km/h
		/ 3.6 m/s]",METAR VHHH 260400Z 35007KT 270V060 7000 FEW035 28/16 Q1018 WS LDG RWY 13/31 NOSIG
0,[Scattered Clouds],1996-10-26,[17.0 °C],[],[-],[28.5 °C],[51%],[N/A],[1017 hPa],[28.0 °C],[1:00 PM],[8.0 km],[NNE],"[14.8 km/h
		/ 4.1 m/s]",METAR VHHH 260500Z 03008KT 320V110 8000 FEW035 SCT100 28/17 Q1017 WS LDG RWY 13/31 NOSIG
0,[Scattered Clouds],1996-10-26,[17.0 °C],[],[-],[28.5 °C],[51%],[N/A],[1016 hPa],[28.0 °C],[2:00 PM],[10.0 km],[NNE],"[11.1 km/h
		/ 3.1 m/s]",METAR VHHH 260600Z 03006KT 320V110 9999 FEW035 SCT100 28/17 Q1016 WS LDG RWY 13/31 NOSIG
0,[Scattered Clouds],1996-10-26,[16.0 °C],[],"[29.6 km/h
		/ 8.2 m/s]",[28.3 °C],[48%],[N/A],[1015 hPa],[28.0 °C],[3:00 PM],[10.0 km],[NNE],"[11.1 km/h
		/ 3.1 m/s]",METAR VHHH 260700Z 02006G16KT 330V090 9999 FEW030 SCT100 28/16 Q1015 WS LDG RWY 13/31 NOSIG
0,[Scattered Clouds],1996-10-26,[17.0 °C],[],[-],[28.5 °C],[51%],[N/A],[1015 hPa],[28.0 °C],[4:00 PM],[10.0 km],[NNE],"[11.1 km/h
		/ 3.1 m/s]",METAR VHHH 260800Z 02006KT 340V090 9999 FEW030 SCT100 28/17 Q1015 WS LDG RWY 13/31 NOSIG
0,[Mostly Cloudy],1996-10-26,[16.0 °C],[],[-],[27.5 °C],[51%],[N/A],[1015 hPa],[27.0 °C],[5:00 PM],[10.0 km],[ENE],"[9.3 km/h
		/ 2.6 m/s]",METAR VHHH 260900Z 07005KT 330V110 9999 FEW030 BKN100 27/16 Q1015 WS LDG RWY 13/31 NOSIG
0,[Mostly Cloudy],1996-10-26,[16.0 °C],[],[-],[27.5 °C],[51%],[N/A],[1015 hPa],[27.0 °C],[6:00 PM],[10.0 km],[North],"[14.8 km/h
		/ 4.1 m/s]",METAR VHHH 261000Z 36008KT 330V030 9999 FEW030 BKN100 27/16 Q1015 WS LDG RWY 13/31 NOSIG
0,[Mostly Cloudy],1996-10-26,[16.0 °C],[],[-],[-],[54%],[N/A],[1016 hPa],[26.0 °C],[7:00 PM],[10.0 km],[NNE],"[7.4 km/h
		/ 2.1 m/s]",METAR VHHH 261100Z 03004KT 340V090 9999 FEW030 BKN100 26/16 Q1016 WS LDG RWY 13/31 NOSIG
0,[Mostly Cloudy],1996-10-26,[15.0 °C],[],[-],[-],[54%],[N/A],[1017 hPa],[25.0 °C],[8:00 PM],[10.0 km],[NE],"[9.3 km/h
		/ 2.6 m/s]",METAR VHHH 261200Z 05005KT 330V090 9999 SCT030 BKN080 25/15 Q1017 WS LDG RWY 13/31 NOSIG
0,[Mostly Cloudy],1996-10-26,[15.0 °C],[],[-],[-],[57%],[N/A],[1017 hPa],[24.0 °C],[9:00 PM],[8.0 km],[NE],"[11.1 km/h
		/ 3.1 m/s]",METAR VHHH 261300Z 05006KT 320V110 8000 FEW030 BKN080 24/15 Q1017 NOSIG
0,[Mostly Cloudy],1996-10-26,[15.0 °C],[],[-],[-],[61%],[N/A],[1017 hPa],[23.0 °C],[10:00 PM],[9.0 km],[North],"[9.3 km/h
		/ 2.6 m/s]",METAR VHHH 261400Z 36005KT 320V070 9000 FEW030 BKN080 23/15 Q1017 NOSIG
0,[Mostly Cloudy],1996-10-26,[15.0 °C],[],[-],[-],[61%],[N/A],[1017 hPa],[23.0 °C],[11:00 PM],[9.0 km],[North],"[7.4 km/h
		/ 2.1 m/s]",METAR VHHH 261500Z 36004KT 310V050 9000 FEW025 BKN080 23/15 Q1017 NOSIG
0,[Scattered Clouds],1996-10-27,[15.0 °C],[],[-],[-],[61%],[N/A],[1017 hPa],[23.0 °C],[12:00 AM],[9.0 km],[North],"[11.1 km/h
		/ 3.1 m/s]",METAR VHHH 261600Z 36006KT 310V060 9000 FEW025 SCT035 23/15 Q1017 NOSIG
0,[Scattered Clouds],1996-10-27,[15.0 °C],[],[-],[-],[64%],[N/A],[1017 hPa],[22.0 °C],[1:00 AM],[9.0 km],[NE],"[11.1 km/h
		/ 3.1 m/s]",METAR VHHH 261700Z 04006KT 320V100 9000 FEW025 SCT035 22/15 Q1017 NOSIG
0,[Mostly Cloudy],1996-10-27,[15.0 °C],[],[-],[-],[64%],[N/A],[1017 hPa],[22.0 °C],[2:00 AM],[9.0 km],[NE],"[13.0 km/h
		/ 3.6 m/s]",METAR VHHH 261800Z 04007KT 300V100 9000 FEW025 BKN080 22/15 Q1017 NOSIG
0,[Mostly Cloudy],1996-10-27,[15.0 °C],[],[-],[-],[64%],[N/A],[1017 hPa],[22.0 °C],[3:00 AM],[10.0 km],[NE],"[13.0 km/h
		/ 3.6 m/s]",METAR VHHH 261900Z 04007KT 290V110 9999 FEW025 BKN080 22/15 Q1017 NOSIG
0,[Scattered Clouds],1996-10-27,[15.0 °C],[],"[33.3 km/h
		/ 9.3 m/s]",[-],[68%],[N/A],[1016 hPa],[21.0 °C],[4:00 AM],[10.0 km],[NE],"[14.8 km/h
		/ 4.1 m/s]",METAR VHHH 262000Z 04008G18KT 340V130 9999 FEW030 SCT080 21/15 Q1016 NOSIG
0,[Mostly Cloudy],1996-10-27,[15.0 °C],[],[-],[-],[68%],[N/A],[1017 hPa],[21.0 °C],[5:00 AM],[10.0 km],[NE],"[7.4 km/h
		/ 2.1 m/s]",METAR VHHH 262100Z 05004KT 330V140 9999 FEW030 BKN080 21/15 Q1017 NOSIG
0,[Mostly Cloudy],1996-10-27,[15.0 °C],[],[-],[-],[68%],[N/A],[1017 hPa],[21.0 °C],[6:00 AM],[10.0 km],[NE],"[5.6 km/h
		/ 1.5 m/s]",METAR VHHH 262200Z 05003KT 9999 FEW045 BKN080 21/15 Q1017 NOSIG
0,[Mostly Cloudy],1996-10-27,[15.0 °C],[],[-],[-],[64%],[N/A],[1017 hPa],[22.0 °C],[7:00 AM],[10.0 km],[NE],"[11.1 km/h
		/ 3.1 m/s]",METAR VHHH 262300Z 04006KT 330V230 9999 FEW040 BKN080 22/15 Q1017 NOSIG
0,[Mostly Cloudy],1996-10-27,[16.0 °C],[],[-],[-],[65%],[N/A],[1018 hPa],[23.0 °C],[8:00 AM],[9.0 km],[NNE],"[14.8 km/h
		/ 4.1 m/s]",METAR VHHH 270000Z 03008KT 350V080 9000 FEW040 BKN080 23/16 Q1018 NOSIG
0,[Clear],1996-10-27,[15.0 °C],[],[-],[-],[54%],[N/A],[1018 hPa],[25.0 °C],[10:00 AM],[-],[ENE],"[16.7 km/h
		/ 4.6 m/s]",METAR VHHH 270200Z 06009KT 320V130 CAVOK 25/15 Q1018 NOSIG
0,[Clear],1996-10-27,[16.0 °C],[],[-],[27.5 °C],[51%],[N/A],[1018 hPa],[27.0 °C],[11:00 AM],[-],[ENE],"[22.2 km/h
		/ 6.2 m/s]",METAR VHHH 270300Z 07012KT 040V120 CAVOK 27/16 Q1018 NOSIG
0,[Partly Cloudy],1996-10-27,[16.0 °C],[],"[42.6 km/h
		/ 11.8 m/s]",[-],[54%],[N/A],[1017 hPa],[26.0 °C],[12:00 PM],[10.0 km],[East],"[22.2 km/h
		/ 6.2 m/s]",METAR VHHH 270400Z 10012G23KT 060V140 9999 FEW030 26/16 Q1017 NOSIG
0,[Partly Cloudy],1996-10-27,[17.0 °C],[],[-],[28.5 °C],[51%],[N/A],[1016 hPa],[28.0 °C],[1:00 PM],[10.0 km],[East],"[16.7 km/h
		/ 4.6 m/s]",METAR VHHH 270500Z 10009KT 060V180 9999 FEW030 28/17 Q1016 NOSIG
0,[Clear],1996-10-27,[17.0 °C],[],[-],[27.7 °C],[54%],[N/A],[1015 hPa],[27.0 °C],[2:00 PM],[-],[East],"[18.5 km/h
		/ 5.1 m/s]",METAR VHHH 270600Z 10010KT 030V150 CAVOK 27/17 Q1015 NOSIG
0,[Clear],1996-10-27,[17.0 °C],[],[-],[27.7 °C],[54%],[N/A],[1014 hPa],[27.0 °C],[3:00 PM],[-],[ESE],"[20.4 km/h
		/ 5.7 m/s]",METAR VHHH 270700Z 12011KT 020V150 CAVOK 27/17 Q1014 NOSIG
0,[Clear],1996-10-27,[17.0 °C],[],[-],[-],[57%],[N/A],[1014 hPa],[26.0 °C],[4:00 PM],[-],[ESE],"[18.5 km/h
		/ 5.1 m/s]",METAR VHHH 270800Z 11010KT 070V150 CAVOK 26/17 Q1014 NOSIG
0,[Clear],1996-10-27,[18.0 °C],[],[-],[-],[65%],[N/A],[1014 hPa],[25.0 °C],[5:00 PM],[-],[East],"[14.8 km/h
		/ 4.1 m/s]",METAR VHHH 270900Z 10008KT 050V140 CAVOK 25/18 Q1014 NOSIG
0,[Partly Cloudy],1996-10-27,[18.0 °C],[],[-],[-],[65%],[N/A],[1015 hPa],[25.0 °C],[6:00 PM],[10.0 km],[East],"[16.7 km/h
		/ 4.6 m/s]",METAR VHHH 271000Z 09009KT 050V140 9999 FEW025 25/18 Q1015 NOSIG
0,[Scattered Clouds],1996-10-27,[19.0 °C],[],[-],[-],[69%],[N/A],[1015 hPa],[25.0 °C],[7:00 PM],[10.0 km],[East],"[16.7 km/h
		/ 4.6 m/s]",METAR VHHH 271100Z 08009KT 050V120 9999 SCT025 25/19 Q1015 NOSIG
0,[Scattered Clouds],1996-10-27,[19.0 °C],[],[-],[-],[69%],[N/A],[1016 hPa],[25.0 °C],[8:00 PM],[10.0 km],[ENE],"[18.5 km/h
		/ 5.1 m/s]",METAR VHHH 271200Z 07010KT 030V130 9999 SCT022 SCT080 25/19 Q1016 NOSIG
0,[Mostly Cloudy],1996-10-27,[19.0 °C],[],[-],[-],[73%],[N/A],[1016 hPa],[24.0 °C],[9:00 PM],[10.0 km],[East],"[18.5 km/h
		/ 5.1 m/s]",METAR VHHH 271300Z 08010KT 050V120 9999 FEW025 BKN035 24/19 Q1016 NOSIG
0,[Scattered Clouds],1996-10-27,[19.0 °C],[],[-],[-],[69%],[N/A],[1016 hPa],[25.0 °C],[10:00 PM],[10.0 km],[East],"[20.4 km/h
		/ 5.7 m/s]",METAR VHHH 271400Z 09011KT 050V130 9999 FEW022 SCT030 25/19 Q1016 NOSIG
0,[Scattered Clouds],1996-10-27,[20.0 °C],[],[-],[-],[78%],[N/A],[1016 hPa],[24.0 °C],[11:00 PM],[10.0 km],[East],"[20.4 km/h
		/ 5.7 m/s]",METAR VHHH 271500Z 10011KT 070V140 9999 FEW020 SCT030 24/20 Q1016 NOSIG
0,[Scattered Clouds],1996-10-28,[19.0 °C],[],[-],[-],[73%],[N/A],[1016 hPa],[24.0 °C],[12:00 AM],[10.0 km],[East],"[14.8 km/h
		/ 4.1 m/s]",METAR VHHH 271600Z 09008KT 050V140 9999 FEW020 SCT030 24/19 Q1016 NOSIG
0,[Scattered Clouds],1996-10-28,[19.0 °C],[],[-],[-],[73%],[N/A],[1016 hPa],[24.0 °C],[1:00 AM],[10.0 km],[East],"[18.5 km/h
		/ 5.1 m/s]",METAR VHHH 271700Z 10010KT 060V140 9999 FEW020 SCT030 24/19 Q1016 NOSIG
0,[Partly Cloudy],1996-10-28,[19.0 °C],[],[-],[-],[73%],[N/A],[1016 hPa],[24.0 °C],[2:00 AM],[10.0 km],[East],"[22.2 km/h
		/ 6.2 m/s]",METAR VHHH 271800Z 09012KT 030V140 9999 FEW025 24/19 Q1016 NOSIG
0,[Scattered Clouds],1996-10-28,[19.0 °C],[],"[38.9 km/h
		/ 10.8 m/s]",[-],[73%],[N/A],[1016 hPa],[24.0 °C],[3:00 AM],[10.0 km],[East],"[18.5 km/h
		/ 5.1 m/s]",METAR VHHH 271900Z 09010G21KT 050V130 9999 FEW025 SCT030 24/19 Q1016 NOSIG
0,[Partly Cloudy],1996-10-28,[19.0 °C],[],[-],[-],[78%],[N/A],[1016 hPa],[23.0 °C],[4:00 AM],[10.0 km],[ENE],"[14.8 km/h
		/ 4.1 m/s]",METAR VHHH 272000Z 07008KT 360V120 9999 FEW022 23/19 Q1016 NOSIG
0,[Partly Cloudy],1996-10-28,[19.0 °C],[],[-],[-],[78%],[N/A],[1016 hPa],[23.0 °C],[5:00 AM],[10.0 km],[ESE],"[13.0 km/h
		/ 3.6 m/s]",METAR VHHH 272100Z 11007KT 010V170 9999 FEW020 23/19 Q1016 NOSIG
0,[Partly Cloudy],1996-10-28,[19.0 °C],[],[-],[-],[78%],[N/A],[1016 hPa],[23.0 °C],[6:00 AM],[10.0 km],[East],"[11.1 km/h
		/ 3.1 m/s]",METAR VHHH 272200Z 10006KT 020V130 9999 FEW021 23/19 Q1016 NOSIG
0,[Partly Cloudy],1996-10-28,[19.0 °C],[],[-],[-],[78%],[N/A],[1017 hPa],[23.0 °C],[7:00 AM],[10.0 km],[East],"[13.0 km/h
		/ 3.6 m/s]",METAR VHHH 272300Z 10007KT 9999 FEW019 23/19 Q1017 NOSIG
0,[Partly Cloudy],1996-10-28,[19.0 °C],[],[-],[-],[73%],[N/A],[1017 hPa],[24.0 °C],[8:00 AM],[10.0 km],[NE],"[7.4 km/h
		/ 2.1 m/s]",METAR VHHH 280000Z 05004KT 340V100 9999 FEW016 24/19 Q1017 NOSIG
0,[Clear],1996-10-28,[19.0 °C],[],[-],[-],[65%],[N/A],[1018 hPa],[26.0 °C],[9:00 AM],[-],[ESE],"[11.1 km/h
		/ 3.1 m/s]",METAR VHHH 280100Z 11006KT 060V160 CAVOK 26/19 Q1018 NOSIG
0,[Partly Cloudy],1996-10-28,[19.0 °C],[],[-],[28.2 °C],[61%],[N/A],[1018 hPa],[27.0 °C],[10:00 AM],[10.0 km],[ENE],"[13.0 km/h
		/ 3.6 m/s]",METAR VHHH 280200Z 07007KT 360V120 9999 FEW025 27/19 Q1018 NOSIG
0,[Partly Cloudy],1996-10-28,[18.0 °C],[],[-],[29.8 °C],[51%],[N/A],[1017 hPa],[29.0 °C],[11:00 AM],[10.0 km],[ENE],"[11.1 km/h
		/ 3.1 m/s]",METAR VHHH 280300Z 06006KT 360V110 9999 FEW022 29/18 Q1017 NOSIG
0,[Partly Cloudy],1996-10-28,[19.0 °C],[],[-],[30.3 °C],[55%],[N/A],[1016 hPa],[29.0 °C],[12:00 PM],[10.0 km],[SE],"[7.4 km/h
		/ 2.1 m/s]",METAR VHHH 280400Z 13004KT 060V240 9999 FEW022 29/19 Q1016 NOSIG
0,[Scattered Clouds],1996-10-28,[19.0 °C],[],[-],[30.3 °C],[55%],[N/A],[1015 hPa],[29.0 °C],[1:00 PM],[10.0 km],[SE],"[22.2 km/h
		/ 6.2 m/s]",METAR VHHH 280500Z 13012KT 110V170 9999 FEW025 SCT080 29/19 Q1015 NOSIG
0,[Scattered Clouds],1996-10-28,[20.0 °C],[],[-],[30.7 °C],[58%],[N/A],[1014 hPa],[29.0 °C],[2:00 PM],[10.0 km],[SSE],"[22.2 km/h
		/ 6.2 m/s]",METAR VHHH 280600Z 15012KT 110V180 9999 FEW030 SCT080 29/20 Q1014 NOSIG
0,[Scattered Clouds],1996-10-28,[21.0 °C],[],[-],[30.2 °C],[66%],[N/A],[1014 hPa],[28.0 °C],[3:00 PM],[10.0 km],[SE],"[29.6 km/h
		/ 8.2 m/s]",METAR VHHH 280700Z 14016KT 9999 FEW030 SCT080 28/21 Q1014 NOSIG
0,[Partly Cloudy],1996-10-28,[21.0 °C],[],[-],[28.9 °C],[70%],[N/A],[1014 hPa],[27.0 °C],[4:00 PM],[10.0 km],[SE],"[25.9 km/h
		/ 7.2 m/s]",METAR VHHH 280800Z 13014KT 9999 FEW030 27/21 Q1014 NOSIG
0,[Clear],1996-10-28,[21.0 °C],[],[-],[-],[74%],[N/A],[1014 hPa],[26.0 °C],[5:00 PM],[-],[SE],"[20.4 km/h
		/ 5.7 m/s]",METAR VHHH 280900Z 13011KT CAVOK 26/21 Q1014 NOSIG
0,[Clear],1996-10-28,[21.0 °C],[],[-],[-],[74%],[N/A],[1014 hPa],[26.0 °C],[6:00 PM],[-],[SE],"[18.5 km/h
		/ 5.1 m/s]",METAR VHHH 281000Z 13010KT CAVOK 26/21 Q1014 NOSIG
0,[Clear],1996-10-28,[21.0 °C],[],[-],[-],[74%],[N/A],[1015 hPa],[26.0 °C],[7:00 PM],[-],[SE],"[16.7 km/h
		/ 4.6 m/s]",METAR VHHH 281100Z 14009KT CAVOK 26/21 Q1015 NOSIG
0,[Clear],1996-10-28,[21.0 °C],[],[-],[-],[78%],[N/A],[1015 hPa],[25.0 °C],[8:00 PM],[-],[SE],"[11.1 km/h
		/ 3.1 m/s]",METAR VHHH 281200Z 13006KT CAVOK 25/21 Q1015 NOSIG
0,[Clear],1996-10-28,[21.0 °C],[],[-],[-],[78%],[N/A],[1016 hPa],[25.0 °C],[9:00 PM],[-],[ESE],"[14.8 km/h
		/ 4.1 m/s]",METAR VHHH 281300Z 12008KT CAVOK 25/21 Q1016 NOSIG
0,[Clear],1996-10-28,[21.0 °C],[],[-],[-],[78%],[N/A],[1016 hPa],[25.0 °C],[10:00 PM],[-],[ESE],"[11.1 km/h
		/ 3.1 m/s]",METAR VHHH 281400Z 11006KT 070V150 CAVOK 25/21 Q1016 NOSIG
0,[Clear],1996-10-28,[21.0 °C],[],[-],[-],[78%],[N/A],[1016 hPa],[25.0 °C],[11:00 PM],[-],[East],"[13.0 km/h
		/ 3.6 m/s]",METAR VHHH 281500Z 10007KT 050V120 CAVOK 25/21 Q1016 NOSIG
0,[Clear],1996-10-29,[21.0 °C],[],[-],[-],[83%],[N/A],[1015 hPa],[24.0 °C],[12:00 AM],[-],[ESE],"[13.0 km/h
		/ 3.6 m/s]",METAR VHHH 281600Z 11007KT CAVOK 24/21 Q1015 NOSIG
0,[Mostly Cloudy],1996-10-29,[21.0 °C],[],[-],[-],[83%],[N/A],[1015 hPa],[24.0 °C],[1:00 AM],[10.0 km],[ESE],"[13.0 km/h
		/ 3.6 m/s]",METAR VHHH 281700Z 11007KT 9999 FEW035 BKN090 24/21 Q1015 NOSIG
0,[Mostly Cloudy],1996-10-29,[22.0 °C],[],[-],[-],[89%],[N/A],[1014 hPa],[24.0 °C],[2:00 AM],[10.0 km],[East],"[11.1 km/h
		/ 3.1 m/s]",METAR VHHH 281800Z 10006KT 060V130 9999 FEW030 BKN080 24/22 Q1014 NOSIG
0,[Scattered Clouds],1996-10-29,[21.0 °C],[],[-],[-],[83%],[N/A],[1014 hPa],[24.0 °C],[3:00 AM],[10.0 km],[ESE],"[7.4 km/h
		/ 2.1 m/s]",METAR VHHH 281900Z 11004KT 020V130 9999 FEW030 SCT080 24/21 Q1014 NOSIG
0,[Scattered Clouds],1996-10-29,[21.0 °C],[],[-],[-],[83%],[N/A],[1013 hPa],[24.0 °C],[4:00 AM],[10.0 km],[ESE],"[7.4 km/h
		/ 2.1 m/s]",METAR VHHH 282000Z 11004KT 9999 FEW030 SCT080 24/21 Q1013 NOSIG
0,[Scattered Clouds],1996-10-29,[21.0 °C],[],[-],[-],[83%],[N/A],[1014 hPa],[24.0 °C],[5:00 AM],[10.0 km],[ESE],"[9.3 km/h
		/ 2.6 m/s]",METAR VHHH 282100Z 12005KT 9999 FEW030 SCT050 24/21 Q1014 NOSIG
0,[Mostly Cloudy],1996-10-29,[22.0 °C],[],[-],[-],[89%],[N/A],[1014 hPa],[24.0 °C],[6:00 AM],[10.0 km],[SE],"[11.1 km/h
		/ 3.1 m/s]",METAR VHHH 282200Z 13006KT 9999 FEW030 SCT050 BKN080 24/22 Q1014 NOSIG
0,[Scattered Clouds],1996-10-29,[22.0 °C],[],[-],[-],[83%],[N/A],[1014 hPa],[25.0 °C],[7:00 AM],[7.0 km],[East],"[11.1 km/h
		/ 3.1 m/s]",METAR VHHH 282300Z 08006KT 7000 FEW016 SCT040 25/22 Q1014 NOSIG
0,[Mostly Cloudy],1996-10-29,[22.0 °C],[],[-],[-],[78%],[N/A],[1015 hPa],[26.0 °C],[8:00 AM],[7.0 km],[ENE],"[7.4 km/h
		/ 2.1 m/s]",METAR VHHH 290000Z 07004KT 020V120 7000 FEW014 BKN080 26/22 Q1015 NOSIG
0,[Mostly Cloudy],1996-10-29,[22.0 °C],[],[-],[-],[78%],[N/A],[1016 hPa],[26.0 °C],[9:00 AM],[8.0 km],[East],"[9.3 km/h
		/ 2.6 m/s]",METAR VHHH 290100Z 09005KT 020V150 8000 FEW014 BKN080 26/22 Q1016 NOSIG
0,[Mostly Cloudy],1996-10-29,[22.0 °C],[],[-],[29.2 °C],[74%],[N/A],[1016 hPa],[27.0 °C],[10:00 AM],[10.0 km],[East],"[11.1 km/h
		/ 3.1 m/s]",METAR VHHH 290200Z 10006KT 060V120 9999 FEW016 BKN080 27/22 Q1016 NOSIG
0,[Mostly Cloudy],1996-10-29,[21.0 °C],[],[-],[31.3 °C],[62%],[N/A],[1016 hPa],[29.0 °C],[11:00 AM],[10.0 km],[ENE],"[13.0 km/h
		/ 3.6 m/s]",METAR VHHH 290300Z 07007KT 010V120 9999 FEW020 BKN080 29/21 Q1016 NOSIG
0,[Mostly Cloudy],1996-10-29,[19.0 °C],[],[-],[30.3 °C],[55%],[N/A],[1015 hPa],[29.0 °C],[12:00 PM],[10.0 km],[East],"[22.2 km/h
		/ 6.2 m/s]",METAR VHHH 290400Z 09012KT 070V130 9999 FEW025 BKN080 29/19 Q1015 NOSIG
0,[Mostly Cloudy],1996-10-29,[17.0 °C],[],[-],[31.4 °C],[43%],[N/A],[1015 hPa],[31.0 °C],[1:00 PM],[10.0 km],[East],"[20.4 km/h
		/ 5.7 m/s]",METAR VHHH 290500Z 10011KT 050V120 9999 FEW025 BKN080 31/17 Q1015 NOSIG
0,[Mostly Cloudy],1996-10-29,[18.0 °C],[],[-],[29.8 °C],[51%],[N/A],[1014 hPa],[29.0 °C],[2:00 PM],[10.0 km],[East],"[25.9 km/h
		/ 7.2 m/s]",METAR VHHH 290600Z 10014KT 040V130 9999 FEW030 BKN080 29/18 Q1014 NOSIG
0,[Mostly Cloudy],1996-10-29,[19.0 °C],[],[-],[29.2 °C],[58%],[N/A],[1013 hPa],[28.0 °C],[3:00 PM],[10.0 km],[East],"[24.1 km/h
		/ 6.7 m/s]",METAR VHHH 290700Z 09013KT 050V110 9999 FEW030 BKN080 28/19 Q1013 NOSIG
0,[Mostly Cloudy],1996-10-29,[19.0 °C],[],[-],[29.2 °C],[58%],[N/A],[1013 hPa],[28.0 °C],[4:00 PM],[10.0 km],[East],"[24.1 km/h
		/ 6.7 m/s]",METAR VHHH 290800Z 09013KT 9999 FEW030 BKN080 28/19 Q1013 NOSIG
0,[Mostly Cloudy],1996-10-29,[19.0 °C],[],[-],[28.2 °C],[61%],[N/A],[1013 hPa],[27.0 °C],[5:00 PM],[10.0 km],[East],"[25.9 km/h
		/ 7.2 m/s]",METAR VHHH 290900Z 09014KT 9999 FEW030 BKN080 27/19 Q1013 NOSIG
0,[Mostly Cloudy],1996-10-29,[19.0 °C],[],[-],[28.2 °C],[61%],[N/A],[1014 hPa],[27.0 °C],[6:00 PM],[10.0 km],[East],"[27.8 km/h
		/ 7.7 m/s]",METAR VHHH 291000Z 10015KT 9999 FEW030 BKN080 27/19 Q1014 NOSIG
0,[Mostly Cloudy],1996-10-29,[19.0 °C],[],[-],[28.2 °C],[61%],[N/A],[1014 hPa],[27.0 °C],[7:00 PM],[10.0 km],[East],"[18.5 km/h
		/ 5.1 m/s]",METAR VHHH 291100Z 09010KT 9999 FEW030 BKN080 27/19 Q1014 NOSIG
0,[Mostly Cloudy],1996-10-29,[19.0 °C],[],[-],[28.2 °C],[61%],[N/A],[1014 hPa],[27.0 °C],[8:00 PM],[10.0 km],[East],"[20.4 km/h
		/ 5.7 m/s]",METAR VHHH 291200Z 08011KT 9999 FEW030 BKN080 27/19 Q1014 NOSIG
0,[Mostly Cloudy],1996-10-29,[18.0 °C],[],[-],[27.9 °C],[58%],[N/A],[1015 hPa],[27.0 °C],[9:00 PM],[10.0 km],[East],"[22.2 km/h
		/ 6.2 m/s]",METAR VHHH 291300Z 08012KT 050V110 9999 FEW030 BKN080 27/18 Q1015 NOSIG
0,[Mostly Cloudy],1996-10-29,[18.0 °C],[],[-],[27.9 °C],[58%],[N/A],[1015 hPa],[27.0 °C],[10:00 PM],[10.0 km],[East],"[25.9 km/h
		/ 7.2 m/s]",METAR VHHH 291400Z 09014KT 050V110 9999 FEW030 BKN080 27/18 Q1015 NOSIG
0,[Mostly Cloudy],1996-10-29,[15.0 °C],[],[-],[28.0 °C],[45%],[N/A],[1015 hPa],[28.0 °C],[11:00 PM],[10.0 km],[East],"[25.9 km/h
		/ 7.2 m/s]",METAR VHHH 291500Z 08014KT 050V120 9999 FEW030 BKN080 28/15 Q1015 NOSIG
0,[Mostly Cloudy],1996-10-30,[14.0 °C],[],[-],[27.8 °C],[42%],[N/A],[1015 hPa],[28.0 °C],[12:00 AM],[10.0 km],[ENE],"[18.5 km/h
		/ 5.1 m/s]",METAR VHHH 291600Z 07010KT 030V140 9999 FEW030 BKN080 28/14 Q1015 NOSIG
0,[Mostly Cloudy],1996-10-30,[16.0 °C],[],[-],[27.5 °C],[51%],[N/A],[1014 hPa],[27.0 °C],[1:00 AM],[10.0 km],[East],"[20.4 km/h
		/ 5.7 m/s]",METAR VHHH 291700Z 08011KT 030V110 9999 FEW030 BKN080 27/16 Q1014 NOSIG
0,[Mostly Cloudy],1996-10-30,[16.0 °C],[],[-],[27.5 °C],[51%],[N/A],[1013 hPa],[27.0 °C],[2:00 AM],[10.0 km],[ESE],"[9.3 km/h
		/ 2.6 m/s]",METAR VHHH 291800Z 11005KT 070V150 9999 FEW030 BKN080 27/16 Q1013 NOSIG
0,[Scattered Clouds],1996-10-30,[17.0 °C],[],[-],[27.7 °C],[54%],[N/A],[1013 hPa],[27.0 °C],[3:00 AM],[10.0 km],[East],"[7.4 km/h
		/ 2.1 m/s]",METAR VHHH 291900Z 08004KT 010V130 9999 FEW030 SCT080 27/17 Q1013 NOSIG
0,[Mostly Cloudy],1996-10-30,[18.0 °C],[],[-],[27.9 °C],[58%],[N/A],[1012 hPa],[27.0 °C],[5:00 AM],[10.0 km],[ENE],"[7.4 km/h
		/ 2.1 m/s]",METAR VHHH 292100Z 06004KT 360V160 9999 FEW030 BKN080 27/18 Q1012 NOSIG
0,[Mostly Cloudy],1996-10-30,[17.0 °C],[],[-],[27.7 °C],[54%],[N/A],[1012 hPa],[27.0 °C],[6:00 AM],[10.0 km],[ENE],"[14.8 km/h
		/ 4.1 m/s]",METAR VHHH 292200Z 07008KT 360V120 9999 FEW025 BKN080 27/17 Q1012 NOSIG
0,[Mostly Cloudy],1996-10-30,[17.0 °C],[],[-],[27.7 °C],[54%],[N/A],[1013 hPa],[27.0 °C],[7:00 AM],[10.0 km],[East],"[13.0 km/h
		/ 3.6 m/s]",METAR VHHH 292300Z 08007KT 020V110 9999 FEW020 BKN060 27/17 Q1013 NOSIG
0,[Mostly Cloudy],1996-10-30,[18.0 °C],[],[-],[28.8 °C],[54%],[N/A],[1014 hPa],[28.0 °C],[8:00 AM],[10.0 km],[ENE],"[14.8 km/h
		/ 4.1 m/s]",METAR VHHH 300000Z 07008KT 340V170 9999 FEW025 BKN060 28/18 Q1014 NOSIG
0,[Mostly Cloudy],1996-10-30,[19.0 °C],[],[-],[29.2 °C],[58%],[N/A],[1014 hPa],[28.0 °C],[9:00 AM],[10.0 km],[East],"[13.0 km/h
		/ 3.6 m/s]",METAR VHHH 300100Z 09007KT 340V170 9999 FEW030 BKN080 28/19 Q1014 NOSIG
0,[Mostly Cloudy],1996-10-30,[19.0 °C],[],[-],[29.2 °C],[58%],[N/A],[1014 hPa],[28.0 °C],[10:00 AM],[10.0 km],[East],"[25.9 km/h
		/ 7.2 m/s]",METAR VHHH 300200Z 08014KT 050V120 9999 FEW025 BKN080 28/19 Q1014 NOSIG
0,[Mostly Cloudy],1996-10-30,[19.0 °C],[],[-],[30.3 °C],[55%],[N/A],[1013 hPa],[29.0 °C],[11:00 AM],[10.0 km],[East],"[22.2 km/h
		/ 6.2 m/s]",METAR VHHH 300300Z 10012KT 050V130 9999 FEW025 BKN080 29/19 Q1013 NOSIG
0,[Mostly Cloudy],1996-10-30,[21.0 °C],[],[-],[32.4 °C],[58%],[N/A],[1013 hPa],[30.0 °C],[12:00 PM],[10.0 km],[East],"[18.5 km/h
		/ 5.1 m/s]",METAR VHHH 300400Z 08010KT 030V130 9999 FEW030 BKN080 30/21 Q1013 NOSIG
0,[Mostly Cloudy],1996-10-30,[19.0 °C],[],[-],[31.2 °C],[51%],[N/A],[1012 hPa],[30.0 °C],[1:00 PM],[10.0 km],[East],"[20.4 km/h
		/ 5.7 m/s]",METAR VHHH 300500Z 09011KT 050V120 9999 FEW030 BKN080 30/19 Q1012 NOSIG
0,[Scattered Clouds],1996-10-30,[20.0 °C],[],[-],[31.9 °C],[55%],[N/A],[1011 hPa],[30.0 °C],[2:00 PM],[10.0 km],[ENE],"[18.5 km/h
		/ 5.1 m/s]",METAR VHHH 300600Z 07010KT 020120 9999 FEW030 SCT090 30/20 Q1011 NOSIG
0,[Scattered Clouds],1996-10-30,[21.0 °C],[],[-],[31.3 °C],[62%],[N/A],[1011 hPa],[29.0 °C],[3:00 PM],[10.0 km],[ENE],"[14.8 km/h
		/ 4.1 m/s]",METAR VHHH 300700Z 07008KT 300V130 9999 FEW030 SCT090 29/21 Q1011 NOSIG
0,[Scattered Clouds],1996-10-30,[22.0 °C],[],[-],[32.0 °C],[66%],[N/A],[1011 hPa],[29.0 °C],[4:00 PM],[10.0 km],[ENE],"[16.7 km/h
		/ 4.6 m/s]",METAR VHHH 300800Z 07009KT 050V120 9999 FEW025 SCT040 29/22 Q1011 NOSIG
0,[Scattered Clouds],1996-10-30,[22.0 °C],[],[-],[30.7 °C],[70%],[N/A],[1011 hPa],[28.0 °C],[5:00 PM],[10.0 km],[East],"[13.0 km/h
		/ 3.6 m/s]",METAR VHHH 300900Z 08007KT 050V130 9999 FEW016 SCT035 28/22 Q1011 NOSIG
0,[Scattered Clouds],1996-10-30,[22.0 °C],[],[-],[29.2 °C],[74%],[N/A],[1011 hPa],[27.0 °C],[6:00 PM],[10.0 km],[East],"[13.0 km/h
		/ 3.6 m/s]",METAR VHHH 301000Z 08007KT 040V150 9999 FEW016 SCT300 27/22 Q1011 NOSIG
0,[Scattered Clouds],1996-10-30,[23.0 °C],[],[-],[-],[83%],[N/A],[1012 hPa],[26.0 °C],[7:00 PM],[10.0 km],[East],"[18.5 km/h
		/ 5.1 m/s]",METAR VHHH 301100Z 10010KT 070V140 9999 FEW016 SCT120 26/23 Q1012 NOSIG
0,[Mostly Cloudy],1996-10-30,[23.0 °C],[],[-],[29.6 °C],[79%],[N/A],[1012 hPa],[27.0 °C],[8:00 PM],[10.0 km],[East],"[14.8 km/h
		/ 4.1 m/s]",METAR VHHH 301200Z 08008KT 040V160 9999 FEW014 SCT025 BKN100 27/23 Q1012 NOSIG
0,[Mostly Cloudy],1996-10-30,[23.0 °C],[],[-],[29.6 °C],[79%],[N/A],[1013 hPa],[27.0 °C],[9:00 PM],[10.0 km],[ESE],"[14.8 km/h
		/ 4.1 m/s]",METAR VHHH 301300Z 11008KT 050V140 9999 FEW013 SCT018 BKN080 27/23 Q1013 NOSIG
0,[Mostly Cloudy],1996-10-30,[23.0 °C],[],[-],[-],[83%],[N/A],[1013 hPa],[26.0 °C],[10:00 PM],[10.0 km],[East],"[11.1 km/h
		/ 3.1 m/s]",METAR VHHH 301400Z 10006KT 050V120 9999 FEW015 SCT020 BKN080 26/23 Q1013 NOSIG
0,[Mostly Cloudy],1996-10-30,[23.0 °C],[],[-],[29.6 °C],[79%],[N/A],[1013 hPa],[27.0 °C],[11:00 PM],[10.0 km],[East],"[11.1 km/h
		/ 3.1 m/s]",METAR VHHH 301500Z 09006KT 060V130 9999 FEW015 SCT020 BKN080 27/23 Q1013 NOSIG
0,[Scattered Clouds],1996-10-31,[23.0 °C],[],[-],[-],[83%],[N/A],[1013 hPa],[26.0 °C],[12:00 AM],[10.0 km],[East],"[11.1 km/h
		/ 3.1 m/s]",METAR VHHH 301600Z 09006KT 040V140 9999 FEW018 SCT025 26/23 Q1013 NOSIG
0,[Partly Cloudy],1996-10-31,[22.0 °C],[],[-],[-],[83%],[N/A],[1013 hPa],[25.0 °C],[1:00 AM],[10.0 km],[East],"[9.3 km/h
		/ 2.6 m/s]",METAR VHHH 301700Z 08005KT 050V130 9999 FEW018 25/22 Q1013 NOSIG
0,[Partly Cloudy],1996-10-31,[22.0 °C],[],[-],[-],[83%],[N/A],[1012 hPa],[25.0 °C],[3:00 AM],[10.0 km],[SE],"[1.9 km/h
		/ 0.5 m/s]",METAR VHHH 301900Z 13001KT 9999 FEW020 25/22 Q1012 NOSIG
0,[Partly Cloudy],1996-10-31,[20.0 °C],[],[-],[-],[78%],[N/A],[1012 hPa],[24.0 °C],[5:00 AM],[10.0 km],[NE],"[3.7 km/h
		/ 1.0 m/s]",METAR VHHH 302100Z 05002KT 9999 FEW018 24/20 Q1012 NOSIG
0,[Scattered Clouds],1996-10-31,[20.0 °C],[],[-],[-],[78%],[N/A],[1012 hPa],[24.0 °C],[6:00 AM],[10.0 km],[Variable],"[3.7 km/h
		/ 1.0 m/s]",METAR VHHH 302200Z VRB02KT 9999 FEW020 SCT100 24/20 Q1012 NOSIG
0,[Scattered Clouds],1996-10-31,[20.0 °C],[],[-],[-],[74%],[N/A],[1012 hPa],[25.0 °C],[7:00 AM],[10.0 km],[South],"[3.7 km/h
		/ 1.0 m/s]",METAR VHHH 302300Z 19002KT 9999 FEW030 SCT100 25/20 Q1012 NOSIG
0,[Clear],1996-10-31,[20.0 °C],[],[-],[28.5 °C],[65%],[N/A],[1013 hPa],[27.0 °C],[8:00 AM],[-],[SE],"[5.6 km/h
		/ 1.5 m/s]",METAR VHHH 310000Z 14003KT CAVOK 27/20 Q1013 NOSIG
0,[Clear],1996-10-31,[20.0 °C],[],[-],[30.7 °C],[58%],[N/A],[1014 hPa],[29.0 °C],[9:00 AM],[-],[East],"[13.0 km/h
		/ 3.6 m/s]",METAR VHHH 310100Z 09007KT 040V120 CAVOK 29/20 Q1014 NOSIG
0,[Scattered Clouds],1996-10-31,[21.0 °C],[],[-],[31.3 °C],[62%],[N/A],[1013 hPa],[29.0 °C],[10:00 AM],[10.0 km],[East],"[16.7 km/h
		/ 4.6 m/s]",METAR VHHH 310200Z 08009KT 030V120 9999 FEW025 SCT100 29/21 Q1013 NOSIG
0,[Partly Cloudy],1996-10-31,[21.0 °C],[],[-],[32.4 °C],[58%],[N/A],[1013 hPa],[30.0 °C],[11:00 AM],[10.0 km],[East],"[20.4 km/h
		/ 5.7 m/s]",METAR VHHH 310300Z 09011KT 040V140 9999 FEW025 30/21 Q1013 NOSIG
0,[Scattered Clouds],1996-10-31,[21.0 °C],[],[-],[33.7 °C],[55%],[N/A],[1012 hPa],[31.0 °C],[12:00 PM],[10.0 km],[East],"[20.4 km/h
		/ 5.7 m/s]",METAR VHHH 310400Z 10011KT 040V140 9999 FEW025 SCT300 31/21 Q1012 NOSIG
0,[Scattered Clouds],1996-10-31,[21.0 °C],[],[-],[33.7 °C],[55%],[N/A],[1011 hPa],[31.0 °C],[1:00 PM],[10.0 km],[East],"[18.5 km/h
		/ 5.1 m/s]",METAR VHHH 310500Z 08010KT 030V120 9999 FEW025 SCT300 31/21 Q1011 NOSIG
0,[Partly Cloudy],1996-10-31,[21.0 °C],[],[-],[33.7 °C],[55%],[N/A],[1010 hPa],[31.0 °C],[2:00 PM],[10.0 km],[East],"[16.7 km/h
		/ 4.6 m/s]",METAR VHHH 310600Z 08009KT 050V120 9999 FEW025 31/21 Q1010 NOSIG
0,[Partly Cloudy],1996-10-31,[22.0 °C],[],[-],[33.2 °C],[62%],[N/A],[1010 hPa],[30.0 °C],[3:00 PM],[10.0 km],[East],"[14.8 km/h
		/ 4.1 m/s]",METAR VHHH 310700Z 09008KT 030V200 9999 FEW020 30/22 Q1010 NOSIG
0,[Partly Cloudy],1996-10-31,[22.0 °C],[],[-],[33.2 °C],[62%],[N/A],[1010 hPa],[30.0 °C],[4:00 PM],[10.0 km],[East],"[13.0 km/h
		/ 3.6 m/s]",METAR VHHH 310800Z 08007KT 030V130 9999 FEW025 30/22 Q1010 NOSIG
0,[Partly Cloudy],1996-10-31,[22.0 °C],[],[-],[32.0 °C],[66%],[N/A],[1010 hPa],[29.0 °C],[5:00 PM],[10.0 km],[ENE],"[16.7 km/h
		/ 4.6 m/s]",METAR VHHH 310900Z 07009KT 040V120 9999 FEW025 29/22 Q1010 NOSIG
0,[Partly Cloudy],1996-10-31,[22.0 °C],[],[-],[30.7 °C],[70%],[N/A],[1010 hPa],[28.0 °C],[6:00 PM],[10.0 km],[East],"[13.0 km/h
		/ 3.6 m/s]",METAR VHHH 311000Z 08007KT 050V120 9999 FEW020 28/22 Q1010 NOSIG
0,[Scattered Clouds],1996-10-31,[22.0 °C],[],[-],[29.2 °C],[74%],[N/A],[1011 hPa],[27.0 °C],[7:00 PM],[10.0 km],[ENE],"[9.3 km/h
		/ 2.6 m/s]",METAR VHHH 311100Z 06005KT 350V120 9999 FEW020 SCT025 27/22 Q1011 NOSIG
0,[Partly Cloudy],1996-10-31,[23.0 °C],[],[-],[29.6 °C],[79%],[N/A],[1012 hPa],[27.0 °C],[8:00 PM],[10.0 km],[East],"[11.1 km/h
		/ 3.1 m/s]",METAR VHHH 311200Z 09006KT 050V130 9999 FEW018 27/23 Q1012 NOSIG
0,[Partly Cloudy],1996-10-31,[23.0 °C],[],[-],[29.6 °C],[79%],[N/A],[1012 hPa],[27.0 °C],[9:00 PM],[10.0 km],[East],"[14.8 km/h
		/ 4.1 m/s]",METAR VHHH 311300Z 10008KT 050V120 9999 FEW018 27/23 Q1012 NOSIG
0,[Partly Cloudy],1996-10-31,[23.0 °C],[],[-],[29.6 °C],[79%],[N/A],[1011 hPa],[27.0 °C],[10:00 PM],[10.0 km],[East],"[13.0 km/h
		/ 3.6 m/s]",METAR VHHH 311400Z 08007KT 050V120 9999 FEW018 27/23 Q1011 NOSIG
0,[Scattered Clouds],1996-11-1,[23.0 °C],[],[-],[-],[83%],[N/A],[1011 hPa],[26.0 °C],[12:00 AM],[10.0 km],[East],"[13.0 km/h
		/ 3.6 m/s]",METAR VHHH 311600Z 08007KT 030V120 9999 FEW016 SCT0300 26/23 Q1011 NOSIG
0,[Scattered Clouds],1996-11-1,[23.0 °C],[],[-],[29.6 °C],[79%],[N/A],[1011 hPa],[27.0 °C],[1:00 AM],[10.0 km],[East],"[13.0 km/h
		/ 3.6 m/s]",METAR VHHH 311700Z 08007KT 050V130 9999 FEW015 SCT025 27/23 Q1011 NOSIG
0,[Scattered Clouds],1996-11-1,[23.0 °C],[],[-],[-],[83%],[N/A],[1011 hPa],[26.0 °C],[2:00 AM],[10.0 km],[East],"[13.0 km/h
		/ 3.6 m/s]",METAR VHHH 311800Z 08007KT 030V130 9999 FEW015 SCT022 26/23 Q1011 NOSIG
0,[Scattered Clouds],1996-11-1,[23.0 °C],[],[-],[-],[83%],[N/A],[1010 hPa],[26.0 °C],[3:00 AM],[10.0 km],[ENE],"[7.4 km/h
		/ 2.1 m/s]",METAR VHHH 311900Z 07004KT 030V130 9999 FEW015 SCT025 26/23 Q1010 NOSIG
0,[Scattered Clouds],1996-11-1,[23.0 °C],[],[-],[-],[83%],[N/A],[1011 hPa],[26.0 °C],[4:00 AM],[10.0 km],[ENE],"[7.4 km/h
		/ 2.1 m/s]",METAR VHHH 312000Z 07004KT 020V130 9999 FEW012 SCT022 26/23 Q1011 NOSIG
0,[Scattered Clouds],1996-11-1,[23.0 °C],[],[-],[-],[83%],[N/A],[1011 hPa],[26.0 °C],[5:00 AM],[10.0 km],[ENE],"[9.3 km/h
		/ 2.6 m/s]",METAR VHHH 312100Z 07005KT 030V100 9999 FEW013 SCT022 26/23 Q1011 NOSIG
0,[Scattered Clouds],1996-11-1,[23.0 °C],[],[-],[-],[83%],[N/A],[1011 hPa],[26.0 °C],[6:00 AM],[10.0 km],[ENE],"[7.4 km/h
		/ 2.1 m/s]",METAR VHHH 312200Z 07004KT 9999 FEW014 SCT025 26/23 Q1011 NOSIG
0,[Scattered Clouds],1996-11-1,[23.0 °C],[],[-],[-],[83%],[N/A],[1011 hPa],[26.0 °C],[7:00 AM],[10.0 km],[Variable],"[1.9 km/h
		/ 0.5 m/s]",METAR VHHH 312300Z VRB01KT 9999 FEW018 SCT080 26/23 Q1011 NOSIG
0,[Mostly Cloudy],1996-11-1,[23.0 °C],[],[-],[29.6 °C],[79%],[N/A],[1012 hPa],[27.0 °C],[8:00 AM],[10.0 km],[South],"[7.4 km/h
		/ 2.1 m/s]",METAR VHHH 010000Z 19004KT 080V180 9999 FEW020 BKN300 27/23 Q1012 NOSIG
0,[Mostly Cloudy],1996-11-1,[21.0 °C],[],[-],[31.3 °C],[62%],[N/A],[1012 hPa],[29.0 °C],[9:00 AM],[10.0 km],[NNE],"[11.1 km/h
		/ 3.1 m/s]",METAR VHHH 010100Z 03006KT 060V150 9999 FEW025 BKN300 29/21 Q1012 NOSIG
0,[Mostly Cloudy],1996-11-1,[21.0 °C],[],[-],[31.3 °C],[62%],[N/A],[1012 hPa],[29.0 °C],[10:00 AM],[10.0 km],[East],"[9.3 km/h
		/ 2.6 m/s]",METAR VHHH 010200Z 10005KT 010V140 9999 FEW025 BKN035 29/21 Q1012 NOSIG
0,[Mostly Cloudy],1996-11-1,[22.0 °C],[],[-],[34.4 °C],[58%],[N/A],[1011 hPa],[31.0 °C],[11:00 AM],[10.0 km],[East],"[13.0 km/h
		/ 3.6 m/s]",METAR VHHH 010300Z 09007KT 030V120 9999 FEW025 BKN300 31/22 Q1011 NOSIG
0,[Mostly Cloudy],1996-11-1,[21.0 °C],[],[-],[33.7 °C],[55%],[N/A],[1011 hPa],[31.0 °C],[12:00 PM],[10.0 km],[East],"[9.3 km/h
		/ 2.6 m/s]",METAR VHHH 010400Z 10005KT 030V150 9999 FEW025 BKN300 31/21 Q1011 NOSIG
0,[Mostly Cloudy],1996-11-1,[21.0 °C],[],[-],[33.7 °C],[55%],[N/A],[1010 hPa],[31.0 °C],[1:00 PM],[10.0 km],[ENE],"[9.3 km/h
		/ 2.6 m/s]",METAR VHHH 010500Z 06005KT 360V210 9999 FEW025 BKN300 31/21 Q1010 NOSIG
0,[Mostly Cloudy],1996-11-1,[21.0 °C],[],[-],[34.9 °C],[52%],[N/A],[1009 hPa],[32.0 °C],[2:00 PM],[10.0 km],[East],"[16.7 km/h
		/ 4.6 m/s]",METAR VHHH 010600Z 10009KT 050V120 9999 FEW025 BKN300 32/21 Q1009 NOSIG
0,[Mostly Cloudy],1996-11-1,[21.0 °C],[],[-],[34.9 °C],[52%],[N/A],[1009 hPa],[32.0 °C],[3:00 PM],[10.0 km],[East],"[16.7 km/h
		/ 4.6 m/s]",METAR VHHH 010700Z 10009KT 050V160 9999 FEW025 BKN300 32/21 Q1009 NOSIG
0,[Mostly Cloudy],1996-11-1,[21.0 °C],[],[-],[33.7 °C],[55%],[N/A],[1009 hPa],[31.0 °C],[4:00 PM],[10.0 km],[East],"[16.7 km/h
		/ 4.6 m/s]",METAR VHHH 010800Z 10009KT 060V140 9999 FEW025 BKN300 31/21 Q1009 NOSIG
0,[Clear],1996-11-1,[20.0 °C],[],[-],[31.9 °C],[55%],[N/A],[1009 hPa],[30.0 °C],[5:00 PM],[-],[ESE],"[11.1 km/h
		/ 3.1 m/s]",METAR VHHH 010900Z 11006KT 080V160 CAVOK 30/20 Q1009 NOSIG
0,[Clear],1996-11-1,[20.0 °C],[],[-],[31.9 °C],[55%],[N/A],[1009 hPa],[30.0 °C],[6:00 PM],[-],[East],"[9.3 km/h
		/ 2.6 m/s]",METAR VHHH 011000Z 10005KT 060V130 CAVOK 30/20 Q1009 NOSIG
0,[Clear],1996-11-1,[21.0 °C],[],[-],[31.3 °C],[62%],[N/A],[1009 hPa],[29.0 °C],[7:00 PM],[-],[ESE],"[9.3 km/h
		/ 2.6 m/s]",METAR VHHH 011100Z 12005KT CAVOK 29/21 Q1009 NOSIG
0,[Clear],1996-11-1,[20.0 °C],[],[-],[30.7 °C],[58%],[N/A],[1010 hPa],[29.0 °C],[8:00 PM],[-],[NE],"[7.4 km/h
		/ 2.1 m/s]",METAR VHHH 011200Z 05004KT 360V100 CAVOK 29/20 Q1010 NOSIG
0,[Clear],1996-11-1,[20.0 °C],[],[-],[30.7 °C],[58%],[N/A],[1010 hPa],[29.0 °C],[9:00 PM],[-],[Variable],"[3.7 km/h
		/ 1.0 m/s]",METAR VHHH 011300Z VRB02KT CAVOK 29/20 Q1010 NOSIG
0,[Clear],1996-11-1,[20.0 °C],[],[-],[29.7 °C],[62%],[N/A],[1010 hPa],[28.0 °C],[10:00 PM],[-],[ESE],"[11.1 km/h
		/ 3.1 m/s]",METAR VHHH 011400Z 11006KT CAVOK 28/20 Q1010 NOSIG
0,[Clear],1996-11-1,[20.0 °C],[],[-],[29.7 °C],[62%],[N/A],[1010 hPa],[28.0 °C],[11:00 PM],[-],[ESE],"[9.3 km/h
		/ 2.6 m/s]",METAR VHHH 011500Z 11005KT 070V130 CAVOK 28/20 Q1010 NOSIG
0,[Clear],1996-11-2,[20.0 °C],[],[-],[30.7 °C],[58%],[N/A],[1010 hPa],[29.0 °C],[12:00 AM],[-],[East],"[13.0 km/h
		/ 3.6 m/s]",METAR VHHH 011600Z 10007KT 070V130 CAVOK 29/20 Q1010 NOSIG
0,[Clear],1996-11-2,[20.0 °C],[],[-],[29.7 °C],[62%],[N/A],[1010 hPa],[28.0 °C],[1:00 AM],[-],[ENE],"[5.6 km/h
		/ 1.5 m/s]",METAR VHHH 011700Z 06003KT 010V110 CAVOK 28/20 Q1010 NOSIG
0,[Clear],1996-11-2,[21.0 °C],[],[-],[30.2 °C],[66%],[N/A],[1010 hPa],[28.0 °C],[2:00 AM],[-],[ENE],"[5.6 km/h
		/ 1.5 m/s]",METAR VHHH 011800Z 07003KT CAVOK 28/21 Q1010 NOSIG
0,[Clear],1996-11-2,[22.0 °C],[],[-],[29.2 °C],[74%],[N/A],[1010 hPa],[27.0 °C],[3:00 AM],[-],[NE],"[9.3 km/h
		/ 2.6 m/s]",METAR VHHH 011900Z 05005KT 360V080 CAVOK 27/22 Q1010 NOSIG
0,[Clear],1996-11-2,[21.0 °C],[],[-],[-],[74%],[N/A],[1011 hPa],[26.0 °C],[4:00 AM],[-],[North],"[5.6 km/h
		/ 1.5 m/s]",METAR VHHH 012000Z 36003KT CAVOK 26/21 Q1011 NOSIG
0,[Clear],1996-11-2,[20.0 °C],[],[-],[-],[69%],[N/A],[1011 hPa],[26.0 °C],[5:00 AM],[-],[Variable],"[1.9 km/h
		/ 0.5 m/s]",METAR VHHH 012100Z VRB01KT CAVOK 26/20 Q1011 NOSIG
0,[Clear],1996-11-2,[20.0 °C],[],[-],[-],[69%],[N/A],[1011 hPa],[26.0 °C],[6:00 AM],[-],[NW],"[5.6 km/h
		/ 1.5 m/s]",METAR VHHH 012200Z 32003KT CAVOK 26/20 Q1011 NOSIG
0,[Clear],1996-11-2,[20.0 °C],[],[-],[-],[69%],[N/A],[1012 hPa],[26.0 °C],[7:00 AM],[-],[Variable],"[1.9 km/h
		/ 0.5 m/s]",METAR VHHH 012300Z VRB01KT CAVOK 26/20 Q1012 NOSIG
0,[Mostly Cloudy],1996-11-2,[19.0 °C],[],[-],[-],[65%],[N/A],[1012 hPa],[26.0 °C],[8:00 AM],[10.0 km],[NW],"[5.6 km/h
		/ 1.5 m/s]",METAR VHHH 020000Z 32003KT 9999 FEW030 BKN300 26/19 Q1012 NOSIG
0,[Mostly Cloudy],1996-11-2,[19.0 °C],[],[-],[28.2 °C],[61%],[N/A],[1013 hPa],[27.0 °C],[9:00 AM],[10.0 km],[NNE],"[11.1 km/h
		/ 3.1 m/s]",METAR VHHH 020100Z 03006KT 360V090 9999 FEW030 BKN300 27/19 Q1013 WS LDG RWY 13/31 NOSIG
0,[Mostly Cloudy],1996-11-2,[19.0 °C],[],[-],[30.3 °C],[55%],[N/A],[1013 hPa],[29.0 °C],[10:00 AM],[10.0 km],[NE],"[22.2 km/h
		/ 6.2 m/s]",METAR VHHH 020200Z 04012KT 330V110 9999 FEW030 BKN300 29/19 Q1013 WS LDG RWY 13/31 NOSIG
0,[Scattered Clouds],1996-11-2,[19.0 °C],[],[-],[30.3 °C],[55%],[N/A],[1013 hPa],[29.0 °C],[11:00 AM],[10.0 km],[NE],"[25.9 km/h
		/ 7.2 m/s]",METAR VHHH 020300Z 05014KT 350V090 9999 FEW030 SCT300 29/19 Q1013 WS LDG RWY 13/31 NOSIG
0,[Scattered Clouds],1996-11-2,[19.0 °C],[],[-],[30.3 °C],[55%],[N/A],[1013 hPa],[29.0 °C],[12:00 PM],[10.0 km],[NE],"[20.4 km/h
		/ 5.7 m/s]",METAR VHHH 020400Z 05011KT 300V140 9999 FEW030 SCT300 29/19 Q1013 WS LDG RWY 13/31 NOSIG
0,[Scattered Clouds],1996-11-2,[19.0 °C],[],[-],[30.3 °C],[55%],[N/A],[1012 hPa],[29.0 °C],[1:00 PM],[10.0 km],[East],"[25.9 km/h
		/ 7.2 m/s]",METAR VHHH 020500Z 08014KT 360V140 9999 FEW030 SCT300 29/19 Q1012 WS LDG RWY 13/31 NOSIG
0,[Scattered Clouds],1996-11-2,[20.0 °C],[],[-],[30.7 °C],[58%],[N/A],[1011 hPa],[29.0 °C],[2:00 PM],[10.0 km],[NE],"[18.5 km/h
		/ 5.1 m/s]",METAR VHHH 020600Z 05010KT 360V110 9999 FEW035 SCT100 29/20 Q1011 WS LDG RWY 13/31 NOSIG
0,[Mostly Cloudy],1996-11-2,[20.0 °C],[],[-],[30.7 °C],[58%],[N/A],[1011 hPa],[29.0 °C],[3:00 PM],[10.0 km],[East],"[22.2 km/h
		/ 6.2 m/s]",METAR VHHH 020700Z 08012KT 020V120 9999 FEW030 BKN080 29/20 Q1011 WS LDG RWY 13/31 NOSIG
0,[Mostly Cloudy],1996-11-2,[21.0 °C],[],"[46.3 km/h
		/ 12.9 m/s]",[30.2 °C],[66%],[N/A],[1011 hPa],[28.0 °C],[4:00 PM],[10.0 km],[East],"[22.2 km/h
		/ 6.2 m/s]",METAR VHHH 020800Z 08012G25KT 050V130 9999 SCT030 BKN080 28/21 Q1011 WS LDG RWY 13/31 NOSIG
0,[Mostly Cloudy],1996-11-2,[20.0 °C],[],[-],[29.7 °C],[62%],[N/A],[1011 hPa],[28.0 °C],[5:00 PM],[10.0 km],[ENE],"[14.8 km/h
		/ 4.1 m/s]",METAR VHHH 020900Z 06008KT 350V100 9999 FEW030 BKN080 28/20 Q1011 WS LDG RWY 13/31 NOSIG
0,[Mostly Cloudy],1996-11-2,[20.0 °C],[],[-],[29.7 °C],[62%],[N/A],[1012 hPa],[28.0 °C],[6:00 PM],[10.0 km],[NE],"[14.8 km/h
		/ 4.1 m/s]",METAR VHHH 021000Z 05008KT 330V110 9999 FEW030 SCT035 BKN080 28/20 Q1012 WS LDG RWY 13/31 NOSIG
0,[Mostly Cloudy],1996-11-2,[20.0 °C],[],[-],[28.5 °C],[65%],[N/A],[1013 hPa],[27.0 °C],[7:00 PM],[10.0 km],[NE],"[16.7 km/h
		/ 4.6 m/s]",METAR VHHH 021100Z 04009KT 340V070 9999 FEW025 SCT035 BKN080 27/20 Q1013 WS LDG RWY 13/31 NOSIG
0,[Mostly Cloudy],1996-11-2,[19.0 °C],[],[-],[28.2 °C],[61%],[N/A],[1014 hPa],[27.0 °C],[8:00 PM],[10.0 km],[NE],"[13.0 km/h
		/ 3.6 m/s]",METAR VHHH 021200Z 04007KT 340V130 9999 FEW025 SCT035 BKN080 27/19 Q1014 WS LDG RWY 13/31 NOSIG
0,[Mostly Cloudy],1996-11-2,[19.0 °C],[],[-],[-],[65%],[N/A],[1014 hPa],[26.0 °C],[9:00 PM],[10.0 km],[NE],"[18.5 km/h
		/ 5.1 m/s]",METAR VHHH 021300Z 04010KT 350V070 9999 FEW025 BKN080 26/19 Q1014 WS LDG RWY 13/31 NOSIG
0,[Mostly Cloudy],1996-11-2,[19.0 °C],[],[-],[-],[65%],[N/A],[1014 hPa],[26.0 °C],[10:00 PM],[10.0 km],[ENE],"[13.0 km/h
		/ 3.6 m/s]",METAR VHHH 021400Z 07007KT 020V120 9999 FEW025 BKN080 26/19 Q1014 WS LDG RWY 13/31 NOSIG
0,[Mostly Cloudy],1996-11-2,[19.0 °C],[],[-],[-],[65%],[N/A],[1014 hPa],[26.0 °C],[11:00 PM],[10.0 km],[ENE],"[14.8 km/h
		/ 4.1 m/s]",METAR VHHH 021500Z 06008KT 340V100 9999 FEW025 BKN080 26/19 Q1014 NOSIG
0,[Mostly Cloudy],1996-11-3,[19.0 °C],[],[-],[-],[65%],[N/A],[1014 hPa],[26.0 °C],[12:00 AM],[10.0 km],[ENE],"[14.8 km/h
		/ 4.1 m/s]",METAR VHHH 021600Z 07008KT 350V130 9999 FEW025 BKN080 26/19 Q1014 WS LDG RWY 13/31 NOSIG
0,[Mostly Cloudy],1996-11-3,[19.0 °C],[],[-],[-],[69%],[N/A],[1014 hPa],[25.0 °C],[1:00 AM],[10.0 km],[ENE],"[14.8 km/h
		/ 4.1 m/s]",METAR VHHH 021700Z 06008KT 350V120 9999 FEW020 BKN080 25/19 Q1014 WS LDG RWY 13/31 NOSIG
0,[Light Rain],1996-11-3,[20.0 °C],[Rain],[-],[-],[78%],[N/A],[1014 hPa],[24.0 °C],[2:00 AM],[10.0 km],[ENE],"[22.2 km/h
		/ 6.2 m/s]",METAR VHHH 021800Z 06012KT 320V110 9999 -RA FEW020 BKN080 24/20 Q1014 WS LDG RWY 13/31 NOSIG
0,[Light Rain],1996-11-3,[20.0 °C],[Rain],[-],[-],[74%],[N/A],[1014 hPa],[25.0 °C],[3:00 AM],[10.0 km],[East],"[29.6 km/h
		/ 8.2 m/s]",METAR VHHH 021900Z 09016KT 050V120 9999 -RA FEW016 SCT020 BKN080 25/20 Q1014 WS LDG RWY 13/31 NOSIG
0,[Light Rain],1996-11-3,[21.0 °C],[Rain],"[38.9 km/h
		/ 10.8 m/s]",[-],[83%],[N/A],[1013 hPa],[24.0 °C],[4:00 AM],[10.0 km],[ENE],"[20.4 km/h
		/ 5.7 m/s]",METAR VHHH 022000Z 07011G21KT 360V140 9999 -RA FEW016 SCT020 BKN080 24/21 Q1013 WS LDG RWY 13/31 NOSIG
0,[Mostly Cloudy],1996-11-3,[20.0 °C],[],[-],[-],[78%],[N/A],[1013 hPa],[24.0 °C],[5:00 AM],[10.0 km],[ENE],"[20.4 km/h
		/ 5.7 m/s]",METAR VHHH 022100Z 07011KT 340V130 9999 FEW016 SCT020 BKN080 24/20 Q1013 NOSIG
0,[Mostly Cloudy],1996-11-3,[19.0 °C],[],"[57.4 km/h
		/ 15.9 m/s]",[-],[69%],[N/A],[1014 hPa],[25.0 °C],[6:00 AM],[10.0 km],[ENE],"[29.6 km/h
		/ 8.2 m/s]",METAR VHHH 022200Z 06016G31KT 010V140 9999 FEW018 SCT022 BKN080 25/19 Q1014 WS LDG RWY 13/31 NOSIG
0,[Mostly Cloudy],1996-11-3,[19.0 °C],[],"[44.4 km/h
		/ 12.3 m/s]",[-],[69%],[N/A],[1015 hPa],[25.0 °C],[7:00 AM],[10.0 km],[East],"[24.1 km/h
		/ 6.7 m/s]",METAR VHHH 022300Z 08013G24KT 030V120 9999 FEW020 SCT025 BKN080 25/19 Q1015 WS LDG RWY 13/31 NOSIG
0,[Mostly Cloudy],1996-11-3,[19.0 °C],[],"[50.0 km/h
		/ 13.9 m/s]",[-],[69%],[N/A],[1016 hPa],[25.0 °C],[8:00 AM],[10.0 km],[East],"[27.8 km/h
		/ 7.7 m/s]",METAR VHHH 030000Z 08015G27KT 030V120 9999 FEW020 SCT025 BKN080 25/19 Q1016 WS LDG RWY 13/31 NOSIG
0,[Scattered Clouds],1996-11-3,[19.0 °C],[],"[66.7 km/h
		/ 18.5 m/s]",[-],[65%],[N/A],[1016 hPa],[26.0 °C],[9:00 AM],[10.0 km],[East],"[37.0 km/h
		/ 10.3 m/s]",METAR VHHH 030100Z 08020G36KT 350V140 9999 FEW025 SCT080 26/19 Q1016 WS LDG RWY 13/31 NOSIG
0,[Mostly Cloudy],1996-11-3,[19.0 °C],[],"[68.5 km/h
		/ 19.0 m/s]",[-],[65%],[N/A],[1016 hPa],[26.0 °C],[10:00 AM],[10.0 km],[East],"[42.6 km/h
		/ 11.8 m/s]",METAR VHHH 030200Z 09023G37KT 050V140 9999 FEW020 SCT030 BKN100 26/19 Q1016 WS LDG RWY 13/31 NOSIG
0,[Mostly Cloudy],1996-11-3,[19.0 °C],[],"[59.3 km/h
		/ 16.5 m/s]",[-],[65%],[N/A],[1016 hPa],[26.0 °C],[11:00 AM],[10.0 km],[East],"[29.6 km/h
		/ 8.2 m/s]",METAR VHHH 030300Z 09016G32KT 040V150 9999 FEW020 SCT030 BKN100 26/19 Q1016 WS LDG RWY 13/31 NOSIG
0,[Scattered Clouds],1996-11-3,[20.0 °C],[],"[48.2 km/h
		/ 13.4 m/s]",[28.5 °C],[65%],[N/A],[1015 hPa],[27.0 °C],[12:00 PM],[10.0 km],[East],"[29.6 km/h
		/ 8.2 m/s]",METAR VHHH 030400Z 09016G26KT 040V150 9999 FEW020 SCT030 27/20 Q1015 NOSIG
0,[Scattered Clouds],1996-11-3,[20.0 °C],[],"[53.7 km/h
		/ 14.9 m/s]",[28.5 °C],[65%],[N/A],[1015 hPa],[27.0 °C],[1:00 PM],[10.0 km],[East],"[31.5 km/h
		/ 8.7 m/s]",METAR VHHH 030500Z 09017G29KT 050V130 9999 FEW020 SCT030 27/20 Q1015 NOSIG
0,[Mostly Cloudy],1996-11-3,[21.0 °C],[],"[48.2 km/h
		/ 13.4 m/s]",[28.9 °C],[70%],[N/A],[1014 hPa],[27.0 °C],[2:00 PM],[10.0 km],[East],"[29.6 km/h
		/ 8.2 m/s]",METAR VHHH 030600Z 08016G26KT 030V110 9999 FEW020 SCT030 BKN080 27/21 Q1014 WS LDG RWY 13/31 NOSIG
0,[Mostly Cloudy],1996-11-3,[21.0 °C],[],[-],[28.9 °C],[70%],[N/A],[1014 hPa],[27.0 °C],[3:00 PM],[10.0 km],[East],"[27.8 km/h
		/ 7.7 m/s]",METAR VHHH 030700Z 08015KT 020V130 9999 FEW020 SCT030 BKN080 27/21 Q1014 WS LDG RWY 13/31 NOSIG
0,[Mostly Cloudy],1996-11-3,[21.0 °C],[],[-],[28.9 °C],[70%],[N/A],[1014 hPa],[27.0 °C],[4:00 PM],[10.0 km],[East],"[22.2 km/h
		/ 6.2 m/s]",METAR VHHH 030800Z 08012KT 010V130 9999 FEW020 SCT035 BKN080 27/21 Q1014 WS LDG RWY 13/31 NOSIG
0,[Mostly Cloudy],1996-11-3,[21.0 °C],[],[-],[-],[74%],[N/A],[1014 hPa],[26.0 °C],[5:00 PM],[10.0 km],[East],"[22.2 km/h
		/ 6.2 m/s]",METAR VHHH 030900Z 08012KT 010V160 9999 FEW018 SCT030 BKN090 26/21 Q1014 WS LDG RWY 13/31 NOSIG
0,[Mostly Cloudy],1996-11-3,[21.0 °C],[],[-],[-],[74%],[N/A],[1015 hPa],[26.0 °C],[6:00 PM],[10.0 km],[East],"[18.5 km/h
		/ 5.1 m/s]",METAR VHHH 031000Z 09010KT 030V120 9999 FEW018 SCT032 BKN080 26/21 Q1015 WS LDG RWY 13/31 NOSIG
0,[Mostly Cloudy],1996-11-3,[21.0 °C],[],[-],[-],[74%],[N/A],[1015 hPa],[26.0 °C],[7:00 PM],[10.0 km],[ENE],"[16.7 km/h
		/ 4.6 m/s]",METAR VHHH 031100Z 07009KT 010V140 9999 FEW018 SCT030 BKN080 26/21 Q1015 WS LDG RWY 13/31 NOSIG
0,[Partly Cloudy],1996-11-3,[21.0 °C],[],"[38.9 km/h
		/ 10.8 m/s]",[-],[74%],[N/A],[1016 hPa],[26.0 °C],[8:00 PM],[10.0 km],[East],"[20.4 km/h
		/ 5.7 m/s]",METAR VHHH 031200Z 08011G21KT 040V130 9999 FEW018 26/21 Q1016 WS LDG RWY 13/31 NOSIG
0,[Mostly Cloudy],1996-11-3,[21.0 °C],[],"[40.7 km/h
		/ 11.3 m/s]",[-],[74%],[N/A],[1016 hPa],[26.0 °C],[9:00 PM],[10.0 km],[East],"[22.2 km/h
		/ 6.2 m/s]",METAR VHHH 031300Z 08012G22KT 040V130 9999 FEW016 SCT025 BKN080 26/21 Q1016 WS LDG RWY 13/31 NOSIG
0,[Scattered Clouds],1996-11-3,[21.0 °C],[],"[46.3 km/h
		/ 12.9 m/s]",[-],[74%],[N/A],[1017 hPa],[26.0 °C],[10:00 PM],[10.0 km],[ENE],"[27.8 km/h
		/ 7.7 m/s]",METAR VHHH 031400Z 07015G25KT 340V120 9999 FEW016 SCT022 26/21 Q1017 WS LDG RWY 13/31 NOSIG
0,[Scattered Clouds],1996-11-3,[21.0 °C],[],"[55.6 km/h
		/ 15.4 m/s]",[-],[78%],[N/A],[1016 hPa],[25.0 °C],[11:00 PM],[10.0 km],[East],"[29.6 km/h
		/ 8.2 m/s]",METAR VHHH 031500Z 08016G30KT 030V120 9999 FEW016 SCT022 25/21 Q1016 WS LDG RWY 13/31 NOSIG
0,[Scattered Clouds],1996-11-4,[21.0 °C],[],"[48.2 km/h
		/ 13.4 m/s]",[-],[78%],[N/A],[1017 hPa],[25.0 °C],[12:00 AM],[10.0 km],[East],"[27.8 km/h
		/ 7.7 m/s]",METAR VHHH 031600Z 08015G26KT 040V130 9999 FEW016 SCT022 25/21 Q1017 WS LDG RWY 13/31 NOSIG
0,[Scattered Clouds],1996-11-4,[20.0 °C],[],[-],[-],[74%],[N/A],[1017 hPa],[25.0 °C],[1:00 AM],[10.0 km],[East],"[18.5 km/h
		/ 5.1 m/s]",METAR VHHH 031700Z 09010KT 050V130 9999 FEW016 SCT022 25/20 Q1017 WS LDG RWY 13/31 NOSIG
0,[Scattered Clouds],1996-11-4,[20.0 °C],[],[-],[-],[78%],[N/A],[1017 hPa],[24.0 °C],[2:00 AM],[10.0 km],[East],"[20.4 km/h
		/ 5.7 m/s]",METAR VHHH 031800Z 08011KT 340V140 9999 FEW016 SCT022 24/20 Q1017 WS LDG RWY 13/31 NOSIG
0,[Scattered Clouds],1996-11-4,[19.0 °C],[],[-],[-],[69%],[N/A],[1016 hPa],[25.0 °C],[3:00 AM],[10.0 km],[ENE],"[18.5 km/h
		/ 5.1 m/s]",METAR VHHH 031900Z 07010KT 360V220 9999 FEW016 SCT022 25/19 Q1016 WS LDG RWY 13/31 NOSIG
0,[Mostly Cloudy],1996-11-4,[19.0 °C],[],[-],[-],[73%],[N/A],[1016 hPa],[24.0 °C],[4:00 AM],[10.0 km],[ENE],"[20.4 km/h
		/ 5.7 m/s]",METAR VHHH 032000Z 07011KT 360V120 9999 FEW016 SCT022 BKN080 24/19 Q1016 WS LDG RWY 13/31 NOSIG
0,[Scattered Clouds],1996-11-4,[19.0 °C],[],[-],[-],[69%],[N/A],[1016 hPa],[25.0 °C],[5:00 AM],[10.0 km],[East],"[20.4 km/h
		/ 5.7 m/s]",METAR VHHH 032100Z 08011KT 020V120 9999 FEW016 SCT030 25/19 Q1016 WS LDG RWY 13/31 NOSIG
0,[Partly Cloudy],1996-11-4,[19.0 °C],[],[-],[-],[69%],[N/A],[1016 hPa],[25.0 °C],[6:00 AM],[10.0 km],[East],"[22.2 km/h
		/ 6.2 m/s]",METAR VHHH 032200Z 09012KT 050V140 9999 FEW016 25/19 Q1016 WS LDG RWY 13/31 NOSIG
0,[Scattered Clouds],1996-11-4,[19.0 °C],[],[-],[-],[69%],[N/A],[1017 hPa],[25.0 °C],[7:00 AM],[10.0 km],[East],"[22.2 km/h
		/ 6.2 m/s]",METAR VHHH 032300Z 09012KT 030V140 9999 FEW020 SCT030 25/19 Q1017 WS LDG RWY 13/31 NOSIG
0,[Scattered Clouds],1996-11-4,[20.0 °C],[],[-],[-],[74%],[N/A],[1017 hPa],[25.0 °C],[8:00 AM],[10.0 km],[East],"[22.2 km/h
		/ 6.2 m/s]",METAR VHHH 040000Z 09012KT 030V120 9999 FEW018 SCT025 25/20 Q1017 WS LDG RWY 13/31 NOSIG
0,[Scattered Clouds],1996-11-4,[20.0 °C],[],"[44.4 km/h
		/ 12.3 m/s]",[-],[69%],[N/A],[1017 hPa],[26.0 °C],[9:00 AM],[10.0 km],[East],"[22.2 km/h
		/ 6.2 m/s]",METAR VHHH 040100Z 09012G24KT 040V130 9999 FEW020 SCT025 26/20 Q1017 WS LDG RWY 13/31 NOSIG
0,[Scattered Clouds],1996-11-4,[20.0 °C],[],"[50.0 km/h
		/ 13.9 m/s]",[-],[69%],[N/A],[1017 hPa],[26.0 °C],[10:00 AM],[10.0 km],[East],"[31.5 km/h
		/ 8.7 m/s]",METAR VHHH 040200Z 10017G27KT 9999 SCT022 SCT060 26/20 Q1017 WS LDG RWY 13/31 NOSIG
0,[Scattered Clouds],1996-11-4,[20.0 °C],[],[-],[28.5 °C],[65%],[N/A],[1017 hPa],[27.0 °C],[11:00 AM],[10.0 km],[East],"[29.6 km/h
		/ 8.2 m/s]",METAR VHHH 040300Z 08016KT 040V130 9999 FEW022 SCT035 27/20 Q1017 WS LDG RWY 13/31 NOSIG
0,[Partly Cloudy],1996-11-4,[20.0 °C],[],"[50.0 km/h
		/ 13.9 m/s]",[29.7 °C],[62%],[N/A],[1015 hPa],[28.0 °C],[12:00 PM],[10.0 km],[ENE],"[27.8 km/h
		/ 7.7 m/s]",METAR VHHH 040400Z 07015G27KT 010V130 9999 FEW022 28/20 Q1015 WS LDG RWY 13/31 NOSIG
0,[Partly Cloudy],1996-11-4,[20.0 °C],[],[-],[30.7 °C],[58%],[N/A],[1014 hPa],[29.0 °C],[1:00 PM],[10.0 km],[East],"[27.8 km/h
		/ 7.7 m/s]",METAR VHHH 040500Z 09015KT 060V130 9999 FEW022 29/20 Q1014 WS LDG RWY 13/31 NOSIG
0,[Partly Cloudy],1996-11-4,[20.0 °C],[],[-],[30.7 °C],[58%],[N/A],[1013 hPa],[29.0 °C],[2:00 PM],[10.0 km],[East],"[18.5 km/h
		/ 5.1 m/s]",METAR VHHH 040600Z 09010KT 040V140 9999 FEW025 29/20 Q1013 NOSIG
0,[Partly Cloudy],1996-11-4,[21.0 °C],[],"[46.3 km/h
		/ 12.9 m/s]",[30.2 °C],[66%],[N/A],[1013 hPa],[28.0 °C],[3:00 PM],[10.0 km],[East],"[24.1 km/h
		/ 6.7 m/s]",METAR VHHH 040700Z 09013G25KT 060V130 9999 FEW025 28/21 Q1013 WS LDG RWY 13/31 NOSIG
0,[Partly Cloudy],1996-11-4,[22.0 °C],[],[-],[29.2 °C],[74%],[N/A],[1013 hPa],[27.0 °C],[4:00 PM],[10.0 km],[East],"[20.4 km/h
		/ 5.7 m/s]",METAR VHHH 040800Z 08011KT 040V120 9999 FEW020 27/22 Q1013 WS LDG RWY 13/31 NOSIG
0,[Partly Cloudy],1996-11-4,[22.0 °C],[],[-],[29.2 °C],[74%],[N/A],[1014 hPa],[27.0 °C],[5:00 PM],[10.0 km],[East],"[22.2 km/h
		/ 6.2 m/s]",METAR VHHH 040900Z 09012KT 050V110 9999 FEW025 27/22 Q1014 WS LDG RWY 13/31 NOSIG
0,[Partly Cloudy],1996-11-4,[22.0 °C],[],[-],[-],[78%],[N/A],[1014 hPa],[26.0 °C],[6:00 PM],[10.0 km],[East],"[20.4 km/h
		/ 5.7 m/s]",METAR VHHH 041000Z 09011KT 060V120 9999 FEW015 26/22 Q1014 NOSIG
0,[Partly Cloudy],1996-11-4,[22.0 °C],[],[-],[-],[78%],[N/A],[1015 hPa],[26.0 °C],[7:00 PM],[10.0 km],[East],"[18.5 km/h
		/ 5.1 m/s]",METAR VHHH 041100Z 09010KT 050V120 9999 FEW015 26/22 Q1015 NOSIG
0,[Scattered Clouds],1996-11-4,[22.0 °C],[],[-],[-],[78%],[N/A],[1016 hPa],[26.0 °C],[8:00 PM],[10.0 km],[East],"[22.2 km/h
		/ 6.2 m/s]",METAR VHHH 041200Z 09012KT 050V140 9999 FEW015 SCT020 26/22 Q1016 NOSIG
0,[Scattered Clouds],1996-11-4,[21.0 °C],[],"[44.4 km/h
		/ 12.3 m/s]",[-],[74%],[N/A],[1016 hPa],[26.0 °C],[9:00 PM],[10.0 km],[ENE],"[22.2 km/h
		/ 6.2 m/s]",METAR VHHH 041300Z 07012G24KT 010V120 9999 FEW016 SCT020 26/21 Q1016 NOSIG
0,[Scattered Clouds],1996-11-4,[22.0 °C],[],[-],[-],[78%],[N/A],[1016 hPa],[26.0 °C],[10:00 PM],[10.0 km],[East],"[22.2 km/h
		/ 6.2 m/s]",METAR VHHH 041400Z 09012KT 050V120 9999 FEW016 SCT020 26/22 Q1016 NOSIG
0,[Scattered Clouds],1996-11-5,[21.0 °C],[],[-],[-],[78%],[N/A],[1016 hPa],[25.0 °C],[12:00 AM],[10.0 km],[East],"[24.1 km/h
		/ 6.7 m/s]",METAR VHHH 041600Z 10013KT 060V130 9999 FEW016 SCT022 25/21 Q1016 NOSIG
0,[Scattered Clouds],1996-11-5,[21.0 °C],[],[-],[-],[78%],[N/A],[1015 hPa],[25.0 °C],[1:00 AM],[10.0 km],[East],"[20.4 km/h
		/ 5.7 m/s]",METAR VHHH 041700Z 08011KT 050V130 9999 FEW016 SCT022 25/21 Q1015 NOSIG
0,[Scattered Clouds],1996-11-5,[21.0 °C],[],[-],[-],[78%],[N/A],[1015 hPa],[25.0 °C],[2:00 AM],[10.0 km],[East],"[22.2 km/h
		/ 6.2 m/s]",METAR VHHH 041800Z 08012KT 030V130 9999 FEW016 SCT020 25/21 Q1015 NOSIG
0,[Scattered Clouds],1996-11-5,[21.0 °C],[],[-],[-],[78%],[N/A],[1015 hPa],[25.0 °C],[3:00 AM],[10.0 km],[East],"[16.7 km/h
		/ 4.6 m/s]",METAR VHHH 041900Z 08009KT 350V140 9999 FEW016 SCT020 25/21 Q1015 NOSIG
0,[Scattered Clouds],1996-11-5,[21.0 °C],[],[-],[-],[78%],[N/A],[1014 hPa],[25.0 °C],[4:00 AM],[10.0 km],[East],"[20.4 km/h
		/ 5.7 m/s]",METAR VHHH 042000Z 10011KT 060V130 9999 FEW017 SCT025 25/21 Q1014 NOSIG
0,[Scattered Clouds],1996-11-5,[21.0 °C],[],[-],[-],[78%],[N/A],[1014 hPa],[25.0 °C],[5:00 AM],[10.0 km],[East],"[14.8 km/h
		/ 4.1 m/s]",METAR VHHH 042100Z 09008KT 040V130 9999 FEW016 SCT025 25/21 Q1014 NOSIG
0,[Scattered Clouds],1996-11-5,[21.0 °C],[],[-],[-],[78%],[N/A],[1014 hPa],[25.0 °C],[6:00 AM],[10.0 km],[East],"[14.8 km/h
		/ 4.1 m/s]",METAR VHHH 042200Z 09008KT 040V120 9999 FEW016 SCT025 25/21 Q1014 NOSIG
0,[Scattered Clouds],1996-11-5,[21.0 °C],[],[-],[-],[78%],[N/A],[1015 hPa],[25.0 °C],[7:00 AM],[10.0 km],[East],"[13.0 km/h
		/ 3.6 m/s]",METAR VHHH 042300Z 09007KT 050V160 9999 FEW016 SCT022 25/21 Q1015 NOSIG
0,[Scattered Clouds],1996-11-5,[21.0 °C],[],[-],[-],[74%],[N/A],[1016 hPa],[26.0 °C],[8:00 AM],[10.0 km],[East],"[18.5 km/h
		/ 5.1 m/s]",METAR VHHH 050000Z 10010KT 060V130 9999 FEW017 SCT025 26/21 Q1016 NOSIG
0,[Scattered Clouds],1996-11-5,[22.0 °C],[],[-],[29.2 °C],[74%],[N/A],[1016 hPa],[27.0 °C],[9:00 AM],[10.0 km],[East],"[9.3 km/h
		/ 2.6 m/s]",METAR VHHH 050100Z 10005KT 040V140 9999 FEW017 SCT025 27/22 Q1016 NOSIG
0,[Partly Cloudy],1996-11-5,[20.0 °C],[],[-],[28.5 °C],[65%],[N/A],[1016 hPa],[27.0 °C],[10:00 AM],[10.0 km],[East],"[22.2 km/h
		/ 6.2 m/s]",METAR VHHH 050200Z 10012KT 070V140 9999 FEW020 27/20 Q1016 NOSIG
0,[Partly Cloudy],1996-11-5,[20.0 °C],[],[-],[29.7 °C],[62%],[N/A],[1015 hPa],[28.0 °C],[11:00 AM],[10.0 km],[East],"[25.9 km/h
		/ 7.2 m/s]",METAR VHHH 050300Z 10014KT 9999 FEW020 28/20 Q1015 NOSIG
0,[Partly Cloudy],1996-11-5,[19.0 °C],[],[-],[29.2 °C],[58%],[N/A],[1015 hPa],[28.0 °C],[12:00 PM],[10.0 km],[East],"[25.9 km/h
		/ 7.2 m/s]",METAR VHHH 050400Z 10014KT 070V130 9999 FEW020 28/19 Q1015 NOSIG
0,[Partly Cloudy],1996-11-5,[19.0 °C],[],[-],[29.2 °C],[58%],[N/A],[1014 hPa],[28.0 °C],[1:00 PM],[10.0 km],[ENE],"[18.5 km/h
		/ 5.1 m/s]",METAR VHHH 050500Z 07010KT 030V120 9999 FEW022 28/19 Q1014 NOSIG
0,[Partly Cloudy],1996-11-5,[20.0 °C],[],[-],[29.7 °C],[62%],[N/A],[1013 hPa],[28.0 °C],[2:00 PM],[10.0 km],[East],"[20.4 km/h
		/ 5.7 m/s]",METAR VHHH 050600Z 09011KT 050V120 9999 FEW025 28/20 Q1013 NOSIG
0,[Partly Cloudy],1996-11-5,[20.0 °C],[],[-],[29.7 °C],[62%],[N/A],[1013 hPa],[28.0 °C],[3:00 PM],[10.0 km],[East],"[18.5 km/h
		/ 5.1 m/s]",METAR VHHH 050700Z 09010KT 050V140 9999 FEW025 28/20 Q1013 NOSIG
0,[Partly Cloudy],1996-11-5,[20.0 °C],[],[-],[28.5 °C],[65%],[N/A],[1013 hPa],[27.0 °C],[4:00 PM],[10.0 km],[East],"[18.5 km/h
		/ 5.1 m/s]",METAR VHHH 050800Z 09010KT 060V120 9999 FEW025 27/20 Q1013 NOSIG
0,[Partly Cloudy],1996-11-5,[21.0 °C],[],[-],[28.9 °C],[70%],[N/A],[1013 hPa],[27.0 °C],[5:00 PM],[10.0 km],[East],"[11.1 km/h
		/ 3.1 m/s]",METAR VHHH 050900Z 09006KT 020V140 9999 FEW025 27/21 Q1013 NOSIG
0,[Partly Cloudy],1996-11-5,[21.0 °C],[],[-],[-],[74%],[N/A],[1013 hPa],[26.0 °C],[6:00 PM],[10.0 km],[East],"[11.1 km/h
		/ 3.1 m/s]",METAR VHHH 051000Z 10006KT 050V160 9999 FEW018 26/21 Q1013 NOSIG
0,[Partly Cloudy],1996-11-5,[21.0 °C],[],[-],[-],[74%],[N/A],[1014 hPa],[26.0 °C],[7:00 PM],[10.0 km],[ESE],"[13.0 km/h
		/ 3.6 m/s]",METAR VHHH 051100Z 11007KT 050V150 9999 FEW016 26/21 Q1014 NOSIG
0,[Partly Cloudy],1996-11-5,[21.0 °C],[],[-],[-],[74%],[N/A],[1014 hPa],[26.0 °C],[8:00 PM],[10.0 km],[East],"[9.3 km/h
		/ 2.6 m/s]",METAR VHHH 051200Z 09005KT 030V140 9999 FEW016 26/21 Q1014 NOSIG
0,[Partly Cloudy],1996-11-5,[21.0 °C],[],[-],[-],[78%],[N/A],[1015 hPa],[25.0 °C],[9:00 PM],[10.0 km],[East],"[9.3 km/h
		/ 2.6 m/s]",METAR VHHH 051300Z 09005KT 040V140 9999 FEW015 25/21 Q1015 NOSIG
0,[Partly Cloudy],1996-11-5,[21.0 °C],[],[-],[-],[78%],[N/A],[1015 hPa],[25.0 °C],[10:00 PM],[10.0 km],[ENE],"[5.6 km/h
		/ 1.5 m/s]",METAR VHHH 051400Z 07003KT 9999 FEW015 25/21 Q1015 NOSIG
0,[Scattered Clouds],1996-11-5,[21.0 °C],[],[-],[-],[78%],[N/A],[1014 hPa],[25.0 °C],[11:00 PM],[10.0 km],[East],"[11.1 km/h
		/ 3.1 m/s]",METAR VHHH 051500Z 09006KT 030V160 9999 FEW015 SCT020 25/21 Q1014 NOSIG
0,[Mostly Cloudy],1996-11-6,[21.0 °C],[],[-],[-],[78%],[N/A],[1014 hPa],[25.0 °C],[1:00 AM],[10.0 km],[East],"[14.8 km/h
		/ 4.1 m/s]",METAR VHHH 051700Z 09008KT 060V130 9999 FEW015 BKN022 25/21 Q1014 NOSIG
0,[Mostly Cloudy],1996-11-6,[21.0 °C],[],[-],[-],[78%],[N/A],[1013 hPa],[25.0 °C],[2:00 AM],[10.0 km],[East],"[16.7 km/h
		/ 4.6 m/s]",METAR VHHH 051800Z 10009KT 9999 FEW015 BKN022 25/21 Q1013 NOSIG
0,[Scattered Clouds],1996-11-6,[20.0 °C],[],[-],[-],[74%],[N/A],[1013 hPa],[25.0 °C],[3:00 AM],[10.0 km],[East],"[18.5 km/h
		/ 5.1 m/s]",METAR VHHH 051900Z 10010KT 9999 FEW018 SCT025 25/20 Q1013 NOSIG
0,[Mostly Cloudy],1996-11-6,[20.0 °C],[],[-],[-],[74%],[N/A],[1013 hPa],[25.0 °C],[4:00 AM],[10.0 km],[East],"[29.6 km/h
		/ 8.2 m/s]",METAR VHHH 2000Z 05200Z 10016KT 050V140 9999 FEW018 BKN025 25/20 Q1013 NOSIG
0,[Partly Cloudy],1996-11-6,[20.0 °C],[],[-],[-],[74%],[N/A],[1013 hPa],[25.0 °C],[5:00 AM],[10.0 km],[East],"[24.1 km/h
		/ 6.7 m/s]",METAR VHHH 052100Z 09013KT 050V120 9999 FEW018 BKMN025 25/20 Q1013 NOSIG
0,[Mostly Cloudy],1996-11-6,[20.0 °C],[],[-],[-],[74%],[N/A],[1013 hPa],[25.0 °C],[6:00 AM],[10.0 km],[East],"[24.1 km/h
		/ 6.7 m/s]",METAR VHHH 052200Z 09013KT 050V130 9999 FEW018 BKN025 25/20 Q1013 NOSIG
0,[Scattered Clouds],1996-11-6,[21.0 °C],[],[-],[-],[78%],[N/A],[1014 hPa],[25.0 °C],[7:00 AM],[10.0 km],[East],"[18.5 km/h
		/ 5.1 m/s]",METAR VHHH 052300Z 10010KT 040V140 9999 FEW018 SCT025 25/21 Q1014 NOSIG
0,[Scattered Clouds],1996-11-6,[21.0 °C],[],[-],[-],[74%],[N/A],[1014 hPa],[26.0 °C],[8:00 AM],[10.0 km],[East],"[16.7 km/h
		/ 4.6 m/s]",METAR VHHH 060000Z 09009KT 030V150 9999 FEW017 SCT050 26/21 Q1014 NOSIG
0,[Scattered Clouds],1996-11-6,[20.0 °C],[],[-],[-],[69%],[N/A],[1015 hPa],[26.0 °C],[9:00 AM],[10.0 km],[East],"[20.4 km/h
		/ 5.7 m/s]",METAR VHHH 060100Z 10011KT 050V130 9999 FEW020 SCT080 26/20 Q1015 NOSIG
0,[Scattered Clouds],1996-11-6,[19.0 °C],[],[-],[28.2 °C],[61%],[N/A],[1015 hPa],[27.0 °C],[10:00 AM],[10.0 km],[ENE],"[14.8 km/h
		/ 4.1 m/s]",METAR VHHH 060200Z 06008KT 300V190 9999 SCT025 SCT100 27/19 Q1015 WS LDG RWY 13/31 NOSIG
0,[Mostly Cloudy],1996-11-6,[19.0 °C],[],"[48.2 km/h
		/ 13.4 m/s]",[29.2 °C],[58%],[N/A],[1014 hPa],[28.0 °C],[11:00 AM],[10.0 km],[East],"[25.9 km/h
		/ 7.2 m/s]",METAR VHHH 060300 09014G26KT 050V130 9999 FEW025 SCT035 BKN100 28/19 Q1014 WS LDG RWY 13/31 NOSIG
0,[Scattered Clouds],1996-11-6,[19.0 °C],[],"[42.6 km/h
		/ 11.8 m/s]",[29.2 °C],[58%],[N/A],[1014 hPa],[28.0 °C],[12:00 PM],[10.0 km],[East],"[24.1 km/h
		/ 6.7 m/s]",METAR VHHH 060400Z 10013G23KT 060V130 9999 FEW030 SCT040 28/19 Q1014 WS LDG RWY 13/31 NOSIG
0,[Mostly Cloudy],1996-11-6,[19.0 °C],[],[-],[30.3 °C],[55%],[N/A],[1013 hPa],[29.0 °C],[1:00 PM],[10.0 km],[East],"[24.1 km/h
		/ 6.7 m/s]",METAR VHHH 060500Z 08013KT 040V130 9999 FEW030 SCT040 BKN100 29/19 Q1013 WS LDG RWY 13/31 NOSIG
0,[Scattered Clouds],1996-11-6,[19.0 °C],[],[-],[29.2 °C],[58%],[N/A],[1012 hPa],[28.0 °C],[2:00 PM],[10.0 km],[ENE],"[20.4 km/h
		/ 5.7 m/s]",METAR VHHH 060600Z 07011KT 360V110 9999 FEW030 SCT080 28/19 Q1012 NOSIG
0,[Scattered Clouds],1996-11-6,[20.0 °C],[],[-],[30.7 °C],[58%],[N/A],[1012 hPa],[29.0 °C],[3:00 PM],[10.0 km],[East],"[22.2 km/h
		/ 6.2 m/s]",METAR VHHH 060700Z 09012KT 040V130 9999 FEW030 SCT080 29/20 Q1012 NOSIG
0,[Mostly Cloudy],1996-11-6,[21.0 °C],[],[-],[28.9 °C],[70%],[N/A],[1013 hPa],[27.0 °C],[5:00 PM],[10.0 km],[East],"[13.0 km/h
		/ 3.6 m/s]",METAR VHHH 060900Z 08007KT 020V140 9999 FEW020 SCT035 BKN080 27/21 Q1013 NOSIG
0,[Scattered Clouds],1996-11-6,[21.0 °C],[],[-],[-],[74%],[N/A],[1014 hPa],[26.0 °C],[6:00 PM],[10.0 km],[East],"[18.5 km/h
		/ 5.1 m/s]",METAR VHHH 061000Z 08010KT 020V140 9999 FEW020 SCT060 26/21 Q1014 NOSIG
0,[Scattered Clouds],1996-11-6,[21.0 °C],[],[-],[-],[74%],[N/A],[1014 hPa],[26.0 °C],[7:00 PM],[10.0 km],[East],"[14.8 km/h
		/ 4.1 m/s]",METAR VHHH 061100Z 08008KT 040V140 9999 FEW020 SCT030 26/21 Q1014 NOSIG
0,[Scattered Clouds],1996-11-6,[21.0 °C],[],[-],[-],[74%],[N/A],[1015 hPa],[26.0 °C],[8:00 PM],[10.0 km],[ENE],"[14.8 km/h
		/ 4.1 m/s]",METAR VHHH 061200Z 07008KT 040V120 9999 FEW025 SCT080 26/21 Q1015 NOSIG
0,[Partly Cloudy],1996-11-6,[20.0 °C],[],"[42.6 km/h
		/ 11.8 m/s]",[-],[69%],[N/A],[1015 hPa],[26.0 °C],[9:00 PM],[10.0 km],[East],"[22.2 km/h
		/ 6.2 m/s]",METAR VHHH 061300Z 08012G23KT 040V120 9999 FEW025 26/20 Q1015 NOSIG
0,[Scattered Clouds],1996-11-6,[21.0 °C],[],[-],[-],[74%],[N/A],[1015 hPa],[26.0 °C],[10:00 PM],[10.0 km],[East],"[22.2 km/h
		/ 6.2 m/s]",METAR VHHH 061400Z 09012KT 040V120 9999 FEW020 SCT025 26/21 Q1015 WS LDG RWY 13/31 NOSIG
0,[Scattered Clouds],1996-11-6,[21.0 °C],[],[-],[-],[74%],[N/A],[1015 hPa],[26.0 °C],[11:00 PM],[10.0 km],[East],"[18.5 km/h
		/ 5.1 m/s]",METAR VHHH 061500Z 09010KT 030V130 9999 FEW020 SCT025 26/21 Q1015 WS LDG RWY 13/31 NOSIG
0,[Scattered Clouds],1996-11-7,[21.0 °C],[],[-],[-],[78%],[N/A],[1015 hPa],[25.0 °C],[12:00 AM],[10.0 km],[East],"[18.5 km/h
		/ 5.1 m/s]",METAR VHHH 061600Z 09010KT 040V140 9999 FEW020 SCT025 25/21 Q1015 WS LDG RWY 13/31 NOSIG
0,[Scattered Clouds],1996-11-7,[21.0 °C],[],[-],[-],[78%],[N/A],[1015 hPa],[25.0 °C],[1:00 AM],[10.0 km],[East],"[20.4 km/h
		/ 5.7 m/s]",METAR VHHH 061700Z 08011KT 010V110 9999 FEW020 SCT025 25/21 Q1015 WS LDG RWY 13/31 NOSIG
0,[Scattered Clouds],1996-11-7,[20.0 °C],[],"[38.9 km/h
		/ 10.8 m/s]",[-],[74%],[N/A],[1014 hPa],[25.0 °C],[2:00 AM],[10.0 km],[East],"[18.5 km/h
		/ 5.1 m/s]",METAR VHHH 061800Z 08010G21KT 050V130 9999 FEW018 SCT025 25/20 Q1014 WS LDG RWY 13/31 NOSIG
0,[Partly Cloudy],1996-11-7,[19.0 °C],[],[-],[-],[69%],[N/A],[1014 hPa],[25.0 °C],[3:00 AM],[10.0 km],[East],"[13.0 km/h
		/ 3.6 m/s]",METAR VHHH 061900Z 09007KT 040V150 9999 FEW020 25/19 Q1014 WS LDG RWY 13/31 NOSIG
0,[Partly Cloudy],1996-11-7,[19.0 °C],[],[-],[-],[69%],[N/A],[1014 hPa],[25.0 °C],[4:00 AM],[10.0 km],[East],"[9.3 km/h
		/ 2.6 m/s]",METAR VHHH 062000Z 09005KT 360V130 9999 FEW020 25/19 Q1014 WS LDG RWY 13/31 NOSIG
0,[Partly Cloudy],1996-11-7,[19.0 °C],[],[-],[-],[69%],[N/A],[1014 hPa],[25.0 °C],[5:00 AM],[10.0 km],[East],"[5.6 km/h
		/ 1.5 m/s]",METAR VHHH 062100Z 08003KT 9999 FEW020 25/19 Q1014 WS LDG RWY 13/31 NOSIG
0,[Partly Cloudy],1996-11-7,[18.0 °C],[],[-],[-],[65%],[N/A],[1014 hPa],[25.0 °C],[6:00 AM],[10.0 km],[ENE],"[13.0 km/h
		/ 3.6 m/s]",METAR VHHH 062200Z 07007KT 270V160 9999 FEW018 25/18 Q1014 WS LDG RWY 13/31 NOSIG
0,[Partly Cloudy],1996-11-7,[18.0 °C],[],"[37.0 km/h
		/ 10.3 m/s]",[-],[65%],[N/A],[1014 hPa],[25.0 °C],[7:00 AM],[10.0 km],[East],"[18.5 km/h
		/ 5.1 m/s]",METAR VHHH 062300Z 08010G20KT 320V130 9999 FEW020 25/18 Q1014 WS LDG RWY 13/31 NOSIG
0,[Partly Cloudy],1996-11-7,[18.0 °C],[],"[42.6 km/h
		/ 11.8 m/s]",[27.9 °C],[58%],[N/A],[1015 hPa],[27.0 °C],[8:00 AM],[10.0 km],[ENE],"[18.5 km/h
		/ 5.1 m/s]",METAR VHHH 070000Z 06010G23KT 360V190 9999 FEW020 27/18 Q1015 WS LDG RWY 13/31 NOSIG
0,[Partly Cloudy],1996-11-7,[18.0 °C],[],[-],[28.8 °C],[54%],[N/A],[1015 hPa],[28.0 °C],[9:00 AM],[10.0 km],[ENE],"[14.8 km/h
		/ 4.1 m/s]",METAR VHHH 070100Z 07008KT 350V140 9999 FEW030 28/18 Q1015 WS LDG RWY 13/31 NOSIG
0,[Partly Cloudy],1996-11-7,[18.0 °C],[],[-],[28.8 °C],[54%],[N/A],[1015 hPa],[28.0 °C],[10:00 AM],[10.0 km],[East],"[11.1 km/h
		/ 3.1 m/s]",METAR VHHH 070200Z 08006KT 360V130 9999 FEW030 28/18 Q1015 WS LDG RWY 13/31 NOSIG
0,[Partly Cloudy],1996-11-7,[18.0 °C],[],[-],[29.8 °C],[51%],[N/A],[1014 hPa],[29.0 °C],[11:00 AM],[10.0 km],[ENE],"[18.5 km/h
		/ 5.1 m/s]",METAR VHHH 070300Z 06010KT 360V150 9999 FEW030 29/18 Q1014 WS LDG RWY 13/31 NOSIG
0,[Partly Cloudy],1996-11-7,[18.0 °C],[],[-],[30.7 °C],[48%],[N/A],[1013 hPa],[30.0 °C],[12:00 PM],[10.0 km],[ENE],"[14.8 km/h
		/ 4.1 m/s]",METAR VHHH 070400Z 06008KT 020V110 9999 FEW030 30/18 Q1013 NOSIG
0,[Partly Cloudy],1996-11-7,[18.0 °C],[],[-],[31.9 °C],[46%],[N/A],[1012 hPa],[31.0 °C],[1:00 PM],[10.0 km],[NE],"[9.3 km/h
		/ 2.6 m/s]",METAR VHHH 070500Z 04005KT 360V110 9999 FEW030 31/18 Q1012 NOSIG
0,[Partly Cloudy],1996-11-7,[19.0 °C],[],[-],[32.4 °C],[49%],[N/A],[1011 hPa],[31.0 °C],[2:00 PM],[10.0 km],[SE],"[25.9 km/h
		/ 7.2 m/s]",METAR VHHH 070600Z 14014KT 9999 FEW025 31/19 Q1011 NOSIG
0,[Partly Cloudy],1996-11-7,[19.0 °C],[],[-],[30.3 °C],[55%],[N/A],[1011 hPa],[29.0 °C],[3:00 PM],[10.0 km],[SE],"[25.9 km/h
		/ 7.2 m/s]",METAR VHHH 070700Z 14014KT 9999 FEW025 29/19 Q1011 NOSIG
0,[Clear],1996-11-7,[19.0 °C],[],[-],[30.3 °C],[55%],[N/A],[1011 hPa],[29.0 °C],[4:00 PM],[-],[SE],"[25.9 km/h
		/ 7.2 m/s]",METAR VHHH 070800Z 14014KT CAVOK 29/19 Q1011 NOSIG
0,[Clear],1996-11-7,[20.0 °C],[],[-],[28.5 °C],[65%],[N/A],[1011 hPa],[27.0 °C],[5:00 PM],[-],[SE],"[24.1 km/h
		/ 6.7 m/s]",METAR VHHH 070900Z 13013KT CAVOK 27/20 Q1011 NOSIG
0,[Scattered Clouds],1996-11-7,[21.0 °C],[],[-],[28.9 °C],[70%],[N/A],[1012 hPa],[27.0 °C],[6:00 PM],[10.0 km],[ESE],"[16.7 km/h
		/ 4.6 m/s]",METAR VHHH 071000Z 11009KT 060V140 9999 FEW020 SCT300 27/21 Q1012 NOSIG
0,[Scattered Clouds],1996-11-7,[21.0 °C],[],[-],[-],[74%],[N/A],[1013 hPa],[26.0 °C],[7:00 PM],[10.0 km],[East],"[18.5 km/h
		/ 5.1 m/s]",METAR VHHH 071100Z 08010KT 040V110 9999 SCT020 26/21 Q1013 NOSIG
0,[Scattered Clouds],1996-11-7,[21.0 °C],[],[-],[-],[74%],[N/A],[1013 hPa],[26.0 °C],[8:00 PM],[10.0 km],[East],"[14.8 km/h
		/ 4.1 m/s]",METAR VHHH 071200Z 08008KT 030V130 9999 FEW018 SCT025 26/21 Q1013 NOSIG
0,[Partly Cloudy],1996-11-7,[21.0 °C],[],[-],[-],[74%],[N/A],[1014 hPa],[26.0 °C],[9:00 PM],[10.0 km],[East],"[18.5 km/h
		/ 5.1 m/s]",METAR VHHH 071300Z 10010KT 060V130 9999 FEW016 26/21 Q1014 NOSIG
0,[Scattered Clouds],1996-11-7,[21.0 °C],[],[-],[-],[74%],[N/A],[1014 hPa],[26.0 °C],[10:00 PM],[10.0 km],[East],"[18.5 km/h
		/ 5.1 m/s]",METAR VHHH 071400Z 09010KT 060V140 9999 FEW016 SCT025 26/21 Q1014 NOSIG
0,[Partly Cloudy],1996-11-7,[21.0 °C],[],[-],[-],[74%],[N/A],[1014 hPa],[26.0 °C],[11:00 PM],[10.0 km],[East],"[18.5 km/h
		/ 5.1 m/s]",METAR VHHH 071500Z 10010KT 040V120 9999 FEW018 26/21 Q1014 NOSIG
0,[Partly Cloudy],1996-11-8,[21.0 °C],[],[-],[-],[78%],[N/A],[1014 hPa],[25.0 °C],[12:00 AM],[10.0 km],[East],"[14.8 km/h
		/ 4.1 m/s]",METAR VHHH 071600Z 08008KT 040V130 9999 FEW018 25/21 Q1014 NOSIG
0,[Scattered Clouds],1996-11-8,[21.0 °C],[],[-],[-],[78%],[N/A],[1013 hPa],[25.0 °C],[1:00 AM],[10.0 km],[East],"[20.4 km/h
		/ 5.7 m/s]",METAR VHHH 071700Z 09011KT 060V140 9999 FEW018 SCT025 25/21 Q1013 NOSIG
0,[Scattered Clouds],1996-11-8,[21.0 °C],[],[-],[-],[78%],[N/A],[1013 hPa],[25.0 °C],[2:00 AM],[10.0 km],[East],"[14.8 km/h
		/ 4.1 m/s]",METAR VHHH 071800Z 08008KT 050V120 9999 FEW018 SCT025 25/21 Q1013 NOSIG
0,[Scattered Clouds],1996-11-8,[21.0 °C],[],[-],[-],[78%],[N/A],[1013 hPa],[25.0 °C],[3:00 AM],[10.0 km],[East],"[14.8 km/h
		/ 4.1 m/s]",METAR VHHH 071900Z 09008KT 060V120 9999 FEW015 SCT025 25/21 Q1013 NOSIG
0,[Partly Cloudy],1996-11-8,[21.0 °C],[],[-],[-],[83%],[N/A],[1012 hPa],[24.0 °C],[5:00 AM],[10.0 km],[East],"[3.7 km/h
		/ 1.0 m/s]",METAR VHHH 072100Z 10002KT 9999 FEW016 24/21 Q1012 NOSIG
0,[Partly Cloudy],1996-11-8,[21.0 °C],[],[-],[-],[83%],[N/A],[1013 hPa],[24.0 °C],[6:00 AM],[10.0 km],[East],"[7.4 km/h
		/ 2.1 m/s]",METAR VHHH 072200Z 09004KT 050V120 9999 FEW016 24/21 Q1013 NOSIG
0,[Scattered Clouds],1996-11-8,[21.0 °C],[],[-],[-],[83%],[N/A],[1013 hPa],[24.0 °C],[7:00 AM],[10.0 km],[East],"[7.4 km/h
		/ 2.1 m/s]",METAR VHHH 072300Z 09004KT 060V120 9999 FEW016 SCT020 24/21 Q1013 NOSIG
0,[Partly Cloudy],1996-11-8,[20.0 °C],[],[-],[-],[69%],[N/A],[1014 hPa],[26.0 °C],[8:00 AM],[10.0 km],[NE],"[7.4 km/h
		/ 2.1 m/s]",METAR VHHH 080000Z 04004KT 010V070 9999 FEW016 26/20 Q1014 NOSIG
0,[Scattered Clouds],1996-11-8,[20.0 °C],[],[-],[-],[69%],[N/A],[1014 hPa],[26.0 °C],[9:00 AM],[10.0 km],[ESE],"[13.0 km/h
		/ 3.6 m/s]",METAR VHHH 080100Z 11007KT 050V150 9999 SCT018 26/20 Q1014 NOSIG
0,[Scattered Clouds],1996-11-8,[19.0 °C],[],[-],[29.2 °C],[58%],[N/A],[1014 hPa],[28.0 °C],[10:00 AM],[10.0 km],[East],"[14.8 km/h
		/ 4.1 m/s]",METAR VHHH 080200Z 10008KT 350V150 9999 SCT020 28/19 Q1014 NOSIG
0,[Scattered Clouds],1996-11-8,[19.0 °C],[],[-],[30.3 °C],[55%],[N/A],[1013 hPa],[29.0 °C],[11:00 AM],[10.0 km],[East],"[14.8 km/h
		/ 4.1 m/s]",METAR VHHH 080300Z 10008KT 060V120 9999 FEW018 SCT025 29/19 Q1013 NOSIG
0,[Scattered Clouds],1996-11-8,[19.0 °C],[],[-],[30.3 °C],[55%],[N/A],[1012 hPa],[29.0 °C],[12:00 PM],[10.0 km],[ESE],"[14.8 km/h
		/ 4.1 m/s]",METAR VHHH 080400Z 11008KT 050V160 9999 SCT025 29/19 Q1012 NOSIG
0,[Scattered Clouds],1996-11-8,[18.0 °C],[],[-],[29.8 °C],[51%],[N/A],[1011 hPa],[29.0 °C],[1:00 PM],[10.0 km],[East],"[16.7 km/h
		/ 4.6 m/s]",METAR VHHH 080500Z 09009KT 060V130 9999 SCT025 29/18 Q1011 NOSIG
0,[Scattered Clouds],1996-11-8,[19.0 °C],[],[-],[31.2 °C],[51%],[N/A],[1010 hPa],[30.0 °C],[2:00 PM],[10.0 km],[SE],"[13.0 km/h
		/ 3.6 m/s]",METAR VHHH 080600Z 13007KT 080V170 9999 FEW025 SCT300 30/19 Q1010 NOSIG
0,[Scattered Clouds],1996-11-8,[19.0 °C],[],[-],[32.4 °C],[49%],[N/A],[1010 hPa],[31.0 °C],[3:00 PM],[10.0 km],[NNE],"[7.4 km/h
		/ 2.1 m/s]",METAR VHHH 080700Z 02004KT 330V120 9999 FEW025 SCT300 31/19 Q1010 NOSIG
0,[Scattered Clouds],1996-11-8,[20.0 °C],[],[-],[30.7 °C],[58%],[N/A],[1010 hPa],[29.0 °C],[4:00 PM],[10.0 km],[WSW],"[13.0 km/h
		/ 3.6 m/s]",METAR VHHH 080800Z 24007KT 210V330 9999 FEW025 SCT300 29/20 Q1010 NOSIG
0,[Clear],1996-11-8,[21.0 °C],[],[-],[-],[74%],[N/A],[1010 hPa],[26.0 °C],[7:00 PM],[-],[SE],"[11.1 km/h
		/ 3.1 m/s]",METAR VHHH 081100Z 13006KT CAVOK 26/21 Q1010 NOSIG
0,[Clear],1996-11-8,[21.0 °C],[],[-],[28.9 °C],[70%],[N/A],[1010 hPa],[27.0 °C],[8:00 PM],[-],[SE],"[16.7 km/h
		/ 4.6 m/s]",METAR VHHH 081200Z 13009KT CAVOK 27/21 Q1010 NOSIG
0,[Clear],1996-11-8,[21.0 °C],[],[-],[-],[78%],[N/A],[1011 hPa],[25.0 °C],[9:00 PM],[-],[East],"[14.8 km/h
		/ 4.1 m/s]",METAR VHHH 081300Z 10008KT 080V140 CAVOK 25/21 Q1011 NOSIG
0,[Partly Cloudy],1996-11-8,[20.0 °C],[],[-],[-],[69%],[N/A],[1011 hPa],[26.0 °C],[10:00 PM],[10.0 km],[East],"[13.0 km/h
		/ 3.6 m/s]",METAR VHHH 081400Z 09007KT 060V130 9999 FEW018 26/20 Q1011 NOSIG
0,[Partly Cloudy],1996-11-8,[21.0 °C],[],[-],[-],[78%],[N/A],[1011 hPa],[25.0 °C],[11:00 PM],[10.0 km],[East],"[3.7 km/h
		/ 1.0 m/s]",METAR VHHH 081500Z 10002KT 9999 FEW018 25/21 Q1011 NOSIG
0,[Partly Cloudy],1996-11-9,[18.0 °C],[],[-],[-],[61%],[N/A],[1011 hPa],[26.0 °C],[12:00 AM],[10.0 km],[ESE],"[7.4 km/h
		/ 2.1 m/s]",METAR VHHH 081600Z 12004KT 360V160 9999 FEW025 26/18 Q1011 NOSIG
0,[Clear],1996-11-9,[17.0 °C],[],[-],[-],[61%],[N/A],[1010 hPa],[25.0 °C],[1:00 AM],[-],[NE],"[13.0 km/h
		/ 3.6 m/s]",METAR VHHH 081700Z 05007KT 350V090 CAVOK 25/17 Q1010 NOSIG
0,[Scattered Clouds],1996-11-9,[18.0 °C],[],[-],[-],[69%],[N/A],[1010 hPa],[24.0 °C],[2:00 AM],[10.0 km],[NNE],"[3.7 km/h
		/ 1.0 m/s]",METAR VHHH 081800Z 02002KT 9999 FEW025 SCT100 24/18 Q1010 NOSIG
0,[Clear],1996-11-9,[17.0 °C],[],[-],[-],[65%],[N/A],[1009 hPa],[24.0 °C],[3:00 AM],[-],[South],"[1.9 km/h
		/ 0.5 m/s]",METAR VHHH 081900Z 19001KT CAVOK 24/17 Q1009 NOSIG
0,[Clear],1996-11-9,[17.0 °C],[],[-],[-],[69%],[N/A],[1009 hPa],[23.0 °C],[4:00 AM],[-],[NNW],"[9.3 km/h
		/ 2.6 m/s]",METAR VHHH 082000Z 33005KT CAVOK 23/17 Q1009 NOSIG
0,[Clear],1996-11-9,[17.0 °C],[],[-],[-],[69%],[N/A],[1008 hPa],[23.0 °C],[5:00 AM],[-],[NNW],"[11.1 km/h
		/ 3.1 m/s]",METAR VHHH 082100Z 33006KT 290V010 CAVOK 23/17 Q1008 NOSIG
0,[Clear],1996-11-9,[17.0 °C],[],[-],[-],[73%],[N/A],[1009 hPa],[22.0 °C],[6:00 AM],[-],[NNW],"[9.3 km/h
		/ 2.6 m/s]",METAR VHHH 082200Z 34005KT 310V020 CAVOK 22/17 Q1009 NOSIG
0,[Clear],1996-11-9,[17.0 °C],[],[-],[-],[69%],[N/A],[1009 hPa],[23.0 °C],[7:00 AM],[-],[NW],"[16.7 km/h
		/ 4.6 m/s]",METAR VHHH 082300Z 32009KT 290V020 CAVOK 23/17 Q1009 NOSIG
0,[Clear],1996-11-9,[17.0 °C],[],[-],[-],[65%],[N/A],[1009 hPa],[24.0 °C],[8:00 AM],[-],[NNW],"[13.0 km/h
		/ 3.6 m/s]",METAR VHHH 090000Z 34007KT 300V010 CAVOK 24/17 Q1009 NOSIG
0,[Clear],1996-11-9,[17.0 °C],[],[-],[-],[61%],[N/A],[1010 hPa],[25.0 °C],[9:00 AM],[-],[NNW],"[18.5 km/h
		/ 5.1 m/s]",METAR VHHH 090100Z 33010KT 280V360 CAVOK 25/17 Q1010 WS LDG RWY 13 NOSIG
0,[Clear],1996-11-9,[17.0 °C],[],[-],[-],[57%],[N/A],[1010 hPa],[26.0 °C],[10:00 AM],[-],[NNW],"[20.4 km/h
		/ 5.7 m/s]",METAR VHHH 090200Z 33011KT 280V010 CAVOK 26/17 Q1010 WS LDG RWY 13 NOSIG
0,[Clear],1996-11-9,[17.0 °C],[],[-],[27.7 °C],[54%],[N/A],[1009 hPa],[27.0 °C],[11:00 AM],[-],[NNW],"[18.5 km/h
		/ 5.1 m/s]",METAR VHHH 090300Z 33010KT CAVOK 27/17 Q1009 NOSIG
0,[Scattered Clouds],1996-11-9,[17.0 °C],[],"[31.5 km/h
		/ 8.7 m/s]",[28.5 °C],[51%],[N/A],[1008 hPa],[28.0 °C],[12:00 PM],[10.0 km],[NNW],"[13.0 km/h
		/ 3.6 m/s]",METAR VHHH 090400Z 34007G17KT 290V020 9999 FEW030 SCT300 28/17 Q1008 WS LDG RWY 13 NOSIG
0,[Partly Cloudy],1996-11-9,[17.0 °C],[],[-],[29.4 °C],[48%],[N/A],[1007 hPa],[29.0 °C],[1:00 PM],[10.0 km],[NW],"[13.0 km/h
		/ 3.6 m/s]",METAR VHHH 090500Z 32007KT 280V020 9999 FEW030 29/17 Q1007 NOSIG
0,[Partly Cloudy],1996-11-9,[17.0 °C],[],[-],[29.4 °C],[48%],[N/A],[1006 hPa],[29.0 °C],[2:00 PM],[10.0 km],[NW],"[18.5 km/h
		/ 5.1 m/s]",METAR VHHH 090600Z 31010KT 280V360 9999 FEW030 29/17 Q1006 NOSIG
0,[Clear],1996-11-9,[17.0 °C],[],[-],[30.3 °C],[45%],[N/A],[1005 hPa],[30.0 °C],[3:00 PM],[-],[NNW],"[20.4 km/h
		/ 5.7 m/s]",METAR VHHH 090700Z 34011KT 290V040 CAVOK 30/17 Q1005 NOSIG
0,[Clear],1996-11-9,[17.0 °C],[],[-],[29.4 °C],[48%],[N/A],[1005 hPa],[29.0 °C],[4:00 PM],[-],[NNW],"[24.1 km/h
		/ 6.7 m/s]",METAR VHHH 090800Z 33013KT 300V360 CAVOK 29/17 Q1005 NOSIG
0,[Clear],1996-11-9,[18.0 °C],[],[-],[28.8 °C],[54%],[N/A],[1005 hPa],[28.0 °C],[5:00 PM],[-],[NW],"[18.5 km/h
		/ 5.1 m/s]",METAR VHHH 090900Z 32010KT 290V010 CAVOK 28/18 Q1005 NOSIG
0,[Clear],1996-11-9,[18.0 °C],[],[-],[28.8 °C],[54%],[N/A],[1006 hPa],[28.0 °C],[6:00 PM],[-],[NNW],"[13.0 km/h
		/ 3.6 m/s]",METAR VHHH 091000Z 33007KT 280V010 CAVOK 28/18 Q1006 NOSIG
0,[Clear],1996-11-9,[17.0 °C],[],[-],[-],[73%],[N/A],[1006 hPa],[22.0 °C],[7:00 PM],[-],[NNE],"[9.3 km/h
		/ 2.6 m/s]",METAR VHHH 091100Z 02005KT 330V070 CAVOK 22/17 Q1006 NOSIG
0,[Mostly Cloudy],1996-11-9,[18.0 °C],[],[-],[27.9 °C],[58%],[N/A],[1006 hPa],[27.0 °C],[8:00 PM],[10.0 km],[North],"[11.1 km/h
		/ 3.1 m/s]",METAR VHHH 091200Z 36006KT 300V020 9999 FEW020 BKN080 27/18 Q1006 NOSIG
0,[Scattered Clouds],1996-11-9,[16.0 °C],[],[-],[-],[54%],[N/A],[1007 hPa],[26.0 °C],[9:00 PM],[10.0 km],[West],"[5.6 km/h
		/ 1.5 m/s]",METAR VHHH 091300Z 27003KT 180V010 9999 FEW025 SCT040 26/16 Q1007 NOSIG
0,[Scattered Clouds],1996-11-9,[17.0 °C],[],[-],[-],[57%],[N/A],[1007 hPa],[26.0 °C],[10:00 PM],[10.0 km],[NW],"[11.1 km/h
		/ 3.1 m/s]",METAR VHHH 091400Z 32006KT 280V360 9999 FEW025 SCT040 26/17 Q1007 NOSIG
0,[Scattered Clouds],1996-11-9,[17.0 °C],[],[-],[27.7 °C],[54%],[N/A],[1007 hPa],[27.0 °C],[11:00 PM],[10.0 km],[NNW],"[14.8 km/h
		/ 4.1 m/s]",METAR VHHH 091500Z 33008KT 9999 FEW025 SCT040 27/17 Q1007 WS LDG RWY 13 NOSIG
0,[Partly Cloudy],1996-11-10,[17.0 °C],[],[-],[-],[69%],[N/A],[1007 hPa],[23.0 °C],[1:00 AM],[10.0 km],[NNW],"[5.6 km/h
		/ 1.5 m/s]",METAR VHHH 091700Z 33003KT 9999 FEW030 23/17 Q1007 NOSIG
0,[Scattered Clouds],1996-11-10,[16.0 °C],[],[-],[-],[65%],[N/A],[1006 hPa],[23.0 °C],[2:00 AM],[10.0 km],[NNW],"[13.0 km/h
		/ 3.6 m/s]",METAR VHHH 091800Z 33007KT 9999 SCT030 23/16 Q1006 WS LDG RWY 13 NOSIG
0,[Partly Cloudy],1996-11-10,[17.0 °C],[],[-],[-],[73%],[N/A],[1006 hPa],[22.0 °C],[3:00 AM],[10.0 km],[NNW],"[13.0 km/h
		/ 3.6 m/s]",METAR VHHH 091900Z 33007KT 290V350 9999 FEW030 22/17 Q1006 WS LDG RWY 13 NOSIG
0,[Partly Cloudy],1996-11-10,[16.0 °C],[],[-],[-],[73%],[N/A],[1006 hPa],[21.0 °C],[4:00 AM],[10.0 km],[NW],"[16.7 km/h
		/ 4.6 m/s]",METAR VHHH 092000Z 32009KT 290V360 9999 FEW030 21/16 Q1006 WS LDG RWY 13 NOSIG
0,[Partly Cloudy],1996-11-10,[16.0 °C],[],[-],[-],[73%],[N/A],[1006 hPa],[21.0 °C],[5:00 AM],[10.0 km],[NNW],"[9.3 km/h
		/ 2.6 m/s]",METAR VHHH 092100Z 33005KT 270V350 9999 FEW030 21/16 Q1006 WS LDG RWY 13 NOSIG
0,[Partly Cloudy],1996-11-10,[15.0 °C],[],[-],[-],[68%],[N/A],[1006 hPa],[21.0 °C],[6:00 AM],[10.0 km],[NW],"[11.1 km/h
		/ 3.1 m/s]",METAR VHHH 092200Z 32006KT 280V360 9999 FEW030 21/15 Q1006 WS LDG RWY 13 NOSIG
0,[Scattered Clouds],1996-11-10,[16.0 °C],[],[-],[-],[73%],[N/A],[1007 hPa],[21.0 °C],[7:00 AM],[10.0 km],[NW],"[22.2 km/h
		/ 6.2 m/s]",METAR VHHH 092300Z 32012KT 280V350 9999 FEW020 SCT060 21/16 Q1007 WS LDG RWY 13 NOSIG
0,[Mostly Cloudy],1996-11-10,[16.0 °C],[],[-],[-],[69%],[N/A],[1007 hPa],[22.0 °C],[8:00 AM],[10.0 km],[NW],"[13.0 km/h
		/ 3.6 m/s]",METAR VHHH 100000Z 31007KT 280V010 9999 FEW030 SCT100 BKN300 22/16 Q1007 NOSIG
0,[Mostly Cloudy],1996-11-10,[16.0 °C],[],[-],[-],[65%],[N/A],[1008 hPa],[23.0 °C],[9:00 AM],[10.0 km],[NW],"[11.1 km/h
		/ 3.1 m/s]",METAR VHHH 100100Z 31006KT 260V340 9999 FEW030 SCT100 BKN300 23/16 Q1008 NOSIG
0,[Mostly Cloudy],1996-11-10,[16.0 °C],[],[-],[-],[57%],[N/A],[1008 hPa],[25.0 °C],[10:00 AM],[10.0 km],[NW],"[13.0 km/h
		/ 3.6 m/s]",METAR VHHH 100200Z 32007KT 270V010 9999 FEW030 SCT100 BKN300 25/16 Q1008 NOSIG
0,[Mostly Cloudy],1996-11-10,[16.0 °C],[],[-],[-],[54%],[N/A],[1007 hPa],[26.0 °C],[11:00 AM],[10.0 km],[NNW],"[9.3 km/h
		/ 2.6 m/s]",METAR VHHH 100300Z 33005KT 280V360 9999 FEW030 SCT100 BKN300 26/16 Q1007 WS LDG RWY 13/31 NOSIG
0,[Mostly Cloudy],1996-11-10,[17.0 °C],[],[-],[-],[57%],[N/A],[1007 hPa],[26.0 °C],[12:00 PM],[10.0 km],[NW],"[25.9 km/h
		/ 7.2 m/s]",METAR VHHH 100400Z 31014KT 270V350 9999 FEW030 BKN300 26/17 Q1007 WS LDG RWY 13/31 NOSIG
0,[Mostly Cloudy],1996-11-10,[17.0 °C],[],[-],[-],[57%],[N/A],[1005 hPa],[26.0 °C],[1:00 PM],[10.0 km],[NNW],"[16.7 km/h
		/ 4.6 m/s]",METAR VHHH 100500Z 33009KT 270V010 9999 FEW030 BKN300 26/17 Q1005 WS LDG RWY 13/31 NOSIG
0,[Mostly Cloudy],1996-11-10,[17.0 °C],[],[-],[27.7 °C],[54%],[N/A],[1014 hPa],[27.0 °C],[2:00 PM],[10.0 km],[NW],"[25.9 km/h
		/ 7.2 m/s]",METAR VHHH 100600Z 32014KT 290V010 9999 FEW030 BKN300 27/17 Q1014 WS LDG RWY 13/31 NOSIG
0,[Mostly Cloudy],1996-11-10,[18.0 °C],[],[-],[28.8 °C],[54%],[N/A],[1004 hPa],[28.0 °C],[3:00 PM],[10.0 km],[NNW],"[18.5 km/h
		/ 5.1 m/s]",METAR VHHH 100700Z 34010KT 260V020 9999 FEW030 BKN300 28/18 Q1004 WS LDG RWY 13/31 NOSIG
0,[Mostly Cloudy],1996-11-10,[17.0 °C],[],"[42.6 km/h
		/ 11.8 m/s]",[27.7 °C],[54%],[N/A],[1003 hPa],[27.0 °C],[4:00 PM],[10.0 km],[NW],"[24.1 km/h
		/ 6.7 m/s]",METAR VHHH 100800Z 32013G23KT 290V020 9999 FEW030 BKN300 27/17 Q1003 WS LDG RWY 13/31 NOSIG
0,[Mostly Cloudy],1996-11-10,[18.0 °C],[],[-],[27.9 °C],[58%],[N/A],[1003 hPa],[27.0 °C],[5:00 PM],[10.0 km],[NW],"[20.4 km/h
		/ 5.7 m/s]",METAR VHHH 100900Z 32011KT 280V360 9999 FEW030 BKN300 27/18 Q1003 WS LDG RWY 13/31 NOSIG
0,[Mostly Cloudy],1996-11-10,[17.0 °C],[],[-],[-],[57%],[N/A],[1004 hPa],[26.0 °C],[6:00 PM],[10.0 km],[NW],"[9.3 km/h
		/ 2.6 m/s]",METAR VHHH 101000Z 32005KT 270V360 9999 FEW030 BKN300 26/17 Q1004 WS LDG RWY 13/31 NOSIG
0,[Mostly Cloudy],1996-11-10,[17.0 °C],[],[-],[-],[61%],[N/A],[1004 hPa],[25.0 °C],[7:00 PM],[10.0 km],[NW],"[13.0 km/h
		/ 3.6 m/s]",METAR VHHH 101100Z 32007KT 290V020 9999 FEW030 BKN300 25/17 Q1004 WS LDG RWY 13/31 NOSIG
0,[Mostly Cloudy],1996-11-10,[17.0 °C],[],[-],[-],[61%],[N/A],[1005 hPa],[25.0 °C],[8:00 PM],[10.0 km],[NNW],"[11.1 km/h
		/ 3.1 m/s]",METAR VHHH 101200Z 34006KT 300V020 9999 FEW030 BKN300 25/17 Q1005 WS LDG RWY 13/31 NOSIG
0,[Mostly Cloudy],1996-11-10,[17.0 °C],[],[-],[-],[61%],[N/A],[1006 hPa],[25.0 °C],[9:00 PM],[10.0 km],[North],"[9.3 km/h
		/ 2.6 m/s]",METAR VHHH 101300Z 35005KT 280V050 9999 FEW030 BKN300 25/17 Q1006 WS LDG RWY 13/31 NOSIG
0,[Mostly Cloudy],1996-11-10,[16.0 °C],[],[-],[-],[57%],[N/A],[1005 hPa],[25.0 °C],[10:00 PM],[10.0 km],[NW],"[13.0 km/h
		/ 3.6 m/s]",METAR VHHH 101400Z 32007KT 270V360 9999 FEW030 BKN300 25/16 Q1005 WS LDG RWY 13/31 NOSIG
0,[Mostly Cloudy],1996-11-10,[16.0 °C],[],[-],[-],[61%],[N/A],[1006 hPa],[24.0 °C],[11:00 PM],[10.0 km],[NNW],"[16.7 km/h
		/ 4.6 m/s]",METAR VHHH 101500Z 34009KT 290V010 9999 FEW030 BKN300 24/16 Q1006 WS LDG RWY 13/31 NOSIG
0,[Mostly Cloudy],1996-11-11,[16.0 °C],[],[-],[-],[65%],[N/A],[1006 hPa],[23.0 °C],[12:00 AM],[10.0 km],[NW],"[13.0 km/h
		/ 3.6 m/s]",METAR VHHH 101600Z 32007KT 250V350 9999 FEW030 BKN300 23/16 Q1006 WS LDG RWY 13/31 NOSIG
0,[Mostly Cloudy],1996-11-11,[16.0 °C],[],[-],[-],[69%],[N/A],[1006 hPa],[22.0 °C],[1:00 AM],[10.0 km],[NW],"[18.5 km/h
		/ 5.1 m/s]",METAR VHHH 101700Z 32010KT 290V350 9999 FEW030 BKN300 22/16 Q1006 WS LDG RWY 13/31 NOSIG
0,[Mostly Cloudy],1996-11-11,[16.0 °C],[],[-],[-],[69%],[N/A],[1006 hPa],[22.0 °C],[2:00 AM],[10.0 km],[NNW],"[18.5 km/h
		/ 5.1 m/s]",METAR VHHH 101800Z 33010KT 300V010 9999 FEW030 BKN300 22/16 Q1006 WS LDG RWY 13/31 NOSIG
0,[Mostly Cloudy],1996-11-11,[16.0 °C],[],[-],[-],[69%],[N/A],[1006 hPa],[22.0 °C],[3:00 AM],[10.0 km],[NNW],"[16.7 km/h
		/ 4.6 m/s]",METAR VHHH 101900Z 33009KT 290V350 9999 FEW030 BKN300 22/16 Q1006 WS LDG RWY 13/31 NOSIG
0,[Mostly Cloudy],1996-11-11,[16.0 °C],[],[-],[-],[69%],[N/A],[1006 hPa],[22.0 °C],[4:00 AM],[10.0 km],[WNW],"[11.1 km/h
		/ 3.1 m/s]",METAR VHHH 102000Z 30006KT 280V350 9999 FEW035 BKN080 22/16 Q1006 NOSIG
0,[Mostly Cloudy],1996-11-11,[15.0 °C],[],[-],[-],[64%],[N/A],[1007 hPa],[22.0 °C],[5:00 AM],[10.0 km],[NW],"[22.2 km/h
		/ 6.2 m/s]",METAR VHHH 102100Z 32012KT 280V350 9999 FEW035 BKN080 22/15 Q1007 NOSIG
0,[Mostly Cloudy],1996-11-11,[16.0 °C],[],[-],[-],[69%],[N/A],[1007 hPa],[22.0 °C],[6:00 AM],[10.0 km],[NW],"[20.4 km/h
		/ 5.7 m/s]",METAR VHHH 102200Z 32011KT 280V360 9999 FEW035 BKN100 22/16 Q1007 NOSIG
0,[Mostly Cloudy],1996-11-11,[15.0 °C],[],[-],[-],[64%],[N/A],[1007 hPa],[22.0 °C],[7:00 AM],[10.0 km],[NW],"[18.5 km/h
		/ 5.1 m/s]",METAR VHHH 102300Z 32010KT 290V350 9999 FEW030 BKN100 22/15 Q1007 NOSIG
0,[Mostly Cloudy],1996-11-11,[16.0 °C],[],[-],[-],[65%],[N/A],[1008 hPa],[23.0 °C],[8:00 AM],[10.0 km],[NW],"[24.1 km/h
		/ 6.7 m/s]",METAR VHHH 110000Z 32013KT 290V350 9999 FEW030 BKN300 23/16 Q1008 NOSIG
0,[Mostly Cloudy],1996-11-11,[19.0 °C],[],[-],[-],[73%],[N/A],[1008 hPa],[24.0 °C],[9:00 AM],[10.0 km],[NW],"[20.4 km/h
		/ 5.7 m/s]",METAR VHHH 110100Z 32011KT 250V360 9999 FEW030 BKN300 24/19 Q1008 NOSIG
0,[Mostly Cloudy],1996-11-11,[17.0 °C],[],[-],[-],[61%],[N/A],[1009 hPa],[25.0 °C],[10:00 AM],[10.0 km],[NNW],"[18.5 km/h
		/ 5.1 m/s]",METAR VHHH 110200Z 33010KT 280V020 9999 FEW035 BKN150 25/17 Q1009 NOSIG
0,[Mostly Cloudy],1996-11-11,[17.0 °C],[],[-],[-],[61%],[N/A],[1008 hPa],[25.0 °C],[11:00 AM],[10.0 km],[NNW],"[11.1 km/h
		/ 3.1 m/s]",METAR VHHH 110300Z 33006KT 270V020 9999 FEW035 BKN150 25/17 Q1008 NOSIG
0,[Mostly Cloudy],1996-11-11,[18.0 °C],[],[-],[-],[61%],[N/A],[1007 hPa],[26.0 °C],[12:00 PM],[10.0 km],[NW],"[13.0 km/h
		/ 3.6 m/s]",METAR VHHH 110400Z 31007KT 280V020 9999 FEW035 BKN150 26/18 Q1007 NOSIG
0,[Mostly Cloudy],1996-11-11,[18.0 °C],[],[-],[27.9 °C],[58%],[N/A],[1006 hPa],[27.0 °C],[1:00 PM],[10.0 km],[NW],"[18.5 km/h
		/ 5.1 m/s]",METAR VHHH 110500Z 31010KT 280V040 9999 FEW030 BKN300 27/18 Q1006 NOSIG
0,[Mostly Cloudy],1996-11-11,[18.0 °C],[],[-],[27.9 °C],[58%],[N/A],[1006 hPa],[27.0 °C],[2:00 PM],[10.0 km],[NW],"[18.5 km/h
		/ 5.1 m/s]",METAR VHHH 110600Z 31010KT 270V020 9999 FEW030 BKN300 27/18 Q1006 NOSIG
0,[Mostly Cloudy],1996-11-11,[18.0 °C],[],[-],[28.8 °C],[54%],[N/A],[1005 hPa],[28.0 °C],[3:00 PM],[10.0 km],[NNW],"[16.7 km/h
		/ 4.6 m/s]",METAR VHHH 110700Z 33009KT 310V030 9999 FEW030 BKN300 28/18 Q1005 NOSIG
0,[Mostly Cloudy],1996-11-11,[19.0 °C],[],[-],[29.2 °C],[58%],[N/A],[1005 hPa],[28.0 °C],[4:00 PM],[10.0 km],[North],"[18.5 km/h
		/ 5.1 m/s]",METAR VHHH 110800Z 01010KT 290V020 9999 FEW030 BKN300 28/19 Q1005 NOSIG
0,[Mostly Cloudy],1996-11-11,[18.0 °C],[],[-],[-],[61%],[N/A],[1005 hPa],[26.0 °C],[5:00 PM],[10.0 km],[NNW],"[22.2 km/h
		/ 6.2 m/s]",METAR VHHH 110900Z 34012KT 280V360 9999 FEW030 BKN300 26/18 Q1005 NOSIG
0,[Mostly Cloudy],1996-11-11,[18.0 °C],[],[-],[-],[61%],[N/A],[1006 hPa],[26.0 °C],[6:00 PM],[10.0 km],[NNW],"[18.5 km/h
		/ 5.1 m/s]",METAR VHHH 111000Z 33010KT 290V020 9999 FEW030 BKN120 26/18 Q1006 NOSIG
0,[Mostly Cloudy],1996-11-11,[17.0 °C],[],[-],[-],[61%],[N/A],[1006 hPa],[25.0 °C],[7:00 PM],[10.0 km],[NW],"[20.4 km/h
		/ 5.7 m/s]",METAR VHHH 111100Z 32011KT 270V010 9999 FEW030 BKN100 25/17 Q1006 NOSIG
0,[Mostly Cloudy],1996-11-11,[17.0 °C],[],[-],[-],[65%],[N/A],[1007 hPa],[24.0 °C],[8:00 PM],[10.0 km],[North],"[7.4 km/h
		/ 2.1 m/s]",METAR VHHH 111200Z 01004KT 320V060 9999 FEW030 BKN100 24/17 Q1007 WS LDG RWY 13/31 NOSIG
0,[Mostly Cloudy],1996-11-11,[17.0 °C],[],[-],[-],[65%],[N/A],[1008 hPa],[24.0 °C],[9:00 PM],[10.0 km],[NNE],"[1.9 km/h
		/ 0.5 m/s]",METAR VHHH 111300Z 03001KT 9999 FEW030 BKN100 24/17 Q1008 WS LDG RWY 13/31 NOSIG
0,[Mostly Cloudy],1996-11-11,[17.0 °C],[],[-],[-],[69%],[N/A],[1008 hPa],[23.0 °C],[10:00 PM],[10.0 km],[North],"[11.1 km/h
		/ 3.1 m/s]",METAR VHHH 111400Z 01006KT 300V060 9999 FEW030 BKN100 23/17 Q1008 WS LDG RWY 13/31 NOSIG
0,[Partly Cloudy],1996-11-11,[17.0 °C],[],[-],[-],[65%],[N/A],[1009 hPa],[24.0 °C],[11:00 PM],[10.0 km],[NNE],"[1.9 km/h
		/ 0.5 m/s]",METAR VHHH 111500Z 03001KT 9999 FEW030 BBKN080 24/17 Q1009 WS LDG RWY 13/31 NOSIG
0,[Mostly Cloudy],1996-11-12,[17.0 °C],[],[-],[-],[69%],[N/A],[1009 hPa],[23.0 °C],[1:00 AM],[10.0 km],[NW],"[1.9 km/h
		/ 0.5 m/s]",METAR VHHH 111700Z 31001KT 9999 FEW030 BKN080 23/17 Q1009 NOSIG
0,[Mostly Cloudy],1996-11-12,[17.0 °C],[],[-],[-],[69%],[N/A],[1009 hPa],[23.0 °C],[2:00 AM],[10.0 km],[NE],"[1.9 km/h
		/ 0.5 m/s]",METAR VHHH 111800Z 04001KT 9999 FEW030 BKN080 23/17 Q1009 NOSIG
0,[Mostly Cloudy],1996-11-12,[18.0 °C],[],[-],[-],[78%],[N/A],[1009 hPa],[22.0 °C],[3:00 AM],[10.0 km],[NNW],"[7.4 km/h
		/ 2.1 m/s]",METAR VHHH 111900Z 33004KT 9999 FEW030 SCT035 BKN080 22/18 Q1009 NOSIG
0,[Light Rain],1996-11-12,[19.0 °C],[Rain],[-],[-],[88%],[N/A],[1009 hPa],[21.0 °C],[4:00 AM],[10.0 km],[North],"[11.1 km/h
		/ 3.1 m/s]",METAR VHHH 112000Z 35006KT 310V020 9999 -RA FEW016 SCT025 BKN080 21/19 Q1009 NOSIG
0,[Light Rain],1996-11-12,[19.0 °C],[Rain],[-],[-],[94%],[N/A],[1009 hPa],[20.0 °C],[5:00 AM],[6.0 km],[WNW],"[13.0 km/h
		/ 3.6 m/s]",METAR VHHH 112100Z 30007KT 6000 -RA FEW015 SCT025 BKN080 20/19 Q1009 TEMPO 5000 -RA
0,[Mostly Cloudy],1996-11-12,[19.0 °C],[],[-],[-],[88%],[N/A],[1009 hPa],[21.0 °C],[6:00 AM],[10.0 km],[West],"[11.1 km/h
		/ 3.1 m/s]",METAR VHHH 112200Z 28006KT 9999 FEW010 SCT030 BKN080 21/19 Q1009 NOSIG
0,[Mostly Cloudy],1996-11-12,[19.0 °C],[],[-],[-],[88%],[N/A],[1010 hPa],[21.0 °C],[7:00 AM],[10.0 km],[NW],"[1.9 km/h
		/ 0.5 m/s]",METAR VHHH 112300Z 32001KT 9999 FEW010 SCT030 BKN080 21/19 Q1010 NOSIG
0,[Light Rain],1996-11-12,[18.0 °C],[Rain],[-],[-],[83%],[N/A],[1010 hPa],[21.0 °C],[8:00 AM],[10.0 km],[SSW],"[5.6 km/h
		/ 1.5 m/s]",METAR VHHH 120000Z 20003KT 9999 -RA FEW015 SCT025 BKN080 21/18 Q1010 NOSIG
0,[Light Rain],1996-11-12,[18.0 °C],[Rain],[-],[-],[83%],[N/A],[1011 hPa],[21.0 °C],[9:00 AM],[9.0 km],[NW],"[13.0 km/h
		/ 3.6 m/s]",METAR VHHH 120100Z 31007KT 290V100 9000 -RA FEW012 SCT022 BKN080 21/18 Q1011 TEMPO 5000 -RA
0,[Mostly Cloudy],1996-11-12,[18.0 °C],[],[-],[-],[73%],[N/A],[1011 hPa],[23.0 °C],[10:00 AM],[10.0 km],[WNW],"[18.5 km/h
		/ 5.1 m/s]",METAR VHHH 120200Z 29010KT 270V350 9999 FEW015 SCT025 BKN080 23/18 Q1011 TEMPO 5000 -RA
0,[Mostly Cloudy],1996-11-12,[19.0 °C],[],[-],[-],[73%],[N/A],[1010 hPa],[24.0 °C],[11:00 AM],[10.0 km],[NW],"[18.5 km/h
		/ 5.1 m/s]",METAR VHHH 120300Z 31010KT 280V360 9999 FEW017 SCT025 BKN080 24/19 Q1010 TEMPO 5000 -RA
0,[Mostly Cloudy],1996-11-12,[18.0 °C],[],[-],[-],[65%],[N/A],[1010 hPa],[25.0 °C],[12:00 PM],[10.0 km],[NW],"[24.1 km/h
		/ 6.7 m/s]",METAR VHHH 120400Z 31013KT 280V350 9999 FEW018 SCT025 BKN080 25/18 Q1010 WS LDG RWY 13/31 TEMPO 5000 -RA
0,[Mostly Cloudy],1996-11-12,[19.0 °C],[],[-],[-],[65%],[N/A],[1009 hPa],[26.0 °C],[1:00 PM],[10.0 km],[NW],"[20.4 km/h
		/ 5.7 m/s]",METAR VHHH 120500Z 32011KT 9999 FEW025 BKN080 26/19 Q1009 WS LDG RWY 13/31 TEMPO 5000 -RA
0,[Mostly Cloudy],1996-11-12,[19.0 °C],[],[-],[28.2 °C],[61%],[N/A],[1008 hPa],[27.0 °C],[2:00 PM],[10.0 km],[NW],"[16.7 km/h
		/ 4.6 m/s]",METAR VHHH 120600Z 32009KT 290V350 9999 FEW025 BKN090 27/19 Q1008 LDG RWY 13 NOSIG
0,[Mostly Cloudy],1996-11-12,[19.0 °C],[],[-],[-],[65%],[N/A],[1008 hPa],[26.0 °C],[3:00 PM],[10.0 km],[North],"[18.5 km/h
		/ 5.1 m/s]",METAR VHHH 120700Z 35010KT 9999 FEW025 BKN090 26/19 Q1008 NOSIG
0,[Mostly Cloudy],1996-11-12,[19.0 °C],[],[-],[28.2 °C],[61%],[N/A],[1008 hPa],[27.0 °C],[4:00 PM],[10.0 km],[North],"[7.4 km/h
		/ 2.1 m/s]",METAR VHHH 120800Z 36004KT 310V040 9999 FEW025 BKN080 27/19 Q1008 NOSIG
0,[Mostly Cloudy],1996-11-12,[18.0 °C],[],[-],[-],[61%],[N/A],[1008 hPa],[26.0 °C],[5:00 PM],[10.0 km],[North],"[9.3 km/h
		/ 2.6 m/s]",METAR VHHH 120900Z 01005KT 300V090 9999 FEW025 BKN080 26/18 Q1008 NOSIG
0,[Mostly Cloudy],1996-11-12,[18.0 °C],[],[-],[-],[65%],[N/A],[1009 hPa],[25.0 °C],[6:00 PM],[9.0 km],[NNW],"[18.5 km/h
		/ 5.1 m/s]",METAR VHHH 121000Z 33010KT 290V360 9000 FEW025 BKN080 25/18 Q1009 NOSIG
0,[Mostly Cloudy],1996-11-12,[19.0 °C],[],[-],[-],[73%],[N/A],[1009 hPa],[24.0 °C],[7:00 PM],[10.0 km],[NW],"[16.7 km/h
		/ 4.6 m/s]",METAR VHHH 121100Z 32009KT 280V020 9999 FEW025 BKN080 24/19 Q1009 NOSIG
0,[Mostly Cloudy],1996-11-12,[18.0 °C],[],[-],[-],[69%],[N/A],[1010 hPa],[24.0 °C],[8:00 PM],[10.0 km],[WNW],"[13.0 km/h
		/ 3.6 m/s]",METAR VHHH 121200Z 30007KT 260V350 9999 FEW025 BKN080 24/18 Q1010 NOSIG
0,[Unknown],1996-11-12,[19.0 °C],[],[-],[-],[73%],[N/A],[1011 hPa],[24.0 °C],[9:00 PM],[10.0 km],[NNW],"[11.1 km/h
		/ 3.1 m/s]",METAR VHHH 121300Z 34006KT 290V350 9999 24/19 FEW022 SCT035 BKN080 24/19 Q1011 NOSIG
0,[Mostly Cloudy],1996-11-12,[18.0 °C],[],[-],[-],[73%],[N/A],[-],[23.0 °C],[10:00 PM],[10.0 km],[NW],"[18.5 km/h
		/ 5.1 m/s]",METAR VHHH 121400Z 32010KT 280V350 9999 FEW020 SCT035 BKN080 23/18 NOSIG
0,[Mostly Cloudy],1996-11-12,[18.0 °C],[],[-],[-],[73%],[N/A],[1011 hPa],[23.0 °C],[11:00 PM],[10.0 km],[NNW],"[11.1 km/h
		/ 3.1 m/s]",METAR VHHH 121500Z 33006KT 280V360 9999 FEW020 SCT035 BKN080 23/18 Q1011 NOSIG
0,[Mostly Cloudy],1996-11-13,[17.0 °C],[],[-],,[69%],[N/A],[1011 hPa],[23.0 °C],[12:00 AM],[10.0 km],[NNW],"[13.0 km/h
		/ 3.6 m/s]",METAR VHHH 121600Z 34007KT 9999 FEW020 SCT035 BKN080 23/17 Q1011 NOSIG
0,[Mostly Cloudy],1996-11-13,[17.0 °C],[],[-],,[69%],[N/A],[1012 hPa],[23.0 °C],[1:00 AM],[10.0 km],[NW],"[7.4 km/h
		/ 2.1 m/s]",METAR VHHH 121700Z 31004KT 280V010 9999 FEW020 SCT035 BKN080 23/17 Q1012 NOSIG
0,[Mostly Cloudy],1996-11-13,[17.0 °C],[],[-],,[69%],[N/A],[1011 hPa],[23.0 °C],[2:00 AM],[10.0 km],[South],"[3.7 km/h
		/ 1.0 m/s]",METAR VHHH 121800Z 19002KT 9999 FEW018 SCT030 BKN090 23/17 Q1011 NOSIG
0,[Mostly Cloudy],1996-11-13,[17.0 °C],[],[-],,[73%],[N/A],[1011 hPa],[22.0 °C],[3:00 AM],[10.0 km],[North],"[7.4 km/h
		/ 2.1 m/s]",METAR VHHH 121900Z 01004KT 330V060 9999 FEW018 SCT025 BKN090 22/17 Q1011 NOSIG
0,[Light Rain],1996-11-13,[17.0 °C],[Rain],[-],,[73%],[N/A],[1012 hPa],[22.0 °C],[4:00 AM],[10.0 km],[NNE],"[3.7 km/h
		/ 1.0 m/s]",METAR VHHH 122000Z 02002KT 9999 -RA FEW020 SCT025 BKN080 22/17 Q1012 NOSIG
0,[Mostly Cloudy],1996-11-13,[17.0 °C],[],[-],,[73%],[N/A],[1012 hPa],[22.0 °C],[5:00 AM],[10.0 km],[North],"[1.9 km/h
		/ 0.5 m/s]",METAR VHHH 122100Z 01001KT 9999 FEW020 SCT025 BKN080 22/17 Q1012 NOSIG
0,[Mostly Cloudy],1996-11-13,[17.0 °C],[],[-],,[73%],[N/A],[1013 hPa],[22.0 °C],[6:00 AM],[10.0 km],[NNE],"[14.8 km/h
		/ 4.1 m/s]",METAR VHHH 122200Z 02008KT 310V110 9999 FEW020 SCT025 BKN080 22/17 Q1013 NOSIG
0,[Mostly Cloudy],1996-11-13,[17.0 °C],[],[-],,[73%],[N/A],[1014 hPa],[22.0 °C],[8:00 AM],[10.0 km],[ENE],"[13.0 km/h
		/ 3.6 m/s]",METAR VHHH 130000Z 06007KT 350V100 9999 FEW020 SCT025 BKN080 22/17 Q1014 NOSIG
0,[Mostly Cloudy],1996-11-13,[17.0 °C],[],[-],,[69%],[N/A],[1015 hPa],[23.0 °C],[9:00 AM],[10.0 km],[NE],"[18.5 km/h
		/ 5.1 m/s]",METAR VHHH 130100Z 04010KT 360V080 9999 FEW020 SCT025 BKN080 23/17 Q1015 NOSIG
0,[Mostly Cloudy],1996-11-13,[17.0 °C],[],[-],,[69%],[N/A],[1016 hPa],[23.0 °C],[10:00 AM],[10.0 km],[NE],"[13.0 km/h
		/ 3.6 m/s]",METAR VHHH 130200Z 04007KT 340V090 9999 FEW020 SCT025 BKN080 23/17 Q1016 NOSIG
0,[Mostly Cloudy],1996-11-13,[16.0 °C],[],[-],,[69%],[N/A],[1016 hPa],[22.0 °C],[11:00 AM],[10.0 km],[East],"[13.0 km/h
		/ 3.6 m/s]",METAR VHHH 130300Z 10007KT 060V130 9999 FEW015 SCT022 BKN080 22/16 Q1016 NOSIG
0,[Mostly Cloudy],1996-11-13,[17.0 °C],[],[-],,[73%],[N/A],[1015 hPa],[22.0 °C],[12:00 PM],[8.0 km],[NNE],"[9.3 km/h
		/ 2.6 m/s]",METAR VHHH 130400Z 03005KT 310V190 8000 FEW011 SCT022 BKN080 22/17 Q1015 NOSIG
0,[Mostly Cloudy],1996-11-13,[17.0 °C],[],[-],,[73%],[N/A],[1015 hPa],[22.0 °C],[1:00 PM],[9.0 km],[SE],"[9.3 km/h
		/ 2.6 m/s]",METAR VHHH 130500Z 13005KT 110V220 9000 FEW013 SCT022 BKN080 22/17 Q1015 TEMPO 5000 -RA
0,[Mostly Cloudy],1996-11-13,[17.0 °C],[],[-],,[73%],[N/A],[1014 hPa],[22.0 °C],[2:00 PM],[10.0 km],[ENE],"[9.3 km/h
		/ 2.6 m/s]",METAR VHHH 130600Z 06005KT 320V130 9999 FEW015 SCT025 BKN080 22/17 Q1014 TEMPO 5000 -RA
0,[Mostly Cloudy],1996-11-13,[17.0 °C],[],[-],,[69%],[N/A],[1014 hPa],[23.0 °C],[3:00 PM],[9.0 km],[ENE],"[14.8 km/h
		/ 4.1 m/s]",METAR VHHH 130700Z 06008KT 320V110 9000 FEW018 SCT025 BKN080 23/17 Q1014 NOSIG
0,[Mostly Cloudy],1996-11-13,[17.0 °C],[],[-],,[69%],[N/A],[1014 hPa],[23.0 °C],[4:00 PM],[8.0 km],[East],"[14.8 km/h
		/ 4.1 m/s]",METAR VHHH 130800Z 08008KT 030V110 8000 FEW020 SCT025 BKN080 23/17 Q1014 NOSIG
0,[Mostly Cloudy],1996-11-13,[17.0 °C],[],[-],,[69%],[N/A],[1014 hPa],[23.0 °C],[5:00 PM],[10.0 km],[East],"[22.2 km/h
		/ 6.2 m/s]",METAR VHHH 130900Z 09012KT 060V130 9999 FEW020 SCT025 BKN080 23/17 Q1014 NOSIG
0,[Mostly Cloudy],1996-11-13,[17.0 °C],[],[-],,[69%],[N/A],[1015 hPa],[23.0 °C],[6:00 PM],[10.0 km],[East],"[24.1 km/h
		/ 6.7 m/s]",METAR VHHH 131000Z 08013KT 040V120 9999 FEW025 SCT030 BKN080 23/17 Q1015 NOSIG
0,[Mostly Cloudy],1996-11-14,[15.0 °C],[],[-],,[68%],[N/A],[1018 hPa],[21.0 °C],[5:00 AM],[10.0 km],[NE],"[11.1 km/h
		/ 3.1 m/s]",METAR VHHH 132100Z 05006KT 350V190 9999 FEW022 SCT030 BKN080 21/15 Q1018 WS LDG RWY 13/31 TEMPO 5000 -RA
0,[Scattered Clouds],1996-11-14,[15.0 °C],[],[-],,[73%],[N/A],[1019 hPa],[20.0 °C],[6:00 AM],[10.0 km],[North],"[13.0 km/h
		/ 3.6 m/s]",METAR VHHH 132200Z 01007KT 320V070 9999 FEW025 SCT035 20/15 Q1019 TEMPO 5000 -RA
0,[Partly Cloudy],1996-11-14,[15.0 °C],[],[-],,[73%],[N/A],[1020 hPa],[20.0 °C],[7:00 AM],[10.0 km],[NE],"[11.1 km/h
		/ 3.1 m/s]",METAR VHHH 132300Z 05006KT 340V150 9999 FEW035 20/15 Q1020 NOSIG
0,[Partly Cloudy],1996-11-14,[14.0 °C],[],[-],,[60%],[N/A],[1020 hPa],[22.0 °C],[9:00 AM],[9.0 km],[NE],"[16.7 km/h
		/ 4.6 m/s]",METAR VHHH 140100Z 04009KT 340V070 9000 FEW300 22/14 Q1020 NOSIG
0,[Partly Cloudy],1996-11-14,[15.0 °C],[],[-],,[57%],[N/A],[1021 hPa],[24.0 °C],[10:00 AM],[9.0 km],[NE],"[13.0 km/h
		/ 3.6 m/s]",METAR VHHH 140200Z 05007KT 360V090 9000 FEW030 24/15 Q1021 NOSIG
0,[Scattered Clouds],1996-11-14,[15.0 °C],[],[-],,[57%],[N/A],[1020 hPa],[24.0 °C],[11:00 AM],[9.0 km],[East],"[13.0 km/h
		/ 3.6 m/s]",METAR VHHH 140300Z 08007KT 020V140 9000 FEW030 SCT300 24/15 Q1020 NOSIG
0,[Partly Cloudy],1996-11-14,[15.0 °C],[],[-],,[54%],[N/A],[1020 hPa],[25.0 °C],[12:00 PM],[10.0 km],[NE],"[13.0 km/h
		/ 3.6 m/s]",METAR VHHH 140400Z 04007KT 280V120 9999 FEW030 25/15 Q1020 NOSIG
0,[Partly Cloudy],1996-11-14,[16.0 °C],[],[-],,[57%],[N/A],[1019 hPa],[25.0 °C],[1:00 PM],[10.0 km],[ESE],"[18.5 km/h
		/ 5.1 m/s]",METAR VHHH 140500Z 12010KT 070V140 9999 FEW030 25/16 Q1019 NOSIG
0,[Partly Cloudy],1996-11-14,[15.0 °C],[],[-],,[54%],[N/A],[1017 hPa],[25.0 °C],[3:00 PM],[10.0 km],[SE],"[22.2 km/h
		/ 6.2 m/s]",METAR VHHH 140700Z 13012KT 070V170 9999 FEW030 25/15 Q1017 NOSIG
0,[Partly Cloudy],1996-11-14,[15.0 °C],[],[-],,[61%],[N/A],[1017 hPa],[23.0 °C],[4:00 PM],[10.0 km],[ESE],"[20.4 km/h
		/ 5.7 m/s]",METAR VHHH 140800Z 12011KT 9999 FEW030 23/15 Q1017 NOSIG
0,[Clear],1996-11-14,[15.0 °C],[],[-],,[61%],[N/A],[1018 hPa],[23.0 °C],[5:00 PM],[-],[ENE],"[11.1 km/h
		/ 3.1 m/s]",METAR VHHH 140900Z 07006KT 010V100 CAVOK 23/15 Q1018 NOSIG
0,[Clear],1996-11-14,[15.0 °C],[],[-],,[64%],[N/A],[1018 hPa],[22.0 °C],[6:00 PM],[-],[SE],"[13.0 km/h
		/ 3.6 m/s]",METAR VHHH 141000Z 13007KT 040V170 CAVOK 22/15 Q1018 NOSIG
0,[Clear],1996-11-14,[16.0 °C],[],[-],,[69%],[N/A],[1019 hPa],[22.0 °C],[7:00 PM],[-],[ENE],"[5.6 km/h
		/ 1.5 m/s]",METAR VHHH 141100Z 07003KT CAVOK 22/16 Q1019 NOSIG
0,[Clear],1996-11-14,[15.0 °C],[],[-],,[61%],[N/A],[1019 hPa],[23.0 °C],[8:00 PM],[-],[NE],"[7.4 km/h
		/ 2.1 m/s]",METAR VHHH 141200Z 05004KT 010V120 CAVOK 23/15 Q1019 NOSIG
0,[Clear],1996-11-14,[15.0 °C],[],[-],,[64%],[N/A],[1020 hPa],[22.0 °C],[9:00 PM],[-],[ENE],"[7.4 km/h
		/ 2.1 m/s]",METAR VHHH 141300Z 07004KT 020V120 CAVOK 22/15 Q1020 NOSIG
0,[Scattered Clouds],1996-11-14,[16.0 °C],[],[-],,[69%],[N/A],[1020 hPa],[22.0 °C],[10:00 PM],[10.0 km],[East],"[9.3 km/h
		/ 2.6 m/s]",METAR VHHH 141400Z 10005KT 9999 FEW030 SCT300 22/16 Q1020 NOSIG
0,[Mostly Cloudy],1996-11-14,[17.0 °C],[],[-],,[69%],[N/A],[1020 hPa],[23.0 °C],[11:00 PM],[10.0 km],[East],"[11.1 km/h
		/ 3.1 m/s]",METAR VHHH 141500Z 09006KT 050V110 9999 FEW020 SCT030 BKN080 23/17 Q1020 NOSIG
0,[Mostly Cloudy],1996-11-15,[17.0 °C],[],[-],,[69%],[N/A],[1020 hPa],[23.0 °C],[12:00 AM],[10.0 km],[East],"[25.9 km/h
		/ 7.2 m/s]",METAR VHHH 141600Z 09014KT 050V110 9999 FEW020 SCT030 BKN080 23/17 Q1020 NOSIG
0,[Scattered Clouds],1996-11-15,[16.0 °C],[],[-],,[73%],[N/A],[1019 hPa],[21.0 °C],[4:00 AM],[10.0 km],[NNE],"[11.1 km/h
		/ 3.1 m/s]",METAR VHHH 142000Z 03006KT 340V060 9999 FEW030 SCT080 21/16 Q1019 NOSIG
0,[Scattered Clouds],1996-11-15,[16.0 °C],[],[-],,[73%],[N/A],[1019 hPa],[21.0 °C],[5:00 AM],[10.0 km],[North],"[5.6 km/h
		/ 1.5 m/s]",METAR VHHH 142100Z 35003KT 300V010 9999 FEW030 SCT100 21/16 Q1019 NOSIG
0,[Scattered Clouds],1996-11-15,[14.0 °C],[],[-],,[68%],[N/A],[1020 hPa],[20.0 °C],[6:00 AM],[10.0 km],[North],"[3.7 km/h
		/ 1.0 m/s]",METAR VHHH 142200Z 36002KT 330V030 9999 FEW030 SCT100 20/14 Q1020 NOSIG
0,[Clear],1996-11-15,[13.0 °C],[],[-],,[64%],[N/A],[1020 hPa],[20.0 °C],[7:00 AM],[-],[NNE],"[7.4 km/h
		/ 2.1 m/s]",METAR VHHH 142300Z 03004KT 350V100 CAVOK 20/13 Q1020 NOSIG
0,[Clear],1996-11-15,[13.0 °C],[],[-],,[64%],[N/A],[1021 hPa],[20.0 °C],[8:00 AM],[-],[ENE],"[1.9 km/h
		/ 0.5 m/s]",METAR VHHH 150000Z 06001KT CAVOK 20/13 Q1021 NOSIG
0,[Mostly Cloudy],1996-11-15,[13.0 °C],[],[-],,[57%],[N/A],[1022 hPa],[22.0 °C],[9:00 AM],[9.0 km],[North],"[5.6 km/h
		/ 1.5 m/s]",METAR VHHH 150100Z 01003KT 9000 BKN100 22/13 Q1022 NOSIG
0,[Clear],1996-11-15,[13.0 °C],[],[-],,[53%],[N/A],[1022 hPa],[23.0 °C],[10:00 AM],[-],[ENE],"[11.1 km/h
		/ 3.1 m/s]",METAR VHHH 150200Z 06006KT 360V090 CAVOK 23/13 Q1022 NOSIG
0,[Clear],1996-11-15,[13.0 °C],[],[-],,[50%],[N/A],[1021 hPa],[24.0 °C],[11:00 AM],[-],[ENE],"[9.3 km/h
		/ 2.6 m/s]",METAR VHHH 150300Z 06005KT 300V120 CAVOK 24/13 Q1021 NOSIG
0,[Mostly Cloudy],1996-11-15,[24.0 °C],[],[-],,[94%],[N/A],[1020 hPa],[25.0 °C],[1:00 PM],[10.0 km],[NNE],"[3.7 km/h
		/ 1.0 m/s]",METAR VHHH 150500Z 02002KT 9999 FEW040 BKN080 25/24 Q1020 NOSIG
0,[Mostly Cloudy],1996-11-15,[14.0 °C],[],[-],,[50%],[N/A],[1018 hPa],[25.0 °C],[3:00 PM],[10.0 km],[ENE],"[13.0 km/h
		/ 3.6 m/s]",METAR VHHH 150700Z 07007KT 030V110 9999 FEW035 BKN090 25/14 Q1018 NOSIG
0,[Mostly Cloudy],1996-11-15,[14.0 °C],[],[-],,[53%],[N/A],[1018 hPa],[24.0 °C],[4:00 PM],[10.0 km],[East],"[13.0 km/h
		/ 3.6 m/s]",METAR VHHH 150800Z 10007KT 060V130 9999 SCT030 BKN090 24/14 Q1018 NOSIG
0,[Mostly Cloudy],1996-11-15,[15.0 °C],[],[-],,[57%],[N/A],[1019 hPa],[24.0 °C],[5:00 PM],[10.0 km],[East],"[14.8 km/h
		/ 4.1 m/s]",METAR VHHH 150900Z 08008KT 050V130 9999 SCT035 BKN080 24/15 Q1019 NOSIG
0,[Mostly Cloudy],1996-11-15,[16.0 °C],[],[-],,[65%],[N/A],[1019 hPa],[23.0 °C],[6:00 PM],[10.0 km],[East],"[11.1 km/h
		/ 3.1 m/s]",METAR VHHH 151000Z 08006KT 010V140 9999 SCT030 BKN080 23/16 Q1019 NOSIG
0,[Mostly Cloudy],1996-11-15,[17.0 °C],[],[-],,[69%],[N/A],[1019 hPa],[23.0 °C],[7:00 PM],[10.0 km],[East],"[16.7 km/h
		/ 4.6 m/s]",METAR VHHH 151100Z 09009KT 010V120 9999 SCT025 BKN080 23/17 Q1019 NOSIG
0,[Mostly Cloudy],1996-11-15,[17.0 °C],[],[-],,[69%],[N/A],[1020 hPa],[23.0 °C],[8:00 PM],[10.0 km],[East],"[16.7 km/h
		/ 4.6 m/s]",METAR VHHH 151200Z 08009KT 050V120 9999 SCT025 BKN080 23/17 Q1020 NOSIG
0,[Mostly Cloudy],1996-11-15,[17.0 °C],[],[-],,[69%],[N/A],[1020 hPa],[23.0 °C],[9:00 PM],[10.0 km],[East],"[25.9 km/h
		/ 7.2 m/s]",METAR VHHH 151300Z 09014KT 050V140 9999 FEW020 SCT025 BKN080 23/17 Q1020 NOSIG
0,[Mostly Cloudy],1996-11-15,[17.0 °C],[],[-],,[69%],[N/A],[1021 hPa],[23.0 °C],[10:00 PM],[10.0 km],[East],"[22.2 km/h
		/ 6.2 m/s]",METAR VHHH 151400Z 09012KT 050V130 9999 FEW018 SCT025 BKN080 23/17 Q1021 WS LDG RWY 13/31 NOSIG
0,[Mostly Cloudy],1996-11-16,[18.0 °C],[],[-],,[78%],[N/A],[1021 hPa],[22.0 °C],[12:00 AM],[10.0 km],[East],"[31.5 km/h
		/ 8.7 m/s]",METAR VHHH 151600Z 10017KT 050V130 9999 FEW015 SCT020 BKN080 22/18 Q1021 WS LDG RWY 13/31 NOSIG
0,[Mostly Cloudy],1996-11-16,[18.0 °C],[],"[38.9 km/h
		/ 10.8 m/s]",,[78%],[N/A],[1020 hPa],[22.0 °C],[1:00 AM],[10.0 km],[East],"[20.4 km/h
		/ 5.7 m/s]",METAR VHHH 151700Z 09011G21KT 050V120 9999 FEW015 SCT020 BKN080 22/18 Q1020 WS LDG RWY 13/31 NOSIG
0,[Mostly Cloudy],1996-11-16,[17.0 °C],[],[-],,[73%],[N/A],[1020 hPa],[22.0 °C],[2:00 AM],[10.0 km],[East],"[18.5 km/h
		/ 5.1 m/s]",METAR VHHH 151800Z 09010KT 050V160 9999 FEW015 SCT025 BKN080 22/17 Q1020 WS LDG RWY 13/31 NOSIG
0,[Mostly Cloudy],1996-11-16,[17.0 °C],[],[-],,[73%],[N/A],[1020 hPa],[22.0 °C],[3:00 AM],[10.0 km],[East],"[18.5 km/h
		/ 5.1 m/s]",METAR VHHH 151900Z 08010KT 030V130 9999 FEW016 SCT025 BKN080 22/17 Q1020 WS LDG RWY 13/31 NOSIG
0,[Light Rain],1996-11-16,[18.0 °C],[Rain],[-],,[83%],[N/A],[1020 hPa],[21.0 °C],[4:00 AM],[10.0 km],[East],"[16.7 km/h
		/ 4.6 m/s]",METAR VHHH 152000Z 09009KT 030V130 9999 -RA(60) FEW016 SCT025 BKN080 21/18 Q1020 NOSIG
0,[Light Rain],1996-11-16,[18.0 °C],[Rain],[-],,[88%],[N/A],[1020 hPa],[20.0 °C],[5:00 AM],[10.0 km],[East],"[11.1 km/h
		/ 3.1 m/s]",METAR VHHH 152100Z 09006KT 020V150 9999 -RA FEW016 SCT025 BKN080 20/18 Q1020 NOSIG
0,[Light Rain],1996-11-16,[18.0 °C],[Rain],[-],,[88%],[N/A],[1020 hPa],[20.0 °C],[6:00 AM],[9.0 km],[NNE],"[11.1 km/h
		/ 3.1 m/s]",METAR VHHH 152200Z 03006KT 350V100 9000 -RA FEW016 SCT025 BKN080 20/18 Q1020 NOSIG
0,[Mostly Cloudy],1996-11-16,[16.0 °C],[],[-],,[83%],[N/A],[1021 hPa],[19.0 °C],[7:00 AM],[9.0 km],[NNE],"[3.7 km/h
		/ 1.0 m/s]",METAR VHHH 152300Z 03002KT 9000 FEW014 SCT025 BKN080 19/16 Q1021 NOSIG
0,[Mostly Cloudy],1996-11-16,[15.0 °C],[],[-],,[78%],[N/A],[1021 hPa],[19.0 °C],[8:00 AM],[7.0 km],[NNE],"[9.3 km/h
		/ 2.6 m/s]",METAR VHHH 160000Z 03005KT 320V080 7000 FEW014 SCT025 BKN080 19/15 Q1021 NOSIG
0,[Mostly Cloudy],1996-11-16,[15.0 °C],[],[-],,[73%],[N/A],[1022 hPa],[20.0 °C],[9:00 AM],[8.0 km],[NE],"[11.1 km/h
		/ 3.1 m/s]",METAR VHHH 160100Z 04006KT 010V090 8000 FEW015 SCT025 BKN080 20/15 Q1022 NOSIG
0,[Mostly Cloudy],1996-11-16,[15.0 °C],[],[-],,[73%],[N/A],[1022 hPa],[20.0 °C],[10:00 AM],[8.0 km],[NNW],"[13.0 km/h
		/ 3.6 m/s]",METAR VHHH 160200Z 34007KT 320V040 8000 FEW018 SCT025 BKN080 20/15 Q1022 NOSIG
0,[Mostly Cloudy],1996-11-16,[15.0 °C],[],[-],,[73%],[N/A],[1022 hPa],[20.0 °C],[11:00 AM],[9.0 km],[NE],"[11.1 km/h
		/ 3.1 m/s]",METAR VHHH 160300Z 05006KT 340V140 9000 FEW018 SCT025 BKN080 20/15 Q1022 NOSIG
0,[Mostly Cloudy],1996-11-16,[15.0 °C],[],[-],,[68%],[N/A],[1021 hPa],[21.0 °C],[12:00 PM],[10.0 km],[NE],"[18.5 km/h
		/ 5.1 m/s]",METAR VHHH 160400Z 04010KT 340V080 9999 FEW020 SCT025 BKN080 21/15 Q1021 NOSIG
0,[Mostly Cloudy],1996-11-16,[16.0 °C],[],[-],,[65%],[N/A],[1020 hPa],[23.0 °C],[1:00 PM],[10.0 km],[NE],"[14.8 km/h
		/ 4.1 m/s]",METAR VHHH 160500Z 05008KT 010V120 9999 FEW020 SCT025 BKN080 23/16 Q1020 NOSIG
0,[Mostly Cloudy],1996-11-16,[16.0 °C],[],[-],,[69%],[N/A],[1019 hPa],[22.0 °C],[2:00 PM],[10.0 km],[ENE],"[11.1 km/h
		/ 3.1 m/s]",METAR VHHH 160600Z 06006KT 020V140 9999 FEW025 SCT030 BKN080 22/16 Q1019 NOSIG
0,[Mostly Cloudy],1996-11-16,[16.0 °C],[],[-],,[65%],[N/A],[1018 hPa],[23.0 °C],[4:00 PM],[10.0 km],[North],"[5.6 km/h
		/ 1.5 m/s]",METAR VHHH 160800Z 36003KT 9999 FEW030 BKN080 23/16 Q1018 NOSIG
0,[Mostly Cloudy],1996-11-16,[16.0 °C],[],[-],,[69%],[N/A],[1018 hPa],[22.0 °C],[5:00 PM],[10.0 km],[North],"[11.1 km/h
		/ 3.1 m/s]",METAR VHHH 160900Z 01006KT 340V060 9999 FEW025 BKN080 22/16 Q1018 NOSIG
0,[Mostly Cloudy],1996-11-16,[16.0 °C],[],[-],,[69%],[N/A],[1019 hPa],[22.0 °C],[6:00 PM],[10.0 km],[NE],"[7.4 km/h
		/ 2.1 m/s]",METAR VHHH 161000Z 05004KT 330V090 9999 FEW030 BKN080 22/16 Q1019 NOSIG
0,[Mostly Cloudy],1996-11-16,[16.0 °C],[],[-],,[69%],[N/A],[1019 hPa],[22.0 °C],[7:00 PM],[10.0 km],[NE],"[9.3 km/h
		/ 2.6 m/s]",METAR VHHH 161100Z 04005KT 010V070 9999 FEW030 BKN080 22/16 Q1019 NOSIG
0,[Mostly Cloudy],1996-11-16,[16.0 °C],[],[-],,[69%],[N/A],[1019 hPa],[22.0 °C],[8:00 PM],[10.0 km],[NNE],"[9.3 km/h
		/ 2.6 m/s]",METAR VHHH 161200Z 02005KT 340V080 9999 FEW025 BKN080 22/16 Q1019 NOSIG
0,[Mostly Cloudy],1996-11-16,[16.0 °C],[],[-],,[69%],[N/A],[1020 hPa],[22.0 °C],[10:00 PM],[10.0 km],[NE],"[9.3 km/h
		/ 2.6 m/s]",METAR VHHH 161400Z 04005KT 330V100 9999 SCT025 BKN080 22/16 Q1020 NOSIG
0,[Mostly Cloudy],1996-11-16,[16.0 °C],[],[-],,[69%],[N/A],[1020 hPa],[22.0 °C],[11:00 PM],[10.0 km],[NNE],"[3.7 km/h
		/ 1.0 m/s]",METAR VHHH 161500Z 02002KT 9999 SCT025 BKN080 22/16 Q1020 NOSIG
0,[Mostly Cloudy],1996-11-17,[16.0 °C],[],[-],[-],[69%],[N/A],[1020 hPa],[22.0 °C],[12:00 AM],[10.0 km],[North],"[3.7 km/h
		/ 1.0 m/s]",METAR VHHH 161600Z 36002KT 9999 FEW022 SCT030 BKN100 22/16 Q1020 NOSIG
0,[Mostly Cloudy],1996-11-17,[15.0 °C],[],[-],[-],[68%],[N/A],[1020 hPa],[21.0 °C],[1:00 AM],[10.0 km],[NW],"[7.4 km/h
		/ 2.1 m/s]",METAR VHHH 161700Z 32004KT 280V350 9999 FEW022 SCT035 BKN100 21/15 Q1020 NOSIG
0,[Mostly Cloudy],1996-11-17,[14.0 °C],[],[-],[-],[64%],[N/A],[1020 hPa],[21.0 °C],[2:00 AM],[10.0 km],[NNE],"[7.4 km/h
		/ 2.1 m/s]",METAR VHHH 161800Z 03004KT 330V090 9999 FEW022 SCT035 BKN100 21/14 Q1020 NOSIG
0,[Mostly Cloudy],1996-11-17,[14.0 °C],[],[-],[-],[64%],[N/A],[1019 hPa],[21.0 °C],[3:00 AM],[10.0 km],[North],"[3.7 km/h
		/ 1.0 m/s]",METAR VHHH 161900Z 01002KT 9999 FEW025 SCT035 BKN080 21/14 Q1019 NOSIG
0,[Mostly Cloudy],1996-11-17,[14.0 °C],[],[-],[-],[64%],[N/A],[1019 hPa],[21.0 °C],[4:00 AM],[9.0 km],[North],"[1.9 km/h
		/ 0.5 m/s]",METAR VHHH 162000Z 35001KT 9000 SCT035 BKN080 21/14 Q1019 NOSIG
0,[Mostly Cloudy],1996-11-17,[14.0 °C],[],[-],[-],[64%],[N/A],[1019 hPa],[21.0 °C],[5:00 AM],[9.0 km],[ENE],"[9.3 km/h
		/ 2.6 m/s]",METAR VHHH 162100Z 06005KT 030V100 9000 FEW040 BKN080 21/14 Q1019 NOSIG
0,[Mostly Cloudy],1996-11-17,[13.0 °C],[],[-],[-],[60%],[N/A],[1020 hPa],[21.0 °C],[7:00 AM],[9.0 km],[Variable],"[1.9 km/h
		/ 0.5 m/s]",METAR VHHH 162300Z VRB01KT 9000 BKN060 21/13 Q1020 NOSIG
0,[Mostly Cloudy],1996-11-17,[13.0 °C],[],[-],[-],[60%],[N/A],[1021 hPa],[21.0 °C],[8:00 AM],[8.0 km],[NE],"[13.0 km/h
		/ 3.6 m/s]",METAR VHHH 170000Z 04007KT 350V080 8000 SCT035 BKN080 21/13 Q1021 NOSIG
0,[Mostly Cloudy],1996-11-17,[14.0 °C],[],[-],[-],[60%],[N/A],[1021 hPa],[22.0 °C],[9:00 AM],[9.0 km],[Variable],"[3.7 km/h
		/ 1.0 m/s]",METAR VHHH 170100Z VRB02KT 9000 FEW035 BKN080 22/14 Q1021 NOSIG
0,[Scattered Clouds],1996-11-17,[14.0 °C],[],[-],[27.1 °C],[45%],[N/A],[1019 hPa],[27.0 °C],[1:00 PM],[9.0 km],[NW],"[14.8 km/h
		/ 4.1 m/s]",METAR VHHH 170500Z 31008KT 270V350 9000 FEW035 SCT100 27/14 Q1019 NOSIG
0,[Scattered Clouds],1996-11-17,[14.0 °C],[],[-],[-],[47%],[N/A],[1018 hPa],[26.0 °C],[2:00 PM],[10.0 km],[NNW],"[14.8 km/h
		/ 4.1 m/s]",METAR VHHH 170600Z 33008KT 290V030 9999 FEW030 SCT080 26/14 Q1018 NOSIG
0,[Clear],1996-11-17,[13.0 °C],[],[-],[27.0 °C],[42%],[N/A],[1018 hPa],[27.0 °C],[3:00 PM],[-],[NNE],"[11.1 km/h
		/ 3.1 m/s]",METAR VHHH 170700Z 02006KT 320V090 CAVOK 27/13 Q1018 NOSIG
0,[Clear],1996-11-17,[12.0 °C],[],[-],[-],[42%],[N/A],[1019 hPa],[26.0 °C],[4:00 PM],[-],[NE],"[18.5 km/h
		/ 5.1 m/s]",METAR VHHH 170800Z 04010KT 340V080 CAVOK 26/12 Q1019 NOSIG
0,[Clear],1996-11-17,[13.0 °C],[],[-],[-],[50%],[N/A],[1019 hPa],[24.0 °C],[5:00 PM],[-],[North],"[14.8 km/h
		/ 4.1 m/s]",METAR VHHH 170900Z 35008KT 320V040 CAVOK 24/13 Q1019 WS LDG RWY 13/31 NOSIG
0,[Clear],1996-11-17,[11.0 °C],[],[-],[-],[47%],[N/A],[1020 hPa],[23.0 °C],[6:00 PM],[-],[North],"[13.0 km/h
		/ 3.6 m/s]",METAR VHHH 171000Z 35007KT 300V020 CAVOK 23/11 Q1020 WS LDG RWY 13/31 NOSIG
0,[Clear],1996-11-17,[10.0 °C],[],"[42.6 km/h
		/ 11.8 m/s]",[-],[49%],[N/A],[1021 hPa],[21.0 °C],[7:00 PM],[-],[North],"[18.5 km/h
		/ 5.1 m/s]",METAR VHHH 171100Z 36010G23KT 270V110 CAVOK 21/10 Q1021 WS LDG RWY 13/31 NOSIG
0,[Clear],1996-11-17,[10.0 °C],[],"[55.6 km/h
		/ 15.4 m/s]",[-],[49%],[N/A],[1022 hPa],[21.0 °C],[8:00 PM],[-],[North],"[31.5 km/h
		/ 8.7 m/s]",METAR VHHH 171200Z 36017G30KT 320V080 CAVOK 21/10 Q1022 WS LDG RWY 13/31 NOSIG
0,[Clear],1996-11-17,[9.0 °C],[],"[53.7 km/h
		/ 14.9 m/s]",[-],[49%],[N/A],[1022 hPa],[20.0 °C],[9:00 PM],[-],[North],"[31.5 km/h
		/ 8.7 m/s]",METAR VHHH 171300Z 36017G29KT 320V070 CAVOK 20/09 Q1022 WS LDG RWY 13/31 NOSIG
0,[Mostly Cloudy],1996-11-17,[9.0 °C],[],[-],[-],[52%],[N/A],[1023 hPa],[19.0 °C],[10:00 PM],[10.0 km],[North],"[22.2 km/h
		/ 6.2 m/s]",METAR VHHH 171400Z 01012KT 300V090 9999 FEW035 BKN090 19/09 Q1023 WS LDG RWY 13/31 NOSIG
0,[Mostly Cloudy],1996-11-17,[9.0 °C],[],[-],[-],[52%],[N/A],[1023 hPa],[19.0 °C],[11:00 PM],[10.0 km],[WNW],"[14.8 km/h
		/ 4.1 m/s]",METAR VHHH 171500Z 29008KT 250V340 9999 FEW035 BKN100 19/09 Q1023 WS LDG RWY 13/31 NOSIG
0,[Mostly Cloudy],1996-11-18,[9.0 °C],[],[-],,[52%],[N/A],[1023 hPa],[19.0 °C],[12:00 AM],[10.0 km],[West],"[9.3 km/h
		/ 2.6 m/s]",METAR VHHH 171600Z 26005KT 120V290 9999 FEW035 BKN100 19/09 Q1023 WS LDG RWY 13/31 NOSIG
0,[Mostly Cloudy],1996-11-18,[8.0 °C],[],[-],,[52%],[N/A],[1022 hPa],[18.0 °C],[1:00 AM],[10.0 km],[WNW],"[11.1 km/h
		/ 3.1 m/s]",METAR VHHH 171700Z 30006KT 270V050 9999 FEW035 BKN080 18/08 Q1022 WS LDG RWY 13/31 NOSIG
0,[Mostly Cloudy],1996-11-18,[8.0 °C],[],[-],,[55%],[N/A],[1022 hPa],[17.0 °C],[2:00 AM],[10.0 km],[NNW],"[11.1 km/h
		/ 3.1 m/s]",METAR VHHH 171800Z 33006KT 220V030 9999 FEW035 BKN080 17/08 Q1022 WS LDG RWY 13/31 NOSIG
0,[Scattered Clouds],1996-11-18,[8.0 °C],[],[-],,[55%],[N/A],[1022 hPa],[17.0 °C],[3:00 AM],[10.0 km],[NW],"[16.7 km/h
		/ 4.6 m/s]",METAR VHHH 171900Z 32009KT 290V360 9999 FEW035 SCT090 17/08 Q1022 WS LDG RWY 13/31 NOSIG
0,[Scattered Clouds],1996-11-18,[7.0 °C],[],"[44.4 km/h
		/ 12.3 m/s]",,[55%],[N/A],[1022 hPa],[16.0 °C],[4:00 AM],[10.0 km],[NW],"[16.7 km/h
		/ 4.6 m/s]",METAR VHHH 172000Z 32009G24KT 290V360 9999 FEW035 SCT090 16/07 Q1022 WS LDG RWY 13/31 NOSIG
0,[Scattered Clouds],1996-11-18,[7.0 °C],[],[-],,[55%],[N/A],[1022 hPa],[16.0 °C],[5:00 AM],[10.0 km],[WNW],"[18.5 km/h
		/ 5.1 m/s]",METAR VHHH 172100Z 30010KT 270V340 9999 FEW035 SCT080 16/07 Q1022 WS LDG RWY 13/31 NOSIG
0,[Scattered Clouds],1996-11-18,[7.0 °C],[],[-],,[55%],[N/A],[1023 hPa],[16.0 °C],[6:00 AM],[10.0 km],[NW],"[9.3 km/h
		/ 2.6 m/s]",METAR VHHH 172200Z 32005KT 270V050 9999 FEW035 SCT080 16/07 Q1023 WS LDG RWY 13/31 NOSIG
0,[Clear],1996-11-18,[7.0 °C],[],[-],,[55%],[N/A],[1023 hPa],[16.0 °C],[7:00 AM],[-],[NW],"[11.1 km/h
		/ 3.1 m/s]",METAR VHHH 172300Z 32006KT 280V010 CAVOK 16/07 Q1023 WS LDG RWY 13/31 NOSIG
0,[Clear],1996-11-18,[7.0 °C],[],[-],,[52%],[N/A],[1024 hPa],[17.0 °C],[8:00 AM],[-],[NNW],"[18.5 km/h
		/ 5.1 m/s]",METAR VHHH 180000Z 34010KT 270V020 CAVOK 17/07 Q1024 WS LDG RWY 13/31 NOSIG
0,[Mostly Cloudy],1996-11-18,[6.0 °C],[],[-],,[45%],[N/A],[1025 hPa],[18.0 °C],[9:00 AM],[10.0 km],[NNW],"[14.8 km/h
		/ 4.1 m/s]",METAR VHHH 180100Z 34008KT 300V020 9999 FEW040 BKN100 18/06 Q1025 WS LDG RWY 13/31 NOSIG
0,[Mostly Cloudy],1996-11-18,[7.0 °C],[],[-],,[49%],[N/A],[1025 hPa],[18.0 °C],[10:00 AM],[10.0 km],[NNW],"[14.8 km/h
		/ 4.1 m/s]",METAR VHHH 180200Z 34008KT 280V360 9999 FEW035 BKN100 18/07 Q1025 WS LDG RWY 13/31 NOSIG
0,[Mostly Cloudy],1996-11-18,[7.0 °C],[],[-],,[46%],[N/A],[1025 hPa],[19.0 °C],[11:00 AM],[10.0 km],[NNW],"[14.8 km/h
		/ 4.1 m/s]",METAR VHHH 180300Z 33008KT 300V010 9999 FEW035 BKN100 19/07 Q1025 WS LDG RWY 13/31 NOSIG
0,[Mostly Cloudy],1996-11-18,[8.0 °C],[],[-],,[49%],[N/A],[1024 hPa],[19.0 °C],[12:00 PM],[10.0 km],[NW],"[14.8 km/h
		/ 4.1 m/s]",METAR VHHH 180400Z 31008KT 280V020 9999 FEW035 BKN100 19/08 Q1024 NOSIG
0,[Mostly Cloudy],1996-11-18,[7.0 °C],[],[-],,[43%],[N/A],[1023 hPa],[20.0 °C],[1:00 PM],[10.0 km],[NW],"[18.5 km/h
		/ 5.1 m/s]",METAR VHHH 180500Z 32010KT 290V020 9999 FEW035 BKN100 20/07 Q1023 WS LDG RWY 13/31 NOSIG
0,[Mostly Cloudy],1996-11-18,[7.0 °C],[],[-],,[46%],[N/A],[1022 hPa],[19.0 °C],[2:00 PM],[10.0 km],[NNW],"[18.5 km/h
		/ 5.1 m/s]",METAR VHHH 180600Z 34010KT 250V030 9999 FEW035 BKN080 19/07 Q1022 WS LDG RWY 13/31 NOSIG
0,[Mostly Cloudy],1996-11-18,[7.0 °C],[],[-],,[46%],[N/A],[1022 hPa],[19.0 °C],[3:00 PM],[10.0 km],[North],"[18.5 km/h
		/ 5.1 m/s]",METAR VHHH 180700Z 35010KT 310V030 9999 FEW035 BKN080 19/07 Q1022 WS LDG RWY 13/31 NOSIG
0,[Mostly Cloudy],1996-11-18,[6.0 °C],[],[-],,[45%],[N/A],[1022 hPa],[18.0 °C],[4:00 PM],[10.0 km],[NNW],"[14.8 km/h
		/ 4.1 m/s]",METAR VHHH 180800Z 34008KT 310V020 9999 SCT035 BKN080 18/06 Q1022 WS LDG RWY 13/31 NOSIG
0,[Scattered Clouds],1996-11-18,[7.0 °C],[],[-],,[49%],[N/A],[1022 hPa],[18.0 °C],[5:00 PM],[10.0 km],[NNE],"[7.4 km/h
		/ 2.1 m/s]",METAR VHHH 180900Z 03004KT 340V150 9999 FEW035 SCT080 18/07 Q1022 WS LDG RWY 13/31 NOSIG
0,[Mostly Cloudy],1996-11-18,[6.0 °C],[],[-],,[45%],[N/A],[1023 hPa],[18.0 °C],[6:00 PM],[10.0 km],[NNE],"[11.1 km/h
		/ 3.1 m/s]",METAR VHHH 181000Z 02006KT 350V070 9999 FEW035 BKN080 18/06 Q1023 WS LDG RWY 13/31 NOSIG
0,[Light Rain],1996-11-18,[6.0 °C],[Rain],[-],,[45%],[N/A],[1023 hPa],[18.0 °C],[7:00 PM],[10.0 km],[NNE],"[11.1 km/h
		/ 3.1 m/s]",METAR VHHH 181100Z 02006KT 330V060 9999 -RA SCT035 BKN080 18/06 Q1023 WS LDG RWY 13/31 NOSIG
0,[Mostly Cloudy],1996-11-18,[5.0 °C],[],[-],,[42%],[N/A],[1024 hPa],[18.0 °C],[8:00 PM],[10.0 km],[NNE],"[9.3 km/h
		/ 2.6 m/s]",METAR VHHH 181200Z 02005KT 290V110 9999 FEW035 BKN080 18/05 Q1024 NOSIG
0,[Mostly Cloudy],1996-11-18,[6.0 °C],[],[-],,[45%],[N/A],[1024 hPa],[18.0 °C],[9:00 PM],[10.0 km],[North],"[11.1 km/h
		/ 3.1 m/s]",METAR VHHH 181300Z 36006KT 310V020 9999 FEW030 BKN080 18/06 Q1024 NOSIG
0,[Mostly Cloudy],1996-11-18,[5.0 °C],[],[-],,[42%],[N/A],[1024 hPa],[18.0 °C],[10:00 PM],[10.0 km],[North],"[9.3 km/h
		/ 2.6 m/s]",METAR VHHH 181400Z 01005KT 330V050 9999 FEW030 BKN080 18/05 Q1024 NOSIG
0,[Mostly Cloudy],1996-11-18,[6.0 °C],[],[-],,[45%],[N/A],[1024 hPa],[18.0 °C],[11:00 PM],[10.0 km],[North],"[9.3 km/h
		/ 2.6 m/s]",METAR VHHH 181500Z 01005KT 340V050 9999 FEW030 BKN080 18/06 Q1024 NOSIG
0,[Mostly Cloudy],1996-11-19,[5.0 °C],[],[-],,[42%],[N/A],[1023 hPa],[18.0 °C],[12:00 AM],[10.0 km],[North],"[11.1 km/h
		/ 3.1 m/s]",METAR VHHH 181600Z 01006KT 310V050 9999 FEW030 BKN080 18/05 Q1023 NOSIG
0,[Partly Cloudy],1996-11-19,[5.0 °C],[],[-],,[42%],[N/A],[1023 hPa],[18.0 °C],[1:00 AM],[10.0 km],[NNW],"[11.1 km/h
		/ 3.1 m/s]",METAR VHHH 181700Z 34006KT 310V030 9999 FEW030 18/05 Q1023 NOSIG
0,[Partly Cloudy],1996-11-19,[5.0 °C],[],[-],,[45%],[N/A],[1023 hPa],[17.0 °C],[2:00 AM],[10.0 km],[North],"[11.1 km/h
		/ 3.1 m/s]",METAR VHHH 181800Z 01006KT 320V050 9999 FEW030 17/05 Q1023 NOSIG
0,[Scattered Clouds],1996-11-19,[5.0 °C],[],[-],,[42%],[N/A],[1023 hPa],[18.0 °C],[3:00 AM],[10.0 km],[NNW],"[7.4 km/h
		/ 2.1 m/s]",METAR VHHH 181900Z 34004KT 320V040 9999 FEW030 SCT080 18/05 Q1023 NOSIG
0,[Mostly Cloudy],1996-11-19,[5.0 °C],[],[-],,[45%],[N/A],[1022 hPa],[17.0 °C],[4:00 AM],[10.0 km],[North],"[11.1 km/h
		/ 3.1 m/s]",METAR VHHH 182000Z 36006KT 330V050 9999 FEW030 BKN080 17/05 Q1022 NOSIG
0,[Mostly Cloudy],1996-11-19,[5.0 °C],[],[-],,[45%],[N/A],[1022 hPa],[17.0 °C],[5:00 AM],[10.0 km],[NNE],"[11.1 km/h
		/ 3.1 m/s]",METAR VHHH 182100Z 03006KT 330V080 9999 FEW040 BKN100 17/05 Q1022 NOSIG
0,[Scattered Clouds],1996-11-19,[5.0 °C],[],[-],,[45%],[N/A],[1023 hPa],[17.0 °C],[6:00 AM],[10.0 km],[North],"[3.7 km/h
		/ 1.0 m/s]",METAR VHHH 182200Z 35002KT 9999 FEW040 SCT100 17/05 Q1023 NOSIG
0,[Mostly Cloudy],1996-11-19,[5.0 °C],[],[-],,[45%],[N/A],[1024 hPa],[17.0 °C],[7:00 AM],[10.0 km],[NNW],"[11.1 km/h
		/ 3.1 m/s]",METAR VHHH 182300Z 33006KT 9999 FEW040 BKN100 17/05 Q1024 NOSIG
0,[Mostly Cloudy],1996-11-19,[5.0 °C],[],[-],,[42%],[N/A],[1024 hPa],[18.0 °C],[8:00 AM],[10.0 km],[NE],"[9.3 km/h
		/ 2.6 m/s]",METAR VHHH 190000Z 04005KT 9999 FEW040 BKN100 18/05 Q1024 NOSIG
0,[Mostly Cloudy],1996-11-19,[5.0 °C],[],[-],,[40%],[N/A],[1025 hPa],[19.0 °C],[9:00 AM],[10.0 km],[North],"[5.6 km/h
		/ 1.5 m/s]",METAR VHHH 190100Z 36003KT 9999 FEW040 BKN090 19/05 Q1025 NOSIG
0,[Mostly Cloudy],1996-11-19,[6.0 °C],[],[-],,[40%],[N/A],[1025 hPa],[20.0 °C],[10:00 AM],[10.0 km],[ENE],"[13.0 km/h
		/ 3.6 m/s]",METAR VHHH 190200Z 06007KT 360V120 9999 FEW040 BKN090 20/06 Q1025 NOSIG
0,[Mostly Cloudy],1996-11-19,[7.0 °C],[],[-],,[40%],[N/A],[1024 hPa],[21.0 °C],[11:00 AM],[10.0 km],[NNE],"[13.0 km/h
		/ 3.6 m/s]",METAR VHHH 190300Z 02007KT 340V100 9999 FEW035 BKN080 21/07 Q1024 NOSIG
0,[Mostly Cloudy],1996-11-19,[6.0 °C],[],[-],,[35%],[N/A],[1023 hPa],[22.0 °C],[12:00 PM],[10.0 km],[NNE],"[13.0 km/h
		/ 3.6 m/s]",METAR VHHH 190400Z 03007KT 340V080 9999 FEW035 BKN080 22/06 Q1023 NOSIG
0,[Mostly Cloudy],1996-11-19,[8.0 °C],[],[-],,[38%],[N/A],[1022 hPa],[23.0 °C],[1:00 PM],[10.0 km],[ENE],"[7.4 km/h
		/ 2.1 m/s]",METAR VHHH 190500Z 07004KT 280V110 9999 FEW035 BKN090 23/08 Q1022 NOSIG
0,[Mostly Cloudy],1996-11-19,[7.0 °C],[],[-],,[36%],[N/A],[1022 hPa],[23.0 °C],[2:00 PM],[10.0 km],[ENE],"[11.1 km/h
		/ 3.1 m/s]",METAR VHHH 190600Z 07006KT 360V140 9999 FEW040 BKN090 23/07 Q1022 NOSIG
0,[Mostly Cloudy],1996-11-19,[8.0 °C],[],[-],,[38%],[N/A],[1021 hPa],[23.0 °C],[3:00 PM],[10.0 km],[East],"[14.8 km/h
		/ 4.1 m/s]",METAR VHHH 190700Z 08008KT 060V120 9999 FEW040 BKN090 23/08 Q1021 NOSIG
0,[Mostly Cloudy],1996-11-19,[9.0 °C],[],[-],,[43%],[N/A],[1021 hPa],[22.0 °C],[4:00 PM],[10.0 km],[ENE],"[13.0 km/h
		/ 3.6 m/s]",METAR VHHH 190800Z 06007KT 020V130 9999 FEW030 BKN080 22/09 Q1021 NOSIG
0,[Mostly Cloudy],1996-11-19,[9.0 °C],[],[-],,[46%],[N/A],[1021 hPa],[21.0 °C],[5:00 PM],[10.0 km],[East],"[13.0 km/h
		/ 3.6 m/s]",METAR VHHH 190900Z 10007KT 060V150 9999 SCT035 BKN100 21/09 Q1021 NOSIG
0,[Mostly Cloudy],1996-11-19,[9.0 °C],[],[-],,[46%],[N/A],[1021 hPa],[21.0 °C],[6:00 PM],[10.0 km],[East],"[13.0 km/h
		/ 3.6 m/s]",METAR VHHH 191000Z 08007KT 010V110 9999 SCT030 BKN090 21/09 Q1021 NOSIG
0,[Mostly Cloudy],1996-11-19,[10.0 °C],[],[-],,[49%],[N/A],[1022 hPa],[21.0 °C],[7:00 PM],[10.0 km],[ENE],"[11.1 km/h
		/ 3.1 m/s]",METAR VHHH 191100Z 06006KT 030V130 9999 SCT030 BKN090 21/10 Q1022 NOSIG
0,[Mostly Cloudy],1996-11-19,[10.0 °C],[],[-],,[49%],[N/A],[1022 hPa],[21.0 °C],[8:00 PM],[10.0 km],[East],"[11.1 km/h
		/ 3.1 m/s]",METAR VHHH 191200Z 09006KT 360V120 9999 SCT035 BKN090 21/10 Q1022 NOSIG
0,[Mostly Cloudy],1996-11-19,[10.0 °C],[],[-],,[49%],[N/A],[1022 hPa],[21.0 °C],[9:00 PM],[10.0 km],[East],"[5.6 km/h
		/ 1.5 m/s]",METAR VHHH 191300Z 09003KT 9999 FEW035 BKN080 21/10 Q1022 NOSIG
0,[Mostly Cloudy],1996-11-19,[11.0 °C],[],[-],,[53%],[N/A],[1023 hPa],[21.0 °C],[10:00 PM],[10.0 km],[North],"[7.4 km/h
		/ 2.1 m/s]",METAR VHHH 191400Z 01004KT 340V050 9999 FEW035 BKN080 21/11 Q1023 NOSIG
0,[Mostly Cloudy],1996-11-19,[10.0 °C],[],[-],,[49%],[N/A],[1023 hPa],[21.0 °C],[11:00 PM],[10.0 km],[NE],"[7.4 km/h
		/ 2.1 m/s]",METAR VHHH 191500Z 04004KT 360V060 9999 FEW040 BKN090 21/10 Q1023 NOSIG
0,[Mostly Cloudy],1996-11-20,[10.0 °C],[],[-],,[52%],[N/A],[1023 hPa],[20.0 °C],[12:00 AM],[10.0 km],[North],"[5.6 km/h
		/ 1.5 m/s]",METAR VHHH 191600Z 01003KT 9999 FEW040 BKN090 20/10 Q1023 NOSIG
0,[Mostly Cloudy],1996-11-20,[11.0 °C],[],[-],,[56%],[N/A],[1023 hPa],[20.0 °C],[1:00 AM],[10.0 km],[NNE],"[5.6 km/h
		/ 1.5 m/s]",METAR VHHH 191700Z 03003KT 9999 FEW040 BKN090 20/11 Q1023 NOSIG
0,[Mostly Cloudy],1996-11-20,[10.0 °C],[],[-],,[52%],[N/A],[1022 hPa],[20.0 °C],[2:00 AM],[10.0 km],[NE],"[9.3 km/h
		/ 2.6 m/s]",METAR VHHH 191800Z 05005KT 340V080 9999 FEW040 BKN090 20/10 Q1022 NOSIG
0,[Mostly Cloudy],1996-11-20,[11.0 °C],[],[-],,[56%],[N/A],[1022 hPa],[20.0 °C],[3:00 AM],[10.0 km],[NNE],"[9.3 km/h
		/ 2.6 m/s]",METAR VHHH 191900Z 03005KT 360V090 9999 FEW040 BKN090 20/11 Q1022 NOSIG
0,[Mostly Cloudy],1996-11-20,[10.0 °C],[],[-],,[56%],[N/A],[1022 hPa],[19.0 °C],[4:00 AM],[10.0 km],[NE],"[9.3 km/h
		/ 2.6 m/s]",METAR VHHH 192000Z 05005KT 360V080 9999 FEW040 BKN090 19/10 Q1022 NOSIG
0,[Mostly Cloudy],1996-11-20,[10.0 °C],[],[-],,[56%],[N/A],[1022 hPa],[19.0 °C],[5:00 AM],[10.0 km],[North],"[7.4 km/h
		/ 2.1 m/s]",METAR VHHH 192100Z 36004KT 330V080 9999 FEW040 BKN090 19/10 Q1022 NOSIG
0,[Mostly Cloudy],1996-11-20,[10.0 °C],[],[-],,[56%],[N/A],[1023 hPa],[19.0 °C],[6:00 AM],[10.0 km],[North],"[9.3 km/h
		/ 2.6 m/s]",METAR VHHH 192200Z 01005KT 340V080 9999 FEW040 BKN090 19/10 Q1023 NOSIG
0,[Clear],1996-11-20,[6.0 °C],[],[-],,[35%],[N/A],[1023 hPa],[22.0 °C],[11:00 AM],[-],[East],"[7.4 km/h
		/ 2.1 m/s]",METAR VHHH 200300Z 10004KT 030V170 CAVOK 22/06 Q1023 NOSIG
0,[Clear],1996-11-20,[9.0 °C],[],[-],,[38%],[N/A],[1021 hPa],[24.0 °C],[1:00 PM],[-],[NE],"[11.1 km/h
		/ 3.1 m/s]",METAR VHHH 200500Z 04006KT 330V080 CAVOK 24/09 Q1021 NOSIG
0,[Clear],1996-11-20,[9.0 °C],[],[-],,[36%],[N/A],[1020 hPa],[25.0 °C],[2:00 PM],[-],[SSE],"[18.5 km/h
		/ 5.1 m/s]",METAR VHHH 200600Z 15010KT 120V200 CAVOK 25/09 Q1020 NOSIG
0,[Clear],1996-11-20,[11.0 °C],[],[-],,[44%],[N/A],[1019 hPa],[24.0 °C],[3:00 PM],[-],[SE],"[18.5 km/h
		/ 5.1 m/s]",METAR VHHH 200700Z 14010KT 110V200 CAVOK 24/11 Q1019 NOSIG
0,[Clear],1996-11-20,[10.0 °C],[],[-],,[41%],[N/A],[1019 hPa],[24.0 °C],[4:00 PM],[-],[SE],"[18.5 km/h
		/ 5.1 m/s]",METAR VHHH 200800Z 13010KT CAVOK 24/10 Q1019 NOSIG
0,[Clear],1996-11-20,[10.0 °C],[],[-],,[46%],[N/A],[1019 hPa],[22.0 °C],[5:00 PM],[-],[SE],"[18.5 km/h
		/ 5.1 m/s]",METAR VHHH 200900Z 13010KT CAVOK 22/10 Q1019 NOSIG
0,[Clear],1996-11-20,[10.0 °C],[],[-],,[46%],[N/A],[1019 hPa],[22.0 °C],[6:00 PM],[-],[East],"[3.7 km/h
		/ 1.0 m/s]",METAR VHHH 201000Z 09002KT CAVOK 22/10 Q1019 NOSIG
0,[Mostly Cloudy],1996-11-20,[11.0 °C],[],[-],,[50%],[N/A],[1020 hPa],[22.0 °C],[7:00 PM],[10.0 km],[SSE],"[7.4 km/h
		/ 2.1 m/s]",METAR VHHH 201100Z 15004KT 110V190 9999 FEW035 BKN080 22/11 Q1020 NOSIG
0,[Scattered Clouds],1996-11-20,[9.0 °C],[],[-],,[43%],[N/A],[1020 hPa],[22.0 °C],[8:00 PM],[10.0 km],[ENE],"[11.1 km/h
		/ 3.1 m/s]",METAR VHHH 201200Z 06006KT 300V160 9999 FEW035 SCT090 22/09 Q1020 NOSIG
0,[Scattered Clouds],1996-11-20,[9.0 °C],[],[-],,[43%],[N/A],[1020 hPa],[22.0 °C],[9:00 PM],[10.0 km],[ESE],"[7.4 km/h
		/ 2.1 m/s]",METAR VHHH 201300Z 11004KT 010V170 9999 FEW030 SCT080 22/09 Q1020 NOSIG
0,[Mostly Cloudy],1996-11-20,[9.0 °C],[],[-],,[43%],[N/A],[1020 hPa],[22.0 °C],[10:00 PM],[10.0 km],[ESE],"[11.1 km/h
		/ 3.1 m/s]",METAR VHHH 201400Z 12006KT 090V140 9999 FEW030 BKN090 22/09 Q1020 NOSIG
0,[Mostly Cloudy],1996-11-20,[10.0 °C],[],[-],,[44%],[N/A],[1020 hPa],[23.0 °C],[11:00 PM],[10.0 km],[East],"[11.1 km/h
		/ 3.1 m/s]",METAR VHHH 201500Z 10006KT 070V130 9999 FEW030 BKN080 23/10 Q1020 NOSIG
0,[Mostly Cloudy],1996-11-21,[12.0 °C],[],[-],,[53%],[N/A],[1020 hPa],[22.0 °C],[12:00 AM],[10.0 km],[North],"[3.7 km/h
		/ 1.0 m/s]",METAR VHHH 201600Z 35002KT 9999 FEW030 BKN090 22/12 Q1020 NOSIG
0,[Mostly Cloudy],1996-11-21,[11.0 °C],[],[-],,[50%],[N/A],[1019 hPa],[22.0 °C],[1:00 AM],[10.0 km],[NNW],"[7.4 km/h
		/ 2.1 m/s]",METAR VHHH 201700Z 33004KT 290V340 9999 FEW030 BKN090 22/11 Q1019 NOSIG
0,[Mostly Cloudy],1996-11-21,[10.0 °C],[],[-],,[46%],[N/A],[1019 hPa],[22.0 °C],[2:00 AM],[10.0 km],[NNW],"[3.7 km/h
		/ 1.0 m/s]",METAR VHHH 201800Z 34002KT 9999 FEW030 BKN100 22/10 Q1019 NOSIG
0,[Mostly Cloudy],1996-11-21,[8.0 °C],[],[-],,[43%],[N/A],[1018 hPa],[21.0 °C],[3:00 AM],[10.0 km],[NE],"[3.7 km/h
		/ 1.0 m/s]",METAR VHHH 201900Z 04002KT 9999 FEW030 BKN090 21/08 Q1018 NOSIG
0,[Scattered Clouds],1996-11-21,[8.0 °C],[],[-],,[43%],[N/A],[1018 hPa],[21.0 °C],[4:00 AM],[10.0 km],[Variable],"[1.9 km/h
		/ 0.5 m/s]",METAR VHHH 202000Z VRB01KT 9999 FEW030 SCT100 21/08 Q1018 NOSIG
0,[Scattered Clouds],1996-11-21,[6.0 °C],[],[-],,[38%],[N/A],[1018 hPa],[21.0 °C],[5:00 AM],[10.0 km],[NE],"[1.9 km/h
		/ 0.5 m/s]",METAR VHHH 202100Z 05001KT 9999 FEW030 SCT080 21/06 Q1018 NOSIG
0,[Mostly Cloudy],1996-11-21,[6.0 °C],[],[-],,[40%],[N/A],[1018 hPa],[20.0 °C],[6:00 AM],[10.0 km],[East],"[3.7 km/h
		/ 1.0 m/s]",METAR VHHH 202200Z 09002KT 9999 FEW035 BKN080 20/06 Q1018 NOSIG
0,[Partly Cloudy],1996-11-21,[7.0 °C],[],[-],,[40%],[N/A],[1019 hPa],[21.0 °C],[7:00 AM],[10.0 km],[ENE],"[7.4 km/h
		/ 2.1 m/s]",METAR VHHH 202300Z 07004KT 360V130 9999 FEW040 21/07 Q1019 NOSIG
0,[Clear],1996-11-21,[7.0 °C],[],[-],,[38%],[N/A],[1020 hPa],[22.0 °C],[8:00 AM],[-],[ENE],"[3.7 km/h
		/ 1.0 m/s]",METAR VHHH 210000Z 07002KT CAVOK 22/07 Q1020 NOSIG
0,[Clear],1996-11-21,[7.0 °C],[],[-],,[36%],[N/A],[1020 hPa],[23.0 °C],[9:00 AM],[-],[NNE],"[14.8 km/h
		/ 4.1 m/s]",METAR VHHH 210100Z 02008KT 350V060 CAVOK 23/07 Q1020 NOSIG
0,[Clear],1996-11-21,[8.0 °C],[],[-],,[36%],[N/A],[1020 hPa],[24.0 °C],[10:00 AM],[-],[East],"[18.5 km/h
		/ 5.1 m/s]",METAR VHHH 210200Z 09010KT 060V130 CAVOK 24/08 Q1020 NOSIG
0,[Partly Cloudy],1996-11-21,[11.0 °C],[],"[46.3 km/h
		/ 12.9 m/s]",,[39%],[N/A],[1020 hPa],[26.0 °C],[11:00 AM],[10.0 km],[East],"[25.9 km/h
		/ 7.2 m/s]",METAR VHHH 210300Z 10014G25KT 010V140 9999 FEW030 26/11 Q1020 NOSIG
0,[Partly Cloudy],1996-11-21,[13.0 °C],[],"[44.4 km/h
		/ 12.3 m/s]",,[47%],[N/A],[1019 hPa],[25.0 °C],[12:00 PM],[10.0 km],[East],"[24.1 km/h
		/ 6.7 m/s]",METAR VHHH 210400Z 10013G24KT 040V160 9999 FEW030 25/13 Q1019 WS LDG RWY 13/31 NOSIG
0,[Clear],1996-11-21,[14.0 °C],[],"[53.7 km/h
		/ 14.9 m/s]",,[50%],[N/A],[1018 hPa],[25.0 °C],[1:00 PM],[-],[East],"[29.6 km/h
		/ 8.2 m/s]",METAR VHHH 210500Z 09016G29KT 050V130 CAVOK 25/14 Q1018 WS LDG RWY 13/31 NOSIG
0,[Partly Cloudy],1996-11-21,[15.0 °C],[],[-],,[51%],[N/A],[1017 hPa],[26.0 °C],[2:00 PM],[10.0 km],[East],"[20.4 km/h
		/ 5.7 m/s]",METAR VHHH 210600Z 10011KT 050V130 9999 FEW035 26/15 Q1017 WS LDG RWY 13/31 NOSIG
0,[Clear],1996-11-21,[14.0 °C],[],"[35.2 km/h
		/ 9.8 m/s]",,[50%],[N/A],[1016 hPa],[25.0 °C],[3:00 PM],[-],[East],"[16.7 km/h
		/ 4.6 m/s]",METAR VHHH 210700Z 08009G19KT 010V160 CAVOK 25/14 Q1016 NOSIG
0,[Clear],1996-11-21,[15.0 °C],[],[-],,[54%],[N/A],[1016 hPa],[25.0 °C],[4:00 PM],[-],[East],"[18.5 km/h
		/ 5.1 m/s]",METAR VHHH 210800Z 08010KT 010V150 CAVOK 25/15 Q1016 NOSIG
0,[Clear],1996-11-21,[16.0 °C],[],[-],,[61%],[N/A],[1017 hPa],[24.0 °C],[5:00 PM],[-],[East],"[14.8 km/h
		/ 4.1 m/s]",METAR VHHH 210900Z 10008KT 060V130 CAVOK 24/16 Q1017 NOSIG
0,[Partly Cloudy],1996-11-21,[17.0 °C],[],[-],,[69%],[N/A],[1017 hPa],[23.0 °C],[6:00 PM],[10.0 km],[East],"[14.8 km/h
		/ 4.1 m/s]",METAR VHHH 211000Z 10008KT 040V120 9999 FEW030 23/17 Q1017 NOSIG
0,[Partly Cloudy],1996-11-21,[18.0 °C],[],[-],,[78%],[N/A],[1017 hPa],[22.0 °C],[7:00 PM],[10.0 km],[East],"[14.8 km/h
		/ 4.1 m/s]",METAR VHHH 211100Z 10008KT 060V160 9999 FEW030 22/18 Q1017 NOSIG
0,[Partly Cloudy],1996-11-21,[18.0 °C],[],[-],,[78%],[N/A],[1018 hPa],[22.0 °C],[8:00 PM],[10.0 km],[East],"[13.0 km/h
		/ 3.6 m/s]",METAR VHHH 211200Z 09007KT 010V140 9999 FEW018 22/18 Q1018 NOSIG
0,[Partly Cloudy],1996-11-21,[18.0 °C],[],[-],,[78%],[N/A],[1019 hPa],[22.0 °C],[9:00 PM],[10.0 km],[East],"[11.1 km/h
		/ 3.1 m/s]",METAR VHHH 211300Z 08006KT 050V130 9999 FEW018 22/18 Q1019 NOSIG
0,[Scattered Clouds],1996-11-21,[18.0 °C],[],[-],,[78%],[N/A],[1019 hPa],[22.0 °C],[10:00 PM],[10.0 km],[East],"[14.8 km/h
		/ 4.1 m/s]",METAR VHHH 211400Z 08008KT 020V110 9999 FEW018 SCT025 22/18 Q1019 NOSIG
0,[Mostly Cloudy],1996-11-21,[18.0 °C],[],[-],,[78%],[N/A],[1019 hPa],[22.0 °C],[11:00 PM],[10.0 km],[East],"[16.7 km/h
		/ 4.6 m/s]",METAR VHHH 211500Z 09009KT 050V130 9999 FEW018 BKN080 22/18 Q1019 NOSIG
0,[Mostly Cloudy],1996-11-22,[18.0 °C],[],[-],,[78%],[N/A],[1018 hPa],[22.0 °C],[12:00 AM],[10.0 km],[East],"[16.7 km/h
		/ 4.6 m/s]",METAR VHHH 211600Z 09009KT 050V130 9999 FEW018 BKN080 22/18 Q1018 NOSIG
0,[Mostly Cloudy],1996-11-22,[17.0 °C],[],[-],,[73%],[N/A],[1018 hPa],[22.0 °C],[1:00 AM],[10.0 km],[East],"[22.2 km/h
		/ 6.2 m/s]",METAR VHHH 211700Z 09012KT 060V130 9999 FEW020 BKN080 22/17 Q1018 NOSIG
0,[Mostly Cloudy],1996-11-22,[17.0 °C],[],[-],,[73%],[N/A],[1018 hPa],[22.0 °C],[2:00 AM],[10.0 km],[East],"[18.5 km/h
		/ 5.1 m/s]",METAR VHHH 211800Z 09010KT 020V140 9999 FEW020 BKN080 22/17 Q1018 NOSIG
0,[Mostly Cloudy],1996-11-22,[17.0 °C],[],[-],,[78%],[N/A],[1018 hPa],[21.0 °C],[3:00 AM],[10.0 km],[East],"[13.0 km/h
		/ 3.6 m/s]",METAR VHHH 211900Z 10007KT 040V120 9999 FEW020 BKN080 21/17 Q1018 NOSIG
0,[Mostly Cloudy],1996-11-22,[17.0 °C],[],[-],,[78%],[N/A],[1017 hPa],[21.0 °C],[4:00 AM],[10.0 km],[ENE],"[9.3 km/h
		/ 2.6 m/s]",METAR VHHH 212000Z 07005KT 350V140 9999 FEW016 BKN080 21/17 Q1017 NOSIG
0,[Mostly Cloudy],1996-11-22,[18.0 °C],[],[-],,[83%],[N/A],[1017 hPa],[21.0 °C],[5:00 AM],[10.0 km],[East],"[11.1 km/h
		/ 3.1 m/s]",METAR VHHH 212100Z 09006KT 040V130 9999 FEW017 BKN080 21/18 Q1017 NOSIG
0,[Mostly Cloudy],1996-11-22,[17.0 °C],[],[-],,[78%],[N/A],[1018 hPa],[21.0 °C],[6:00 AM],[10.0 km],[NNE],"[7.4 km/h
		/ 2.1 m/s]",METAR VHHH 212200Z 02004KT 320V060 9999 SCT017 BKN080 21/17 Q1018 NOSIG
0,[Mostly Cloudy],1996-11-22,[14.0 °C],[],[-],,[64%],[N/A],[1018 hPa],[21.0 °C],[7:00 AM],[9.0 km],[NE],"[5.6 km/h
		/ 1.5 m/s]",METAR VHHH 212300Z 04003KT 9000 FEW019 BKN080 21/14 Q1018 NOSIG
0,[Mostly Cloudy],1996-11-22,[13.0 °C],[],[-],,[57%],[N/A],[1019 hPa],[22.0 °C],[8:00 AM],[10.0 km],[ENE],"[7.4 km/h
		/ 2.1 m/s]",METAR VHHH 220000Z 07004KT 340V100 9999 FEW030 BKN080 22/13 Q1019 NOSIG
0,[Mostly Cloudy],1996-11-22,[12.0 °C],[],[-],,[50%],[N/A],[1019 hPa],[23.0 °C],[9:00 AM],[10.0 km],[NE],"[13.0 km/h
		/ 3.6 m/s]",METAR VHHH 220100Z 04007KT 350V080 9999 FEW030 BKN100 23/12 Q1019 NOSIG
0,[Mostly Cloudy],1996-11-22,[9.0 °C],[],[-],,[36%],[N/A],[1019 hPa],[25.0 °C],[11:00 AM],[10.0 km],[ENE],"[18.5 km/h
		/ 5.1 m/s]",METAR VHHH 220300Z 07010KT 360V100 9999 FEW030 BKN100 25/09 Q1019 NOSIG
0,[Mostly Cloudy],1996-11-22,[10.0 °C],[],[-],,[39%],[N/A],[1018 hPa],[25.0 °C],[12:00 PM],[10.0 km],[NE],"[5.6 km/h
		/ 1.5 m/s]",METAR VHHH 220400Z 05003KT 9999 FEW030 BKN100 25/10 Q1018 NOSIG
0,[Mostly Cloudy],1996-11-22,[10.0 °C],[],[-],,[36%],[N/A],[1017 hPa],[26.0 °C],[1:00 PM],[10.0 km],[East],"[13.0 km/h
		/ 3.6 m/s]",METAR VHHH 220500Z 10007KT 050V150 9999 FEW030 BKN100 26/10 Q1017 NOSIG
0,[Clear],1996-11-22,[11.0 °C],[],[-],,[39%],[N/A],[1016 hPa],[26.0 °C],[2:00 PM],[-],[ESE],"[13.0 km/h
		/ 3.6 m/s]",METAR VHHH 220600Z 11007KT 050V160 CAVOK 26/11 Q1016 NOSIG
0,[Clear],1996-11-22,[13.0 °C],[],[-],,[47%],[N/A],[1016 hPa],[25.0 °C],[3:00 PM],[-],[ESE],"[27.8 km/h
		/ 7.7 m/s]",METAR VHHH 220700Z 12015KT CAVOK 25/13 Q1016 NOSIG
0,[Partly Cloudy],1996-11-22,[15.0 °C],[],[-],,[61%],[N/A],[1015 hPa],[23.0 °C],[4:00 PM],[10.0 km],[East],"[18.5 km/h
		/ 5.1 m/s]",METAR VHHH 220800Z 08010KT 040V100 9999 FEW030 23/15 Q1015 NOSIG
0,[Partly Cloudy],1996-11-22,[16.0 °C],[],[-],,[65%],[N/A],[1016 hPa],[23.0 °C],[5:00 PM],[10.0 km],[East],"[22.2 km/h
		/ 6.2 m/s]",METAR VHHH 220900Z 10012KT 9999 FEW030 23/16 Q1016 NOSIG
0,[Scattered Clouds],1996-11-22,[17.0 °C],[],[-],,[73%],[N/A],[1016 hPa],[22.0 °C],[6:00 PM],[10.0 km],[East],"[20.4 km/h
		/ 5.7 m/s]",METAR VHHH 221000Z 10011KT 070V130 9999 FEW020 SCT300 22/17 Q1016 NOSIG
0,[Partly Cloudy],1996-11-22,[17.0 °C],[],[-],,[73%],[N/A],[1016 hPa],[22.0 °C],[7:00 PM],[10.0 km],[East],"[14.8 km/h
		/ 4.1 m/s]",METAR VHHH 221100Z 08008KT 030V120 9999 FEW020 22/17 Q1016 NOSIG
0,[Partly Cloudy],1996-11-22,[18.0 °C],[],[-],,[78%],[N/A],[1017 hPa],[22.0 °C],[8:00 PM],[10.0 km],[East],"[13.0 km/h
		/ 3.6 m/s]",METAR VHHH 221200Z 10007KT 360V130 9999 FEW020 22/18 Q1017 NOSIG
0,[Partly Cloudy],1996-11-22,[18.0 °C],[],[-],,[78%],[N/A],[1018 hPa],[22.0 °C],[9:00 PM],[10.0 km],[East],"[14.8 km/h
		/ 4.1 m/s]",METAR VHHH 221300Z 09008KT 040V120 9999 FEW018 22/18 Q1018 NOSIG
0,[Partly Cloudy],1996-11-22,[18.0 °C],[],[-],,[78%],[N/A],[1018 hPa],[22.0 °C],[10:00 PM],[10.0 km],[East],"[11.1 km/h
		/ 3.1 m/s]",METAR VHHH 221400Z 08006KT 040V140 9999 FEW018 22/18 Q1018 NOSIG
0,[Partly Cloudy],1996-11-22,[18.0 °C],[],[-],,[78%],[N/A],[1018 hPa],[22.0 °C],[11:00 PM],[10.0 km],[East],"[18.5 km/h
		/ 5.1 m/s]",METAR VHHH 221500Z 10010KT 040V120 9999 FEW017 22/18 Q1018 NOSIG
0,[Scattered Clouds],1996-11-23,[18.0 °C],[],[-],,[78%],[N/A],[1018 hPa],[22.0 °C],[12:00 AM],[10.0 km],[East],"[22.2 km/h
		/ 6.2 m/s]",METAR VHHH 221600Z 10012KT 9999 FEW017 SCT100 22/18 Q1018 NOSIG
0,[Scattered Clouds],1996-11-23,[17.0 °C],[],[-],,[78%],[N/A],[1018 hPa],[21.0 °C],[1:00 AM],[10.0 km],[East],"[22.2 km/h
		/ 6.2 m/s]",METAR VHHH 221700Z 10012KT 060V120 9999 FEW017 SCT025 21/17 Q1018 NOSIG
0,[Mostly Cloudy],1996-11-23,[17.0 °C],[],[-],,[78%],[N/A],[1018 hPa],[21.0 °C],[2:00 AM],[10.0 km],[East],"[16.7 km/h
		/ 4.6 m/s]",METAR VHHH 221800Z 08009KT 020V120 9999 FEW016 SCT025 BKN100 21/17 Q1018 NOSIG
0,[Mostly Cloudy],1996-11-23,[17.0 °C],[],[-],,[78%],[N/A],[1018 hPa],[21.0 °C],[3:00 AM],[10.0 km],[East],"[11.1 km/h
		/ 3.1 m/s]",METAR VHHH 221900Z 09006KT 040V130 9999 FEW016 SCT025 BKN100 21/17 Q1018 NOSIG
0,[Mostly Cloudy],1996-11-23,[17.0 °C],[],[-],,[78%],[N/A],[1017 hPa],[21.0 °C],[4:00 AM],[10.0 km],[East],"[13.0 km/h
		/ 3.6 m/s]",METAR VHHH 222000Z 08007KT 020V130 9999 FEW016 SCT025 BKN100 21/17 Q1017 NOSIG
0,[Scattered Clouds],1996-11-23,[17.0 °C],[],[-],,[78%],[N/A],[1017 hPa],[21.0 °C],[5:00 AM],[10.0 km],[East],"[9.3 km/h
		/ 2.6 m/s]",METAR VHHH 222100Z 09005KT 050V130 9999 FEW016 SCT025 21/17 Q1017 NOSIG
0,[Mostly Cloudy],1996-11-23,[17.0 °C],[],[-],,[78%],[N/A],[1018 hPa],[21.0 °C],[6:00 AM],[10.0 km],[East],"[7.4 km/h
		/ 2.1 m/s]",METAR VHHH 222200Z 08004KT 350V140 9999 FEW016 SCT025 BKN100 21/17 Q1018 NOSIG
0,[Scattered Clouds],1996-11-23,[17.0 °C],[],[-],,[78%],[N/A],[1018 hPa],[21.0 °C],[7:00 AM],[8.0 km],[NE],"[7.4 km/h
		/ 2.1 m/s]",METAR VHHH 222300Z 04004KT 360V110 8000 FEW016 SCT100 21/17 Q1018 NOSIG
0,[Scattered Clouds],1996-11-23,[9.0 °C],[],[-],,[41%],[N/A],[1019 hPa],[23.0 °C],[9:00 AM],[9.0 km],[ENE],"[1.9 km/h
		/ 0.5 m/s]",METAR VHHH 230100Z 07001KT 9000 FEW020 SCT100 23/09 Q1019 NOSIG
0,[Clear],1996-11-23,[9.0 °C],[],[-],,[38%],[N/A],[1019 hPa],[24.0 °C],[10:00 AM],[9.0 km],[NE],"[13.0 km/h
		/ 3.6 m/s]",METAR VHHH 230200Z 05007KT 290V090 9000 SKC 24/09 Q1019 NOSIG
0,[Clear],1996-11-23,[11.0 °C],[],[-],,[41%],[N/A],[1018 hPa],[25.0 °C],[11:00 AM],[9.0 km],[ENE],"[3.7 km/h
		/ 1.0 m/s]",METAR VHHH 230300Z 07002KT 9000 SKC 25/11 Q1018 NOSIG
0,[Clear],1996-11-23,[10.0 °C],[],[-],,[36%],[N/A],[1017 hPa],[26.0 °C],[12:00 PM],[9.0 km],[SW],"[7.4 km/h
		/ 2.1 m/s]",METAR VHHH 230400Z 22004KT 160V270 9000 SKC 26/10 Q1017 NOSIG
0,[Clear],1996-11-23,[10.0 °C],[],[-],,[34%],[N/A],[1015 hPa],[27.0 °C],[1:00 PM],[9.0 km],[South],"[3.7 km/h
		/ 1.0 m/s]",METAR VHHH 230500Z 17002KT 9000 SKC 27/10 Q1015 NOSIG
0,[Clear],1996-11-23,[10.0 °C],[],[-],,[32%],[N/A],[1014 hPa],[28.0 °C],[2:00 PM],[9.0 km],[NNE],"[9.3 km/h
		/ 2.6 m/s]",METAR VHHH 230600Z 02005KT 270V050 9000 SKC 28/10 Q1014 NOSIG
0,[Clear],1996-11-23,[13.0 °C],[],[-],,[47%],[N/A],[1014 hPa],[25.0 °C],[3:00 PM],[9.0 km],[SE],"[24.1 km/h
		/ 6.7 m/s]",METAR VHHH 230700Z 13013KT 9000 SKC 25/13 Q1014 NOSIG
0,[Clear],1996-11-23,[13.0 °C],[],[-],,[44%],[N/A],[1013 hPa],[26.0 °C],[4:00 PM],[9.0 km],[SE],"[18.5 km/h
		/ 5.1 m/s]",METAR VHHH 230800Z 13010KT 9000 SKC 26/13 Q1013 NOSIG
0,[Partly Cloudy],1996-11-23,[13.0 °C],[],[-],,[47%],[N/A],[1014 hPa],[25.0 °C],[5:00 PM],[9.0 km],[SE],"[7.4 km/h
		/ 2.1 m/s]",METAR VHHH 230900Z 13004KT 070V190 9000 FEW080 25/13 Q1014 NOSIG
0,[Partly Cloudy],1996-11-23,[14.0 °C],[],[-],,[57%],[N/A],[1014 hPa],[23.0 °C],[6:00 PM],[9.0 km],[SE],"[13.0 km/h
		/ 3.6 m/s]",METAR VHHH 231000Z 13007KT 9000 FEW080 23/14 Q1014 NOSIG
0,[Partly Cloudy],1996-11-23,[16.0 °C],[],[-],,[69%],[N/A],[1015 hPa],[22.0 °C],[7:00 PM],[9.0 km],[ESE],"[14.8 km/h
		/ 4.1 m/s]",METAR VHHH 231100Z 11008KT 9000 FEW080 22/16 Q1015 NOSIG
0,[Partly Cloudy],1996-11-23,[16.0 °C],[],[-],,[65%],[N/A],[1016 hPa],[23.0 °C],[8:00 PM],[9.0 km],[East],"[11.1 km/h
		/ 3.1 m/s]",METAR VHHH 231200Z 09006KT 9000 FEW080 23/16 Q1016 NOSIG
0,[Clear],1996-11-23,[17.0 °C],[],[-],,[73%],[N/A],[1017 hPa],[22.0 °C],[9:00 PM],[9.0 km],[East],"[11.1 km/h
		/ 3.1 m/s]",METAR VHHH 231300Z 09006KT 050V150 9000 SKC 22/17 Q1017 NOSIG
0,[Partly Cloudy],1996-11-23,[18.0 °C],[],[-],,[78%],[N/A],[1017 hPa],[22.0 °C],[10:00 PM],[9.0 km],[East],"[11.1 km/h
		/ 3.1 m/s]",METAR VHHH 231400Z 09006KT 050V130 9000 FEW018 22/18 Q1017 NOSIG
0,[Scattered Clouds],1996-11-23,[18.0 °C],[],[-],,[78%],[N/A],[1017 hPa],[22.0 °C],[11:00 PM],[10.0 km],[East],"[18.5 km/h
		/ 5.1 m/s]",METAR VHHH 231500Z 10010KT 060V120 9999 FEW018 SCT025 22/18 Q1017 NOSIG
0,[Scattered Clouds],1996-11-24,[18.0 °C],[],[-],,[78%],[N/A],[1017 hPa],[22.0 °C],[12:00 AM],[10.0 km],[East],"[14.8 km/h
		/ 4.1 m/s]",METAR VHHH 231600Z 09008KT 040V130 9999 FEW016 SCT020 22/18 Q1017 NOSIG
0,[Scattered Clouds],1996-11-24,[18.0 °C],[],[-],,[78%],[N/A],[1017 hPa],[22.0 °C],[1:00 AM],[10.0 km],[East],"[14.8 km/h
		/ 4.1 m/s]",METAR VHHH 231700Z 08008KT 030V110 9999 FEW016 SCT020 22/18 Q1017 NOSIG
0,[Scattered Clouds],1996-11-24,[17.0 °C],[],[-],,[78%],[N/A],[1017 hPa],[21.0 °C],[2:00 AM],[10.0 km],[East],"[16.7 km/h
		/ 4.6 m/s]",METAR VHHH 231800Z 10009KT 050V120 9999 FEW016 SCT020 21/17 Q1017 NOSIG
0,[Scattered Clouds],1996-11-24,[17.0 °C],[],[-],,[78%],[N/A],[1017 hPa],[21.0 °C],[3:00 AM],[10.0 km],[East],"[7.4 km/h
		/ 2.1 m/s]",METAR VHHH 231900Z 08004KT 020V140 9999 FEW016 SCT025 21/17 Q1017 NOSIG
0,[Scattered Clouds],1996-11-24,[16.0 °C],[],[-],,[73%],[N/A],[1017 hPa],[21.0 °C],[4:00 AM],[10.0 km],[ENE],"[11.1 km/h
		/ 3.1 m/s]",METAR VHHH 232000Z 07006KT 260V150 9999 FEW016 SCT025 21/16 Q1017 NOSIG
0,[Mostly Cloudy],1996-11-24,[17.0 °C],[],[-],,[78%],[N/A],[1017 hPa],[21.0 °C],[5:00 AM],[10.0 km],[East],"[16.7 km/h
		/ 4.6 m/s]",METAR VHHH 232100Z 10009KT 9999 FEW016 SCT025 BKN080 21/17 Q1017 NOSIG
0,[Mostly Cloudy],1996-11-24,[17.0 °C],[],[-],,[78%],[N/A],[1017 hPa],[21.0 °C],[6:00 AM],[10.0 km],[NNE],"[9.3 km/h
		/ 2.6 m/s]",METAR VHHH 232200Z 02005KT 320V130 9999 FEW016 SCT025 BKN080 21/17 Q1017 NOSIG
0,[Mostly Cloudy],1996-11-24,[15.0 °C],[],[-],,[68%],[N/A],[1018 hPa],[21.0 °C],[7:00 AM],[10.0 km],[NE],"[9.3 km/h
		/ 2.6 m/s]",METAR VHHH 232300Z 04005KT 340V070 9999 FEW020 SCT030 BKN080 21/15 Q1018 NOSIG
0,[Mostly Cloudy],1996-11-24,[13.0 °C],[],[-],,[60%],[N/A],[1019 hPa],[21.0 °C],[8:00 AM],[10.0 km],[ENE],"[7.4 km/h
		/ 2.1 m/s]",METAR VHHH 240000Z 06004KT 010/080 9999 FEW020 SCT030 BKN080 21/13 Q1019 NOSIG
0,[Scattered Clouds],1996-11-24,[13.0 °C],[],[-],,[57%],[N/A],[1019 hPa],[22.0 °C],[9:00 AM],[9.0 km],[ENE],"[7.4 km/h
		/ 2.1 m/s]",METAR VHHH 240100Z 06004KT 280V110 9000 FEW025 SCT100 22/13 Q1019 NOSIG
0,[Partly Cloudy],1996-11-24,[15.0 °C],[],[-],,[57%],[N/A],[1019 hPa],[24.0 °C],[10:00 AM],[10.0 km],[East],"[13.0 km/h
		/ 3.6 m/s]",METAR VHHH 240200Z 10007KT 030V140 9999 FEW030 24/15 Q1019 NOSIG
0,[Clear],1996-11-24,[13.0 °C],[],[-],,[47%],[N/A],[1018 hPa],[25.0 °C],[11:00 AM],[9.0 km],[East],"[13.0 km/h
		/ 3.6 m/s]",METAR VHHH 240300Z 09007KT 040V130 9000 SKC 25/13 Q1018 NOSIG
0,[Clear],1996-11-24,[13.0 °C],[],[-],,[44%],[N/A],[1017 hPa],[26.0 °C],[12:00 PM],[9.0 km],[WNW],"[7.4 km/h
		/ 2.1 m/s]",METAR VHHH 240400Z 30004KT 190V060 9000 SKC 26/13 Q1017 NOSIG
0,[Clear],1996-11-24,[13.0 °C],[],[-],,[44%],[N/A],[1015 hPa],[26.0 °C],[1:00 PM],[9.0 km],[SE],"[25.9 km/h
		/ 7.2 m/s]",METAR VHHH 240500Z 13014KT 9000 SKC 26/13 Q1015 NOSIG
0,[Clear],1996-11-24,[14.0 °C],[],[-],,[50%],[N/A],[1015 hPa],[25.0 °C],[2:00 PM],[8.0 km],[SE],"[18.5 km/h
		/ 5.1 m/s]",METAR VHHH 240600Z 13010KT 100V190 8000 SKC 25/14 Q1015 WS LDG RWY 13 NOSIG
0,[Clear],1996-11-24,[15.0 °C],[],[-],,[54%],[N/A],[1014 hPa],[25.0 °C],[3:00 PM],[8.0 km],[SE],"[24.1 km/h
		/ 6.7 m/s]",METAR VHHH 240700Z 13013KT 8000 SKC 25/15 Q1014 WS LDG RWY 13 NOSIG
0,[Clear],1996-11-24,[15.0 °C],[],[-],,[57%],[N/A],[1014 hPa],[24.0 °C],[4:00 PM],[8.0 km],[ESE],"[22.2 km/h
		/ 6.2 m/s]",METAR VHHH 240800Z 12012KT 8000 SKC 24/15 Q1014 WS LDG RWY 13 NOSIG
0,[Clear],1996-11-24,[16.0 °C],[],[-],,[65%],[N/A],[1014 hPa],[23.0 °C],[5:00 PM],[9.0 km],[ESE],"[20.4 km/h
		/ 5.7 m/s]",METAR VHHH 240900Z 12011KT 9000 SKC 23/16 Q1014 NOSIG
0,[Clear],1996-11-24,[16.0 °C],[],[-],,[69%],[N/A],[1014 hPa],[22.0 °C],[6:00 PM],[8.0 km],[ESE],"[13.0 km/h
		/ 3.6 m/s]",METAR VHHH 241000Z 11007KT 8000 SKC 22/16 Q1014 NOSIG
0,[Clear],1996-11-24,[16.0 °C],[],[-],,[69%],[N/A],[1015 hPa],[22.0 °C],[7:00 PM],[8.0 km],[ENE],"[13.0 km/h
		/ 3.6 m/s]",METAR VHHH 241100Z 07007KT 040V110 8000 SKC 22/16 Q1015 NOSIG
0,[Partly Cloudy],1996-11-24,[17.0 °C],[],[-],,[73%],[N/A],[1016 hPa],[22.0 °C],[8:00 PM],[8.0 km],[East],"[18.5 km/h
		/ 5.1 m/s]",METAR VHHH 241200Z 08010KT 040V120 8000 FEW020 22/17 Q1016 NOSIG
0,[Scattered Clouds],1996-11-24,[17.0 °C],[],[-],,[73%],[N/A],[1016 hPa],[22.0 °C],[9:00 PM],[10.0 km],[East],"[20.4 km/h
		/ 5.7 m/s]",METAR VHHH 241300Z 08011KT 050V140 9999 FEW020 SCT030 22/17 Q1016 NOSIG
0,[Scattered Clouds],1996-11-24,[17.0 °C],[],[-],,[73%],[N/A],[1017 hPa],[22.0 °C],[10:00 PM],[10.0 km],[East],"[22.2 km/h
		/ 6.2 m/s]",METAR VHHH 241400Z 08012KT 050V140 9999 FEW018 SCT025 22/17 Q1017 NOSIG
0,[Mostly Cloudy],1996-11-24,[17.0 °C],[],[-],,[73%],[N/A],[1016 hPa],[22.0 °C],[11:00 PM],[10.0 km],[East],"[22.2 km/h
		/ 6.2 m/s]",METAR VHHH 241500Z 08012KT 060V120 9999 SCT020 BKN300 22/17 Q1016 NOSIG
0,[Mostly Cloudy],1996-11-25,[17.0 °C],[],[-],,[73%],[N/A],[1017 hPa],[22.0 °C],[12:00 AM],[10.0 km],[East],"[24.1 km/h
		/ 6.7 m/s]",METAR VHHH 241600Z 09013KT 040V120 9999 SCT020 BKN030 22/17 Q1017 NOSIG
0,[Mostly Cloudy],1996-11-25,[17.0 °C],[],[-],,[73%],[N/A],[1016 hPa],[22.0 °C],[1:00 AM],[10.0 km],[East],"[24.1 km/h
		/ 6.7 m/s]",METAR VHHH 241700Z 09013KT 040V120 9999 FEW020 BKN030 22/17 Q1016 NOSIG
0,[Mostly Cloudy],1996-11-25,[17.0 °C],[],[-],,[78%],[N/A],[1016 hPa],[21.0 °C],[2:00 AM],[10.0 km],[East],"[24.1 km/h
		/ 6.7 m/s]",METAR VHHH 241800Z 09013KT 010V130 9999 FEW020 BKN030 21/17 Q1016 NOSIG
0,[Scattered Clouds],1996-11-25,[17.0 °C],[],[-],,[78%],[N/A],[1016 hPa],[21.0 °C],[3:00 AM],[10.0 km],[East],"[14.8 km/h
		/ 4.1 m/s]",METAR VHHH 241900Z 09008KT 040V120 9999 FEW018 SCT025 21/17 Q1016 NOSIG
0,[Scattered Clouds],1996-11-25,[16.0 °C],[],[-],,[73%],[N/A],[1016 hPa],[21.0 °C],[4:00 AM],[10.0 km],[East],"[18.5 km/h
		/ 5.1 m/s]",METAR VHHH 242000Z 08010KT 010V140 9999 FEW018 SCT025 21/16 Q1016 NOSIG
0,[Scattered Clouds],1996-11-25,[16.0 °C],[],[-],,[73%],[N/A],[1016 hPa],[21.0 °C],[5:00 AM],[10.0 km],[East],"[14.8 km/h
		/ 4.1 m/s]",METAR VHHH 242100Z 08008KT 020V140 9999 FEW018 SCT025 21/16 Q1016 NOSIG
0,[Scattered Clouds],1996-11-25,[16.0 °C],[],[-],,[69%],[N/A],[1018 hPa],[22.0 °C],[9:00 AM],[10.0 km],[East],"[22.2 km/h
		/ 6.2 m/s]",METAR VHHH 250100Z 09012KT 020V130 9999 FEW018 SCT030 22/16 Q1018 NOSIG
0,[Scattered Clouds],1996-11-25,[16.0 °C],[],[-],,[69%],[N/A],[1018 hPa],[22.0 °C],[10:00 AM],[10.0 km],[East],"[22.2 km/h
		/ 6.2 m/s]",METAR VHHH 250200Z 09012KT 020V160 9999 FEW020 SCT030 22/16 Q1018 WS LDG RWY 13/31 NOSIG
0,[Partly Cloudy],1996-11-25,[16.0 °C],[],[-],,[65%],[N/A],[1018 hPa],[23.0 °C],[11:00 AM],[10.0 km],[East],"[24.1 km/h
		/ 6.7 m/s]",METAR VHHH 250300Z 10013KT 080V140 9999 FEW025 23/16 Q1018 WS LDG RWY 13/31 NOSIG
0,[Partly Cloudy],1996-11-25,[16.0 °C],[],[-],,[57%],[N/A],[1017 hPa],[25.0 °C],[12:00 PM],[10.0 km],[East],"[13.0 km/h
		/ 3.6 m/s]",METAR VHHH 250400Z 09007KT 060V130 9999 FEW025 25/16 Q1017 WS LDG RWY 13/31 NOSIG
0,[Clear],1996-11-25,[16.0 °C],[],[-],,[57%],[N/A],[1015 hPa],[25.0 °C],[1:00 PM],[-],[East],"[13.0 km/h
		/ 3.6 m/s]",METAR VHHH 250500Z 10007KT 040V160 CAVOK 25/16 Q1015 WS LDG RWY 13/31 NOSIG
0,[Clear],1996-11-25,[17.0 °C],[],[-],,[65%],[N/A],[1014 hPa],[24.0 °C],[2:00 PM],[-],[SE],"[25.9 km/h
		/ 7.2 m/s]",METAR VHHH 250600Z 14014KT 110V170 CAVOK 24/17 Q1014 NOSIG
0,[Clear],1996-11-25,[17.0 °C],[],[-],,[65%],[N/A],[1014 hPa],[24.0 °C],[3:00 PM],[-],[SE],"[22.2 km/h
		/ 6.2 m/s]",METAR VHHH 250700Z 13012KT CAVOK 24/17 Q1014 NOSIG
0,[Scattered Clouds],1996-11-25,[17.0 °C],[],[-],,[65%],[N/A],[1014 hPa],[24.0 °C],[4:00 PM],[10.0 km],[SE],"[25.9 km/h
		/ 7.2 m/s]",METAR VHHH 250800Z 14014KT 9999 FEW040 SCT090 24/17 Q1014 NOSIG
0,[Partly Cloudy],1996-11-25,[17.0 °C],[],[-],,[69%],[N/A],[1014 hPa],[23.0 °C],[5:00 PM],[10.0 km],[SE],"[20.4 km/h
		/ 5.7 m/s]",METAR VHHH 250900Z 13011KT 9999 FEW040 23/17 Q1014 NOSIG
0,[Clear],1996-11-25,[17.0 °C],[],[-],,[73%],[N/A],[1015 hPa],[22.0 °C],[6:00 PM],[-],[ESE],"[14.8 km/h
		/ 4.1 m/s]",METAR VHHH 251000Z 11008KT 070V140 CAVOK 22/17 Q1015 NOSIG
0,[Clear],1996-11-25,[17.0 °C],[],[-],,[73%],[N/A],[1015 hPa],[22.0 °C],[7:00 PM],[-],[East],"[11.1 km/h
		/ 3.1 m/s]",METAR VHHH 251100Z 08006KT 040V110 CAVOK 22/17 Q1015 NOSIG
0,[Scattered Clouds],1996-11-25,[18.0 °C],[],[-],,[78%],[N/A],[1016 hPa],[22.0 °C],[8:00 PM],[10.0 km],[East],"[11.1 km/h
		/ 3.1 m/s]",METAR VHHH 251200Z 10006KT 060V120 9999 FEW018 SCT030 22/18 Q1016 NOSIG
0,[Scattered Clouds],1996-11-25,[18.0 °C],[],[-],,[78%],[N/A],[1016 hPa],[22.0 °C],[9:00 PM],[10.0 km],[East],"[16.7 km/h
		/ 4.6 m/s]",METAR VHHH 251300Z 10009KT 070V130 9999 FEW014 SCT030 22/18 Q1016 NOSIG
0,[Scattered Clouds],1996-11-25,[18.0 °C],[],[-],,[73%],[N/A],[1016 hPa],[23.0 °C],[10:00 PM],[10.0 km],[East],"[14.8 km/h
		/ 4.1 m/s]",METAR VHHH 251400Z 09008KT 050V120 9999 FEW014 SCT025 23/18 Q1016 NOSIG
0,[Scattered Clouds],1996-11-25,[18.0 °C],[],[-],,[73%],[N/A],[1016 hPa],[23.0 °C],[11:00 PM],[10.0 km],[East],"[14.8 km/h
		/ 4.1 m/s]",METAR VHHH 251500Z 09008KT 060V140 9999 SCT014 SCT025 23/18 Q1016 NOSIG
0,[Scattered Clouds],1996-11-26,[18.0 °C],[],[-],[-],[78%],[N/A],[1016 hPa],[22.0 °C],[12:00 AM],[10.0 km],[East],"[13.0 km/h
		/ 3.6 m/s]",METAR VHHH 251600Z 08007KT 030V130 9999 FEW014 SCT025 22/18 Q1016 NOSIG
0,[Scattered Clouds],1996-11-26,[18.0 °C],[],[-],[-],[78%],[N/A],[1016 hPa],[22.0 °C],[2:00 AM],[10.0 km],[East],"[22.2 km/h
		/ 6.2 m/s]",METAR VHHH 251800Z 10012KT 060V160 9999 SCT014 SCT025 22/18 Q1016 NOSIG
0,[Scattered Clouds],1996-11-26,[18.0 °C],[],"[46.3 km/h
		/ 12.9 m/s]",[-],[78%],[N/A],[1015 hPa],[22.0 °C],[3:00 AM],[10.0 km],[East],"[24.1 km/h
		/ 6.7 m/s]",METAR VHHH 251900Z 09013G25KT 050V120 9999 SCT014 SCT025 22/18 Q1015 NOSIG
0,[Scattered Clouds],1996-11-26,[17.0 °C],[],[-],[-],[73%],[N/A],[1015 hPa],[22.0 °C],[4:00 AM],[10.0 km],[East],"[20.4 km/h
		/ 5.7 m/s]",METAR VHHH 252000Z 09011KT 050V120 9999 SCT014 SCT025 22/17 Q1015 NOSIG
0,[Scattered Clouds],1996-11-26,[17.0 °C],[],[-],[-],[73%],[N/A],[1016 hPa],[22.0 °C],[5:00 AM],[10.0 km],[East],"[22.2 km/h
		/ 6.2 m/s]",METAR VHHH 252100Z 09012KT 050V120 9999 SCT015 SCT025 22/17 Q1016 NOSIG
0,[Mostly Cloudy],1996-11-26,[17.0 °C],[],[-],[-],[73%],[N/A],[1016 hPa],[22.0 °C],[6:00 AM],[10.0 km],[East],"[16.7 km/h
		/ 4.6 m/s]",METAR VHHH 252200Z 09009KT 010V130 9999 SCT015 BKN030 22/17 Q1016 NOSIG
0,[Mostly Cloudy],1996-11-26,[17.0 °C],[],[-],[-],[73%],[N/A],[1017 hPa],[22.0 °C],[7:00 AM],[10.0 km],[East],"[18.5 km/h
		/ 5.1 m/s]",METAR VHHH 252300Z 09010KT 030V130 9999 SCT018 BKN030 22/17 Q1017 NOSIG
0,[Scattered Clouds],1996-11-26,[18.0 °C],[],[-],[-],[78%],[N/A],[1017 hPa],[22.0 °C],[8:00 AM],[10.0 km],[East],"[14.8 km/h
		/ 4.1 m/s]",METAR VHHH 260000Z 09008KT 050V130 9999 FEW015 SCT040 22/18 Q1017 NOSIG
0,[Scattered Clouds],1996-11-26,[17.0 °C],[],[-],[-],[65%],[N/A],[1018 hPa],[24.0 °C],[9:00 AM],[10.0 km],[East],"[11.1 km/h
		/ 3.1 m/s]",METAR VHHH 260100Z 09006KT 040V120 9999 FEW025 SCT040 24/17 Q1018 NOSIG
0,[Scattered Clouds],1996-11-26,[17.0 °C],[],[-],[-],[65%],[N/A],[1018 hPa],[24.0 °C],[10:00 AM],[10.0 km],[East],"[18.5 km/h
		/ 5.1 m/s]",METAR VHHH 260200Z 10010KT 060V130 9999 FEW025 SCT040 24/17 Q1018 NOSIG
0,[Partly Cloudy],1996-11-26,[18.0 °C],[],[-],[-],[61%],[N/A],[1017 hPa],[26.0 °C],[11:00 AM],[10.0 km],[Variable],"[9.3 km/h
		/ 2.6 m/s]",METAR VHHH 260300Z VRB05KT 290V150 9999 FEW025 26/18 Q1017 NOSIG
0,[Scattered Clouds],1996-11-26,[17.0 °C],[],[-],[27.7 °C],[54%],[N/A],[1016 hPa],[27.0 °C],[12:00 PM],[10.0 km],[NE],"[7.4 km/h
		/ 2.1 m/s]",METAR VHHH 260400Z 04004KT 320V070 9999 FEW025 SCT090 27/17 Q1016 NOSIG
0,[Clear],1996-11-26,[16.0 °C],[],[-],[28.3 °C],[48%],[N/A],[1015 hPa],[28.0 °C],[1:00 PM],[-],[ESE],"[14.8 km/h
		/ 4.1 m/s]",METAR VHHH 260500Z 12008KT 080V160 CAVOK 28/16 Q1015 NOSIG
0,[Clear],1996-11-26,[17.0 °C],[],[-],[29.4 °C],[48%],[N/A],[1014 hPa],[29.0 °C],[2:00 PM],[-],[ESE],"[18.5 km/h
		/ 5.1 m/s]",METAR VHHH 260600Z 11010KT 080V150 CAVOK 29/17 Q1014 NOSIG
0,[Clear],1996-11-26,[16.0 °C],[],[-],[-],[54%],[N/A],[1014 hPa],[26.0 °C],[3:00 PM],[-],[SE],"[27.8 km/h
		/ 7.7 m/s]",METAR VHHH 260700Z 13015KT CAVOK 26/16 Q1014 WS LDG RWY 13 NOSIG
0,[Clear],1996-11-26,[17.0 °C],[],[-],[-],[61%],[N/A],[1014 hPa],[25.0 °C],[4:00 PM],[-],[SE],"[24.1 km/h
		/ 6.7 m/s]",METAR VHHH 260800Z 14013KT CAVOK 25/17 Q1014 WS LDG RWY 13 NOSIG
0,[Clear],1996-11-26,[17.0 °C],[],[-],[-],[65%],[N/A],[1014 hPa],[24.0 °C],[5:00 PM],[-],[SE],"[18.5 km/h
		/ 5.1 m/s]",METAR VHHH 260900Z 13010KT CAVOK 24/17 Q1014 NOSIG
0,[Clear],1996-11-26,[17.0 °C],[],[-],[-],[65%],[N/A],[1014 hPa],[24.0 °C],[6:00 PM],[-],[SE],"[18.5 km/h
		/ 5.1 m/s]",METAR VHHH 261000Z 13010KT CAVOK 24/17 Q1014 NOSIG
0,[Mostly Cloudy],1996-11-26,[18.0 °C],[],[-],[-],[69%],[N/A],[1015 hPa],[24.0 °C],[7:00 PM],[10.0 km],[SE],"[16.7 km/h
		/ 4.6 m/s]",METAR VHHH 261100Z 13009KT 9999 FEW035 BKN080 24/18 Q1015 NOSIG
0,[Mostly Cloudy],1996-11-26,[17.0 °C],[],[-],[-],[65%],[N/A],[1015 hPa],[24.0 °C],[8:00 PM],[10.0 km],[East],"[9.3 km/h
		/ 2.6 m/s]",METAR VHHH 261200Z 10005KT 9999 FEW030 BKN080 24/17 Q1015 NOSIG
0,[Scattered Clouds],1996-11-26,[17.0 °C],[],[-],[-],[65%],[N/A],[1016 hPa],[24.0 °C],[9:00 PM],[10.0 km],[SE],"[13.0 km/h
		/ 3.6 m/s]",METAR VHHH 261300Z 13007KT 100V170 9999 FEW030 SCT080 24/17 Q1016 NOSIG
0,[Scattered Clouds],1996-11-26,[17.0 °C],[],[-],[-],[65%],[N/A],[1016 hPa],[24.0 °C],[10:00 PM],[10.0 km],[SSE],"[13.0 km/h
		/ 3.6 m/s]",METAR VHHH 261400Z 15007KT 090V200 9999 FEW030 SCT080 24/17 Q1016 NOSIG
0,[Clear],1996-11-26,[18.0 °C],[],[-],[-],[69%],[N/A],[1016 hPa],[24.0 °C],[11:00 PM],[-],[SSE],"[1.9 km/h
		/ 0.5 m/s]",METAR VHHH 261500Z 15001KT CAVOK 24/18 Q1016 NOSIG
0,[Clear],1996-11-27,[17.0 °C],[],[-],[-],[65%],[N/A],[1016 hPa],[24.0 °C],[12:00 AM],[-],[South],"[7.4 km/h
		/ 2.1 m/s]",METAR VHHH 261600Z 18004KT 120V220 CAVOK 24/17 Q1016 NOSIG
0,[Scattered Clouds],1996-11-27,[18.0 °C],[],[-],[-],[73%],[N/A],[1015 hPa],[23.0 °C],[1:00 AM],[10.0 km],[SSE],"[3.7 km/h
		/ 1.0 m/s]",METAR VHHH 261700Z 16002KT 9999 FEW030 SCT080 23/18 Q1015 NOSIG
0,[Partly Cloudy],1996-11-27,[18.0 °C],[],[-],[-],[78%],[N/A],[1015 hPa],[22.0 °C],[2:00 AM],[10.0 km],[Variable],"[1.9 km/h
		/ 0.5 m/s]",METAR VHHH 261800Z VRB01KT 9999 FEW030 22/18 Q1015 NOSIG
0,[Scattered Clouds],1996-11-27,[18.0 °C],[],[-],[-],[78%],[N/A],[1014 hPa],[22.0 °C],[3:00 AM],[10.0 km],[Calm],[Calm],METAR VHHH 261900Z 00000KT 9999 FEW030 SCT080 22/18 Q1014 NOSIG
0,[Scattered Clouds],1996-11-27,[18.0 °C],[],[-],[-],[73%],[N/A],[1014 hPa],[23.0 °C],[4:00 AM],[10.0 km],[Calm],[Calm],METAR VHHH 262000Z 00000KT 9999 FEW030 SCT080 23/18 Q1014 NOSIG
0,[Scattered Clouds],1996-11-27,[18.0 °C],[],[-],[-],[73%],[N/A],[1014 hPa],[23.0 °C],[5:00 AM],[10.0 km],[Variable],"[1.9 km/h
		/ 0.5 m/s]",METAR VHHH 262100Z VRB01KT 9999 FEW040 SCT090 23/18 Q1014 NOSIG
0,[Clear],1996-11-27,[17.0 °C],[],[-],[-],[69%],[N/A],[1015 hPa],[23.0 °C],[6:00 AM],[-],[Variable],"[1.9 km/h
		/ 0.5 m/s]",METAR VHHH 262200Z VRB01KT CAVOK 23/17 Q1015 NOSIG
0,[Clear],1996-11-27,[17.0 °C],[],[-],[-],[65%],[N/A],[1015 hPa],[24.0 °C],[7:00 AM],[-],[SW],"[5.6 km/h
		/ 1.5 m/s]",METAR VHHH 262300Z 23003KT CAVOK 24/17 Q1015 NOSIG
0,[Clear],1996-11-27,[16.0 °C],[],[-],[-],[57%],[N/A],[1016 hPa],[25.0 °C],[8:00 AM],[-],[SSE],"[7.4 km/h
		/ 2.1 m/s]",METAR VHHH 270000Z 16004KT 150V220 CAVOK 25/16 Q1016 NOSIG
0,[Clear],1996-11-27,[15.0 °C],[],[-],[-],[54%],[N/A],[1017 hPa],[25.0 °C],[9:00 AM],[-],[NW],"[3.7 km/h
		/ 1.0 m/s]",METAR VHHH 270100Z 31002KT CAVOK 25/15 Q1017 NOSIG
0,[Clear],1996-11-27,[16.0 °C],[],[-],[27.5 °C],[51%],[N/A],[1017 hPa],[27.0 °C],[10:00 AM],[-],[SSW],"[3.7 km/h
		/ 1.0 m/s]",METAR VHHH 270200Z 20002KT CAVOK 27/16 Q1017 NOSIG
0,[Clear],1996-11-27,[15.0 °C],[],[-],[28.0 °C],[45%],[N/A],[1017 hPa],[28.0 °C],[11:00 AM],[-],[SSW],"[5.6 km/h
		/ 1.5 m/s]",METAR VHHH 270300Z 20003KT CAVOK 28/15 Q1017 NOSIG
0,[Clear],1996-11-27,[16.0 °C],[],[-],[29.1 °C],[45%],[N/A],[1016 hPa],[29.0 °C],[12:00 PM],[-],[NE],"[3.7 km/h
		/ 1.0 m/s]",METAR VHHH 270400Z 04002KT CAVOK 29/16 Q1016 NOSIG
0,[Clear],1996-11-27,[14.0 °C],[],"[31.5 km/h
		/ 8.7 m/s]",[28.6 °C],[40%],[N/A],[1015 hPa],[29.0 °C],[1:00 PM],[-],[East],"[13.0 km/h
		/ 3.6 m/s]",METAR VHHH 270500Z 08007G17KT 360V130 CAVOK 29/14 Q1015 NOSIG
0,[Clear],1996-11-27,[15.0 °C],[],[-],[28.8 °C],[42%],[N/A],[1014 hPa],[29.0 °C],[2:00 PM],[-],[East],"[18.5 km/h
		/ 5.1 m/s]",METAR VHHH 270600Z 08010KT 010V140 CAVOK 29/15 Q1014 NOSIG
0,[Clear],1996-11-27,[16.0 °C],[],[-],[28.3 °C],[48%],[N/A],[1014 hPa],[28.0 °C],[3:00 PM],[-],[East],"[25.9 km/h
		/ 7.2 m/s]",METAR VHHH 270700Z 10014KT 020V140 CAVOK 28/16 Q1014 NOSIG
0,[Partly Cloudy],1996-11-27,[17.0 °C],[],[-],[-],[57%],[N/A],[1014 hPa],[26.0 °C],[4:00 PM],[8.0 km],[East],"[18.5 km/h
		/ 5.1 m/s]",METAR VHHH 270800Z 08010KT 010V110 8000 FEW080 26/17 Q1014 NOSIG
0,[Scattered Clouds],1996-11-27,[19.0 °C],[],[-],[-],[73%],[N/A],[1014 hPa],[24.0 °C],[5:00 PM],[9.0 km],[East],"[18.5 km/h
		/ 5.1 m/s]",METAR VHHH 270900Z 09010KT 040V140 9000 FEW012 SCT020 24/19 Q1014 NOSIG
0,[Scattered Clouds],1996-11-27,[19.0 °C],[],[-],[-],[73%],[N/A],[1015 hPa],[24.0 °C],[6:00 PM],[10.0 km],[East],"[24.1 km/h
		/ 6.7 m/s]",METAR VHHH 271000Z 09013KT 060V120 9999 FEW014 SCT020 24/19 Q1015 NOSIG
0,[Mostly Cloudy],1996-11-27,[19.0 °C],[],[-],[-],[78%],[N/A],[1015 hPa],[23.0 °C],[7:00 PM],[8.0 km],[East],"[13.0 km/h
		/ 3.6 m/s]",METAR VHHH 271100Z 08007KT 360V120 8000 FEW014 BKN020 23/19 Q1015 NOSIG
0,[Mostly Cloudy],1996-11-27,[19.0 °C],[],[-],[-],[78%],[N/A],[1016 hPa],[23.0 °C],[8:00 PM],[8.0 km],[East],"[24.1 km/h
		/ 6.7 m/s]",METAR VHHH 271200Z 10013KT 030V140 8000 FEW015 BKN020 23/19 Q1016 NOSIG
0,[Mostly Cloudy],1996-11-27,[18.0 °C],[],[-],[-],[73%],[N/A],[1016 hPa],[23.0 °C],[9:00 PM],[8.0 km],[East],"[24.1 km/h
		/ 6.7 m/s]",METAR VHHH 271300Z 10013KT 050V150 8000 FEW016 BKN020 23/18 Q1016 NOSIG
0,[Scattered Clouds],1996-11-27,[18.0 °C],[],[-],[-],[73%],[N/A],[1016 hPa],[23.0 °C],[10:00 PM],[8.0 km],[East],"[31.5 km/h
		/ 8.7 m/s]",METAR VHHH 271400Z 10017KT 8000 FEW017 SCT025 23/18 Q1016 NOSIG
0,[Mostly Cloudy],1996-11-27,[17.0 °C],[],"[46.3 km/h
		/ 12.9 m/s]",[-],[73%],[N/A],[1016 hPa],[22.0 °C],[11:00 PM],[9.0 km],[East],"[27.8 km/h
		/ 7.7 m/s]",METAR VHHH 271500Z 09015G25KT 030V140 9000 FEW017 BKN025 22/17 Q1016 WS LDG RWY 13/31 NOSIG
0,[Mostly Cloudy],1996-11-28,[17.0 °C],[],"[46.3 km/h
		/ 12.9 m/s]",,[73%],[N/A],[1016 hPa],[22.0 °C],[12:00 AM],[9.0 km],[East],"[22.2 km/h
		/ 6.2 m/s]",METAR VHHH 271600Z 09012G25KT 040V150 9000 FEW017 BKN025 22/17 Q1016 WS LDG RWY 13/31 NOSIG
0,[Mostly Cloudy],1996-11-28,[17.0 °C],[],"[55.6 km/h
		/ 15.4 m/s]",,[78%],[N/A],[1016 hPa],[21.0 °C],[1:00 AM],[9.0 km],[East],"[27.8 km/h
		/ 7.7 m/s]",METAR VHHH 271700Z 09015G30KT 010V130 9000 FEW017 BKN025 21/17 Q1016 WS LDG RWY 13/31 NOSIG
0,[Mostly Cloudy],1996-11-28,[17.0 °C],[],[-],,[78%],[N/A],[1016 hPa],[21.0 °C],[2:00 AM],[9.0 km],[East],"[29.6 km/h
		/ 8.2 m/s]",METAR VHHH 271800Z 10016KT 050V140 9000 FEW017 SCT025 BKN080 21/17 Q1016 WS LDG RWY 13/31 NOSIG
0,[Mostly Cloudy],1996-11-28,[17.0 °C],[],[-],,[78%],[N/A],[1016 hPa],[21.0 °C],[3:00 AM],[9.0 km],[East],"[27.8 km/h
		/ 7.7 m/s]",METAR VHHH 271900Z 10015KT 050V120 9000 FEW017 SCT025 BKN080 21/17 Q1016 WS LDG RWY 13/31 NOSIG
0,[Mostly Cloudy],1996-11-28,[17.0 °C],[],[-],,[78%],[N/A],[1016 hPa],[21.0 °C],[4:00 AM],[9.0 km],[East],"[25.9 km/h
		/ 7.2 m/s]",METAR VHHH 272000Z 09014KT 050V130 9000 FEW016 SCT025 BKN080 21/17 Q1016 WS LDG RWY 13/31 NOSIG
0,[Mostly Cloudy],1996-11-28,[16.0 °C],[],[-],,[73%],[N/A],[1016 hPa],[21.0 °C],[5:00 AM],[9.0 km],[East],"[20.4 km/h
		/ 5.7 m/s]",METAR VHHH 272100Z 08011KT 020V140 9000 FEW016 SCT025 BKN080 21/16 Q1016 WS LDG RWY 13/31 NOSIG
0,[Mostly Cloudy],1996-11-28,[16.0 °C],[],[-],,[73%],[N/A],[1017 hPa],[21.0 °C],[6:00 AM],[9.0 km],[East],"[16.7 km/h
		/ 4.6 m/s]",METAR VHHH 272200Z 09009KT 060V140 9000 FEW016 SCT020 BKN080 21/16 Q1017 NOSIG
0,[Mostly Cloudy],1996-11-28,[16.0 °C],[],[-],,[73%],[N/A],[1017 hPa],[21.0 °C],[7:00 AM],[9.0 km],[East],"[22.2 km/h
		/ 6.2 m/s]",METAR VHHH 272300Z 10012KT 060V150 9000 FEW018 SCT022 BKN080 21/16 Q1017 NOSIG
0,[Mostly Cloudy],1996-11-28,[16.0 °C],[],"[38.9 km/h
		/ 10.8 m/s]",,[73%],[N/A],[1018 hPa],[21.0 °C],[8:00 AM],[9.0 km],[East],"[20.4 km/h
		/ 5.7 m/s]",METAR VHHH 280000Z 10011G21KT 050V160 9000 FEW020 SCT025 BKN080 21/16 Q1018 NOSIG
0,[Scattered Clouds],1996-11-28,[15.0 °C],[],[-],,[64%],[N/A],[1017 hPa],[22.0 °C],[10:00 AM],[9.0 km],[East],"[24.1 km/h
		/ 6.7 m/s]",METAR VHHH 280200Z 09013KT 020V120 9000 FEW025 SCT080 22/15 Q1017 WS LDG RWY 13/31 NOSIG
0,[Mostly Cloudy],1996-11-28,[15.0 °C],[],[-],,[61%],[N/A],[1017 hPa],[23.0 °C],[11:00 AM],[9.0 km],[East],"[29.6 km/h
		/ 8.2 m/s]",METAR VHHH 280300Z 08016KT 050V140 9000 FEW025 BKN080 23/15 Q1017 WS LDG RWY 13/31 NOSIG
0,[Mostly Cloudy],1996-11-28,[15.0 °C],[],[-],,[57%],[N/A],[1015 hPa],[24.0 °C],[12:00 PM],[10.0 km],[East],"[27.8 km/h
		/ 7.7 m/s]",METAR VHHH 280400Z 10015KT 060V150 9999 FEW025 BKN080 24/15 Q1015 WS LDG RWY 13/31 NOSIG
0,[Mostly Cloudy],1996-11-28,[15.0 °C],[],[-],,[61%],[N/A],[1014 hPa],[23.0 °C],[1:00 PM],[9.0 km],[East],"[24.1 km/h
		/ 6.7 m/s]",METAR VHHH 280500Z 10013KT 070V130 9000 FEW025 BKN080 23/15 Q1014 WS LDG RWY 13/31 NOSIG
0,[Scattered Clouds],1996-11-28,[16.0 °C],[],[-],,[61%],[N/A],[1014 hPa],[24.0 °C],[2:00 PM],[8.0 km],[East],"[18.5 km/h
		/ 5.1 m/s]",METAR VHHH 280600Z 09010KT 340V130 8000 FEW025 SCT100 24/16 Q1014 NOSIG
0,[Mostly Cloudy],1996-11-28,[16.0 °C],[],[-],,[65%],[N/A],[1013 hPa],[23.0 °C],[3:00 PM],[9.0 km],[East],"[18.5 km/h
		/ 5.1 m/s]",METAR VHHH 280700Z 10010KT 040V140 9000 FEW025 BKN090 23/16 Q1013 NOSIG
0,[Scattered Clouds],1996-11-28,[16.0 °C],[],[-],,[65%],[N/A],[1013 hPa],[23.0 °C],[4:00 PM],[8.0 km],[East],"[16.7 km/h
		/ 4.6 m/s]",METAR VHHH 280800Z 09009KT 060V120 8000 FEW025 SCT080 23/16 Q1013 NOSIG
0,[Mostly Cloudy],1996-11-28,[16.0 °C],[],[-],,[69%],[N/A],[1013 hPa],[22.0 °C],[5:00 PM],[9.0 km],[East],"[14.8 km/h
		/ 4.1 m/s]",METAR VHHH 280900Z 09008KT 050V120 9000 FEW025 BKN080 22/16 Q1013 NOSIG
0,[Scattered Clouds],1996-11-28,[17.0 °C],[],[-],,[73%],[N/A],[1014 hPa],[22.0 °C],[6:00 PM],[9.0 km],[East],"[14.8 km/h
		/ 4.1 m/s]",METAR VHHH 281000Z 09008KT 040V130 9000 FEW025 SCT080 22/17 Q1014 NOSIG
0,[Scattered Clouds],1996-11-28,[17.0 °C],[],[-],,[73%],[N/A],[1014 hPa],[22.0 °C],[7:00 PM],[9.0 km],[East],"[18.5 km/h
		/ 5.1 m/s]",METAR VHHH 281100Z 10010KT 050V130 9000 FEW016 SCT080 22/17 Q1014 NOSIG
0,[Scattered Clouds],1996-11-28,[18.0 °C],[],[-],,[78%],[N/A],[1015 hPa],[22.0 °C],[8:00 PM],[9.0 km],[East],"[13.0 km/h
		/ 3.6 m/s]",METAR VHHH 281200Z 10007KT 050V150 9000 FEW015 SCT080 22/18 Q1015 NOSIG
0,[Scattered Clouds],1996-11-28,[17.0 °C],[],[-],,[73%],[N/A],[1015 hPa],[22.0 °C],[9:00 PM],[9.0 km],[East],"[14.8 km/h
		/ 4.1 m/s]",METAR VHHH 281300Z 10008KT 030V150 9000 FEW016 SCT080 22/17 Q1015 NOSIG
0,[Scattered Clouds],1996-11-28,[18.0 °C],[],[-],,[78%],[N/A],[1016 hPa],[22.0 °C],[10:00 PM],[10.0 km],[ESE],"[18.5 km/h
		/ 5.1 m/s]",METAR VHHH 281400Z 11010KT 060V140 9999 FEW016 SCT025 22/18 Q1016 NOSIG
0,[Scattered Clouds],1996-11-28,[17.0 °C],[],[-],,[73%],[N/A],[1016 hPa],[22.0 °C],[11:00 PM],[10.0 km],[East],"[13.0 km/h
		/ 3.6 m/s]",METAR VHHH 281500Z 08007KT 010V130 9999 FEW016 SCT080 22/17 Q1016 NOSIG
0,[Scattered Clouds],1996-11-29,[17.0 °C],[],[-],[-],[73%],[N/A],[1015 hPa],[22.0 °C],[12:00 AM],[10.0 km],[East],"[11.1 km/h
		/ 3.1 m/s]",METAR VHHH 281600Z 08006KT 010V130 9999 FEW016 SCT080 22/17 Q1015 NOSIG
0,[Scattered Clouds],1996-11-29,[17.0 °C],[],[-],[-],[78%],[N/A],[1015 hPa],[21.0 °C],[1:00 AM],[10.0 km],[East],"[9.3 km/h
		/ 2.6 m/s]",METAR VHHH 281700Z 10005KT 050V140 9999 FEW016 SCT080 21/17 Q1015 NOSIG
0,[Scattered Clouds],1996-11-29,[17.0 °C],[],[-],[-],[78%],[N/A],[1015 hPa],[21.0 °C],[2:00 AM],[10.0 km],[ESE],"[11.1 km/h
		/ 3.1 m/s]",METAR VHHH 281800Z 11006KT 050V150 9999 FEW016 SCT080 21/17 Q1015 NOSIG
0,[Scattered Clouds],1996-11-29,[18.0 °C],[],[-],[-],[83%],[N/A],[1015 hPa],[21.0 °C],[4:00 AM],[10.0 km],[SE],"[1.9 km/h
		/ 0.5 m/s]",METAR VHHH 282000Z 13001KT 9999 FEW020 SCT030 21/18 Q1015 NOSIG
0,[Scattered Clouds],1996-11-29,[17.0 °C],[],[-],[-],[83%],[N/A],[1015 hPa],[20.0 °C],[5:00 AM],[10.0 km],[ESE],"[13.0 km/h
		/ 3.6 m/s]",METAR VHHH 282100Z 12007KT 9999 FEW015 SCT035 20/17 Q1015 NOSIG
0,[Scattered Clouds],1996-11-29,[17.0 °C],[],[-],[-],[78%],[N/A],[1015 hPa],[21.0 °C],[6:00 AM],[10.0 km],[East],"[7.4 km/h
		/ 2.1 m/s]",METAR VHHH 282200Z 08004KT 030V110 9999 FEW016 SCT040 21/17 Q1015 NOSIG
0,[Partly Cloudy],1996-11-29,[17.0 °C],[],[-],[-],[78%],[N/A],[1016 hPa],[21.0 °C],[7:00 AM],[8.0 km],[East],"[11.1 km/h
		/ 3.1 m/s]",METAR VHHH 282300Z 08006KT 040V120 8000 FEW015 21/17 Q1016 NOSIG
0,[Scattered Clouds],1996-11-29,[18.0 °C],[],[-],[-],[78%],[N/A],[1016 hPa],[22.0 °C],[8:00 AM],[7.0 km],[ENE],"[5.6 km/h
		/ 1.5 m/s]",METAR VHHH 290000Z 06003KT 7000 FEW018 SCT080 22/18 Q1016 NOSIG
0,[Scattered Clouds],1996-11-29,[18.0 °C],[],[-],[-],[73%],[N/A],[1016 hPa],[23.0 °C],[9:00 AM],[6.0 km],[SE],"[7.4 km/h
		/ 2.1 m/s]",METAR VHHH 290100Z 14004KT 110V180 6000 FEW025 SCT080 23/18 Q1016 NOSIG
0,[Scattered Clouds],1996-11-29,[18.0 °C],[],[-],[-],[69%],[N/A],[1017 hPa],[24.0 °C],[10:00 AM],[7.0 km],[SSE],"[16.7 km/h
		/ 4.6 m/s]",METAR VHHH 290200Z 16009KT 7000 FEW025 SCT100 24/18 Q1017 NOSIG
0,[Partly Cloudy],1996-11-29,[18.0 °C],[],[-],[-],[61%],[N/A],[1016 hPa],[26.0 °C],[11:00 AM],[7.0 km],[SE],"[18.5 km/h
		/ 5.1 m/s]",METAR VHHH 290300Z 14010KT 7000 FEW035 26/18 Q1016 NOSIG
0,[Partly Cloudy],1996-11-29,[18.0 °C],[],[-],[27.9 °C],[58%],[N/A],[1015 hPa],[27.0 °C],[12:00 PM],[7.0 km],[SE],"[14.8 km/h
		/ 4.1 m/s]",METAR VHHH 290400Z 14008KT 090V180 7000 FEW035 27/18 Q1015 WS LDG RWY 13 NOSIG
0,[Scattered Clouds],1996-11-29,[17.0 °C],[],[-],[28.5 °C],[51%],[N/A],[1014 hPa],[28.0 °C],[1:00 PM],[9.0 km],[ESE],"[13.0 km/h
		/ 3.6 m/s]",METAR VHHH 290500Z 12007KT 050V160 9000 FEW025 SCT080 28/17 Q1014 WS LDG RWY 13 NOSIG
0,[Scattered Clouds],1996-11-29,[17.0 °C],[],[-],[29.4 °C],[48%],[N/A],[1013 hPa],[29.0 °C],[2:00 PM],[9.0 km],[NW],"[3.7 km/h
		/ 1.0 m/s]",METAR VHHH 290600Z 32002KT 250V030 9000 FEW025 SCT080 29/17 Q1013 NOSIG
0,[Scattered Clouds],1996-11-29,[17.0 °C],[],[-],[29.4 °C],[48%],[N/A],[1013 hPa],[29.0 °C],[3:00 PM],[9.0 km],[NE],"[13.0 km/h
		/ 3.6 m/s]",METAR VHHH 290700Z 05007KT 270V110 9000 FEW025 SCT080 29/17 Q1013 NOSIG
0,[Scattered Clouds],1996-11-29,[17.0 °C],[],[-],[29.4 °C],[48%],[N/A],[1013 hPa],[29.0 °C],[4:00 PM],[9.0 km],[NE],"[13.0 km/h
		/ 3.6 m/s]",METAR VHHH 290800Z 05007KT 360V090 9000 FEW030 SCT080 29/17 Q1013 NOSIG
0,[Scattered Clouds],1996-11-29,[16.0 °C],[],[-],[28.3 °C],[48%],[N/A],[1014 hPa],[28.0 °C],[5:00 PM],[9.0 km],[NNE],"[14.8 km/h
		/ 4.1 m/s]",METAR VHHH 290900Z 03008KT 350V160 9000 FEW030 SCT080 28/16 Q1014 NOSIG
0,[Scattered Clouds],1996-11-29,[16.0 °C],[],[-],[-],[54%],[N/A],[1014 hPa],[26.0 °C],[6:00 PM],[9.0 km],[NW],"[11.1 km/h
		/ 3.1 m/s]",METAR VHHH 291000Z 32006KT 240V010 9000 FEW030 SCT080 26/16 Q1014 NOSIG
0,[Mostly Cloudy],1996-11-29,[15.0 °C],[],[-],[-],[57%],[N/A],[1015 hPa],[24.0 °C],[7:00 PM],[9.0 km],[NNE],"[13.0 km/h
		/ 3.6 m/s]",METAR VHHH 291100 03007KT 300V060 9000 FEW018 SCT035 BKN080 24/15 Q1015 NOSIG
0,[Scattered Clouds],1996-11-29,[14.0 °C],[],[-],[-],[53%],[N/A],[1016 hPa],[24.0 °C],[8:00 PM],[9.0 km],[ENE],"[13.0 km/h
		/ 3.6 m/s]",METAR VHHH 291200Z 06007KT 360V080 9000 FEW035 SCT080 24/14 Q1016 NOSIG
0,[Scattered Clouds],1996-11-29,[13.0 °C],[],[-],[-],[53%],[N/A],[1017 hPa],[23.0 °C],[9:00 PM],[9.0 km],[ENE],"[13.0 km/h
		/ 3.6 m/s]",METAR VHHH 291300Z 07007KT 040V100 9000 FEW035 SCT080 23/13 Q1017 NOSIG
0,[Mostly Cloudy],1996-11-29,[13.0 °C],[],[-],[-],[57%],[N/A],[1018 hPa],[22.0 °C],[10:00 PM],[9.0 km],[NE],"[16.7 km/h
		/ 4.6 m/s]",METAR VHHH 291400Z 04009KT 010V080 9000 FEW014 BKN080 22/13 Q1018 NOSIG
0,[Mostly Cloudy],1996-11-29,[12.0 °C],[],[-],[-],[56%],[N/A],[1018 hPa],[21.0 °C],[11:00 PM],[9.0 km],[NE],"[7.4 km/h
		/ 2.1 m/s]",METAR VHHH 291500Z 05004KT 360V110 9000 FEW035 BKN080 21/12 Q1018 WS LDG RWY 13 NOSIG
0,[Scattered Clouds],1996-11-30,[12.0 °C],[],[-],,[60%],[N/A],[1018 hPa],[20.0 °C],[12:00 AM],[9.0 km],[NNE],"[9.3 km/h
		/ 2.6 m/s]",METAR VHHH 291600Z 03005KT 350V080 9000 FEW035 SCT080 20/12 Q1018 WS LDG RWY 13 NOSIG
0,[Clear],1996-11-30,[12.0 °C],[],[-],,[64%],[N/A],[1018 hPa],[19.0 °C],[1:00 AM],[-],[NNW],"[7.4 km/h
		/ 2.1 m/s]",METAR VHHH 291700Z 33004KT 290V360 CAVOK 19/12 Q1018 WS LDG RWY 13 NOSIG
0,[Clear],1996-11-30,[12.0 °C],[],[-],,[68%],[N/A],[1019 hPa],[18.0 °C],[2:00 AM],[-],[NNE],"[7.4 km/h
		/ 2.1 m/s]",METAR VHHH 291800Z 03004KT 360V060 CAVOK 18/12 Q1019 WS LDG RWY 13 NOSIG
0,[Clear],1996-11-30,[11.0 °C],[],[-],,[64%],[N/A],[1018 hPa],[18.0 °C],[3:00 AM],[-],[North],"[7.4 km/h
		/ 2.1 m/s]",METAR VHHH 291900Z 01004KT 340V050 CAVOK 18/11 Q1018 WS LDG RWY 13 NOSIG
0,[Clear],1996-11-30,[11.0 °C],[],[-],,[68%],[N/A],[1018 hPa],[17.0 °C],[4:00 AM],[-],[NNW],"[7.4 km/h
		/ 2.1 m/s]",METAR VHHH 292000Z 33004KT 290V360 CAVOK 17/11 Q1018 WS LDG RWY 13 NOSIG
0,[Clear],1996-11-30,[9.0 °C],[],[-],,[59%],[N/A],[1018 hPa],[17.0 °C],[5:00 AM],[-],[NNE],"[9.3 km/h
		/ 2.6 m/s]",METAR VHHH 292100Z 02005KT 290V120 CAVOK 17/09 Q1018 WS LDG RWY 13/31 NOSIG
0,[Clear],1996-11-30,[9.0 °C],[],"[25.9 km/h
		/ 7.2 m/s]",,[63%],[N/A],[1019 hPa],[16.0 °C],[6:00 AM],[-],[NW],"[7.4 km/h
		/ 2.1 m/s]",METAR VHHH 292200Z 32004G14KT 170V120 CAVOK 16/09 Q1019 WS LDG RWY 13/31 NOSIG
0,[Partly Cloudy],1996-11-30,[9.0 °C],[],[-],,[63%],[N/A],[1020 hPa],[16.0 °C],[7:00 AM],[10.0 km],[NW],"[3.7 km/h
		/ 1.0 m/s]",METAR VHHH 292300Z 31002KT 9999 FEW035 16/09 Q1020 WS LDG RWY 13/31 NOSIG
0,[Clear],1996-11-30,[9.0 °C],[],[-],,[56%],[N/A],[1021 hPa],[18.0 °C],[8:00 AM],[-],[NNE],"[13.0 km/h
		/ 3.6 m/s]",METAR VHHH 300000Z 02007KT 310V110 CAVOK 18/09 Q1021 NOSIG
0,[Clear],1996-11-30,[9.0 °C],[],[-],,[52%],[N/A],[1022 hPa],[19.0 °C],[9:00 AM],[-],[NNE],"[13.0 km/h
		/ 3.6 m/s]",METAR VHHH 300100Z 03007KT 350V100 CAVOK 19/09 Q1022 NOSIG
0,[Clear],1996-11-30,[9.0 °C],[],[-],,[52%],[N/A],[1022 hPa],[19.0 °C],[10:00 AM],[-],[NNW],"[7.4 km/h
		/ 2.1 m/s]",METAR VHHH 300200Z 33004KT 250V090 CAVOK 19/09 Q1022 NOSIG
0,[Clear],1996-11-30,[9.0 °C],[],[-],,[49%],[N/A],[1021 hPa],[20.0 °C],[11:00 AM],[-],[ENE],"[16.7 km/h
		/ 4.6 m/s]",METAR VHHH 300300Z 06009KT 320V100 CAVOK 20/09 Q1021 NOSIG
0,[Clear],1996-11-30,[11.0 °C],[],[-],,[53%],[N/A],[1020 hPa],[21.0 °C],[12:00 PM],[-],[NNE],"[11.1 km/h
		/ 3.1 m/s]",METAR VHHH 300400Z 03006KT 280V170 CAVOK 21/11 Q1020 NOSIG
0,[Partly Cloudy],1996-11-30,[10.0 °C],[],[-],,[46%],[N/A],[1019 hPa],[22.0 °C],[1:00 PM],[10.0 km],[North],"[13.0 km/h
		/ 3.6 m/s]",METAR VHHH 300500Z 36007KT 320V100 9999 FEW030 22/10 Q1019 NOSIG
0,[Partly Cloudy],1996-11-30,[10.0 °C],[],[-],,[44%],[N/A],[1019 hPa],[23.0 °C],[2:00 PM],[10.0 km],[NNE],"[11.1 km/h
		/ 3.1 m/s]",METAR VHHH 300600Z 02006KT 330V110 9999 FEW030 23/10 Q1019 NOSIG
0,[Clear],1996-11-30,[11.0 °C],[],[-],,[47%],[N/A],[1019 hPa],[23.0 °C],[3:00 PM],[-],[NE],"[14.8 km/h
		/ 4.1 m/s]",METAR VHHH 300700Z 05008KT 010V090 CAVOK 23/11 Q1019 NOSIG
0,[Mostly Cloudy],1996-11-30,[10.0 °C],[],[-],,[46%],[N/A],[1019 hPa],[22.0 °C],[4:00 PM],[10.0 km],[North],"[13.0 km/h
		/ 3.6 m/s]",METAR VHHH 300800Z 36007KT 280V150 9999 FEW030 BKN090 22/10 Q1019 NOSIG
0,[Clear],1996-11-30,[9.0 °C],[],[-],,[46%],[N/A],[1019 hPa],[21.0 °C],[5:00 PM],[-],[North],"[14.8 km/h
		/ 4.1 m/s]",METAR VHHH 300900Z 01008KT 330V050 CAVOK 21/09 Q1019 NOSIG
0,[Clear],1996-11-30,[10.0 °C],[],[-],,[49%],[N/A],[1020 hPa],[21.0 °C],[6:00 PM],[-],[North],"[13.0 km/h
		/ 3.6 m/s]",METAR VHHH 301000Z 35007KT 300V070 CAVOK 21/10 Q1020 NOSIG
0,[Clear],1996-11-30,[8.0 °C],[],[-],,[43%],[N/A],[1021 hPa],[21.0 °C],[7:00 PM],[-],[NNW],"[3.7 km/h
		/ 1.0 m/s]",METAR VHHH 301100Z 34002KT CAVOK 21/08 Q1021 NOSIG
0,[Clear],1996-11-30,[7.0 °C],[],[-],,[40%],[N/A],[1022 hPa],[21.0 °C],[8:00 PM],[-],[NNE],"[3.7 km/h
		/ 1.0 m/s]",METAR VHHH 301200Z 02002KT CAVOK 21/07 Q1022 NOSIG
0,[Clear],1996-11-30,[6.0 °C],[],[-],,[38%],[N/A],[1022 hPa],[21.0 °C],[9:00 PM],[-],[NNE],"[13.0 km/h
		/ 3.6 m/s]",METAR VHHH 301300Z 03007KT 300V090 CAVOK 21/06 Q1022 NOSIG
0,[Clear],1996-11-30,[5.0 °C],[],[-],,[37%],[N/A],[1022 hPa],[20.0 °C],[10:00 PM],[-],[NNE],"[16.7 km/h
		/ 4.6 m/s]",METAR VHHH 301400Z 03009KT 350V140 CAVOK 20/05 Q1022 NOSIG
0,[Clear],1996-11-30,[5.0 °C],[],[-],,[40%],[N/A],[1022 hPa],[19.0 °C],[11:00 PM],[-],[NNE],"[13.0 km/h
		/ 3.6 m/s]",METAR VHHH 301500Z 02007KT 340V070 CAVOK 19/05 Q1022 NOSIG
0,[Clear],1996-12-1,[4.0 °C],[],[-],,[40%],[N/A],[1022 hPa],[18.0 °C],[12:00 AM],[-],[North],"[16.7 km/h
		/ 4.6 m/s]",METAR VHHH 301600Z 01009KT 330V090 CAVOK 18/04 Q1022 NOSIG
0,[Clear],1996-12-1,[4.0 °C],[],[-],,[40%],[N/A],[1022 hPa],[18.0 °C],[1:00 AM],[-],[NE],"[13.0 km/h
		/ 3.6 m/s]",METAR VHHH 301700Z 05007KT 290V110 CAVOK 18/04 Q1022 NOSIG
0,[Mostly Cloudy],1996-12-1,[4.0 °C],[],[-],,[42%],[N/A],[1022 hPa],[17.0 °C],[2:00 AM],[10.0 km],[North],"[9.3 km/h
		/ 2.6 m/s]",METAR VHHH 301800Z 35005KT 260V070 9999 FEW040 BKN080 17/04 Q1022 NOSIG
0,[Clear],1996-12-1,[3.0 °C],[],[-],,[39%],[N/A],[1023 hPa],[17.0 °C],[3:00 AM],[-],[North],"[9.3 km/h
		/ 2.6 m/s]",METAR VHHH 301900Z 35005KT 270V090 CAVOK 17/03 Q1023 NOSIG
0,[Clear],1996-12-1,[1.0 °C],[],[-],,[34%],[N/A],[1022 hPa],[17.0 °C],[4:00 AM],[-],[NNW],"[9.3 km/h
		/ 2.6 m/s]",METAR VHHH 302000Z 33005KT 260V090 CAVOK 17/01 Q1022 NOSIG
0,[Clear],1996-12-1,[0.0 °C],[],[-],,[32%],[N/A],[1022 hPa],[17.0 °C],[5:00 AM],[-],[NE],"[11.1 km/h
		/ 3.1 m/s]",METAR VHHH 302100Z 05006KT 330V180 CAVOK 17/00 Q1022 NOSIG
0,[Clear],1996-12-1,[0.0 °C],[],[-],,[32%],[N/A],[1023 hPa],[17.0 °C],[7:00 AM],[-],[NNW],"[13.0 km/h
		/ 3.6 m/s]",METAR VHHH 302300Z 34007KT 300V070 CAVOK 17/00 Q1023 NOSIG
0,[Clear],1996-12-1,[0.0 °C],[],[-],,[34%],[N/A],[1024 hPa],[16.0 °C],[8:00 AM],[-],[NNW],"[11.1 km/h
		/ 3.1 m/s]",METAR VHHH 010000Z 33006KT 260V040 CAVOK 16/00 Q1024 NOSIG
0,[Clear],1996-12-1,[0.0 °C],[],[-],,[32%],[N/A],[1024 hPa],[17.0 °C],[9:00 AM],[-],[Variable],"[1.9 km/h
		/ 0.5 m/s]",METAR VHHH 010100Z VRB01KT CAVOK 17/00 Q1024 WS LDG RWY 13 NOSIG
0,[Clear],1996-12-1,[0.0 °C],[],[-],,[28%],[N/A],[1024 hPa],[19.0 °C],[10:00 AM],[-],[ENE],"[18.5 km/h
		/ 5.1 m/s]",METAR VHHH 010200Z 07010KT 270V130 CAVOK 19/00 Q1024 WS LDG RWY 13 NOSIG
0,[Clear],1996-12-1,[1.0 °C],[],[-],,[30%],[N/A],[1024 hPa],[19.0 °C],[11:00 AM],[-],[North],"[13.0 km/h
		/ 3.6 m/s]",METAR VHHH 010300Z 01007KT 330V070 CAVOK 19/01 Q1024 WS LDG RWY 13 NOSIG
0,[Clear],1996-12-1,[3.0 °C],[],[-],,[31%],[N/A],[1023 hPa],[21.0 °C],[12:00 PM],[-],[ENE],"[14.8 km/h
		/ 4.1 m/s]",METAR VHHH 010400Z 07008KT 280V150 CAVOK 21/03 Q1023 WS LDG RWY 13 NOSIG
0,[Clear],1996-12-1,[2.0 °C],[],[-],,[28%],[N/A],[1022 hPa],[21.0 °C],[1:00 PM],[-],[NE],"[18.5 km/h
		/ 5.1 m/s]",METAR VHHH 010500Z 04010KT 320V120 CAVOK 21/02 Q1022 WS LDG RWY 13 NOSIG
0,[Clear],1996-12-1,[2.0 °C],[],[-],,[28%],[N/A],[1021 hPa],[21.0 °C],[2:00 PM],[-],[East],"[13.0 km/h
		/ 3.6 m/s]",METAR VHHH 010600Z 08007KT 320V160 CAVOK 21/02 Q1021 WS LDG RWY 13 NOSIG
0,[Clear],1996-12-1,[3.0 °C],[],[-],,[31%],[N/A],[1021 hPa],[21.0 °C],[3:00 PM],[-],[ENE],"[13.0 km/h
		/ 3.6 m/s]",METAR VHHH 010700Z 07007KT 010V170 CAVOK 21/03 Q1021 NOSIG
0,[Clear],1996-12-1,[2.0 °C],[],[-],,[28%],[N/A],[1021 hPa],[21.0 °C],[4:00 PM],[-],[East],"[20.4 km/h
		/ 5.7 m/s]",METAR VHHH 010800Z 10011KT CAVOK 21/02 Q1021 NOSIG
0,[Clear],1996-12-1,[5.0 °C],[],[-],,[40%],[N/A],[1021 hPa],[19.0 °C],[5:00 PM],[-],[East],"[16.7 km/h
		/ 4.6 m/s]",METAR VHHH 010900Z 09009KT 030V120 CAVOK 19/05 Q1021 NOSIG
0,[Clear],1996-12-1,[5.0 °C],[],[-],,[40%],[N/A],[1022 hPa],[19.0 °C],[6:00 PM],[-],[East],"[13.0 km/h
		/ 3.6 m/s]",METAR VHHH 011000Z 10007KT 040V120 CAVOK 19/05 Q1022 NOSIG
0,[Clear],1996-12-1,[6.0 °C],[],[-],,[43%],[N/A],[1022 hPa],[19.0 °C],[7:00 PM],[-],[East],"[16.7 km/h
		/ 4.6 m/s]",METAR VHHH 011100Z 10009KT 050V120 CAVOK 19/06 Q1022 NOSIG
0,[Clear],1996-12-1,[8.0 °C],[],[-],,[49%],[N/A],[1022 hPa],[19.0 °C],[8:00 PM],[-],[North],"[3.7 km/h
		/ 1.0 m/s]",METAR VHHH 011200Z 36002KT CAVOK 19/08 Q1022 NOSIG
0,[Partly Cloudy],1996-12-1,[9.0 °C],[],[-],,[52%],[N/A],[1022 hPa],[19.0 °C],[9:00 PM],[10.0 km],[East],"[20.4 km/h
		/ 5.7 m/s]",METAR VHHH 011300Z 09011KT 060V140 9999 FEW030 19/09 Q1022 NOSIG
0,[Mostly Cloudy],1996-12-1,[10.0 °C],[],[-],,[56%],[N/A],[1022 hPa],[19.0 °C],[10:00 PM],[10.0 km],[East],"[29.6 km/h
		/ 8.2 m/s]",METAR VHHH 011400Z 08016KT 050V120 9999 FEW030 BKN080 19/10 Q1022 WS LDG RWY 13/31 NOSIG
0,[Mostly Cloudy],1996-12-1,[10.0 °C],[],"[46.3 km/h
		/ 12.9 m/s]",,[56%],[N/A],[1022 hPa],[19.0 °C],[11:00 PM],[10.0 km],[East],"[25.9 km/h
		/ 7.2 m/s]",METAR VHHH 011500Z 09014G25KT 030V130 9999 FEW025 BKN080 19/10 Q1022 WS LDG RWY 13/31 NOSIG
0,[Scattered Clouds],1996-12-2,[10.0 °C],[],"[42.6 km/h
		/ 11.8 m/s]",,[56%],[N/A],[1022 hPa],[19.0 °C],[12:00 AM],[10.0 km],[East],"[24.1 km/h
		/ 6.7 m/s]",METAR VHHH 011600Z 10013G23KT 070V130 9999 FEW025 SCT030 19/10 Q1022 WS LDG RWY 13/31 NOSIG
0,[Mostly Cloudy],1996-12-2,[10.0 °C],[],"[50.0 km/h
		/ 13.9 m/s]",,[59%],[N/A],[1021 hPa],[18.0 °C],[1:00 AM],[10.0 km],[East],"[25.9 km/h
		/ 7.2 m/s]",METAR VHHH 011700Z 09014G27KT 050V130 9999 FEW030 BKN080 18/10 Q1021 WS LDG RWY 13/31 NOSIG
0,[Mostly Cloudy],1996-12-2,[11.0 °C],[],[-],,[64%],[N/A],[1021 hPa],[18.0 °C],[2:00 AM],[10.0 km],[East],"[27.8 km/h
		/ 7.7 m/s]",METAR VHHH 011800Z 10015KT 050V150 9999 FEW030 BKN080 18/11 Q1021 WS LDG RWY 13/31 NOSIG
0,[Mostly Cloudy],1996-12-2,[10.0 °C],[],[-],,[63%],[N/A],[1021 hPa],[17.0 °C],[3:00 AM],[10.0 km],[East],"[24.1 km/h
		/ 6.7 m/s]",METAR VHHH 011900Z 08013KT 020V130 9999 FEW030 BKN080 17/10 Q1021 WS LDG RWY 13/31 NOSIG
0,[Mostly Cloudy],1996-12-2,[10.0 °C],[],[-],,[63%],[N/A],[1021 hPa],[17.0 °C],[4:00 AM],[10.0 km],[East],"[27.8 km/h
		/ 7.7 m/s]",METAR VHHH 012000Z 08015KT 020V130 9999 SCT030 BKN080 17/10 Q1021 WS LDG RWY 13/31 NOSIG
0,[Mostly Cloudy],1996-12-2,[8.0 °C],[],[-],,[55%],[N/A],[1021 hPa],[17.0 °C],[5:00 AM],[10.0 km],[East],"[25.9 km/h
		/ 7.2 m/s]",METAR VHHH 012100Z 09014KT 040V150 9999 FEW035 BKN080 17/08 Q1021 WS LDG RWY 13/31 NOSIG
0,[Mostly Cloudy],1996-12-2,[9.0 °C],[],[-],,[59%],[N/A],[1021 hPa],[17.0 °C],[6:00 AM],[10.0 km],[East],"[24.1 km/h
		/ 6.7 m/s]",METAR VHHH 012200Z 08013KT 040V120 9999 FEW035 BKN080 17/09 Q1021 WS LDG RWY 13/31 NOSIG
0,[Mostly Cloudy],1996-12-2,[9.0 °C],[],[-],,[59%],[N/A],[1021 hPa],[17.0 °C],[7:00 AM],[10.0 km],[East],"[16.7 km/h
		/ 4.6 m/s]",METAR VHHH 012300Z 10009KT 360V140 9999 FEW030 BKN060 17/09 Q1021 NOSIG
0,[Mostly Cloudy],1996-12-2,[7.0 °C],[],[-],,[52%],[N/A],[1022 hPa],[17.0 °C],[8:00 AM],[10.0 km],[ENE],"[24.1 km/h
		/ 6.7 m/s]",METAR VHHH 020000Z 06013KT 360V150 9999 FEW035 BKN080 17/07 Q1022 WS LDG RWY 13/31 NOSIG
0,[Mostly Cloudy],1996-12-2,[7.0 °C],[],[-],,[52%],[N/A],[1022 hPa],[17.0 °C],[9:00 AM],[10.0 km],[ENE],"[16.7 km/h
		/ 4.6 m/s]",METAR VHHH 020100Z 06009KT 250V160 9999 SCT030 BKN060 17/07 Q1022 WS LDG RWY 13/31 NOSIG
0,[Mostly Cloudy],1996-12-2,[7.0 °C],[],"[44.4 km/h
		/ 12.3 m/s]",,[52%],[N/A],[1023 hPa],[17.0 °C],[10:00 AM],[10.0 km],[East],"[20.4 km/h
		/ 5.7 m/s]",METAR VHHH 020200Z 08011G24KT 320V150 9999 SCT030 BKN060 17/07 Q1023 WS LDG RWY 13/31 NOSIG
0,[Overcast],1996-12-2,[8.0 °C],[],[-],,[52%],[N/A],[1021 hPa],[18.0 °C],[12:00 PM],[10.0 km],[NE],"[13.0 km/h
		/ 3.6 m/s]",METAR VHHH 020400Z 05007KT 360V110 9999 SCT030 OVC080 18/08 Q1021 NOSIG
0,[Mostly Cloudy],1996-12-2,[8.0 °C],[],[-],,[52%],[N/A],[1020 hPa],[18.0 °C],[1:00 PM],[10.0 km],[NE],"[13.0 km/h
		/ 3.6 m/s]",METAR VHHH 020500Z 05007KT 330V150 9999 SCT030 BKN060 18/08 Q1020 NOSIG
0,[Mostly Cloudy],1996-12-2,[8.0 °C],[],[-],,[52%],[N/A],[1020 hPa],[18.0 °C],[2:00 PM],[10.0 km],[ENE],"[11.1 km/h
		/ 3.1 m/s]",METAR VHHH 020600Z 06006KT 300V160 9999 SCT030 BKN060 18/08 Q1020 NOSIG
0,[Mostly Cloudy],1996-12-2,[8.0 °C],[],[-],,[52%],[N/A],[1019 hPa],[18.0 °C],[3:00 PM],[10.0 km],[NNE],"[14.8 km/h
		/ 4.1 m/s]",METAR VHHH 020700Z 03008KT 340V080 9999 SCT030 BKN060 18/08 Q1019 NOSIG
0,[Mostly Cloudy],1996-12-2,[7.0 °C],[],[-],,[52%],[N/A],[1019 hPa],[17.0 °C],[4:00 PM],[10.0 km],[ENE],"[14.8 km/h
		/ 4.1 m/s]",METAR VHHH 020800Z 06008KT 330V150 9999 SCT030 BKN060 17/07 Q1019 NOSIG
0,[Mostly Cloudy],1996-12-2,[8.0 °C],[],[-],,[55%],[N/A],[1019 hPa],[17.0 °C],[5:00 PM],[10.0 km],[NNE],"[14.8 km/h
		/ 4.1 m/s]",METAR VHHH 020900Z 02008KT 320V070 9999 SCT030 BKN060 17/08 Q1019 NOSIG
0,[Mostly Cloudy],1996-12-2,[8.0 °C],[],[-],,[55%],[N/A],[1020 hPa],[17.0 °C],[6:00 PM],[10.0 km],[NNE],"[13.0 km/h
		/ 3.6 m/s]",METAR VHHH 021000Z 02007KT 330V070 9999 SCT030 BKN060 17/08 Q1020 NOSIG
0,[Mostly Cloudy],1996-12-2,[7.0 °C],[],[-],,[52%],[N/A],[1020 hPa],[17.0 °C],[7:00 PM],[10.0 km],[ENE],"[13.0 km/h
		/ 3.6 m/s]",METAR VHHH 021100Z 06007KT 340V130 9999 SCT030 BKN080 17/07 Q1020 NOSIG
0,[Mostly Cloudy],1996-12-2,[8.0 °C],[],[-],,[55%],[N/A],[1020 hPa],[17.0 °C],[8:00 PM],[10.0 km],[East],"[14.8 km/h
		/ 4.1 m/s]",METAR VHHH 021200Z 10008KT 030V180 9999 SCT030 BKN080 17/08 Q1020 NOSIG
0,[Mostly Cloudy],1996-12-2,[8.0 °C],[],[-],,[52%],[N/A],[1020 hPa],[18.0 °C],[9:00 PM],[10.0 km],[East],"[18.5 km/h
		/ 5.1 m/s]",METAR VHHH 021300Z 10010KT 040V140 9999 SCT030 BKN080 18/08 Q1020 NOSIG
0,[Mostly Cloudy],1996-12-2,[9.0 °C],[],"[37.0 km/h
		/ 10.3 m/s]",,[56%],[N/A],[1021 hPa],[18.0 °C],[10:00 PM],[10.0 km],[East],"[18.5 km/h
		/ 5.1 m/s]",METAR VHHH 021400Z 09010G20KT 050V130 9999 SCT025 BKN050 18/09 Q1021 NOSIG
0,[Mostly Cloudy],1996-12-2,[10.0 °C],[],[-],,[59%],[N/A],[1020 hPa],[18.0 °C],[11:00 PM],[10.0 km],[East],"[18.5 km/h
		/ 5.1 m/s]",METAR VHHH 021500Z 10010KT 050V150 9999 SCT025 BKN050 18/10 Q1020 NOSIG
0,[Mostly Cloudy],1996-12-3,[10.0 °C],[],[-],,[63%],[N/A],[1020 hPa],[17.0 °C],[12:00 AM],[10.0 km],[East],"[13.0 km/h
		/ 3.6 m/s]",METAR VHHH 021600Z 09007KT 040V180 9999 SCT025 BKN050 17/10 Q1020 NOSIG
0,[Mostly Cloudy],1996-12-3,[10.0 °C],[],[-],,[63%],[N/A],[1020 hPa],[17.0 °C],[1:00 AM],[10.0 km],[East],"[14.8 km/h
		/ 4.1 m/s]",METAR VHHH 021700Z 10008KT 040V150 9999 SCT025 BKN050 17/10 Q1020 WS LDG RWY 13/31 NOSIG
0,[Mostly Cloudy],1996-12-3,[11.0 °C],[],"[37.0 km/h
		/ 10.3 m/s]",,[68%],[N/A],[1019 hPa],[17.0 °C],[2:00 AM],[10.0 km],[East],"[18.5 km/h
		/ 5.1 m/s]",METAR VHHH 021800Z 09010G20KT 040V140 9999 SCT022 BKN050 17/11 Q1019 NOSIG
0,[Mostly Cloudy],1996-12-3,[11.0 °C],[],[-],,[68%],[N/A],[1018 hPa],[17.0 °C],[3:00 AM],[10.0 km],[East],"[18.5 km/h
		/ 5.1 m/s]",METAR VHHH 021900Z 09010KT 040V140 9999 FEW018 SCT022 BKN050 17/11 Q1018 NOSIG
0,[Mostly Cloudy],1996-12-3,[12.0 °C],[],[-],,[72%],[N/A],[1018 hPa],[17.0 °C],[4:00 AM],[10.0 km],[East],"[13.0 km/h
		/ 3.6 m/s]",METAR VHHH 022000Z 10007KT 050V150 9999 FEW018 SCT022 BKN050 17/12 Q1018 NOSIG
0,[Mostly Cloudy],1996-12-3,[11.0 °C],[],[-],,[68%],[N/A],[1018 hPa],[17.0 °C],[5:00 AM],[10.0 km],[East],"[13.0 km/h
		/ 3.6 m/s]",METAR VHHH 022100Z 09007KT 010V140 9999 SCT020 BKN050 17/11 Q1018 NOSIG
0,[Mostly Cloudy],1996-12-3,[12.0 °C],[],"[29.6 km/h
		/ 8.2 m/s]",,[68%],[N/A],[1019 hPa],[18.0 °C],[6:00 AM],[10.0 km],[East],"[11.1 km/h
		/ 3.1 m/s]",METAR VHHH 022200Z 10006G16KT 040V150 9999 FEW018 BKN040 18/12 Q1019 NOSIG
0,[Mostly Cloudy],1996-12-3,[13.0 °C],[],[-],,[73%],[N/A],[1019 hPa],[18.0 °C],[7:00 AM],[10.0 km],[ENE],"[13.0 km/h
		/ 3.6 m/s]",METAR VHHH 022300Z 06007KT 310V120 9999 FEW020 SCT025 BKN050 18/13 Q1019 WS LDG RWY 13/31 NOSIG
0,[Mostly Cloudy],1996-12-3,[13.0 °C],[],[-],,[73%],[N/A],[1019 hPa],[18.0 °C],[8:00 AM],[10.0 km],[East],"[7.4 km/h
		/ 2.1 m/s]",METAR VHHH 030000Z 10004KT 290V150 9999 FEW020 SCT025 BKN050 18/13 Q1019 NOSIG
0,[Mostly Cloudy],1996-12-3,[13.0 °C],[],[-],,[68%],[N/A],[1020 hPa],[19.0 °C],[9:00 AM],[10.0 km],[East],"[18.5 km/h
		/ 5.1 m/s]",METAR VHHH 030100Z 09010KT 020V170 9999 FEW020 SCT025 BKN080 19/13 Q1020 NOSIG
0,[Mostly Cloudy],1996-12-3,[13.0 °C],[],[-],,[73%],[N/A],[1020 hPa],[18.0 °C],[10:00 AM],[10.0 km],[East],"[20.4 km/h
		/ 5.7 m/s]",METAR VHHH 030200Z 10011KT 050V160 9999 FEW020 SCT025 BKN080 18/13 Q1020 NOSIG
0,[Mostly Cloudy],1996-12-3,[14.0 °C],[],[-],,[68%],[N/A],[1020 hPa],[20.0 °C],[11:00 AM],[10.0 km],[East],"[22.2 km/h
		/ 6.2 m/s]",METAR VHHH 030300Z 10012KT 040V170 9999 FEW020 SCT025 BKN080 20/14 Q1020 NOSIG
0,[Mostly Cloudy],1996-12-3,[14.0 °C],[],[-],,[68%],[N/A],[1019 hPa],[20.0 °C],[12:00 PM],[10.0 km],[East],"[22.2 km/h
		/ 6.2 m/s]",METAR VHHH 030400Z 09012KT 040V140 9999 FEW020 SCT025 BKN080 20/14 Q1019 NOSIG
0,[Mostly Cloudy],1996-12-3,[14.0 °C],[],[-],,[68%],[N/A],[1017 hPa],[20.0 °C],[2:00 PM],[10.0 km],[East],"[20.4 km/h
		/ 5.7 m/s]",METAR VHHH 030600Z 08011KT 030V120 9999 FEW018 SCT025 BKN080 20/14 Q1017 WS LDG RWY 13/31 NOSIG
0,[Mostly Cloudy],1996-12-3,[15.0 °C],[],[-],,[73%],[N/A],[1016 hPa],[20.0 °C],[3:00 PM],[10.0 km],[East],"[14.8 km/h
		/ 4.1 m/s]",METAR VHHH 030700Z 10008KT 060V140 9999 FEW018 SCT025 BKN080 20/15 Q1016 WS LDG RWY 13/31 NOSIG
0,[Mostly Cloudy],1996-12-3,[15.0 °C],[],[-],,[73%],[N/A],[1016 hPa],[20.0 °C],[4:00 PM],[10.0 km],[East],"[18.5 km/h
		/ 5.1 m/s]",METAR VHHH 030800Z 09010KT 030V130 9999 FEW018 SCT025 BKN080 20/15 Q1016 WS LDG RWY 13/31 NOSIG
0,[Mostly Cloudy],1996-12-3,[15.0 °C],[],[-],,[73%],[N/A],[1016 hPa],[20.0 °C],[5:00 PM],[10.0 km],[East],"[18.5 km/h
		/ 5.1 m/s]",METAR VHHH 030900 09010KT 030V140 9999 FEW016 BKN030 20/15 Q1016 NOSIG
0,[Mostly Cloudy],1996-12-3,[16.0 °C],[],[-],,[78%],[N/A],[1016 hPa],[20.0 °C],[6:00 PM],[10.0 km],[East],"[22.2 km/h
		/ 6.2 m/s]",METAR VHHH 031000Z 10012KT 050V160 9999 FEW016 BKN025 20/16 Q1016 NOSIG
0,[Mostly Cloudy],1996-12-3,[16.0 °C],[],[-],,[78%],[N/A],[1017 hPa],[20.0 °C],[7:00 PM],[10.0 km],[ESE],"[22.2 km/h
		/ 6.2 m/s]",METAR VHHH 031100Z 11012KT 060V130 9999 FEW014 BKN020 20/16 Q1017 NOSIG
0,[Mostly Cloudy],1996-12-3,[16.0 °C],[],[-],,[78%],[N/A],[1017 hPa],[20.0 °C],[8:00 PM],[10.0 km],[East],"[24.1 km/h
		/ 6.7 m/s]",METAR VHHH 031200Z 10013KT 060V140 9999 FEW014 BKN020 20/16 Q1017 NOSIG
0,[Mostly Cloudy],1996-12-3,[16.0 °C],[],[-],,[73%],[N/A],[1017 hPa],[21.0 °C],[9:00 PM],[10.0 km],[East],"[24.1 km/h
		/ 6.7 m/s]",METAR VHHH 031300Z 10013KT 060V120 9999 FEW014 BKN020 21/16 Q1017 NOSIG
0,[Scattered Clouds],1996-12-3,[16.0 °C],[],[-],,[73%],[N/A],[1017 hPa],[21.0 °C],[10:00 PM],[10.0 km],[East],"[22.2 km/h
		/ 6.2 m/s]",METAR VHHH 031400Z 10012KT 040V160 9999 FEW014 SCT020 21/16 Q1017 NOSIG
0,[Scattered Clouds],1996-12-3,[15.0 °C],[],[-],,[73%],[N/A],[1017 hPa],[20.0 °C],[11:00 PM],[10.0 km],[East],"[18.5 km/h
		/ 5.1 m/s]",METAR VHHH 031500Z 10010KT 060V130 9999 FEW016 SCT025 20/15 Q1017 NOSIG
0,[Scattered Clouds],1996-12-4,[16.0 °C],[],[-],,[78%],[N/A],[1017 hPa],[20.0 °C],[12:00 AM],[10.0 km],[East],"[5.6 km/h
		/ 1.5 m/s]",METAR VHHH 031600Z 10003KT 9999 FEW016 SCT025 20/16 Q1017 NOSIG
0,[Scattered Clouds],1996-12-4,[16.0 °C],[],[-],,[78%],[N/A],[1017 hPa],[20.0 °C],[1:00 AM],[10.0 km],[East],"[16.7 km/h
		/ 4.6 m/s]",METAR VHHH 031700Z 10009KT 9999 FEW016 SCT025 20/16 Q1017 NOSIG
0,[Mostly Cloudy],1996-12-4,[17.0 °C],[],[-],,[83%],[N/A],[1017 hPa],[20.0 °C],[2:00 AM],[10.0 km],[ESE],"[5.6 km/h
		/ 1.5 m/s]",METAR VHHH 031800Z 12003KT 9999 FEW014 BKN020 20/17 Q1017 NOSIG
0,[Scattered Clouds],1996-12-4,[16.0 °C],[],[-],,[78%],[N/A],[1016 hPa],[20.0 °C],[3:00 AM],[10.0 km],[SE],"[5.6 km/h
		/ 1.5 m/s]",METAR VHHH 031900Z 13003KT 9999 FEW016 SCT020 20/16 Q1016 NOSIG
0,[Mostly Cloudy],1996-12-4,[15.0 °C],[],[-],,[73%],[N/A],[1016 hPa],[20.0 °C],[4:00 AM],[10.0 km],[ESE],"[9.3 km/h
		/ 2.6 m/s]",METAR VHHH 032000Z 11005KT 070V180 9999 FEW016 BKN020 20/15 Q1016 NOSIG
0,[Scattered Clouds],1996-12-4,[16.0 °C],[],[-],,[78%],[N/A],[1016 hPa],[20.0 °C],[5:00 AM],[10.0 km],[SE],"[9.3 km/h
		/ 2.6 m/s]",METAR VHHH 032100Z 13005KT 090V180 9999 FEW018 SCT025 20/16 Q1016 NOSIG
0,[Scattered Clouds],1996-12-4,[15.0 °C],[],[-],,[73%],[N/A],[1016 hPa],[20.0 °C],[6:00 AM],[10.0 km],[ESE],"[16.7 km/h
		/ 4.6 m/s]",METAR VHHH 032200Z 11009KT 060V170 9999 FEW017 SCT025 20/15 Q1016 NOSIG
0,[Scattered Clouds],1996-12-4,[15.0 °C],[],[-],,[68%],[N/A],[1016 hPa],[21.0 °C],[7:00 AM],[10.0 km],[ESE],"[13.0 km/h
		/ 3.6 m/s]",METAR VHHH 032300Z 12007KT 080V170 9999 FEW018 SCT022 21/15 Q1016 NOSIG
0,[Scattered Clouds],1996-12-4,[16.0 °C],[],[-],,[73%],[N/A],[1016 hPa],[21.0 °C],[8:00 AM],[10.0 km],[East],"[13.0 km/h
		/ 3.6 m/s]",METAR VHHH 040000Z 10007KT 060V140 9999 FEW020 SCT025 21/16 Q1016 NOSIG
0,[Mostly Cloudy],1996-12-4,[17.0 °C],[],[-],,[73%],[N/A],[1016 hPa],[22.0 °C],[9:00 AM],[10.0 km],[East],"[18.5 km/h
		/ 5.1 m/s]",METAR VHHH 040100Z 09010KT 050V120 9999 FEW015 BKN025 22/17 Q1016 NOSIG
0,[Mostly Cloudy],1996-12-4,[18.0 °C],[],[-],,[78%],[N/A],[1016 hPa],[22.0 °C],[10:00 AM],[9.0 km],[ENE],"[18.5 km/h
		/ 5.1 m/s]",METAR VHHH 040200Z 07010KT 360V120 9000 FEW010 BKN020 22/18 Q1016 WS LDG RWY 13/31 NOSIG
0,[Mostly Cloudy],1996-12-4,[18.0 °C],[],"[31.5 km/h
		/ 8.7 m/s]",,[78%],[N/A],[1016 hPa],[22.0 °C],[11:00 AM],[10.0 km],[East],"[13.0 km/h
		/ 3.6 m/s]",METAR VHHH 040300Z 09007G17KT 060V130 9999 FEW010 SCT014 BKN080 22/18 Q1016 WS LDG RWY 13/31 NOSIG
0,[Mostly Cloudy],1996-12-4,[18.0 °C],[],[-],,[78%],[N/A],[1015 hPa],[22.0 °C],[12:00 PM],[10.0 km],[East],"[16.7 km/h
		/ 4.6 m/s]",METAR VHHH 040400Z 10009KT 060V150 9999 FEW012 SCT016 BKN080 22/18 Q1015 NOSIG
0,[Mostly Cloudy],1996-12-4,[18.0 °C],[],[-],,[73%],[N/A],[1014 hPa],[23.0 °C],[1:00 PM],[10.0 km],[ESE],"[7.4 km/h
		/ 2.1 m/s]",METAR VHHH 040500Z 11004KT 070V140 9999 FEW013 SCT017 BKN080 23/18 Q1014 NOSIG
0,[Mostly Cloudy],1996-12-4,[18.0 °C],[],[-],,[73%],[N/A],[1013 hPa],[23.0 °C],[2:00 PM],[10.0 km],[ESE],"[9.3 km/h
		/ 2.6 m/s]",METAR VHHH 040600Z 11005KT 9999 FEW014 SCT020 BKN080 23/18 Q1013 NOSIG
0,[Mostly Cloudy],1996-12-4,[18.0 °C],[],[-],,[73%],[N/A],[1013 hPa],[23.0 °C],[3:00 PM],[10.0 km],[SE],"[14.8 km/h
		/ 4.1 m/s]",METAR VHHH 040700Z 14008KT 110V180 9999 FEW013 SCT020 BKN080 23/18 Q1013 NOSIG
0,[Mostly Cloudy],1996-12-4,[18.0 °C],[],[-],,[78%],[N/A],[1013 hPa],[22.0 °C],[4:00 PM],[10.0 km],[ESE],"[14.8 km/h
		/ 4.1 m/s]",METAR VHHH 040800Z 11008KT 090V170 9999 FEW013 SCT020 BKN080 22/18 Q1013 NOSIG
0,[Mostly Cloudy],1996-12-4,[19.0 °C],[],[-],,[83%],[N/A],[1013 hPa],[22.0 °C],[5:00 PM],[10.0 km],[Variable],"[1.9 km/h
		/ 0.5 m/s]",METAR VHHH 040900Z VRB01KT 9999 FEW013 SCT020 BKN080 22/19 Q1013 NOSIG
0,[Mostly Cloudy],1996-12-4,[19.0 °C],[],[-],,[83%],[N/A],[1013 hPa],[22.0 °C],[6:00 PM],[10.0 km],[SSE],"[11.1 km/h
		/ 3.1 m/s]",METAR VHHH 041000Z 15006KT 9999 FEW015 SCT020 BKN080 22/19 Q1013 NOSIG
0,[Mostly Cloudy],1996-12-4,[19.0 °C],[],[-],,[83%],[N/A],[1014 hPa],[22.0 °C],[7:00 PM],[10.0 km],[SSE],"[14.8 km/h
		/ 4.1 m/s]",METAR VHHH 041100Z 15008KT 9999 FEW018 BKN030 22/19 Q1014 NOSIG
0,[Mostly Cloudy],1996-12-4,[19.0 °C],[],[-],,[78%],[N/A],[1014 hPa],[23.0 °C],[8:00 PM],[10.0 km],[SE],"[14.8 km/h
		/ 4.1 m/s]",METAR VHHH 041200Z 14008KT 9999 FEW020 BKN035 23/19 Q1014 NOSIG
0,[Mostly Cloudy],1996-12-4,[19.0 °C],[],[-],,[78%],[N/A],[1014 hPa],[23.0 °C],[9:00 PM],[10.0 km],[SE],"[16.7 km/h
		/ 4.6 m/s]",METAR VHHH 041300Z 14009KT 110V170 9999 FEW020 BKN040 23/19 Q1014 NOSIG
0,[Mostly Cloudy],1996-12-4,[19.0 °C],[],[-],,[83%],[N/A],[1015 hPa],[22.0 °C],[10:00 PM],[10.0 km],[SE],"[9.3 km/h
		/ 2.6 m/s]",METAR VHHH 041400Z 13005KT 9999 FEW020 BKN040 22/19 Q1015 NOSIG
0,[Mostly Cloudy],1996-12-4,[19.0 °C],[],[-],,[78%],[N/A],[1015 hPa],[23.0 °C],[11:00 PM],[10.0 km],[SSE],"[7.4 km/h
		/ 2.1 m/s]",METAR VHHH 041500Z 16004KT 9999 FEW016 BKN080 23/19 Q1015 NOSIG
0,[Scattered Clouds],1996-12-5,[19.0 °C],[],[-],,[83%],[N/A],[1014 hPa],[22.0 °C],[12:00 AM],[10.0 km],[SSE],"[1.9 km/h
		/ 0.5 m/s]",METAR VHHH 041600Z 15001KT 9999 FEW020 SCT080 22/19 Q1014 NOSIG
0,[Scattered Clouds],1996-12-5,[19.0 °C],[],[-],,[83%],[N/A],[1014 hPa],[22.0 °C],[1:00 AM],[10.0 km],[Calm],[Calm],METAR VHHH 041700Z 00000KT 9999 FEW020 SCT080 22/19 Q1014 NOSIG
0,[Mostly Cloudy],1996-12-5,[20.0 °C],[],[-],,[88%],[N/A],[1013 hPa],[22.0 °C],[2:00 AM],[10.0 km],[Calm],[Calm],METAR VHHH 041800Z 00000KT 9999 FEW020 BKN080 22/20 Q1013 NOSIG
0,[Mostly Cloudy],1996-12-5,[19.0 °C],[],[-],,[83%],[N/A],[1013 hPa],[22.0 °C],[3:00 AM],[10.0 km],[West],"[1.9 km/h
		/ 0.5 m/s]",METAR VHHH 041900Z 27001KT 9999 FEW020 BKN080 22/19 Q1013 NOSIG
0,[Mostly Cloudy],1996-12-5,[19.0 °C],[],[-],,[83%],[N/A],[1013 hPa],[22.0 °C],[4:00 AM],[10.0 km],[West],"[1.9 km/h
		/ 0.5 m/s]",METAR VHHH 042000Z 27001KT 9999 FEW020 BKN080 22/19 Q1013 NOSIG
0,[Mostly Cloudy],1996-12-5,[18.0 °C],[],[-],,[78%],[N/A],[1013 hPa],[22.0 °C],[5:00 AM],[10.0 km],[NW],"[13.0 km/h
		/ 3.6 m/s]",METAR VHHH 042100Z 31007KT 9999 FEW018 BKN080 22/18 Q1013 NOSIG
0,[Mostly Cloudy],1996-12-5,[18.0 °C],[],[-],,[78%],[N/A],[1014 hPa],[22.0 °C],[6:00 AM],[8.0 km],[NNW],"[18.5 km/h
		/ 5.1 m/s]",METAR VHHH 042200Z 33010KT 300V020 8000 FEW018 SCT025 BKN080 22/18 Q1014 NOSIG
0,[Light Rain],1996-12-5,[18.0 °C],[Rain],[-],,[83%],[N/A],[1015 hPa],[21.0 °C],[7:00 AM],[5.0 km],[North],"[18.5 km/h
		/ 5.1 m/s]",METAR VHHH 042300Z 36010KT 300V040 5000 -RA FEW018 SCT025 BKN080 21/18 Q1015 NOSIG
0,[Partly Cloudy],1996-12-5,[12.0 °C],[],[-],,[53%],[N/A],[1016 hPa],[22.0 °C],[12:00 PM],[10.0 km],[North],"[24.1 km/h
		/ 6.7 m/s]",METAR VHHH 050400Z 01013KT 330V080 9999 FEW030 22/12 Q1016 WS LDG RWY 13/31 NOSIG
0,[Partly Cloudy],1996-12-5,[11.0 °C],[],[-],,[47%],[N/A],[1015 hPa],[23.0 °C],[1:00 PM],[10.0 km],[North],"[18.5 km/h
		/ 5.1 m/s]",METAR VHHH 050500Z 36010KT 320V070 9999 FEW030 23/11 Q1015 WS LDG RWY 13/31 NOSIG
0,[Clear],1996-12-5,[11.0 °C],[],[-],,[50%],[N/A],[1014 hPa],[22.0 °C],[2:00 PM],[-],[North],"[24.1 km/h
		/ 6.7 m/s]",METAR VHHH 050600Z 36013KT 310V060 CAVOK 22/11 Q1014 WS LDG RWY 13/31 NOSIG
0,[Clear],1996-12-5,[11.0 °C],[],[-],,[53%],[N/A],[1015 hPa],[21.0 °C],[3:00 PM],[-],[NNE],"[22.2 km/h
		/ 6.2 m/s]",METAR VHHH 050700Z 02012KT 310V090 CAVOK 21/11 Q1015 WS LDG RWY 13/31 NOSIG
0,[Clear],1996-12-5,[10.0 °C],[],[-],,[52%],[N/A],[1015 hPa],[20.0 °C],[4:00 PM],[-],[NNW],"[14.8 km/h
		/ 4.1 m/s]",METAR VHHH 050800Z 34008KT 270V060 CAVOK 20/10 Q1015 WS LDG RWY 13/31 NOSIG
0,[Partly Cloudy],1996-12-5,[8.0 °C],[],[-],,[49%],[N/A],[1017 hPa],[19.0 °C],[5:00 PM],[10.0 km],[NNE],"[20.4 km/h
		/ 5.7 m/s]",METAR VHHH 050900Z 02011KT 290V090 9999 FEW040 19/08 Q1017 WS LDG RWY 13/31 NOSIG
0,[Scattered Clouds],1996-12-5,[8.0 °C],[],[-],,[52%],[N/A],[1017 hPa],[18.0 °C],[6:00 PM],[10.0 km],[NNE],"[14.8 km/h
		/ 4.1 m/s]",METAR VHHH 051000Z 02008KT 330V060 9999 FEW040 SCT090 18/08 Q1017 WS LDG RWY 13/31 NOSIG
0,[Mostly Cloudy],1996-12-5,[6.0 °C],[],"[42.6 km/h
		/ 11.8 m/s]",,[48%],[N/A],[1019 hPa],[17.0 °C],[7:00 PM],[10.0 km],[North],"[18.5 km/h
		/ 5.1 m/s]",METAR VHHH 051100Z 35010G23KT 330V050 9999 FEW040 BKN080 17/06 Q1019 WS LDG RWY 13/31 NOSIG
0,[Mostly Cloudy],1996-12-5,[5.0 °C],[],"[44.4 km/h
		/ 12.3 m/s]",,[48%],[N/A],[1019 hPa],[16.0 °C],[8:00 PM],[10.0 km],[NNW],"[24.1 km/h
		/ 6.7 m/s]",METAR VHHH 051200Z 34013G24KT 290V030 9999 FEW040 BKN080 16/05 Q1019 WS LDG RWY 13/31 NOSIG
0,[Mostly Cloudy],1996-12-5,[6.0 °C],[],[-],,[52%],[N/A],[1020 hPa],[16.0 °C],[9:00 PM],[10.0 km],[NNW],"[16.7 km/h
		/ 4.6 m/s]",METAR VHHH 051300Z 34009KT 300V030 9999 FEW035 BKN080 16/06 Q1020 WS LDG RWY 13/31 NOSIG
0,[Mostly Cloudy],1996-12-5,[6.0 °C],[],"[40.7 km/h
		/ 11.3 m/s]",,[52%],[N/A],[1020 hPa],[16.0 °C],[10:00 PM],[10.0 km],[NNW],"[22.2 km/h
		/ 6.2 m/s]",METAR VHHH 051400Z 34012G22KT 300V010 9999 FEW035 BKN080 16/06 Q1020 WS LDG RWY 13/31 NOSIG
0,[Mostly Cloudy],1996-12-5,[6.0 °C],[],[-],,[52%],[N/A],[1021 hPa],[16.0 °C],[11:00 PM],[10.0 km],[NNW],"[24.1 km/h
		/ 6.7 m/s]",METAR VHHH 051500Z 34013KT 290V020 9999 FEW030 BKN080 16/06 Q1021 WS LDG RWY 13/31 NOSIG
0,[Mostly Cloudy],1996-12-6,[5.0 °C],[],[-],,[51%],[N/A],[1021 hPa],[15.0 °C],[12:00 AM],[10.0 km],[NNW],"[20.4 km/h
		/ 5.7 m/s]",METAR VHHH 051600Z 34011KT 290V020 9999 FEW030 BKN080 15/05 Q1021 WS LDG RWY 13/31 NOSIG
0,[Mostly Cloudy],1996-12-6,[5.0 °C],[],[-],,[55%],[N/A],[1021 hPa],[14.0 °C],[1:00 AM],[10.0 km],[North],"[16.7 km/h
		/ 4.6 m/s]",METAR VHHH 051700Z 35009KT 300V040 9999 FEW030 BKN080 14/05 Q1021 WS LDG RWY 13/31 NOSIG
0,[Mostly Cloudy],1996-12-6,[5.0 °C],[],[-],,[55%],[N/A],[1021 hPa],[14.0 °C],[2:00 AM],[10.0 km],[NNW],"[13.0 km/h
		/ 3.6 m/s]",METAR VHHH 051800Z 34007KT 300V010 9999 FEW035 BKN080 14/05 Q1021 WS LDG RWY 13/31 NOSIG
0,[Mostly Cloudy],1996-12-6,[4.0 °C],[],[-],,[54%],[N/A],[1021 hPa],[13.0 °C],[3:00 AM],[10.0 km],[NNW],"[16.7 km/h
		/ 4.6 m/s]",METAR VHHH 051900Z 34009KT 290V030 9999 FEW035 BKN080 13/04 Q1021 WS LDG RWY 13/31 NOSIG
0,[Mostly Cloudy],1996-12-6,[4.0 °C],[],[-],,[54%],[N/A],[1021 hPa],[13.0 °C],[4:00 AM],[10.0 km],[NNW],"[14.8 km/h
		/ 4.1 m/s]",METAR VHHH 052000Z 33008KT 290V020 9999 SCT035 BKN080 13/04 Q1021 WS LDG RWY 13/31 NOSIG
0,[Mostly Cloudy],1996-12-6,[3.0 °C],[],[-],,[51%],[N/A],[1022 hPa],[13.0 °C],[5:00 AM],[10.0 km],[NW],"[11.1 km/h
		/ 3.1 m/s]",METAR VHHH 052100Z 32006KT 290V060 9999 FEW040 BKN080 13/03 Q1022 WS LDG RWY 13/31 NOSIG
0,[Mostly Cloudy],1996-12-6,[2.0 °C],[],[-],,[47%],[N/A],[1022 hPa],[13.0 °C],[6:00 AM],[10.0 km],[NNE],"[9.3 km/h
		/ 2.6 m/s]",METAR VHHH 052200Z 03005KT 280V080 9999 SCT040 BKN090 13/02 Q1022 WS LDG RWY 13/31 NOSIG
0,[Mostly Cloudy],1996-12-6,[2.0 °C],[],[-],,[47%],[N/A],[1023 hPa],[13.0 °C],[7:00 AM],[10.0 km],[NNW],"[11.1 km/h
		/ 3.1 m/s]",METAR VHHH 052300Z 34006KT 280V070 9999 BKN040 13/02 Q1023 WS LDG RWY 13/31 NOSIG
0,[Mostly Cloudy],1996-12-6,[1.0 °C],[],[-],,[41%],[N/A],[1024 hPa],[14.0 °C],[8:00 AM],[10.0 km],[East],"[11.1 km/h
		/ 3.1 m/s]",METAR VHHH 060000Z 09006KT 260V160 9999 FEW035 BKN080 14/01 Q1024 WS LDG RWY 13/31 NOSIG
0,[Clear],1996-12-6,[0.0 °C],[],[-],,[36%],[N/A],[1025 hPa],[15.0 °C],[9:00 AM],[-],[North],"[9.3 km/h
		/ 2.6 m/s]",METAR VHHH 060100Z 36005KT 240V290 CAVOK 15/00 Q1025 WS LDG RWY 13/31 NOSIG
0,[Clear],1996-12-6,[0.0 °C],[],[-],,[36%],[N/A],[1024 hPa],[15.0 °C],[10:00 AM],[-],[East],"[3.7 km/h
		/ 1.0 m/s]",METAR VHHH 060200Z 09002KT CAVOK 15/M00 Q1024 WS LDG RWY 13/31 NOSIG
0,[Clear],1996-12-6,[0.0 °C],[],[-],,[34%],[N/A],[1024 hPa],[16.0 °C],[11:00 AM],[-],[ENE],"[16.7 km/h
		/ 4.6 m/s]",METAR VHHH 060300Z 06009KT 320V140 CAVOK 16/00 Q1024 WS LDG RWY 13/31 NOSIG
0,[Clear],1996-12-6,[0.0 °C],[],[-],,[30%],[N/A],[1023 hPa],[18.0 °C],[12:00 PM],[-],[NE],"[11.1 km/h
		/ 3.1 m/s]",METAR VHHH 060400Z 05006KT 320V110 CAVOK 18/00 Q1023 WS LDG RWY 13/31 NOSIG
0,[Clear],1996-12-6,[1.0 °C],[],[-],,[32%],[N/A],[1022 hPa],[18.0 °C],[1:00 PM],[-],[East],"[9.3 km/h
		/ 2.6 m/s]",METAR VHHH 060500Z 08005KT 320V180 CAVOK 18/01 Q1022 WS LDG RWY 13/31 NOSIG
0,[Clear],1996-12-6,[2.0 °C],[],[-],,[30%],[N/A],[1021 hPa],[20.0 °C],[2:00 PM],[-],[East],"[9.3 km/h
		/ 2.6 m/s]",METAR VHHH 060600Z 09005KT 280V190 CAVOK 20/02 Q1021 WS LDG RWY 13/31 NOSIG
0,[Clear],1996-12-6,[2.0 °C],[],[-],,[32%],[N/A],[1020 hPa],[19.0 °C],[3:00 PM],[-],[NE],"[9.3 km/h
		/ 2.6 m/s]",METAR VHHH 060700Z 04005KT 280V090 CAVOK 19/02 Q1020 WS LDG RWY 13/31 NOSIG
0,[Clear],1996-12-6,[2.0 °C],[],[-],,[32%],[N/A],[1021 hPa],[19.0 °C],[4:00 PM],[-],[NNW],"[13.0 km/h
		/ 3.6 m/s]",METAR VHHH 060800Z 34007KT 270V060 CAVOK 19/02 Q1021 WS LDG RWY 13/31 NOSIG
0,[Clear],1996-12-6,[0.0 °C],[],[-],,[30%],[N/A],[1021 hPa],[18.0 °C],[5:00 PM],[-],[North],"[11.1 km/h
		/ 3.1 m/s]",METAR VHHH 060900Z 36006KT 280V090 CAVOK 18/00 Q1021 WS LDG RWY 13/31 NOSIG
0,[Clear],1996-12-6,[-],[],[-],,[N/A%],[N/A],[-],[-],[6:00 PM],[-],[NNE],"[9.3 km/h
		/ 2.6 m/s]",METAR VHHH 061000Z 02005KT 310V090 CAVOK 17/M1Q 1022 WS LDG RWY 13/31 NOSIG
0,[Clear],1996-12-6,[-5.0 °C],[],[-],,[22%],[N/A],[1023 hPa],[17.0 °C],[7:00 PM],[-],[North],"[18.5 km/h
		/ 5.1 m/s]",METAR VHHH 061100Z 36010KT 310V100 CAVOK 17/M05 Q1023 WS LDG RWY 13/31 NOSIG
0,[Clear],1996-12-6,[-5.0 °C],[],[-],,[23%],[N/A],[1023 hPa],[16.0 °C],[8:00 PM],[-],[North],"[11.1 km/h
		/ 3.1 m/s]",METAR VHHH 061200Z 36006KT 230V160 CAVOK 16/M05 Q1023 WS LDG RWY 13/31 NOSIG
0,[Clear],1996-12-6,[-6.0 °C],[],[-],,[22%],[N/A],[1024 hPa],[16.0 °C],[10:00 PM],[-],[North],"[11.1 km/h
		/ 3.1 m/s]",METAR VHHH 061400Z 36006KT 290V130 CAVOK 16/M06 Q1024 WS LDG RWY 13/31 NOSIG
0,[Clear],1996-12-6,[-6.0 °C],[],[-],,[22%],[N/A],[1025 hPa],[16.0 °C],[11:00 PM],[-],[North],"[18.5 km/h
		/ 5.1 m/s]",METAR VHHH 061500Z 35010KT 280V040 CAVOK 16/M06 Q1025 WS LDG RWY 13/31 NOSIG
0,[Clear],1996-12-7,[-6.0 °C],[],[-],,[23%],[N/A],[1025 hPa],[15.0 °C],[12:00 AM],[-],[North],"[13.0 km/h
		/ 3.6 m/s]",METAR VHHH 061600Z 36007KT 230V120 CAVOK 15/M06 Q1025 WS LDG RWY 13/31 NOSIG
0,[Clear],1996-12-7,[-6.0 °C],[],[-],,[23%],[N/A],[1025 hPa],[15.0 °C],[1:00 AM],[-],[North],"[11.1 km/h
		/ 3.1 m/s]",METAR VHHH 061700Z 01006KT 300V080 CAVOK 15/M06 Q1025 NOSIG
0,[Clear],1996-12-7,[-8.0 °C],[],[-],,[20%],[N/A],[1025 hPa],[15.0 °C],[2:00 AM],[-],[Variable],"[1.9 km/h
		/ 0.5 m/s]",METAR VHHH 061800Z VRB01KT CAVOK 15/M08 Q1025 NOSIG
0,[Clear],1996-12-7,[-7.0 °C],[],[-],,[22%],[N/A],[1025 hPa],[15.0 °C],[3:00 AM],[-],[NNE],"[13.0 km/h
		/ 3.6 m/s]",METAR VHHH 061900Z 03007KT 350V080 CAVOK 15/M07 Q1025 NOSIG
0,[Clear],1996-12-7,[-10.0 °C],[],[-],,[17%],[N/A],[1024 hPa],[15.0 °C],[4:00 AM],[-],[NNE],"[13.0 km/h
		/ 3.6 m/s]",METAR VHHH 062000Z 03007KT 300V080 CAVOK 15/M10 Q1024 WS LDG RWY 13/31 NOSIG
0,[Clear],1996-12-7,[-9.0 °C],[],[-],,[20%],[N/A],[1025 hPa],[14.0 °C],[5:00 AM],[-],[NNE],"[13.0 km/h
		/ 3.6 m/s]",METAR VHHH 062100Z 03007KT 340V090 CAVOK 14/M09 Q1025 WS LDG RWY 13/31 NOSIG
0,[Clear],1996-12-7,[-6.0 °C],[],[-],,[25%],[N/A],[1025 hPa],[14.0 °C],[6:00 AM],[-],[ENE],"[9.3 km/h
		/ 2.6 m/s]",METAR VHHH 062200Z 06005KT 330V120 CAVOK 14/M06 Q1025 WS LDG RWY 13/31 NOSIG
0,[Clear],1996-12-7,[-5.0 °C],[],[-],,[27%],[N/A],[1025 hPa],[14.0 °C],[7:00 AM],[-],[North],"[11.1 km/h
		/ 3.1 m/s]",METAR VHHH 062300Z 36006KT 310V090 CAVOK 14/M05 Q1025 WS LDG RWY 13/31 NOSIG
0,[Clear],1996-12-7,[-4.0 °C],[],[-],,[27%],[N/A],[1025 hPa],[15.0 °C],[8:00 AM],[-],[NNE],"[3.7 km/h
		/ 1.0 m/s]",METAR VHHH 070000Z 02002KT CAVOK 15/M04 Q1025 WS LDG RWY 13/31 NOSIG
0,[Clear],1996-12-7,[-6.0 °C],[],[-],,[23%],[N/A],[-],[15.0 °C],[9:00 AM],[-],[North],"[13.0 km/h
		/ 3.6 m/s]",METAR VHHH 070100Z 35007KT 320V030 CAVOK 15/M06 WS LDG RWY 13/31 NOSIG
0,[Clear],1996-12-7,[-5.0 °C],[],[-],,[23%],[N/A],[1026 hPa],[16.0 °C],[10:00 AM],[-],[NNE],"[11.1 km/h
		/ 3.1 m/s]",METAR VHHH 070200Z 02006KT 310V080 CAVOK 16/M05 Q1026 WS LDG RWY 13/31 NOSIG
0,[Clear],1996-12-7,[-6.0 °C],[],[-],,[19%],[N/A],[1025 hPa],[18.0 °C],[11:00 AM],[-],[East],"[13.0 km/h
		/ 3.6 m/s]",METAR VHHH 070300Z 08007KT 300V110 CAVOK 18/M06 Q1025 WS LDG RWY 13/31 NOSIG
0,[Clear],1996-12-7,[-5.0 °C],[],[-],,[19%],[N/A],[1023 hPa],[19.0 °C],[1:00 PM],[-],[NE],"[13.0 km/h
		/ 3.6 m/s]",METAR VHHH 070500Z 05007KT 010V130 CAVOK 19/M05 Q1023 WS LDG RWY 13/31 NOSIG
0,[Clear],1996-12-7,[-2.0 °C],[],[-],,[24%],[N/A],[1023 hPa],[19.0 °C],[2:00 PM],[-],[East],"[13.0 km/h
		/ 3.6 m/s]",METAR VHHH 070600Z 10007KT 050V140 CAVOK 19/M02 Q1023 WS LDG RWY 13/31 NOSIG
0,[Clear],1996-12-7,[-5.0 °C],[],[-],,[19%],[N/A],[1022 hPa],[19.0 °C],[3:00 PM],[-],[ESE],"[13.0 km/h
		/ 3.6 m/s]",METAR VHHH 070700Z 11007KT 080V140 CAVOK 19/M05 Q1022 WS LDG RWY 13/31 NOSIG
0,[Clear],1996-12-7,[-3.0 °C],[],[-],,[23%],[N/A],[1022 hPa],[19.0 °C],[4:00 PM],[-],[East],"[9.3 km/h
		/ 2.6 m/s]",METAR VHHH 070800Z 10005KT 050V190 CAVOK 19/M03 Q1022 WS LDG RWY 13/31 NOSIG
0,[Clear],1996-12-7,[-1.0 °C],[],[-],,[28%],[N/A],[1022 hPa],[18.0 °C],[5:00 PM],[-],[East],"[16.7 km/h
		/ 4.6 m/s]",METAR VHHH 070900Z 10009KT CAVOK 18/M01 Q1022 NOSIG
0,[Clear],1996-12-7,[0.0 °C],[],[-],,[32%],[N/A],[1023 hPa],[17.0 °C],[7:00 PM],[-],[ENE],"[7.4 km/h
		/ 2.1 m/s]",METAR VHHH 071100Z 07004KT 050V120 CAVOK 17/00 Q1023 NOSIG
0,[Clear],1996-12-7,[4.0 °C],[],[-],,[42%],[N/A],[1023 hPa],[17.0 °C],[8:00 PM],[-],[ESE],"[9.3 km/h
		/ 2.6 m/s]",METAR VHHH 071200Z 11005KT 070V130 CAVOK 17/04 Q1023 NOSIG
0,[Clear],1996-12-7,[4.0 °C],[],[-],,[42%],[N/A],[1023 hPa],[17.0 °C],[9:00 PM],[-],[East],"[9.3 km/h
		/ 2.6 m/s]",METAR VHHH 071300Z 09005KT 360V120 CAVOK 17/04 Q1023 NOSIG
0,[Clear],1996-12-7,[5.0 °C],[],[-],,[45%],[N/A],[1023 hPa],[17.0 °C],[10:00 PM],[-],[East],"[7.4 km/h
		/ 2.1 m/s]",METAR VHHH 071400Z 09004KT 040V150 CAVOK 17/05 Q1023 NOSIG
0,[Clear],1996-12-7,[6.0 °C],[],[-],,[45%],[N/A],[1023 hPa],[18.0 °C],[11:00 PM],[-],[ENE],"[13.0 km/h
		/ 3.6 m/s]",METAR VHHH 071500Z 07007KT 030V120 CAVOK 18/06 Q1023 NOSIG
0,[Scattered Clouds],1996-12-8,[6.0 °C],[],[-],,[48%],[N/A],[1023 hPa],[17.0 °C],[12:00 AM],[10.0 km],[East],"[20.4 km/h
		/ 5.7 m/s]",METAR VHHH 071600Z 09011KT 060V120 9999 FEW040 SCT080 17/06 Q1023 NOSIG
0,[Partly Cloudy],1996-12-8,[7.0 °C],[],[-],,[52%],[N/A],[1023 hPa],[17.0 °C],[1:00 AM],[10.0 km],[East],"[24.1 km/h
		/ 6.7 m/s]",METAR VHHH 071700Z 10013KT 030V130 9999 FEW035 17/07 Q1023 NOSIG
0,[Partly Cloudy],1996-12-8,[9.0 °C],[],"[33.3 km/h
		/ 9.3 m/s]",,[59%],[N/A],[1022 hPa],[17.0 °C],[2:00 AM],[10.0 km],[ENE],"[13.0 km/h
		/ 3.6 m/s]",METAR VHHH 071800Z 07007G18KT 360V140 9999 FEW030 17/09 Q1022 NOSIG
0,[Partly Cloudy],1996-12-8,[8.0 °C],[],[-],,[59%],[N/A],[1022 hPa],[16.0 °C],[3:00 AM],[10.0 km],[East],"[18.5 km/h
		/ 5.1 m/s]",METAR VHHH 071900Z 08010KT 010V120 9999 FEW030 16/08 Q1022 NOSIG
0,[Scattered Clouds],1996-12-8,[9.0 °C],[],[-],,[63%],[N/A],[1022 hPa],[16.0 °C],[4:00 AM],[10.0 km],[East],"[13.0 km/h
		/ 3.6 m/s]",METAR VHHH 072000Z 09007KT 060V200 9999 FEW030 SCT080 16/09 Q1022 NOSIG
0,[Mostly Cloudy],1996-12-8,[8.0 °C],[],[-],,[59%],[N/A],[1022 hPa],[16.0 °C],[5:00 AM],[10.0 km],[ENE],"[13.0 km/h
		/ 3.6 m/s]",METAR VHHH 072100Z 06007KT 360V120 9999 FEW030 BKN080 16/08 Q1022 NOSIG
0,[Mostly Cloudy],1996-12-8,[8.0 °C],[],[-],,[59%],[N/A],[1022 hPa],[16.0 °C],[6:00 AM],[10.0 km],[ENE],"[11.1 km/h
		/ 3.1 m/s]",METAR VHHH 072200Z 07006KT 350V120 9999 FEW030 BKN080 16/08 Q1022 NOSIG
0,[Mostly Cloudy],1996-12-8,[7.0 °C],[],[-],,[55%],[N/A],[1023 hPa],[16.0 °C],[7:00 AM],[10.0 km],[NE],"[13.0 km/h
		/ 3.6 m/s]",METAR VHHH 072300Z 05007KT 350V140 9999 FEW035 BKN080 16/07 Q1023 NOSIG
0,[Mostly Cloudy],1996-12-8,[7.0 °C],[],[-],,[52%],[N/A],[1023 hPa],[17.0 °C],[8:00 AM],[10.0 km],[NE],"[11.1 km/h
		/ 3.1 m/s]",METAR VHHH 080000Z 04006KT 360V070 9999 SCT035 BKN080 17/07 Q1023 NOSIG
0,[Mostly Cloudy],1996-12-8,[6.0 °C],[],[-],,[45%],[N/A],[1024 hPa],[18.0 °C],[9:00 AM],[10.0 km],[NE],"[11.1 km/h
		/ 3.1 m/s]",METAR VHHH 080100Z 05006KT 360V130 9999 FEW030 BKN080 18/06 Q1024 NOSIG
0,[Mostly Cloudy],1996-12-8,[5.0 °C],[],[-],,[42%],[N/A],[1024 hPa],[18.0 °C],[10:00 AM],[10.0 km],[ENE],"[3.7 km/h
		/ 1.0 m/s]",METAR VHHH 080200Z 06002KT 9999 FEW030 SCT040 BKN080 18/05 Q1024 N0SIG
0,[Mostly Cloudy],1996-12-8,[4.0 °C],[],[-],,[37%],[N/A],[1024 hPa],[19.0 °C],[11:00 AM],[10.0 km],[ENE],"[14.8 km/h
		/ 4.1 m/s]",METAR VHHH 0300Z 083000Z 06008KT 020V120 9999 FEW030 SCT040 BKN080 19/04 Q1024 NOSIG
0,[Mostly Cloudy],1996-12-8,[0.0 °C],[],[-],,[26%],[N/A],[1023 hPa],[20.0 °C],[12:00 PM],[10.0 km],[NE],"[11.1 km/h
		/ 3.1 m/s]",METAR VHHH 080400Z 04006KT 330V080 9999 FEW035 BKN080 20/M00 Q1023 NOSIG
0,[Mostly Cloudy],1996-12-8,[3.0 °C],[],[-],,[35%],[N/A],[1022 hPa],[19.0 °C],[1:00 PM],[10.0 km],[ENE],"[9.3 km/h
		/ 2.6 m/s]",METAR VHHH 080500Z 07005KT 040V110 9999 FEW030 SCT040 BKN080 19/03 Q1022 NOSIG
0,[Mostly Cloudy],1996-12-8,[1.0 °C],[],[-],,[30%],[N/A],[1021 hPa],[19.0 °C],[2:00 PM],[10.0 km],[NE],"[9.3 km/h
		/ 2.6 m/s]",METAR VHHH 080600Z 04005KT 340V140 9999 FEW030 SCT040 BKN080 19/01 Q1021 NOSIG
0,[Mostly Cloudy],1996-12-8,[2.0 °C],[],[-],,[32%],[N/A],[1020 hPa],[19.0 °C],[3:00 PM],[10.0 km],[East],"[9.3 km/h
		/ 2.6 m/s]",METAR VHHH 080700Z 09005KT 020V170 9999 FEW030 SCT040 BKN080 19/02 Q1020 NOSIG
0,[Mostly Cloudy],1996-12-8,[2.0 °C],[],[-],,[32%],[N/A],[1020 hPa],[19.0 °C],[4:00 PM],[10.0 km],[NE],"[9.3 km/h
		/ 2.6 m/s]",METAR VHHH 080800Z 05005KT 010V110 9999 FEW030 SCT040 BKN080 19/02 Q1020 NOSIG
0,[Mostly Cloudy],1996-12-8,[3.0 °C],[],[-],,[35%],[N/A],[1020 hPa],[19.0 °C],[5:00 PM],[10.0 km],[ENE],"[7.4 km/h
		/ 2.1 m/s]",METAR VHHH 080900Z 06004KT 020V090 9999 FEW030 SCT040 BKN080 19/03 Q1020 NOSIG
0,[Mostly Cloudy],1996-12-8,[3.0 °C],[],[-],,[35%],[N/A],[1020 hPa],[19.0 °C],[6:00 PM],[10.0 km],[ENE],"[9.3 km/h
		/ 2.6 m/s]",METAR VHHH 081000Z 07005KT 040V150 9999 FEW030 SCT040 BKN080 19/03 Q1020 NOSIG
0,[Mostly Cloudy],1996-12-8,[3.0 °C],[],[-],,[37%],[N/A],[1020 hPa],[18.0 °C],[7:00 PM],[10.0 km],[NNE],"[9.3 km/h
		/ 2.6 m/s]",METAR VHHH 081100Z 02005KT 340V060 9999 FEW025 SCT035 BKN080 18/03 Q1020 NOSIG
0,[Mostly Cloudy],1996-12-8,[4.0 °C],[],[-],,[40%],[N/A],[1021 hPa],[18.0 °C],[8:00 PM],[10.0 km],[NNE],"[9.3 km/h
		/ 2.6 m/s]",METAR VHHH 081200Z 03005KT 350V070 9999 FEW025 SCT035 BKN080 18/04 Q1021 NOSIG
0,[Mostly Cloudy],1996-12-8,[5.0 °C],[],[-],,[42%],[N/A],[1021 hPa],[18.0 °C],[9:00 PM],[10.0 km],[NE],"[7.4 km/h
		/ 2.1 m/s]",METAR VHHH 081300Z 04004KT 360V070 9999 FEW025 SCT035 BKN080 18/05 Q1021 NOSIG
0,[Mostly Cloudy],1996-12-8,[4.0 °C],[],[-],,[40%],[N/A],[1021 hPa],[18.0 °C],[10:00 PM],[10.0 km],[NE],"[13.0 km/h
		/ 3.6 m/s]",METAR VHHH 081400Z 05007KT 020V080 9999 FEW025 SCT035 BKN080 18/04 Q1021 NOSIG
0,[Mostly Cloudy],1996-12-8,[6.0 °C],[],[-],,[45%],[N/A],[1021 hPa],[18.0 °C],[11:00 PM],[10.0 km],[NE],"[11.1 km/h
		/ 3.1 m/s]",METAR VHHH 081500Z 05006KT 010V080 9999 FEW025 SCT035 BKN080 18/06 Q1021 NOSIG
0,[Mostly Cloudy],1996-12-9,[6.0 °C],[],[-],,[45%],[N/A],[1021 hPa],[18.0 °C],[1:00 AM],[10.0 km],[ENE],"[13.0 km/h
		/ 3.6 m/s]",METAR VHHH 081700Z 06007KT 350V100 9999 FEW025 SCT035 BKN080 18/06 Q1021 NOSIG
0,[Mostly Cloudy],1996-12-9,[6.0 °C],[],[-],,[48%],[N/A],[1021 hPa],[17.0 °C],[2:00 AM],[10.0 km],[NNE],"[13.0 km/h
		/ 3.6 m/s]",METAR VHHH 081800Z 02007KT 340V060 9999 FEW025 SCT035 BKN080 17/06 Q1021 NOSIG
0,[Mostly Cloudy],1996-12-9,[8.0 °C],[],[-],,[55%],[N/A],[1021 hPa],[17.0 °C],[3:00 AM],[10.0 km],[NE],"[9.3 km/h
		/ 2.6 m/s]",METAR VHHH 081900Z 05005KT 300V140 9999 FEW025 SCT035 BKN080 17/08 Q1021 NOSIG
0,[Mostly Cloudy],1996-12-9,[8.0 °C],[],[-],,[59%],[N/A],[1020 hPa],[16.0 °C],[4:00 AM],[10.0 km],[NNE],"[13.0 km/h
		/ 3.6 m/s]",METAR VHHH 082000Z 02007KT 310V080 9999 FEW030 SCT035 BKN080 16/08 Q1020 NOSIG
0,[Mostly Cloudy],1996-12-9,[7.0 °C],[],[-],,[55%],[N/A],[1021 hPa],[16.0 °C],[5:00 AM],[10.0 km],[NNW],"[3.7 km/h
		/ 1.0 m/s]",METAR VHHH 082100Z 34002KT 9999 FEW030 SCT035 BKN080 16/07 Q1021 NOSIG
0,[Mostly Cloudy],1996-12-9,[7.0 °C],[],[-],,[55%],[N/A],[1021 hPa],[16.0 °C],[6:00 AM],[10.0 km],[East],"[3.7 km/h
		/ 1.0 m/s]",METAR VHHH 082200Z 08002KT 9999 FEW030 SCT035 BKN080 16/07 Q1021 NOSIG
0,[Mostly Cloudy],1996-12-9,[8.0 °C],[],[-],,[59%],[N/A],[1021 hPa],[16.0 °C],[7:00 AM],[10.0 km],[NE],"[13.0 km/h
		/ 3.6 m/s]",METAR VHHH 082300Z 04007KT 010V070 9999 FEW028 SCT035 BKN080 16/08 Q1021 NOSIG
0,[Mostly Cloudy],1996-12-9,[8.0 °C],[],[-],,[55%],[N/A],[1022 hPa],[17.0 °C],[8:00 AM],[10.0 km],[ENE],"[5.6 km/h
		/ 1.5 m/s]",METAR VHHH 090000Z 06003KT 9999 SCT030 BKN080 17/08 Q1022 NOSIG
0,[Mostly Cloudy],1996-12-9,[9.0 °C],[],[-],,[59%],[N/A],[1022 hPa],[17.0 °C],[9:00 AM],[10.0 km],[NNW],"[7.4 km/h
		/ 2.1 m/s]",METAR VHHH 090100Z 33004KT 300V010 9999 SCT030 BKN080 17/09 Q1022 NOSIG
0,[Mostly Cloudy],1996-12-9,[11.0 °C],[],[-],,[68%],[N/A],[1023 hPa],[17.0 °C],[10:00 AM],[10.0 km],[NNW],"[3.7 km/h
		/ 1.0 m/s]",METAR VHHH 090200Z 33002KT 9999 SCT030 BKN080 17/11 Q1023 NOSIG
0,[Mostly Cloudy],1996-12-9,[11.0 °C],[],[-],,[68%],[N/A],[1022 hPa],[17.0 °C],[11:00 AM],[10.0 km],[NE],"[3.7 km/h
		/ 1.0 m/s]",METAR VHHH 090300Z 04002KT 9999 SCT030 BKN080 17/11 Q1022 NOSIG
0,[Mostly Cloudy],1996-12-9,[11.0 °C],[],[-],,[68%],[N/A],[1022 hPa],[17.0 °C],[12:00 PM],[10.0 km],[NNW],"[7.4 km/h
		/ 2.1 m/s]",METAR VHHH 090400Z 34004KT 9999 FEW022 SCT035 BKN080 17/11 Q1022 NOSIG
0,[Mostly Cloudy],1996-12-9,[11.0 °C],[],[-],,[68%],[N/A],[1021 hPa],[17.0 °C],[1:00 PM],[10.0 km],[NW],"[11.1 km/h
		/ 3.1 m/s]",METAR VHHH 090500Z 32006KT 9999 FEW022 SCT035 BKN080 17/11 Q1021 NOSIG
0,[Mostly Cloudy],1996-12-9,[-],[],[-],,[N/A%],[N/A],[1020 hPa],[-],[2:00 PM],[10.0 km],[NW],"[16.7 km/h
		/ 4.6 m/s]",METAR VHHH 090600Z 32009KT 280V350 9999 FEW025 SCT035 BKN080 17/21 Q1020 NOSIG
0,[Mostly Cloudy],1996-12-9,[12.0 °C],[],[-],,[72%],[N/A],[1019 hPa],[17.0 °C],[3:00 PM],[10.0 km],[NNE],"[5.6 km/h
		/ 1.5 m/s]",METAR VHHH 090700Z 03003KT 9999 FEW016 SCT030 BKN080 17/12 Q1019 NOSIG
0,[Mostly Cloudy],1996-12-9,[12.0 °C],[],[-],,[77%],[N/A],[1019 hPa],[16.0 °C],[4:00 PM],[10.0 km],[NNW],"[7.4 km/h
		/ 2.1 m/s]",METAR VHHH 090800Z 33004KT 270V360 9999 FEW016 SCT030 BKN080 16/12 Q1019 NOSIG
0,[Mostly Cloudy],1996-12-9,[12.0 °C],[],[-],,[72%],[N/A],[1019 hPa],[17.0 °C],[5:00 PM],[10.0 km],[West],"[7.4 km/h
		/ 2.1 m/s]",METAR VHHH 090900Z 27004KT 240V340 9999 FEW025 SCT035 BKN080 17/12 Q1019 NOSIG
0,[Mostly Cloudy],1996-12-9,[12.0 °C],[],[-],,[72%],[N/A],[1019 hPa],[17.0 °C],[6:00 PM],[10.0 km],[NW],"[13.0 km/h
		/ 3.6 m/s]",METAR VHHH 091000Z 31007KT 280V340 9999 FEW018 SCT030 BKN080 17/12 Q1019 NOSIG
0,[Mostly Cloudy],1996-12-9,[12.0 °C],[],[-],,[77%],[N/A],[1020 hPa],[16.0 °C],[7:00 PM],[10.0 km],[NNW],"[13.0 km/h
		/ 3.6 m/s]",METAR VHHH 091100Z 33007KT 9999 FEW020 SCT030 BKN080 16/12 Q1020 NOSIG
0,[Mostly Cloudy],1996-12-9,[12.0 °C],[],[-],,[72%],[N/A],[1020 hPa],[17.0 °C],[8:00 PM],[10.0 km],[WNW],"[5.6 km/h
		/ 1.5 m/s]",METAR VHHH 091200Z 30003KT 9999 FEW020 SCT030 BKN080 17/12 Q1020 NOSIG
0,[Mostly Cloudy],1996-12-9,[10.0 °C],[],[-],,[63%],[N/A],[1020 hPa],[17.0 °C],[9:00 PM],[10.0 km],[NW],"[3.7 km/h
		/ 1.0 m/s]",METAR VHHH 091300Z 31002KT 9999 FEW020 SCT030 BKN080 17/10 Q1020 NOSIG
0,[Mostly Cloudy],1996-12-9,[10.0 °C],[],[-],,[63%],[N/A],[1021 hPa],[17.0 °C],[10:00 PM],[10.0 km],[NNW],"[9.3 km/h
		/ 2.6 m/s]",METAR VHHH 091400Z 33005KT 290V350 9999 FEW022 SCT040 BKN080 17/10 Q1021 NOSIG
0,[Mostly Cloudy],1996-12-9,[10.0 °C],[],[-],,[63%],[N/A],[1021 hPa],[17.0 °C],[11:00 PM],[10.0 km],[NW],"[11.1 km/h
		/ 3.1 m/s]",METAR VHHH 091500Z 31006KT 240V330 9999 FEW022 SCT035 BKN080 17/10 Q1021 NOSIG
0,[Mostly Cloudy],1996-12-10,[9.0 °C],[],[-],,[63%],[N/A],[1021 hPa],[16.0 °C],[12:00 AM],[10.0 km],[North],"[5.6 km/h
		/ 1.5 m/s]",METAR VHHH 091600Z 35003KT 9999 FEW022 SCT035 BKN080 16/09 Q1021 NOSIG
0,[Mostly Cloudy],1996-12-10,[8.0 °C],[],[-],,[59%],[N/A],[1021 hPa],[16.0 °C],[1:00 AM],[10.0 km],[NNW],"[7.4 km/h
		/ 2.1 m/s]",METAR VHHH 091700Z 34004KT 290V360 9999 FEW022 SCT035 BKN080 16/08 Q1021 NOSIG
0,[Mostly Cloudy],1996-12-10,[8.0 °C],[],[-],,[59%],[N/A],[1021 hPa],[16.0 °C],[2:00 AM],[10.0 km],[NNW],"[7.4 km/h
		/ 2.1 m/s]",METAR VHHH 091800Z 34004KT 280V140 9999 FEW022 SCT030 BKN080 16/08 Q1021 NOSIG
0,[Mostly Cloudy],1996-12-10,[7.0 °C],[],"[31.5 km/h
		/ 8.7 m/s]",,[55%],[N/A],[1021 hPa],[16.0 °C],[3:00 AM],[10.0 km],[NNW],"[13.0 km/h
		/ 3.6 m/s]",METAR VHHH 091900Z 34007G17KT 300V030 9999 FEW022 SCT030 BKN080 16/07 Q1021 NOSIG
0,[Mostly Cloudy],1996-12-10,[7.0 °C],[],[-],,[55%],[N/A],[1021 hPa],[16.0 °C],[4:00 AM],[10.0 km],[NW],"[5.6 km/h
		/ 1.5 m/s]",METAR VHHH 092000Z 31003KT 9999 SCT035 BKN080 16/07 Q1021 NOSIG
0,[Mostly Cloudy],1996-12-10,[5.0 °C],[],[-],,[48%],[N/A],[1021 hPa],[16.0 °C],[5:00 AM],[10.0 km],[NNW],"[16.7 km/h
		/ 4.6 m/s]",METAR VHHH 092100Z 33009KT 300V360 9999 SCT035 BKN080 16/05 Q1021 NOSIG
0,[Mostly Cloudy],1996-12-10,[5.0 °C],[],[-],,[51%],[N/A],[1021 hPa],[15.0 °C],[6:00 AM],[10.0 km],[NNW],"[16.7 km/h
		/ 4.6 m/s]",METAR VHHH 092200Z 33009KT 290V010 9999 FEW035 BKN080 15/05 Q1021 NOSIG
0,[Mostly Cloudy],1996-12-10,[5.0 °C],[],[-],,[51%],[N/A],[1022 hPa],[15.0 °C],[7:00 AM],[10.0 km],[NNW],"[22.2 km/h
		/ 6.2 m/s]",METAR VHHH 092300Z 34012KT 300V010 9999 FEW040 BKN060 15/05 Q1022 NOSIG
0,[Mostly Cloudy],1996-12-10,[6.0 °C],[],[-],,[55%],[N/A],[1022 hPa],[15.0 °C],[8:00 AM],[10.0 km],[NW],"[22.2 km/h
		/ 6.2 m/s]",METAR VHHH 100000Z 31012KT 280V350 9999 SCT030 BKN080 15/06 Q1022 NOSIG
0,[Mostly Cloudy],1996-12-10,[6.0 °C],[],[-],,[52%],[N/A],[1023 hPa],[16.0 °C],[9:00 AM],[10.0 km],[NW],"[20.4 km/h
		/ 5.7 m/s]",METAR VHHH 100100Z 32011KT 290V350 9999 SCT040 BKN080 16/06 Q1023 NOSIG
0,[Mostly Cloudy],1996-12-10,[6.0 °C],[],[-],,[52%],[N/A],[1022 hPa],[16.0 °C],[10:00 AM],[10.0 km],[NW],"[11.1 km/h
		/ 3.1 m/s]",METAR VHHH 100200Z 32006KT 280V360 9999 SCT040 BKN080 16/06 Q1022 NOSIG
0,[Mostly Cloudy],1996-12-10,[7.0 °C],[],[-],,[49%],[N/A],[1022 hPa],[18.0 °C],[11:00 AM],[10.0 km],[NW],"[9.3 km/h
		/ 2.6 m/s]",METAR VHHH 100300Z 31005KT 270V360 9999 FEW040 BKN100 18/07 Q1022 NOSIG
0,[Mostly Cloudy],1996-12-10,[7.0 °C],[],[-],,[43%],[N/A],[1021 hPa],[20.0 °C],[12:00 PM],[10.0 km],[SW],"[13.0 km/h
		/ 3.6 m/s]",METAR VHHH 100400Z 23007KT 200V270 9999 FEW040 BKN090 20/07 Q1021 NOSIG
0,[Clear],1996-12-10,[8.0 °C],[],[-],,[43%],[N/A],[1020 hPa],[21.0 °C],[1:00 PM],[-],[SW],"[20.4 km/h
		/ 5.7 m/s]",METAR VHHH 100500Z 23011KT 200V290 CAVOK 21/08 Q1020 NOSIG
0,[Clear],1996-12-10,[5.0 °C],[],[-],,[35%],[N/A],[1018 hPa],[21.0 °C],[2:00 PM],[-],[WSW],"[20.4 km/h
		/ 5.7 m/s]",METAR VHHH 100600Z 24011KT 210V290 CAVOK 21/05 Q1018 NOSIG
0,[Clear],1996-12-10,[7.0 °C],[],[-],,[40%],[N/A],[1018 hPa],[21.0 °C],[3:00 PM],[-],[SW],"[22.2 km/h
		/ 6.2 m/s]",METAR VHHH 100700Z 23012KT 210V280 CAVOK 21/07 Q1018 NOSIG
0,[Clear],1996-12-10,[7.0 °C],[],"[46.3 km/h
		/ 12.9 m/s]",,[43%],[N/A],[1018 hPa],[20.0 °C],[4:00 PM],[-],[WSW],"[20.4 km/h
		/ 5.7 m/s]",METAR VHHH 100800Z 24011G25KT 170V320 CAVOK 20/07 Q1018 NOSIG
0,[Clear],1996-12-10,[6.0 °C],[],[-],,[40%],[N/A],[1019 hPa],[20.0 °C],[5:00 PM],[-],[North],"[13.0 km/h
		/ 3.6 m/s]",METAR VHHH 100900Z 35007KT 300V020 CAVOK 20/06 Q1019 NOSIG
0,[Clear],1996-12-10,[5.0 °C],[],[-],,[40%],[N/A],[1019 hPa],[19.0 °C],[6:00 PM],[-],[North],"[13.0 km/h
		/ 3.6 m/s]",METAR VHHH 101000Z 35007KT 330V030 CAVOK 19/05 Q1019 NOSIG
0,[Clear],1996-12-10,[5.0 °C],[],[-],,[42%],[N/A],[1020 hPa],[18.0 °C],[7:00 PM],[-],[NNE],"[9.3 km/h
		/ 2.6 m/s]",METAR VHHH 101100Z 02005KT 330V050 CAVOK 18/05 Q1020 NOSIG
0,[Mostly Cloudy],1996-12-10,[4.0 °C],[],[-],,[40%],[N/A],[1021 hPa],[18.0 °C],[8:00 PM],[10.0 km],[NW],"[7.4 km/h
		/ 2.1 m/s]",METAR VHHH 101200Z 31004KT 270V020 9999 FEW040 BKN100 18/04 Q1021 NOSIG
0,[Scattered Clouds],1996-12-10,[4.0 °C],[],[-],,[40%],[N/A],[1021 hPa],[18.0 °C],[9:00 PM],[10.0 km],[NW],"[5.6 km/h
		/ 1.5 m/s]",METAR VHHH 101300Z 32003KT 9999 FEW040 SCT090 18/04 Q1021 NOSIG
0,[Partly Cloudy],1996-12-10,[3.0 °C],[],[-],,[37%],[N/A],[1021 hPa],[18.0 °C],[10:00 PM],[10.0 km],[NNW],"[3.7 km/h
		/ 1.0 m/s]",METAR VHHH 101400Z 34002KT 9999 FEW040 18/03 Q1021 NOSIG
0,[Partly Cloudy],1996-12-10,[3.0 °C],[],[-],,[37%],[N/A],[1021 hPa],[18.0 °C],[11:00 PM],[10.0 km],[NNW],"[3.7 km/h
		/ 1.0 m/s]",METAR VHHH 101500Z 34002KT 9999 FEW040 18/03 Q1021 NOSIG
0,[Partly Cloudy],1996-12-11,[4.0 °C],[],[-],,[40%],[N/A],[1021 hPa],[18.0 °C],[12:00 AM],[10.0 km],[North],"[7.4 km/h
		/ 2.1 m/s]",METAR VHHH 101600Z 35004KT 300V070 9999 FEW040 18/04 Q1021 NOSIG
0,[Scattered Clouds],1996-12-11,[5.0 °C],[],[-],,[42%],[N/A],[1021 hPa],[18.0 °C],[1:00 AM],[10.0 km],[NE],"[9.3 km/h
		/ 2.6 m/s]",METAR VHHH 101700Z 04005KT 350V070 9999 FEW040 SCT100 18/05 Q1021 NOSIG
0,[Clear],1996-12-11,[3.0 °C],[],[-],,[39%],[N/A],[1021 hPa],[17.0 °C],[2:00 AM],[-],[NNE],"[7.4 km/h
		/ 2.1 m/s]",METAR VHHH 101800Z 02004KT 250V090 CAVOK 17/03 Q1021 NOSIG
0,[Clear],1996-12-11,[3.0 °C],[],[-],,[39%],[N/A],[1020 hPa],[17.0 °C],[3:00 AM],[-],[ENE],"[13.0 km/h
		/ 3.6 m/s]",METAR VHHH 101900Z 07007KT 030V170 CAVOK 17/03 Q1020 NOSIG
0,[Clear],1996-12-11,[5.0 °C],[],[-],,[45%],[N/A],[1020 hPa],[17.0 °C],[4:00 AM],[-],[NNE],"[3.7 km/h
		/ 1.0 m/s]",METAR VHHH 102000Z 03002KT CAVOK 17/05 Q1020 NOSIG
0,[Clear],1996-12-11,[5.0 °C],[],[-],,[45%],[N/A],[1021 hPa],[17.0 °C],[5:00 AM],[-],[Variable],"[1.9 km/h
		/ 0.5 m/s]",METAR VHHH 102100Z VRB01KT CAVOK 17/05 Q1021 NOSIG
0,[Clear],1996-12-11,[5.0 °C],[],[-],,[45%],[N/A],[1021 hPa],[17.0 °C],[6:00 AM],[-],[NNE],"[3.7 km/h
		/ 1.0 m/s]",METAR VHHH 102200Z 03002KT CAVOK 17/05 Q1021 NOSIG
0,[Clear],1996-12-11,[4.0 °C],[],[-],,[42%],[N/A],[1022 hPa],[17.0 °C],[7:00 AM],[-],[WNW],"[3.7 km/h
		/ 1.0 m/s]",METAR VHHH 102300Z 29002KT CAVOK 17/04 Q1022 NOSIG
0,[Clear],1996-12-11,[3.0 °C],[],[-],,[39%],[N/A],[1023 hPa],[17.0 °C],[8:00 AM],[-],[ENE],"[7.4 km/h
		/ 2.1 m/s]",METAR VHHH 110000Z 07004KT 050V110 CAVOK 17/03 Q1023 NOSIG
0,[Scattered Clouds],1996-12-11,[4.0 °C],[],[-],,[37%],[N/A],[1023 hPa],[19.0 °C],[9:00 AM],[10.0 km],[ENE],"[13.0 km/h
		/ 3.6 m/s]",METAR VHHH 110100Z 07007KT 010V120 9999 FEW035 SCT080 19/04 Q1023 NOSIG
0,[Scattered Clouds],1996-12-11,[3.0 °C],[],[-],,[33%],[N/A],[1023 hPa],[20.0 °C],[10:00 AM],[10.0 km],[NE],"[9.3 km/h
		/ 2.6 m/s]",METAR VHHH 110200Z 05005KT 330V110 9999 FEW040 SCT090 20/03 Q1023 NOSIG
0,[Clear],1996-12-11,[5.0 °C],[],[-],,[33%],[N/A],[1022 hPa],[22.0 °C],[11:00 AM],[-],[ESE],"[16.7 km/h
		/ 4.6 m/s]",METAR VHHH 110300Z 12009KT 070V140 CAVOK 22/05 Q1022 NOSIG
0,[Mostly Cloudy],1996-12-11,[4.0 °C],[],[-],,[33%],[N/A],[1021 hPa],[21.0 °C],[12:00 PM],[10.0 km],[ESE],"[13.0 km/h
		/ 3.6 m/s]",METAR VHHH 110400Z 11007KT 090V130 9999 FEW045 BKN090 21/04 Q1021 NOSIG
0,[Partly Cloudy],1996-12-11,[4.0 °C],[],[-],,[31%],[N/A],[1020 hPa],[22.0 °C],[1:00 PM],[10.0 km],[SSE],"[20.4 km/h
		/ 5.7 m/s]",METAR VHHH 110500Z 15011KT 9999 FEW045 22/04 Q1020 NOSIG
0,[Partly Cloudy],1996-12-11,[5.0 °C],[],[-],,[33%],[N/A],[1019 hPa],[22.0 °C],[2:00 PM],[9.0 km],[SE],"[22.2 km/h
		/ 6.2 m/s]",METAR VHHH 110600Z 14012KT 9000 FEW100 22/05 Q1019 NOSIG
0,[Clear],1996-12-11,[6.0 °C],[],[-],,[38%],[N/A],[1018 hPa],[21.0 °C],[3:00 PM],[-],[SE],"[22.2 km/h
		/ 6.2 m/s]",METAR VHHH 110700Z 14012KT CAVOK 21/06 Q1018 NOSIG
0,[Clear],1996-12-11,[6.0 °C],[],[-],,[40%],[N/A],[1018 hPa],[20.0 °C],[4:00 PM],[-],[SE],"[20.4 km/h
		/ 5.7 m/s]",METAR VHHH 110800Z 14011KT 110V170 CAVOK 20/06 Q1018 NOSIG
0,[Clear],1996-12-11,[8.0 °C],[],[-],,[46%],[N/A],[1019 hPa],[20.0 °C],[5:00 PM],[-],[SE],"[18.5 km/h
		/ 5.1 m/s]",METAR VHHH 110900Z 14010KT 120V190 CAVOK 20/08 Q1019 NOSIG
0,[Clear],1996-12-11,[7.0 °C],[],[-],,[46%],[N/A],[1019 hPa],[19.0 °C],[6:00 PM],[-],[ESE],"[14.8 km/h
		/ 4.1 m/s]",METAR VHHH 111000Z 11008KT CAVOK 19/07 Q1019 NOSIG
0,[Clear],1996-12-11,[8.0 °C],[],[-],,[49%],[N/A],[1019 hPa],[19.0 °C],[7:00 PM],[-],[ESE],"[14.8 km/h
		/ 4.1 m/s]",METAR VHHH 111100Z 12008KT CAVOK 19/08 Q1019 NOSIG
0,[Clear],1996-12-11,[8.0 °C],[],[-],,[49%],[N/A],[1020 hPa],[19.0 °C],[8:00 PM],[-],[East],"[11.1 km/h
		/ 3.1 m/s]",METAR VHHH 111200Z 09006KT 060V120 CAVOK 19/08 Q1020 NOSIG
0,[Clear],1996-12-11,[8.0 °C],[],[-],,[49%],[N/A],[1020 hPa],[19.0 °C],[9:00 PM],[-],[ESE],"[7.4 km/h
		/ 2.1 m/s]",METAR VHHH 111300Z 12004KT CAVOK 19/08 Q1020 NOSIG
0,[Clear],1996-12-11,[9.0 °C],[],[-],,[52%],[N/A],[1020 hPa],[19.0 °C],[10:00 PM],[-],[East],"[7.4 km/h
		/ 2.1 m/s]",METAR VHHH 111400Z 09004KT CAVOK 19/09 Q1020 NOSIG
0,[Clear],1996-12-11,[11.0 °C],[],[-],,[60%],[N/A],[1021 hPa],[19.0 °C],[11:00 PM],[-],[East],"[9.3 km/h
		/ 2.6 m/s]",METAR VHHH 111500Z 09005KT CAVOK 19/11 Q1021 NOSIG
0,[Clear],1996-12-12,[12.0 °C],[],[-],,[68%],[N/A],[1021 hPa],[18.0 °C],[12:00 AM],[-],[East],"[13.0 km/h
		/ 3.6 m/s]",METAR VHHH 111600Z 09007KT CAVOK 18/12 Q1021 NOSIG
0,[Partly Cloudy],1996-12-12,[13.0 °C],[],[-],,[73%],[N/A],[1021 hPa],[18.0 °C],[1:00 AM],[10.0 km],[East],"[9.3 km/h
		/ 2.6 m/s]",METAR VHHH 111700Z 09005KT 030V130 9999 FEW035 18/13 Q1021 NOSIG
0,[Partly Cloudy],1996-12-12,[13.0 °C],[],[-],,[73%],[N/A],[1021 hPa],[18.0 °C],[2:00 AM],[10.0 km],[East],"[9.3 km/h
		/ 2.6 m/s]",METAR VHHH 111800Z 10005KT 060V130 9999 FEW025 18/13 Q1021 NOSIG
0,[Scattered Clouds],1996-12-12,[14.0 °C],[],[-],,[77%],[N/A],[1021 hPa],[18.0 °C],[3:00 AM],[10.0 km],[NE],"[9.3 km/h
		/ 2.6 m/s]",METAR VHHH 111900Z 05005KT 360V090 9999 FEW025 SCT080 18/14 Q1021 NOSIG
0,[Mostly Cloudy],1996-12-12,[14.0 °C],[],[-],,[77%],[N/A],[1021 hPa],[18.0 °C],[4:00 AM],[10.0 km],[ENE],"[7.4 km/h
		/ 2.1 m/s]",METAR VHHH 112000Z 06004KT 350V110 9999 FEW025 BKN080 18/14 Q1021 NOSIG
0,[Mostly Cloudy],1996-12-12,[13.0 °C],[],[-],,[73%],[N/A],[1021 hPa],[18.0 °C],[5:00 AM],[10.0 km],[ENE],"[9.3 km/h
		/ 2.6 m/s]",METAR VHHH 112100Z 07005KT 010V150 9999 FEW025 BKN080 18/13 Q1021 NOSIG
0,[Mostly Cloudy],1996-12-12,[14.0 °C],[],[-],,[77%],[N/A],[1021 hPa],[18.0 °C],[6:00 AM],[10.0 km],[ESE],"[5.6 km/h
		/ 1.5 m/s]",METAR VHHH 112200Z 12003KT 360V150 9999 FEW025 BKN080 18/14 Q1021 NOSIG
0,[Mostly Cloudy],1996-12-12,[14.0 °C],[],[-],,[77%],[N/A],[1021 hPa],[18.0 °C],[7:00 AM],[10.0 km],[NE],"[9.3 km/h
		/ 2.6 m/s]",METAR VHHH 112300Z 04005KT 360V110 9999 FEW030 BKN080 18/14 Q1021 NOSIG
0,[Mostly Cloudy],1996-12-12,[13.0 °C],[],[-],,[73%],[N/A],[1022 hPa],[18.0 °C],[8:00 AM],[8.0 km],[East],"[11.1 km/h
		/ 3.1 m/s]",METAR VHHH 120000Z 10006KT 070V130 8000 FEW030 BKN080 18/13 Q1022 NOSIG
0,[Mostly Cloudy],1996-12-12,[13.0 °C],[],[-],,[68%],[N/A],[1022 hPa],[19.0 °C],[9:00 AM],[9.0 km],[NNE],"[3.7 km/h
		/ 1.0 m/s]",METAR VHHH 120100Z 03002KT 9000 FEW030 BKN080 19/13 Q1022 NOSIG
0,[Mostly Cloudy],1996-12-12,[11.0 °C],[],[-],,[56%],[N/A],[1022 hPa],[20.0 °C],[10:00 AM],[9.0 km],[East],"[13.0 km/h
		/ 3.6 m/s]",METAR VHHH 120200Z 10007KT 070V140 9000 FEW030 BKN080 20/11 Q1022 NOSIG
0,[Mostly Cloudy],1996-12-12,[11.0 °C],[],[-],,[53%],[N/A],[1022 hPa],[21.0 °C],[11:00 AM],[9.0 km],[East],"[13.0 km/h
		/ 3.6 m/s]",METAR VHHH 120300Z 10007KT 080V140 9000 FEW030 BKN080 21/11 Q1022 NOSIG
0,[Mostly Cloudy],1996-12-12,[11.0 °C],[],[-],,[50%],[N/A],[1020 hPa],[22.0 °C],[1:00 PM],[7.0 km],[SSE],"[18.5 km/h
		/ 5.1 m/s]",METAR VHHH 120500Z 15010KT 110V210 7000 FEW030 BKN080 22/11 Q1020 NOSIG
0,[Mostly Cloudy],1996-12-12,[12.0 °C],[],[-],,[53%],[N/A],[1019 hPa],[22.0 °C],[2:00 PM],[8.0 km],[SE],"[22.2 km/h
		/ 6.2 m/s]",METAR VHHH 120600Z 14012KT 8000 FEW030 BKN100 22/12 Q1019 NOSIG
0,[Partly Cloudy],1996-12-12,[11.0 °C],[],[-],,[50%],[N/A],[1018 hPa],[22.0 °C],[3:00 PM],[9.0 km],[SSE],"[24.1 km/h
		/ 6.7 m/s]",METAR VHHH 120700Z 15013KT 9000 FEW030 22/11 Q1018 NOSIG
0,[Partly Cloudy],1996-12-12,[11.0 °C],[],[-],,[53%],[N/A],[1018 hPa],[21.0 °C],[4:00 PM],[9.0 km],[SSE],"[20.4 km/h
		/ 5.7 m/s]",METAR VHHH 120800Z 15011KT 9000 FEW030 21/11 Q1018 NOSIG
0,[Clear],1996-12-12,[11.0 °C],[],[-],,[56%],[N/A],[1018 hPa],[20.0 °C],[5:00 PM],[9.0 km],[SE],"[13.0 km/h
		/ 3.6 m/s]",METAR VHHH 120900Z 14007KT 120V200 9000 SKC 20/11 Q1018 NOSIG
0,[Clear],1996-12-12,[11.0 °C],[],[-],,[60%],[N/A],[1018 hPa],[19.0 °C],[6:00 PM],[9.0 km],[SSE],"[11.1 km/h
		/ 3.1 m/s]",METAR VHHH 121000Z 15006KT 9000 SKC 19/11 Q1018 NOSIG
0,[Clear],1996-12-12,[12.0 °C],[],[-],,[64%],[N/A],[1019 hPa],[19.0 °C],[7:00 PM],[9.0 km],[SE],"[11.1 km/h
		/ 3.1 m/s]",METAR VHHH 121100Z 14006KT 9000 SKC 19/12 Q1019 NOSIG
0,[Clear],1996-12-12,[12.0 °C],[],[-],,[64%],[N/A],[1019 hPa],[19.0 °C],[8:00 PM],[8.0 km],[SSE],"[11.1 km/h
		/ 3.1 m/s]",METAR VHHH 121200Z 15006KT 130V180 8000 SKC 19/12 Q1019 NOSIG
0,[Clear],1996-12-12,[12.0 °C],[],[-],,[64%],[N/A],[1020 hPa],[19.0 °C],[9:00 PM],[8.0 km],[SSE],"[3.7 km/h
		/ 1.0 m/s]",METAR VHHH 121300Z 15002KT 8000 SKC 19/12 Q1020 NOSIG
0,[Clear],1996-12-12,[13.0 °C],[],[-],,[68%],[N/A],[1020 hPa],[19.0 °C],[10:00 PM],[8.0 km],[SE],"[9.3 km/h
		/ 2.6 m/s]",METAR VHHH 121400Z 14005KT 8000 SKC 19/13 Q1020 NOSIG
0,[Clear],1996-12-12,[13.0 °C],[],[-],,[73%],[N/A],[1020 hPa],[18.0 °C],[11:00 PM],[8.0 km],[SE],"[3.7 km/h
		/ 1.0 m/s]",METAR VHHH 121500Z 14002KT 8000 SKC 18/13 Q1020 NOSIG
0,[Clear],1996-12-13,[13.0 °C],[],[-],,[73%],[N/A],[1020 hPa],[18.0 °C],[12:00 AM],[8.0 km],[SSE],"[1.9 km/h
		/ 0.5 m/s]",METAR VHHH 121600Z 15001KT 8000 SKC 18/13 Q1020 NOSIG
0,[Clear],1996-12-13,[13.0 °C],[],[-],,[73%],[N/A],[1020 hPa],[18.0 °C],[1:00 AM],[8.0 km],[SE],"[1.9 km/h
		/ 0.5 m/s]",METAR VHHH 121700Z 14001KT 8000 SKC 18/13 Q1020 NOSIG
0,[Clear],1996-12-13,[8.0 °C],[],[-],,[52%],[N/A],[1020 hPa],[18.0 °C],[2:00 AM],[8.0 km],[SSE],"[1.9 km/h
		/ 0.5 m/s]",METAR VHHH 121800Z 15001KT 8000 SKC 18/08 Q1020 NOSIG
0,[Clear],1996-12-13,[12.0 °C],[],[-],,[82%],[N/A],[1019 hPa],[15.0 °C],[3:00 AM],[8.0 km],[SE],"[1.9 km/h
		/ 0.5 m/s]",METAR VHHH 121900Z 14001KT 8000 SKC 15/12 Q1019 NOSIG
0,[Clear],1996-12-13,[10.0 °C],[],[-],,[72%],[N/A],[1019 hPa],[15.0 °C],[4:00 AM],[-],[SSE],"[3.7 km/h
		/ 1.0 m/s]",METAR VHHH 122000Z 16002KT CAVOK 15/10 Q1019 NOSIG
0,[Clear],1996-12-13,[7.0 °C],[],[-],,[52%],[N/A],[1019 hPa],[17.0 °C],[5:00 AM],[-],[ESE],"[5.6 km/h
		/ 1.5 m/s]",METAR VHHH 122100Z 11003KT CAVOK 17/07 Q1019 NOSIG
0,[Clear],1996-12-13,[3.0 °C],[],[-],,[39%],[N/A],[1020 hPa],[17.0 °C],[6:00 AM],[-],[SSE],"[3.7 km/h
		/ 1.0 m/s]",METAR VHHH 122200Z 16002KT CAVOK 17/03 Q1020 NOSIG
0,[Clear],1996-12-13,[3.0 °C],[],[-],,[39%],[N/A],[1020 hPa],[17.0 °C],[7:00 AM],[-],[ESE],"[1.9 km/h
		/ 0.5 m/s]",METAR VHHH 122300Z 11001KT CAVOK 17/03 Q1020 NOSIG
0,[Clear],1996-12-13,[1.0 °C],[],[-],,[32%],[N/A],[1021 hPa],[18.0 °C],[8:00 AM],[-],[SE],"[3.7 km/h
		/ 1.0 m/s]",METAR VHHH 130000Z 13002KT CAVOK 18/01 Q1021 NOSIG
0,[Clear],1996-12-13,[0.0 °C],[],[-],,[26%],[N/A],[1021 hPa],[20.0 °C],[9:00 AM],[-],[WSW],"[3.7 km/h
		/ 1.0 m/s]",METAR VHHH 130100Z 25002KT CAVOK 20/M00 Q1021 NOSIG
0,[Clear],1996-12-13,[1.0 °C],[],[-],,[27%],[N/A],[1021 hPa],[21.0 °C],[10:00 AM],[-],[NW],"[5.6 km/h
		/ 1.5 m/s]",METAR VHHH 130200Z 32003KT CAVOK 21/01 Q1021 NOSIG
0,[Clear],1996-12-13,[1.0 °C],[],[-],,[25%],[N/A],[1020 hPa],[22.0 °C],[11:00 AM],[-],[SW],"[7.4 km/h
		/ 2.1 m/s]",METAR VHHH 130300Z 22004KT 160V280 CAVOK 22/01 Q1020 NOSIG
0,[Clear],1996-12-13,[2.0 °C],[],[-],,[25%],[N/A],[1019 hPa],[23.0 °C],[12:00 PM],[-],[SW],"[9.3 km/h
		/ 2.6 m/s]",METAR VHHH 130400Z 22005KT 130V300 CAVOK 23/02 Q1019 NOSIG
0,[Clear],1996-12-13,[4.0 °C],[],[-],,[26%],[N/A],[1018 hPa],[25.0 °C],[1:00 PM],[-],[SSW],"[7.4 km/h
		/ 2.1 m/s]",METAR VHHH 130500Z 20004KT 170V260 CAVOK 25/04 Q1018 NOSIG
0,[Clear],1996-12-13,[-1.0 °C],[],"[29.6 km/h
		/ 8.2 m/s]",,[19%],[N/A],[1017 hPa],[24.0 °C],[2:00 PM],[-],[SSW],"[11.1 km/h
		/ 3.1 m/s]",METAR VHHH 130600Z 21006G16KT 140V270 CAVOK 24/M01 Q1017 NOSIG
0,[Clear],1996-12-13,[2.0 °C],[],[-],,[25%],[N/A],[1017 hPa],[23.0 °C],[3:00 PM],[-],[SSW],"[7.4 km/h
		/ 2.1 m/s]",METAR VHHH 130700Z 20004KT 080V310 CAVOK 23/02 Q1017 NOSIG
0,[Clear],1996-12-13,[6.0 °C],[],[-],,[35%],[N/A],[1017 hPa],[22.0 °C],[4:00 PM],[-],[South],"[7.4 km/h
		/ 2.1 m/s]",METAR VHHH 130800Z 17004KT 130V230 CAVOK 22/06 Q1017 NOSIG
0,[Clear],1996-12-13,[7.0 °C],[],[-],,[40%],[N/A],[1017 hPa],[21.0 °C],[5:00 PM],[-],[West],"[11.1 km/h
		/ 3.1 m/s]",METAR VHHH 130900Z 28006KT 240V300 CAVOK 21/07 Q1017 NOSIG
0,[Clear],1996-12-13,[8.0 °C],[],[-],,[46%],[N/A],[1017 hPa],[20.0 °C],[6:00 PM],[-],[West],"[9.3 km/h
		/ 2.6 m/s]",METAR VHHH 131000Z 28005KT 230V300 CAVOK 20/08 Q1017 NOSIG
0,[Clear],1996-12-13,[4.0 °C],[],[-],,[35%],[N/A],[1018 hPa],[20.0 °C],[7:00 PM],[-],[SE],"[3.7 km/h
		/ 1.0 m/s]",METAR VHHH 131100Z 13002KT CAVOK 20/04 Q1018 NOSIG
0,[Clear],1996-12-13,[0.0 °C],[],[-],,[26%],[N/A],[1018 hPa],[20.0 °C],[8:00 PM],[-],[North],"[1.9 km/h
		/ 0.5 m/s]",METAR VHHH 131200Z 01001KT CAVOK 20/00 Q1018 NOSIG
0,[Clear],1996-12-13,[1.0 °C],[],[-],,[28%],[N/A],[1018 hPa],[20.0 °C],[9:00 PM],[-],[ENE],"[7.4 km/h
		/ 2.1 m/s]",METAR VHHH 131300Z 07004KT 040V150 CAVOK 20/01 Q1018 NOSIG
0,[Clear],1996-12-13,[2.0 °C],[],[-],,[30%],[N/A],[1019 hPa],[20.0 °C],[10:00 PM],[-],[East],"[3.7 km/h
		/ 1.0 m/s]",METAR VHHH 131400Z 08002KT CAVOK 20/02 Q1019 NOSIG
0,[Clear],1996-12-14,[4.0 °C],[],[-],,[40%],[N/A],[1019 hPa],[18.0 °C],[12:00 AM],[-],[ESE],"[7.4 km/h
		/ 2.1 m/s]",METAR VHHH 131600Z 11004KT 080V140 CAVOK 18/04 Q1019 NOSIG
0,[Clear],1996-12-14,[10.0 °C],[],[-],,[59%],[N/A],[1019 hPa],[18.0 °C],[1:00 AM],[-],[East],"[9.3 km/h
		/ 2.6 m/s]",METAR VHHH 131700Z 10005KT 050V150 CAVOK 18/10 Q1019 NOSIG
0,[Partly Cloudy],1996-12-14,[13.0 °C],[],[-],,[73%],[N/A],[1018 hPa],[18.0 °C],[2:00 AM],[10.0 km],[East],"[9.3 km/h
		/ 2.6 m/s]",METAR VHHH 131800Z 08005KT 060V130 9999 FEW020 18/13 Q1018 NOSIG
0,[Partly Cloudy],1996-12-14,[13.0 °C],[],[-],,[73%],[N/A],[1018 hPa],[18.0 °C],[3:00 AM],[10.0 km],[ESE],"[9.3 km/h
		/ 2.6 m/s]",METAR VHHH 131900Z 11005KT 070V150 9999 FEW020 18/13 Q1018 NOSIG
0,[Partly Cloudy],1996-12-14,[14.0 °C],[],[-],,[82%],[N/A],[1018 hPa],[17.0 °C],[4:00 AM],[10.0 km],[East],"[13.0 km/h
		/ 3.6 m/s]",METAR VHHH 132000Z 10007KT 060V130 9999 FEW020 17/14 Q1018 NOSIG
0,[Partly Cloudy],1996-12-14,[13.0 °C],[],[-],,[77%],[N/A],[1018 hPa],[17.0 °C],[5:00 AM],[10.0 km],[East],"[9.3 km/h
		/ 2.6 m/s]",METAR VHHH 132100Z 10005KT 060V140 9999 FEW020 17/13 Q1018 NOSIG
0,[Partly Cloudy],1996-12-14,[12.0 °C],[],[-],,[72%],[N/A],[1018 hPa],[17.0 °C],[6:00 AM],[10.0 km],[ESE],"[11.1 km/h
		/ 3.1 m/s]",METAR VHHH 132200Z 11006KT 060V140 9999 FEW020 17/12 Q1018 NOSIG
0,[Clear],1996-12-14,[11.0 °C],[],[-],,[68%],[N/A],[1019 hPa],[17.0 °C],[7:00 AM],[-],[ESE],"[11.1 km/h
		/ 3.1 m/s]",METAR VHHH 132300Z 11006KT 070V130 CAVOK 17/11 Q1019 NOSIG
0,[Clear],1996-12-14,[11.0 °C],[],[-],,[68%],[N/A],[1019 hPa],[17.0 °C],[8:00 AM],[8.0 km],[ESE],"[13.0 km/h
		/ 3.6 m/s]",METAR VHHH 140000Z 12007KT 080V170 8000 SKC 17/11 Q1019 NOSIG
0,[Clear],1996-12-14,[10.0 °C],[],[-],,[56%],[N/A],[1020 hPa],[19.0 °C],[9:00 AM],[8.0 km],[ESE],"[14.8 km/h
		/ 4.1 m/s]",METAR VHHH 140100Z 12008KT 080V150 8000 SKC 19/10 Q1020 NOSIG
0,[Clear],1996-12-14,[10.0 °C],[],[-],,[52%],[N/A],[1020 hPa],[20.0 °C],[10:00 AM],[8.0 km],[East],"[14.8 km/h
		/ 4.1 m/s]",METAR VHHH 140200Z 09008KT 350V140 8000 SKC 20/10 Q1020 NOSIG
0,[Clear],1996-12-14,[7.0 °C],[],[-],,[40%],[N/A],[1019 hPa],[21.0 °C],[11:00 AM],[8.0 km],[ESE],"[18.5 km/h
		/ 5.1 m/s]",METAR VHHH 140300Z 11010KT 080V150 8000 SKC 21/07 Q1019 NOSIG
0,[Clear],1996-12-14,[7.0 °C],[],[-],,[38%],[N/A],[1018 hPa],[22.0 °C],[12:00 PM],[9.0 km],[East],"[13.0 km/h
		/ 3.6 m/s]",METAR VHHH 140400Z 08007KT 010V160 9000 SKC 22/07 Q1018 NOSIG
0,[Clear],1996-12-14,[6.0 °C],[],[-],,[35%],[N/A],[1016 hPa],[22.0 °C],[2:00 PM],[-],[ESE],"[14.8 km/h
		/ 4.1 m/s]",METAR VHHH 140600Z 11008KT 080V150 CAVOK 22/06 Q1016 NOSIG
0,[Clear],1996-12-14,[2.0 °C],[],[-],,[25%],[N/A],[1015 hPa],[23.0 °C],[3:00 PM],[-],[ESE],"[22.2 km/h
		/ 6.2 m/s]",METAR VHHH 140700Z 11012KT CAVOK 23/02 Q1015 NOSIG
0,[Clear],1996-12-14,[2.0 °C],[],[-],,[28%],[N/A],[1015 hPa],[21.0 °C],[4:00 PM],[-],[East],"[16.7 km/h
		/ 4.6 m/s]",METAR VHHH 140800Z 10009KT 060V130 CAVOK 21/02 Q1015 NOSIG
0,[Clear],1996-12-14,[6.0 °C],[],[-],,[40%],[N/A],[1016 hPa],[20.0 °C],[5:00 PM],[-],[ESE],"[14.8 km/h
		/ 4.1 m/s]",METAR VHHH 140900Z 11008KT 080V150 CAVOK 20/06 Q1016 NOSIG
0,[Clear],1996-12-14,[8.0 °C],[],[-],,[49%],[N/A],[1016 hPa],[19.0 °C],[6:00 PM],[-],[ESE],"[11.1 km/h
		/ 3.1 m/s]",METAR VHHH 141000Z 12006KT 090V160 CAVOK 19/08 Q1016 NOSIG
0,[Clear],1996-12-14,[9.0 °C],[],[-],,[52%],[N/A],[1017 hPa],[19.0 °C],[7:00 PM],[-],[ESE],"[13.0 km/h
		/ 3.6 m/s]",METAR VHHH 141100Z 11007KT 070V160 CAVOK 19/09 Q1017 NOSIG
0,[Clear],1996-12-14,[11.0 °C],[],[-],,[60%],[N/A],[1017 hPa],[19.0 °C],[8:00 PM],[-],[East],"[13.0 km/h
		/ 3.6 m/s]",METAR VHHH 141200Z 10007KT 060V140 CAVOK 19/11 Q1017 NOSIG
0,[Clear],1996-12-14,[12.0 °C],[],[-],,[64%],[N/A],[1017 hPa],[19.0 °C],[9:00 PM],[-],[East],"[16.7 km/h
		/ 4.6 m/s]",METAR VHHH 141300Z 10009KT 070V130 CAVOK 19/12 Q1017 NOSIG
0,[Partly Cloudy],1996-12-14,[13.0 °C],[],[-],,[68%],[N/A],[1017 hPa],[19.0 °C],[10:00 PM],[10.0 km],[East],"[14.8 km/h
		/ 4.1 m/s]",METAR VHHH 141400Z 10008KT 060V160 9999 FEW025 19/13 Q1017 NOSIG
0,[Partly Cloudy],1996-12-14,[13.0 °C],[],[-],,[68%],[N/A],[1017 hPa],[19.0 °C],[11:00 PM],[10.0 km],[East],"[13.0 km/h
		/ 3.6 m/s]",METAR VHHH 141500Z 09007KT 050V140 9999 FEW025 19/13 Q1017 NOSIG
0,[Partly Cloudy],1996-12-15,[13.0 °C],[],[-],,[73%],[N/A],[1017 hPa],[18.0 °C],[1:00 AM],[10.0 km],[East],"[14.8 km/h
		/ 4.1 m/s]",METAR VHHH 141700Z 09008KT 040V140 9999 FEW025 18/13 Q1017 NOSIG
0,[Partly Cloudy],1996-12-15,[13.0 °C],[],[-],,[77%],[N/A],[1017 hPa],[17.0 °C],[3:00 AM],[10.0 km],[East],"[16.7 km/h
		/ 4.6 m/s]",METAR VHHH 141900Z 10009KT 050V150 9999 FEW016 17/13 Q1017 NOSIG
0,[Partly Cloudy],1996-12-15,[13.0 °C],[],[-],,[77%],[N/A],[1017 hPa],[17.0 °C],[4:00 AM],[10.0 km],[East],"[14.8 km/h
		/ 4.1 m/s]",METAR VHHH 142000Z 10008KT 020V150 9999 FEW016 17/13 Q1017 NOSIG
0,[Partly Cloudy],1996-12-15,[12.0 °C],[],[-],,[72%],[N/A],[1017 hPa],[17.0 °C],[5:00 AM],[10.0 km],[ESE],"[14.8 km/h
		/ 4.1 m/s]",METAR VHHH 142100Z 11008KT 020V160 9999 FEW016 17/12 Q1017 NOSIG
0,[Partly Cloudy],1996-12-15,[10.0 °C],[],[-],,[63%],[N/A],[1017 hPa],[17.0 °C],[6:00 AM],[10.0 km],[ESE],"[18.5 km/h
		/ 5.1 m/s]",METAR VHHH 142200Z 11010KT 060V140 9999 FEW020 17/10 Q1017 NOSIG
0,[Partly Cloudy],1996-12-15,[8.0 °C],[],[-],,[52%],[N/A],[1018 hPa],[18.0 °C],[7:00 AM],[10.0 km],[ESE],"[14.8 km/h
		/ 4.1 m/s]",METAR VHHH 142300Z 11008KT 060V140 9999 FEW025 18/08 Q1018 NOSIG
0,[Clear],1996-12-15,[8.0 °C],[],[-],,[52%],[N/A],[1018 hPa],[18.0 °C],[8:00 AM],[-],[ESE],"[20.4 km/h
		/ 5.7 m/s]",METAR VHHH 150000Z 11011KT 080V150 CAVOK 18/08 Q1018 NOSIG
0,[Partly Cloudy],1996-12-15,[9.0 °C],[],"[42.6 km/h
		/ 11.8 m/s]",,[49%],[N/A],[1018 hPa],[20.0 °C],[9:00 AM],[10.0 km],[East],"[24.1 km/h
		/ 6.7 m/s]",METAR VHHH 150100Z 10013G23KT 9999 FEW035 20/09 Q1018 NOSIG
0,[Partly Cloudy],1996-12-15,[10.0 °C],[],[-],,[49%],[N/A],[1018 hPa],[21.0 °C],[10:00 AM],[10.0 km],[ESE],"[27.8 km/h
		/ 7.7 m/s]",METAR VHHH 150200Z 12015KT 090V160 9999 FEW035 21/10 Q1018 NOSIG
0,[Partly Cloudy],1996-12-15,[10.0 °C],[],[-],,[46%],[N/A],[1018 hPa],[22.0 °C],[11:00 AM],[10.0 km],[ESE],"[24.1 km/h
		/ 6.7 m/s]",METAR VHHH 150300Z 11013KT 080V140 9999 FEW035 22/10 Q1018 NOSIG
0,[Scattered Clouds],1996-12-15,[9.0 °C],[],[-],,[46%],[N/A],[1017 hPa],[21.0 °C],[12:00 PM],[10.0 km],[East],"[24.1 km/h
		/ 6.7 m/s]",METAR VHHH 150400Z 10013KT 020V140 9999 FEW035 SCT090 21/09 Q1017 NOSIG
0,[Scattered Clouds],1996-12-15,[10.0 °C],[],"[51.9 km/h
		/ 14.4 m/s]",,[49%],[N/A],[1016 hPa],[21.0 °C],[1:00 PM],[10.0 km],[East],"[25.9 km/h
		/ 7.2 m/s]",METAR VHHH 150500Z 10014G28KT 050V140 9999 FEW035 SCT090 21/10 Q1016 NOSIG
0,[Scattered Clouds],1996-12-15,[10.0 °C],[],[-],,[49%],[N/A],[1015 hPa],[21.0 °C],[2:00 PM],[10.0 km],[East],"[25.9 km/h
		/ 7.2 m/s]",METAR VHHH 150600Z 09014KT 030V140 9999 FEW030 SCT080 21/10 Q1015 NOSIG
0,[Mostly Cloudy],1996-12-15,[11.0 °C],[],[-],,[53%],[N/A],[1015 hPa],[21.0 °C],[3:00 PM],[10.0 km],[East],"[22.2 km/h
		/ 6.2 m/s]",METAR VHHH 150700Z 09012KT 9999 FEW030 BKN080 21/11 Q1015 NOSIG
0,[Scattered Clouds],1996-12-15,[11.0 °C],[],[-],,[56%],[N/A],[1015 hPa],[20.0 °C],[4:00 PM],[10.0 km],[ESE],"[22.2 km/h
		/ 6.2 m/s]",METAR VHHH 150800Z 11012KT 9999 FEW030 SCT080 20/11 Q1015 NOSIG
0,[Mostly Cloudy],1996-12-15,[11.0 °C],[],[-],,[56%],[N/A],[1015 hPa],[20.0 °C],[5:00 PM],[10.0 km],[ESE],"[18.5 km/h
		/ 5.1 m/s]",METAR VHHH 150900Z 11010KT 070V130 9999 FEW030 BKN080 20/11 Q1015 NOSIG
0,[Scattered Clouds],1996-12-15,[11.0 °C],[],[-],,[56%],[N/A],[1015 hPa],[20.0 °C],[6:00 PM],[10.0 km],[ESE],"[16.7 km/h
		/ 4.6 m/s]",METAR VHHH 151000Z 11009KT 060V130 9999 FEW025 SCT080 20/11 Q1015 NOSIG
0,[Scattered Clouds],1996-12-15,[12.0 °C],[],[-],,[64%],[N/A],[1016 hPa],[19.0 °C],[7:00 PM],[10.0 km],[East],"[11.1 km/h
		/ 3.1 m/s]",METAR VHHH 151100Z 09006KT 9999 FEW025 SCT080 19/12 Q1016 NOSIG
0,[Scattered Clouds],1996-12-15,[14.0 °C],[],[-],,[73%],[N/A],[1016 hPa],[19.0 °C],[8:00 PM],[10.0 km],[East],"[13.0 km/h
		/ 3.6 m/s]",METAR VHHH 151200Z 09007KT 060V150 9999 FEW025 SCT080 19/14 Q1016 NOSIG
0,[Scattered Clouds],1996-12-15,[14.0 °C],[],[-],,[68%],[N/A],[1017 hPa],[20.0 °C],[9:00 PM],[10.0 km],[East],"[11.1 km/h
		/ 3.1 m/s]",METAR VHHH 151300Z 10006KT 070V140 9999 SCT025 SCT080 20/14 Q1017 NOSIG
0,[Scattered Clouds],1996-12-15,[14.0 °C],[],[-],,[73%],[N/A],[1017 hPa],[19.0 °C],[10:00 PM],[10.0 km],[ESE],"[14.8 km/h
		/ 4.1 m/s]",METAR VHHH 151400Z 11008KT 350V150 9999 SCT025 SCT080 19/14 Q1017 NOSIG
0,[Scattered Clouds],1996-12-15,[15.0 °C],[],[-],,[73%],[N/A],[1017 hPa],[20.0 °C],[11:00 PM],[10.0 km],[ESE],"[18.5 km/h
		/ 5.1 m/s]",METAR VHHH 151500Z 11010KT 070V150 9999 FEW020 SCT080 20/15 Q1017 NOSIG
0,[Scattered Clouds],1996-12-16,[14.0 °C],[],[-],,[73%],[N/A],[1017 hPa],[19.0 °C],[12:00 AM],[10.0 km],[ESE],"[14.8 km/h
		/ 4.1 m/s]",METAR VHHH 151600Z 11008KT 070V160 9999 FEW020 SCT080 19/14 Q1017 NOSIG
0,[Scattered Clouds],1996-12-16,[14.0 °C],[],[-],,[73%],[N/A],[1016 hPa],[19.0 °C],[1:00 AM],[10.0 km],[East],"[14.8 km/h
		/ 4.1 m/s]",METAR VHHH 151700Z 10008KT 060V150 9999 FEW020 SCT080 19/14 Q1016 NOSIG
0,[Scattered Clouds],1996-12-16,[15.0 °C],[],[-],,[78%],[N/A],[1016 hPa],[19.0 °C],[2:00 AM],[10.0 km],[ESE],"[18.5 km/h
		/ 5.1 m/s]",METAR VHHH 151800Z 11010KT 070V140 9999 FEW017 SCT030 19/15 Q1016 NOSIG
0,[Scattered Clouds],1996-12-16,[14.0 °C],[],[-],,[73%],[N/A],[1016 hPa],[19.0 °C],[3:00 AM],[10.0 km],[ESE],"[16.7 km/h
		/ 4.6 m/s]",METAR VHHH 151900Z 12009KT 070V160 9999 FEW025 SCT080 19/14 Q1016 NOSIG
0,[Scattered Clouds],1996-12-16,[13.0 °C],[],[-],,[68%],[N/A],[1017 hPa],[19.0 °C],[6:00 AM],[10.0 km],[ESE],"[14.8 km/h
		/ 4.1 m/s]",METAR VHHH 152200Z 11008KT 060V150 9999 FEW020 SCT080 19/13 Q1017 NOSIG
0,[Scattered Clouds],1996-12-16,[12.0 °C],[],[-],,[64%],[N/A],[1017 hPa],[19.0 °C],[7:00 AM],[10.0 km],[SE],"[13.0 km/h
		/ 3.6 m/s]",METAR VHHH 152300Z 13007KT 070V150 9999 FEW025 SCT060 19/12 Q1017 NOSIG
0,[Scattered Clouds],1996-12-16,[13.0 °C],[],[-],,[64%],[N/A],[1018 hPa],[20.0 °C],[8:00 AM],[10.0 km],[ESE],"[11.1 km/h
		/ 3.1 m/s]",METAR VHHH 160000Z 11006KT 050V160 9999 FEW025 SCT060 20/13 Q1018 NOSIG
0,[Scattered Clouds],1996-12-16,[12.0 °C],[],[-],,[56%],[N/A],[1019 hPa],[21.0 °C],[9:00 AM],[10.0 km],[SE],"[9.3 km/h
		/ 2.6 m/s]",METAR VHHH 160100Z 13005KT 100V160 9999 FEW025 SCT045 21/12 Q1019 NOSIG
0,[Scattered Clouds],1996-12-16,[12.0 °C],[],[-],,[53%],[N/A],[1019 hPa],[22.0 °C],[10:00 AM],[10.0 km],[East],"[14.8 km/h
		/ 4.1 m/s]",METAR VHHH 160200Z 10008KT 060V160 9999 FEW025 SCT045 22/12 Q1019 NOSIG
0,[Mostly Cloudy],1996-12-16,[13.0 °C],[],[-],,[53%],[N/A],[1018 hPa],[23.0 °C],[11:00 AM],[10.0 km],[East],"[13.0 km/h
		/ 3.6 m/s]",METAR VHHH 160300Z 10007KT 060V130 9999 FEW030 BKN045 23/13 Q1018 NOSIG
0,[Scattered Clouds],1996-12-16,[13.0 °C],[],[-],,[50%],[N/A],[1017 hPa],[24.0 °C],[12:00 PM],[10.0 km],[ESE],"[13.0 km/h
		/ 3.6 m/s]",METAR VHHH 160400Z 11007KT 070V170 9999 FEW030 SCT045 24/13 Q1017 NOSIG
0,[Scattered Clouds],1996-12-16,[13.0 °C],[],[-],,[50%],[N/A],[1016 hPa],[24.0 °C],[1:00 PM],[10.0 km],[East],"[14.8 km/h
		/ 4.1 m/s]",METAR VHHH 160500Z 09008KT 050V120 9999 FEW025 SCT045 24/13 Q1016 NOSIG
0,[Scattered Clouds],1996-12-16,[14.0 °C],[],[-],,[50%],[N/A],[1015 hPa],[25.0 °C],[2:00 PM],[10.0 km],[ESE],"[18.5 km/h
		/ 5.1 m/s]",METAR VHHH 160600Z 11010KT 090V210 9999 FEW025 SCT050 25/14 Q1015 NOSIG
0,[Mostly Cloudy],1996-12-16,[15.0 °C],[],[-],,[64%],[N/A],[1015 hPa],[22.0 °C],[4:00 PM],[10.0 km],[SE],"[22.2 km/h
		/ 6.2 m/s]",METAR VHHH 160800Z 13012KT 110V170 9999 FEW025 BKN080 22/15 Q1015 NOSIG
0,[Mostly Cloudy],1996-12-16,[15.0 °C],[],[-],,[64%],[N/A],[1015 hPa],[22.0 °C],[5:00 PM],[10.0 km],[SE],"[20.4 km/h
		/ 5.7 m/s]",METAR VHHH 160900Z 14011KT 9999 FEW025 BKN080 22/15 Q1015 NOSIG
0,[Scattered Clouds],1996-12-16,[16.0 °C],[],[-],,[78%],[N/A],[1016 hPa],[20.0 °C],[6:00 PM],[10.0 km],[SSE],"[20.4 km/h
		/ 5.7 m/s]",METAR VHHH 161000Z 15011KT 9999 FEW025 SCT080 20/16 Q1016 NOSIG
0,[Scattered Clouds],1996-12-16,[16.0 °C],[],[-],,[78%],[N/A],[1017 hPa],[20.0 °C],[7:00 PM],[10.0 km],[SE],"[13.0 km/h
		/ 3.6 m/s]",METAR VHHH 161100Z 14007KT 9999 FEW025 SCT080 20/16 Q1017 NOSIG
0,[Clear],1996-12-16,[15.0 °C],[],[-],,[73%],[N/A],[1017 hPa],[20.0 °C],[8:00 PM],[-],[SE],"[13.0 km/h
		/ 3.6 m/s]",METAR VHHH 161200Z 13007KT CAVOK 20/15 Q1017 NOSIG
0,[Clear],1996-12-16,[15.0 °C],[],[-],,[68%],[N/A],[1018 hPa],[21.0 °C],[9:00 PM],[-],[ESE],"[14.8 km/h
		/ 4.1 m/s]",METAR VHHH 161300Z 11008KT CAVOK 21/15 Q1018 NOSIG
0,[Clear],1996-12-16,[15.0 °C],[],[-],,[68%],[N/A],[1018 hPa],[21.0 °C],[10:00 PM],[-],[East],"[14.8 km/h
		/ 4.1 m/s]",METAR VHHH 161400Z 10008KT CAVOK 21/15 Q1018 NOSIG
0,[Clear],1996-12-17,[15.0 °C],[],[-],,[68%],[N/A],[1018 hPa],[21.0 °C],[12:00 AM],[-],[SE],"[16.7 km/h
		/ 4.6 m/s]",METAR VHHH 161600Z 13009KT 090V160 CAVOK 21/15 Q1018 NOSIG
0,[Clear],1996-12-17,[15.0 °C],[],[-],,[73%],[N/A],[1018 hPa],[20.0 °C],[1:00 AM],[-],[East],"[11.1 km/h
		/ 3.1 m/s]",METAR VHHH 161700Z 09006KT 030V140 CAVOK 20/15 Q1018 NOSIG
0,[Clear],1996-12-17,[15.0 °C],[],[-],,[68%],[N/A],[1017 hPa],[21.0 °C],[2:00 AM],[-],[ESE],"[13.0 km/h
		/ 3.6 m/s]",METAR VHHH 161800Z 12007KT 080V150 CAVOK 21/15 Q1017 NOSIG
0,[Clear],1996-12-17,[16.0 °C],[],[-],,[78%],[N/A],[1017 hPa],[20.0 °C],[3:00 AM],[-],[South],"[1.9 km/h
		/ 0.5 m/s]",METAR VHHH 161900Z 19001KT CAVOK 20/16 Q1017 NOSIG
0,[Clear],1996-12-17,[15.0 °C],[],[-],,[78%],[N/A],[1017 hPa],[19.0 °C],[4:00 AM],[-],[Variable],"[3.7 km/h
		/ 1.0 m/s]",METAR VHHH 162000Z VRB02KT CAVOK 19/15 Q1017 NOSIG
0,[Clear],1996-12-17,[16.0 °C],[],[-],,[83%],[N/A],[1017 hPa],[19.0 °C],[5:00 AM],[-],[SSE],"[5.6 km/h
		/ 1.5 m/s]",METAR VHHH 162100Z 16003KT CAVOK 19/16 Q1017 NOSIG
0,[Clear],1996-12-17,[16.0 °C],[],[-],,[83%],[N/A],[1017 hPa],[19.0 °C],[6:00 AM],[-],[Variable],"[1.9 km/h
		/ 0.5 m/s]",METAR VHHH 162200Z VRB01KT CAVOK 19/16 Q1017 NOSIG
0,[Mostly Cloudy],1996-12-17,[15.0 °C],[],[-],,[78%],[N/A],[1018 hPa],[19.0 °C],[7:00 AM],[8.0 km],[Variable],"[1.9 km/h
		/ 0.5 m/s]",METAR VHHH 162300Z VRB01KT 8000 BKN080 19/15 Q1018 NOSIG
0,[Scattered Clouds],1996-12-17,[16.0 °C],[],[-],,[78%],[N/A],[1018 hPa],[20.0 °C],[8:00 AM],[9.0 km],[SE],"[11.1 km/h
		/ 3.1 m/s]",METAR VHHH 170000Z 13006KT 9000 SCT080 20/16 Q1018 NOSIG
0,[Scattered Clouds],1996-12-17,[13.0 °C],[],[-],,[53%],[N/A],[1019 hPa],[23.0 °C],[9:00 AM],[9.0 km],[SSE],"[14.8 km/h
		/ 4.1 m/s]",METAR VHHH 170100Z 16008KT 9000 FEW040 SCT080 23/13 Q1019 NOSIG
0,[Scattered Clouds],1996-12-17,[13.0 °C],[],[-],,[50%],[N/A],[1019 hPa],[24.0 °C],[10:00 AM],[8.0 km],[SSE],"[13.0 km/h
		/ 3.6 m/s]",METAR VHHH 170200Z 16007KT 130V230 8000 FEW030 SCT080 24/13 Q1019 NOSIG
0,[Partly Cloudy],1996-12-17,[12.0 °C],[],[-],,[44%],[N/A],[1019 hPa],[25.0 °C],[11:00 AM],[9.0 km],[East],"[11.1 km/h
		/ 3.1 m/s]",METAR VHHH 170300Z 10006KT 040V170 9000 FEW030 25/12 Q1019 NOSIG
0,[Clear],1996-12-17,[13.0 °C],[],[-],,[44%],[N/A],[1018 hPa],[26.0 °C],[12:00 PM],[-],[SE],"[24.1 km/h
		/ 6.7 m/s]",METAR VHHH 170400Z 13013KT CAVOK 26/13 Q1018 NOSIG
0,[Partly Cloudy],1996-12-17,[14.0 °C],[],[-],,[47%],[N/A],[1017 hPa],[26.0 °C],[1:00 PM],[10.0 km],[SE],"[22.2 km/h
		/ 6.2 m/s]",METAR VHHH 170500Z 14012KT 100V180 9999 FEW035 26/14 Q1017 NOSIG
0,[Partly Cloudy],1996-12-17,[13.0 °C],[],[-],,[44%],[N/A],[1016 hPa],[26.0 °C],[2:00 PM],[9.0 km],[SE],"[16.7 km/h
		/ 4.6 m/s]",METAR VHHH 170600Z 14009KT 110V220 9000 FEW100 26/13 Q1016 NOSIG
0,[Partly Cloudy],1996-12-17,[14.0 °C],[],[-],,[50%],[N/A],[1016 hPa],[25.0 °C],[3:00 PM],[9.0 km],[SE],"[5.6 km/h
		/ 1.5 m/s]",METAR VHHH 170700Z 13003KT 9000 FEW120 25/14 Q1016 NOSIG
0,[Clear],1996-12-17,[11.0 °C],[],[-],,[37%],[N/A],[1016 hPa],[27.0 °C],[4:00 PM],[9.0 km],[SSW],"[3.7 km/h
		/ 1.0 m/s]",METAR VHHH 170800Z 20002KT 9000 SKC 27/11 Q1016 NOSIG
0,[Clear],1996-12-17,[10.0 °C],[],[-],,[36%],[N/A],[1017 hPa],[26.0 °C],[5:00 PM],[-],[North],"[7.4 km/h
		/ 2.1 m/s]",METAR VHHH 170900Z 35004KT 330V080 CAVOK 26/10 Q1017 NOSIG
0,[Clear],1996-12-17,[10.0 °C],[],[-],,[41%],[N/A],[1017 hPa],[24.0 °C],[6:00 PM],[-],[North],"[9.3 km/h
		/ 2.6 m/s]",METAR VHHH 171000Z 01005KT 340V070 CAVOK 24/10 Q1017 NOSIG
0,[Clear],1996-12-17,[10.0 °C],[],[-],,[44%],[N/A],[1018 hPa],[23.0 °C],[7:00 PM],[-],[NNE],"[13.0 km/h
		/ 3.6 m/s]",METAR VHHH 171100Z 03007KT 290V100 CAVOK 23/10 Q1018 NOSIG
0,[Scattered Clouds],1996-12-17,[10.0 °C],[],[-],,[44%],[N/A],[1019 hPa],[23.0 °C],[8:00 PM],[10.0 km],[NE],"[11.1 km/h
		/ 3.1 m/s]",METAR VHHH 171200Z 05006KT 330V260 9999 FEW035 SCT080 23/10 Q1019 NOSIG
0,[Partly Cloudy],1996-12-17,[10.0 °C],[],[-],,[46%],[N/A],[1019 hPa],[22.0 °C],[9:00 PM],[10.0 km],[North],"[9.3 km/h
		/ 2.6 m/s]",METAR VHHH 171300Z 35005KT 260V040 9999 FEW040 22/10 Q1019 WS LDG RWY 13/31 NOSIG
0,[Scattered Clouds],1996-12-17,[9.0 °C],[],[-],,[43%],[N/A],[1020 hPa],[22.0 °C],[10:00 PM],[10.0 km],[NE],"[14.8 km/h
		/ 4.1 m/s]",METAR VHHH 171400Z 05008KT 360V100 9999 FEW030 SCT080 22/09 Q1020 WS LDG RWY 13/31 NOSIG
0,[Mostly Cloudy],1996-12-17,[10.0 °C],[],[-],,[49%],[N/A],[1021 hPa],[21.0 °C],[11:00 PM],[10.0 km],[ENE],"[9.3 km/h
		/ 2.6 m/s]",METAR VHHH 171500Z 06005KT 300V160 9999 FEW030 BKN080 21/10 Q1021 WS LDG RWY 13/31 NOSIG
0,[Mostly Cloudy],1996-12-18,[9.0 °C],[],[-],,[49%],[N/A],[1021 hPa],[20.0 °C],[12:00 AM],[10.0 km],[ENE],"[5.6 km/h
		/ 1.5 m/s]",METAR VHHH 171600Z 07003KT 9999 FEW030 BKN080 20/09 Q1021 NOSIG
0,[Scattered Clouds],1996-12-18,[9.0 °C],[],[-],,[49%],[N/A],[1020 hPa],[20.0 °C],[1:00 AM],[10.0 km],[East],"[3.7 km/h
		/ 1.0 m/s]",METAR VHHH 171700Z 09002KT 9999 FEW030 SCT080 20/09 Q1020 NOSIG
0,[Scattered Clouds],1996-12-18,[9.0 °C],[],[-],,[52%],[N/A],[1020 hPa],[19.0 °C],[2:00 AM],[10.0 km],[ENE],"[1.9 km/h
		/ 0.5 m/s]",METAR VHHH 171800Z 07001KT 9999 FEW030 SCT080 19/09 Q1020 NOSIG
0,[Mostly Cloudy],1996-12-18,[9.0 °C],[],[-],,[52%],[N/A],[1020 hPa],[19.0 °C],[3:00 AM],[10.0 km],[NE],"[7.4 km/h
		/ 2.1 m/s]",METAR VHHH 171900Z 05004KT 350V120 9999 FEW030 BKN080 19/09 Q1020 NOSIG
0,[Mostly Cloudy],1996-12-18,[9.0 °C],[],[-],,[56%],[N/A],[1020 hPa],[18.0 °C],[4:00 AM],[10.0 km],[North],"[7.4 km/h
		/ 2.1 m/s]",METAR VHHH 172000Z 01004KT 320V070 9999 FEW030 BKN080 18/09 Q1020 NOSIG
0,[Mostly Cloudy],1996-12-18,[9.0 °C],[],[-],,[56%],[N/A],[1020 hPa],[18.0 °C],[5:00 AM],[10.0 km],[North],"[9.3 km/h
		/ 2.6 m/s]",METAR VHHH 172100Z 01005KT 340V050 9999 FEW040 BKN300 18/09 Q1020 NOSIG
0,[Partly Cloudy],1996-12-18,[8.0 °C],[],[-],,[55%],[N/A],[1022 hPa],[17.0 °C],[7:00 AM],[10.0 km],[ENE],"[1.9 km/h
		/ 0.5 m/s]",METAR VHHH 172300Z 06001KT 9999 FEW040 17/08 Q1022 NOSIG
0,[Partly Cloudy],1996-12-18,[8.0 °C],[],[-],,[55%],[N/A],[1023 hPa],[17.0 °C],[8:00 AM],[9.0 km],[North],"[5.6 km/h
		/ 1.5 m/s]",METAR VHHH 180000Z 35003KT 9000 FEW120 17/08 Q1023 NOSIG
0,[Partly Cloudy],1996-12-18,[9.0 °C],[],[-],,[52%],[N/A],[1024 hPa],[19.0 °C],[9:00 AM],[8.0 km],[NNE],"[14.8 km/h
		/ 4.1 m/s]",METAR VHHH 180100Z 02008KT 350V080 8000 FEW120 19/09 Q1024 NOSIG
0,[Scattered Clouds],1996-12-18,[10.0 °C],[],[-],,[52%],[N/A],[1024 hPa],[20.0 °C],[10:00 AM],[7.0 km],[NNE],"[9.3 km/h
		/ 2.6 m/s]",METAR VHHH 180200Z 03005KT 240V130 7000 FEW030 SCT035 20/10 Q1024 WS LDG RWY 31 NOSIG
0,[Scattered Clouds],1996-12-18,[10.0 °C],[],[-],,[52%],[N/A],[1023 hPa],[20.0 °C],[11:00 AM],[6.0 km],[ENE],"[20.4 km/h
		/ 5.7 m/s]",METAR VHHH 180300Z 07011KT 030V110 6000 FEW030 SCT100 20/10 Q1023 WS LDG RWY 13/31 TEMPO 5000 HZ
0,[Scattered Clouds],1996-12-18,[10.0 °C],[],[-],,[52%],[N/A],[1022 hPa],[20.0 °C],[12:00 PM],[8.0 km],[East],"[18.5 km/h
		/ 5.1 m/s]",METAR VHHH 180400Z 09010KT 040V120 8000 SCT100 20/10 Q1022 TEMPO 5000 HZ
0,[Mostly Cloudy],1996-12-18,[10.0 °C],[],[-],,[52%],[N/A],[1021 hPa],[20.0 °C],[1:00 PM],[8.0 km],[East],"[18.5 km/h
		/ 5.1 m/s]",METAR VHHH 180500Z 10010KT 070V150 8000 BKN090 20/10 Q1021 TEMPO 5000 HZ
0,[Mostly Cloudy],1996-12-18,[11.0 °C],[],[-],,[56%],[N/A],[1020 hPa],[20.0 °C],[2:00 PM],[7.0 km],[East],"[20.4 km/h
		/ 5.7 m/s]",METAR VHHH 180600Z 09011KT 7000 BKN090 20/11 Q1020 NOSIG
0,[Scattered Clouds],1996-12-18,[11.0 °C],[],[-],,[53%],[N/A],[1020 hPa],[21.0 °C],[3:00 PM],[7.0 km],[ENE],"[13.0 km/h
		/ 3.6 m/s]",METAR VHHH 180700Z 07007KT 040V130 7000 SCT090 21/11 Q1020 NOSIG
0,[Partly Cloudy],1996-12-18,[11.0 °C],[],[-],,[56%],[N/A],[1020 hPa],[20.0 °C],[4:00 PM],[7.0 km],[East],"[16.7 km/h
		/ 4.6 m/s]",METAR VHHH 180800Z 10009KT 060V130 7000 FEW090 20/11 Q1020 NOSIG
0,[Partly Cloudy],1996-12-18,[12.0 °C],[],[-],,[64%],[N/A],[1020 hPa],[19.0 °C],[5:00 PM],[7.0 km],[East],"[18.5 km/h
		/ 5.1 m/s]",METAR VHHH 180900Z 10010KT 7000 FEW090 19/12 Q1020 NOSIG
0,[Scattered Clouds],1996-12-18,[13.0 °C],[],[-],,[68%],[N/A],[1021 hPa],[19.0 °C],[6:00 PM],[6.0 km],[ENE],"[13.0 km/h
		/ 3.6 m/s]",METAR VHHH 181000Z 07007KT 020V120 6000 SCT090 19/13 Q1021 NOSIG
0,[Scattered Clouds],1996-12-18,[13.0 °C],[],[-],,[68%],[N/A],[1022 hPa],[19.0 °C],[7:00 PM],[7.0 km],[East],"[13.0 km/h
		/ 3.6 m/s]",METAR VHHH 181100Z 09007KT 060V120 7000 FEW020 SCT090 19/13 Q1022 NOSIG
0,[Scattered Clouds],1996-12-18,[14.0 °C],[],[-],,[73%],[N/A],[1023 hPa],[19.0 °C],[8:00 PM],[8.0 km],[East],"[13.0 km/h
		/ 3.6 m/s]",METAR VHHH 181200Z 10007KT 050V150 8000 SCT020 SCT090 19/14 Q1023 NOSIG
0,[Mostly Cloudy],1996-12-18,[14.0 °C],[],[-],,[73%],[N/A],[1023 hPa],[19.0 °C],[9:00 PM],[8.0 km],[East],"[20.4 km/h
		/ 5.7 m/s]",METAR VHHH 181300Z 10011KT 060V130 8000 FEW020 BKN030 19/14 Q1023 NOSIG
0,[Mostly Cloudy],1996-12-18,[14.0 °C],[],"[35.2 km/h
		/ 9.8 m/s]",,[73%],[N/A],[1023 hPa],[19.0 °C],[10:00 PM],[9.0 km],[East],"[16.7 km/h
		/ 4.6 m/s]",METAR VHHH 181400Z 10009G19KT 350V150 9000 FEW020 BKN030 19/14 Q1023 NOSIG
0,[Mostly Cloudy],1996-12-18,[13.0 °C],[],[-],,[68%],[N/A],[1023 hPa],[19.0 °C],[11:00 PM],[9.0 km],[ESE],"[22.2 km/h
		/ 6.2 m/s]",METAR VHHH 181500Z 11012KT 060V130 9000 FEW020 BKN030 19/13 Q1023 NOSIG
0,[Mostly Cloudy],1996-12-19,[13.0 °C],[],[-],,[73%],[N/A],[1023 hPa],[18.0 °C],[12:00 AM],[9.0 km],[East],"[20.4 km/h
		/ 5.7 m/s]",METAR VHHH 181600Z 09011KT 340V130 9000 SCT020 BKN030 18/13 Q1023 NOSIG
0,[Scattered Clouds],1996-12-19,[13.0 °C],[],[-],,[73%],[N/A],[1023 hPa],[18.0 °C],[2:00 AM],[9.0 km],[NE],"[13.0 km/h
		/ 3.6 m/s]",METAR VHHH 181800Z 04007KT 320V090 9000 FEW020 SCT030 18/13 Q1023 NOSIG
0,[Mostly Cloudy],1996-12-19,[11.0 °C],[],[-],,[68%],[N/A],[1022 hPa],[17.0 °C],[3:00 AM],[9.0 km],[ENE],"[14.8 km/h
		/ 4.1 m/s]",METAR VHHH 181900Z 06008KT 330V090 9000 FEW020 BKN080 17/11 Q1022 NOSIG
0,[Mostly Cloudy],1996-12-19,[11.0 °C],[],[-],,[72%],[N/A],[1023 hPa],[16.0 °C],[4:00 AM],[8.0 km],[NE],"[14.8 km/h
		/ 4.1 m/s]",METAR VHHH 182000Z 04008KT 340V080 8000 FEW020 BKN080 16/11 Q1023 NOSIG
0,[Mostly Cloudy],1996-12-19,[10.0 °C],[],[-],,[68%],[N/A],[1024 hPa],[16.0 °C],[5:00 AM],[8.0 km],[NE],"[11.1 km/h
		/ 3.1 m/s]",METAR VHHH 182100Z 04006KT 330V100 8000 FEW020 BKN080 16/10 Q1024 NOSIG
0,[Mostly Cloudy],1996-12-19,[9.0 °C],[],[-],,[63%],[N/A],[1024 hPa],[16.0 °C],[6:00 AM],[8.0 km],[NNE],"[11.1 km/h
		/ 3.1 m/s]",METAR VHHH 182200Z 03006KT 340V090 8000 FEW020 BKN080 16/09 Q1024 NOSIG
0,[Mostly Cloudy],1996-12-19,[10.0 °C],[],[-],,[68%],[N/A],[1024 hPa],[16.0 °C],[7:00 AM],[6.0 km],[NNE],"[13.0 km/h
		/ 3.6 m/s]",METAR VHHH 182300Z 03007KT 330V090 6000 FEW020 BKN080 16/10 Q1024 NOSIG
0,[Haze],1996-12-19,[9.0 °C],[],[-],,[63%],[N/A],[1025 hPa],[16.0 °C],[8:00 AM],[5.0 km],[NNW],"[9.3 km/h
		/ 2.6 m/s]",METAR VHHH 190000Z 33005KT 310V080 5000 HZ FEW025 BKN080 16/09 Q1025 TEMPO 4500 HZ
0,[Haze],1996-12-19,[8.0 °C],[],[-],,[55%],[N/A],[1025 hPa],[17.0 °C],[10:00 AM],[-],[ENE],"[9.3 km/h
		/ 2.6 m/s]",METAR VHHH 190200Z 07005KT 330V130 4800 HZ FEW025 BKN080 17/08 Q1025 TEMPO 4500 HZ
0,[Mostly Cloudy],1996-12-19,[8.0 °C],[],[-],,[46%],[N/A],[1021 hPa],[20.0 °C],[2:00 PM],[10.0 km],[ESE],"[9.3 km/h
		/ 2.6 m/s]",METAR VHHH 190600Z 12005KT 060V210 9999 FEW030 BKN100 20/08 Q1021 TEMPO 4500 BR
0,[Mostly Cloudy],1996-12-19,[10.0 °C],[],[-],,[56%],[N/A],[1021 hPa],[19.0 °C],[3:00 PM],[6.0 km],[SSE],"[24.1 km/h
		/ 6.7 m/s]",METAR VHHH 190700Z 15013KT 130V210 6000 FEW030 BKN100 19/10 Q1021 TEMPO 4500 BR
0,[Mostly Cloudy],1996-12-19,[11.0 °C],[],[-],,[64%],[N/A],[1021 hPa],[18.0 °C],[4:00 PM],[6.0 km],[SSE],"[24.1 km/h
		/ 6.7 m/s]",METAR VHHH 190800Z 15013KT 120V180 6000 FEW030 BKN100 18/11 Q1021 TEMPO 4500 BR
0,[Mostly Cloudy],1996-12-19,[10.0 °C],[],[-],,[56%],[N/A],[1022 hPa],[19.0 °C],[5:00 PM],[6.0 km],[East],"[18.5 km/h
		/ 5.1 m/s]",METAR VHHH 190900Z 10010KT 070V140 6000 FEW030 BKN100 19/10 Q1022 TEMPO 4500 BR
0,[Mostly Cloudy],1996-12-19,[10.0 °C],[],[-],,[56%],[N/A],[1022 hPa],[19.0 °C],[6:00 PM],[6.0 km],[East],"[13.0 km/h
		/ 3.6 m/s]",METAR VHHH 191000Z 10007KT 080V150 6000 FEW030 BKN100 19/10 Q1022 TEMPO 4500 BR
0,[Mostly Cloudy],1996-12-19,[8.0 °C],[],[-],,[49%],[N/A],[1023 hPa],[19.0 °C],[7:00 PM],[6.0 km],[NE],"[7.4 km/h
		/ 2.1 m/s]",METAR VHHH 191100Z 04004KT 330V100 6000 FEW030 BKN100 19/08 Q1023 TEMPO 4500 BR
0,[Scattered Clouds],1996-12-19,[6.0 °C],[],[-],,[45%],[N/A],[1024 hPa],[18.0 °C],[8:00 PM],[8.0 km],[NE],"[13.0 km/h
		/ 3.6 m/s]",METAR VHHH 191200Z 04007KT 330V080 8000 FEW030 SCT100 18/06 Q1024 TEMPO 4500 BR
0,[Scattered Clouds],1996-12-19,[7.0 °C],[],[-],,[49%],[N/A],[1025 hPa],[18.0 °C],[9:00 PM],[8.0 km],[NE],"[13.0 km/h
		/ 3.6 m/s]",METAR VHHH 191300Z 04007KT 330V100 8000 FEW022 SCT100 18/07 Q1025 NOSIG
0,[Scattered Clouds],1996-12-19,[8.0 °C],[],[-],,[52%],[N/A],[1025 hPa],[18.0 °C],[10:00 PM],[8.0 km],[NNE],"[13.0 km/h
		/ 3.6 m/s]",METAR VHHH 191400Z 03007KT 340V090 8000 FEW022 SCT100 18/08 Q1025 NOSIG
0,[Scattered Clouds],1996-12-19,[10.0 °C],[],[-],,[63%],[N/A],[1025 hPa],[17.0 °C],[11:00 PM],[8.0 km],[NNE],"[16.7 km/h
		/ 4.6 m/s]",METAR VHHH 191500Z 03009KT 340V100 8000 FEW030 SCT090 17/10 Q1025 NOSIG
0,[Scattered Clouds],1996-12-20,[10.0 °C],[],"[31.5 km/h
		/ 8.7 m/s]",,[63%],[N/A],[1024 hPa],[17.0 °C],[12:00 AM],[8.0 km],[NE],"[13.0 km/h
		/ 3.6 m/s]",METAR VHHH 191600Z 05007G17KT 330V080 8000 FEW022 SCT090 17/10 Q1024 NOSIG
0,[Scattered Clouds],1996-12-20,[11.0 °C],[],[-],,[72%],[N/A],[1024 hPa],[16.0 °C],[2:00 AM],[7.0 km],[NNE],"[14.8 km/h
		/ 4.1 m/s]",METAR VHHH 191800Z 03008KT 350V070 7000 FEW025 SCT090 16/11 Q1024 NOSIG
0,[Scattered Clouds],1996-12-20,[11.0 °C],[],[-],,[72%],[N/A],[1024 hPa],[16.0 °C],[3:00 AM],[7.0 km],[NNE],"[18.5 km/h
		/ 5.1 m/s]",METAR VHHH 191900Z 03010KT 310V070 7000 FEW022 SCT090 16/11 Q1024 NOSIG
0,[Scattered Clouds],1996-12-20,[10.0 °C],[],[-],,[72%],[N/A],[1024 hPa],[15.0 °C],[4:00 AM],[7.0 km],[NNE],"[13.0 km/h
		/ 3.6 m/s]",METAR VHHH 192000Z 03007KT 350V080 7000 FEW025 SCT090 15/10 Q1024 NOSIG
0,[Scattered Clouds],1996-12-20,[9.0 °C],[],[-],,[67%],[N/A],[1024 hPa],[15.0 °C],[5:00 AM],[7.0 km],[NNE],"[13.0 km/h
		/ 3.6 m/s]",METAR VHHH 192100Z 03007KT 350V100 7000 FEW025 SCT090 15/09 Q1024 NOSIG
0,[Mostly Cloudy],1996-12-20,[8.0 °C],[],[-],,[67%],[N/A],[1025 hPa],[14.0 °C],[6:00 AM],[7.0 km],[NE],"[9.3 km/h
		/ 2.6 m/s]",METAR VHHH 192200Z 04005KT 320V120 7000 FEW025 BKN090 14/08 Q1025 NOSIG
0,[Scattered Clouds],1996-12-20,[7.0 °C],[],[-],,[63%],[N/A],[1025 hPa],[14.0 °C],[7:00 AM],[6.0 km],[NE],"[7.4 km/h
		/ 2.1 m/s]",METAR VHHH 192300Z 04004KT 010V180 6000 FEW030 SCT090 14/07 Q1025 NOSIG
0,[Partly Cloudy],1996-12-20,[7.0 °C],[],[-],,[59%],[N/A],[1026 hPa],[15.0 °C],[8:00 AM],[6.0 km],[NNE],"[11.1 km/h
		/ 3.1 m/s]",METAR VHHH 200000Z 03006KT 340V090 6000 FEW300 15/07 Q1026 NOSIG
0,[Partly Cloudy],1996-12-20,[7.0 °C],[],[-],,[52%],[N/A],[1026 hPa],[17.0 °C],[9:00 AM],[7.0 km],[NNE],"[9.3 km/h
		/ 2.6 m/s]",METAR VHHH 200100Z 03005KT 330V140 7000 FEW300 17/07 Q1026 NOSIG
0,[Scattered Clouds],1996-12-20,[7.0 °C],[],[-],,[49%],[N/A],[1026 hPa],[18.0 °C],[10:00 AM],[7.0 km],[East],"[20.4 km/h
		/ 5.7 m/s]",METAR VHHH 200200Z 09011KT 360V110 7000 SCT300 18/07 Q1026 NOSIG
0,[Scattered Clouds],1996-12-20,[7.0 °C],[],[-],,[46%],[N/A],[1025 hPa],[19.0 °C],[11:00 AM],[7.0 km],[East],"[20.4 km/h
		/ 5.7 m/s]",METAR VHHH 200300Z 09011KT 010V140 7000 SCT300 19/07 Q1025 NOSIG
0,[Scattered Clouds],1996-12-20,[7.0 °C],[],"[38.9 km/h
		/ 10.8 m/s]",,[43%],[N/A],[1024 hPa],[20.0 °C],[12:00 PM],[7.0 km],[NE],"[13.0 km/h
		/ 3.6 m/s]",METAR VHHH 200400Z 05007G21KT 320V190 7000 SCT300 20/07 Q1024 WS LDG RWY 13/31 NOSIG
0,[Scattered Clouds],1996-12-20,[7.0 °C],[],[-],,[40%],[N/A],[1023 hPa],[21.0 °C],[1:00 PM],[8.0 km],[East],"[13.0 km/h
		/ 3.6 m/s]",METAR VHHH 200500Z 10007KT 070V140 8000 SCT300 21/07 Q1023 NOSIG
0,[Clear],1996-12-20,[10.0 °C],[],[-],,[52%],[N/A],[1022 hPa],[20.0 °C],[3:00 PM],[7.0 km],[SE],"[18.5 km/h
		/ 5.1 m/s]",METAR VHHH 200700Z 13010KT 100V170 7000 SKC 20/10 Q1022 NOSIG
0,[Clear],1996-12-20,[10.0 °C],[],[-],,[56%],[N/A],[1022 hPa],[19.0 °C],[4:00 PM],[7.0 km],[SE],"[24.1 km/h
		/ 6.7 m/s]",METAR VHHH 200800Z 14013KT 100V190 7000 SKC 19/10 Q1022 NOSIG
0,[Clear],1996-12-20,[10.0 °C],[],[-],,[59%],[N/A],[1023 hPa],[18.0 °C],[6:00 PM],[7.0 km],[ESE],"[13.0 km/h
		/ 3.6 m/s]",METAR VHHH 201000Z 11007KT 070V140 7000 SKC 18/10 Q1023 NOSIG
0,[Clear],1996-12-20,[11.0 °C],[],[-],,[68%],[N/A],[1024 hPa],[17.0 °C],[8:00 PM],[-],[East],"[9.3 km/h
		/ 2.6 m/s]",METAR VHHH 201200Z 10005KT 060V150 CAVOK 17/11 Q1024 NOSIG
0,[Clear],1996-12-20,[12.0 °C],[],[-],,[72%],[N/A],[1025 hPa],[17.0 °C],[10:00 PM],[-],[ENE],"[7.4 km/h
		/ 2.1 m/s]",METAR VHHH 201400Z 07004KT 360V110 CAVOK 17/12 Q1025 NOSIG
0,[Partly Cloudy],1996-12-21,[12.0 °C],[],[-],,[72%],[N/A],[1024 hPa],[17.0 °C],[12:00 AM],[10.0 km],[East],"[9.3 km/h
		/ 2.6 m/s]",METAR VHHH 201600Z 10005KT 050V140 9999 FEW020 17/12 Q1024 NOSIG
0,[Scattered Clouds],1996-12-21,[12.0 °C],[],[-],,[72%],[N/A],[1024 hPa],[17.0 °C],[1:00 AM],[10.0 km],[ESE],"[7.4 km/h
		/ 2.1 m/s]",METAR VHHH 201700Z 11004KT 030V240 9999 FEW020 SCT028 17/12 Q1024 NOSIG
0,[Partly Cloudy],1996-12-21,[12.0 °C],[],[-],,[77%],[N/A],[1024 hPa],[16.0 °C],[2:00 AM],[10.0 km],[NNE],"[11.1 km/h
		/ 3.1 m/s]",METAR VHHH 201800Z 02006KT 350V070 9999 FEW020 16/12 Q1024 NOSIG
0,[Partly Cloudy],1996-12-21,[12.0 °C],[],[-],,[77%],[N/A],[1024 hPa],[16.0 °C],[3:00 AM],[9.0 km],[NE],"[9.3 km/h
		/ 2.6 m/s]",METAR VHHH 201900Z 04005KT 360V070 9000 FEW020 16/12 Q1024 NOSIG
0,[Partly Cloudy],1996-12-21,[10.0 °C],[],[-],,[72%],[N/A],[1023 hPa],[15.0 °C],[5:00 AM],[9.0 km],[ENE],"[9.3 km/h
		/ 2.6 m/s]",METAR VHHH 202100Z 06005KT 030V090 9000 FEW018 15/10 Q1023 NOSIG
0,[Clear],1996-12-21,[6.0 °C],[],[-],,[55%],[N/A],[1023 hPa],[15.0 °C],[6:00 AM],[9.0 km],[ENE],"[13.0 km/h
		/ 3.6 m/s]",METAR VHHH 202200Z 07007KT 040V100 9000 SKC 15/06 Q1023 NOSIG
0,[Clear],1996-12-21,[6.0 °C],[],[-],,[55%],[N/A],[1024 hPa],[15.0 °C],[7:00 AM],[9.0 km],[East],"[11.1 km/h
		/ 3.1 m/s]",METAR VHHH 202300Z 08006KT 010V100 9000 SKC 15/06 Q1024 NOSIG
0,[Clear],1996-12-21,[5.0 °C],[],[-],,[45%],[N/A],[1024 hPa],[17.0 °C],[9:00 AM],[8.0 km],[NE],"[13.0 km/h
		/ 3.6 m/s]",METAR VHHH 210100Z 04007KT 320V080 8000 SKC 17/05 Q1024 NOSIG
0,[Clear],1996-12-21,[7.0 °C],[],[-],,[46%],[N/A],[1024 hPa],[19.0 °C],[10:00 AM],[8.0 km],[East],"[16.7 km/h
		/ 4.6 m/s]",METAR VHHH 210200Z 10009KT 050V140 8000 SKC 19/07 Q1024 NOSIG
0,[Clear],1996-12-21,[7.0 °C],[],[-],,[40%],[N/A],[1022 hPa],[21.0 °C],[12:00 PM],[9.0 km],[East],"[7.4 km/h
		/ 2.1 m/s]",METAR VHHH 210400Z 08004KT 030V160 9000 SKC 21/07 Q1022 NOSIG
0,[Clear],1996-12-21,[8.0 °C],[],[-],,[43%],[N/A],[1021 hPa],[21.0 °C],[1:00 PM],[9.0 km],[SSE],"[24.1 km/h
		/ 6.7 m/s]",METAR VHHH 210500Z 15013KT 9000 SKC 21/08 Q1021 NOSIG
0,[Clear],1996-12-21,[9.0 °C],[],[-],,[46%],[N/A],[1020 hPa],[21.0 °C],[2:00 PM],[-],[SE],"[22.2 km/h
		/ 6.2 m/s]",METAR VHHH 210600Z 14012KT 120V190 CAVOK 21/09 Q1020 NOSIG
0,[Clear],1996-12-21,[10.0 °C],[],[-],,[49%],[N/A],[1020 hPa],[21.0 °C],[3:00 PM],[-],[SSE],"[22.2 km/h
		/ 6.2 m/s]",METAR VHHH 210700Z 15012KT CAVOK 21/10 Q1020 NOSIG
0,[Clear],1996-12-21,[10.0 °C],[],[-],,[59%],[N/A],[1020 hPa],[18.0 °C],[6:00 PM],[9.0 km],[East],"[11.1 km/h
		/ 3.1 m/s]",METAR VHHH 211000Z 09006KT 9000 SKC 18/10 Q1020 NOSIG
0,[Clear],1996-12-21,[10.0 °C],[],[-],,[59%],[N/A],[1021 hPa],[18.0 °C],[7:00 PM],[9.0 km],[East],"[9.3 km/h
		/ 2.6 m/s]",METAR VHHH 211100Z 10005KT 9000 SKC 18/10 Q1021 NOSIG
0,[Clear],1996-12-21,[10.0 °C],[],[-],,[59%],[N/A],[1021 hPa],[18.0 °C],[8:00 PM],[9.0 km],[ESE],"[11.1 km/h
		/ 3.1 m/s]",METAR VHHH 211200Z 11006KT 9000 SKC 18/10 Q1021 NOSIG
0,[Clear],1996-12-21,[11.0 °C],[],[-],,[64%],[N/A],[1022 hPa],[18.0 °C],[9:00 PM],[9.0 km],[East],"[9.3 km/h
		/ 2.6 m/s]",METAR VHHH 211300Z 09005KT 060V130 9000 SKC 18/11 Q1022 NOSIG
0,[Clear],1996-12-21,[12.0 °C],[],[-],,[68%],[N/A],[1022 hPa],[18.0 °C],[10:00 PM],[9.0 km],[ENE],"[13.0 km/h
		/ 3.6 m/s]",METAR VHHH 211400Z 07007KT 9000 SKC 18/12 Q1022 NOSIG
0,[Clear],1996-12-21,[12.0 °C],[],[-],,[68%],[N/A],[1022 hPa],[18.0 °C],[11:00 PM],[-],[East],"[13.0 km/h
		/ 3.6 m/s]",METAR VHHH 211500Z 08007KT CAVOK 18/12 Q1022 NOSIG
0,[Clear],1996-12-22,[-],[],[-],,[N/A%],[N/A],[1022 hPa],[-],[12:00 AM],[-],[East],"[14.8 km/h
		/ 4.1 m/s]",METAR VHHH 211600Z 08008KT CAVOK 17/21 Q1022 NOSIG
0,[Clear],1996-12-22,[12.0 °C],[],[-],,[72%],[N/A],[1022 hPa],[17.0 °C],[1:00 AM],[-],[ESE],"[11.1 km/h
		/ 3.1 m/s]",METAR VHHH 211700Z 11006KT CAVOK 17/12 Q1022 NOSIG
0,[Partly Cloudy],1996-12-22,[12.0 °C],[],[-],,[72%],[N/A],[1021 hPa],[17.0 °C],[2:00 AM],[10.0 km],[ESE],"[9.3 km/h
		/ 2.6 m/s]",METAR VHHH 211800Z 12005KT 9999 FEW025 17/12 Q1021 NOSIG
0,[Partly Cloudy],1996-12-22,[12.0 °C],[],[-],,[77%],[N/A],[1021 hPa],[16.0 °C],[3:00 AM],[10.0 km],[ESE],"[14.8 km/h
		/ 4.1 m/s]",METAR VHHH 211900Z 12008KT 070V150 9999 FEW025 16/12 Q1021 NOSIG
0,[Partly Cloudy],1996-12-22,[13.0 °C],[],[-],,[82%],[N/A],[1020 hPa],[16.0 °C],[4:00 AM],[10.0 km],[ESE],"[11.1 km/h
		/ 3.1 m/s]",METAR VHHH 212000Z 12006KT 070V140 9999 FEW025 16/13 Q1020 NOSIG
0,[Partly Cloudy],1996-12-22,[12.0 °C],[],[-],,[77%],[N/A],[1021 hPa],[16.0 °C],[5:00 AM],[10.0 km],[ESE],"[14.8 km/h
		/ 4.1 m/s]",METAR VHHH 212100Z 11008KT 080V150 9999 FEW020 16/12 Q1021 NOSIG
0,[Partly Cloudy],1996-12-22,[11.0 °C],[],[-],,[77%],[N/A],[1021 hPa],[15.0 °C],[6:00 AM],[10.0 km],[ESE],"[13.0 km/h
		/ 3.6 m/s]",METAR VHHH 212200Z 12007KT 080V160 9999 FEW025 15/11 Q1021 NOSIG
0,[Clear],1996-12-22,[9.0 °C],[],[-],,[63%],[N/A],[1022 hPa],[16.0 °C],[7:00 AM],[-],[ESE],"[11.1 km/h
		/ 3.1 m/s]",METAR VHHH 212300Z 11006KT 060V170 CAVOK 16/09 Q1022 NOSIG
0,[Clear],1996-12-22,[9.0 °C],[],[-],,[63%],[N/A],[1022 hPa],[16.0 °C],[8:00 AM],[-],[ESE],"[9.3 km/h
		/ 2.6 m/s]",METAR VHHH 220000Z 12005KT 080V160 CAVOK 16/09 Q1022 NOSIG
0,[Clear],1996-12-22,[7.0 °C],[],[-],,[49%],[N/A],[1022 hPa],[18.0 °C],[9:00 AM],[-],[ESE],"[13.0 km/h
		/ 3.6 m/s]",METAR VHHH 220100Z 11007KT 080V150 CAVOK 18/07 Q1022 NOSIG
0,[Clear],1996-12-22,[6.0 °C],[],[-],,[38%],[N/A],[1022 hPa],[21.0 °C],[11:00 AM],[-],[ESE],"[13.0 km/h
		/ 3.6 m/s]",METAR VHHH 220300Z 11007KT 040V130 CAVOK 21/06 Q1022 NOSIG
0,[Clear],1996-12-22,[7.0 °C],[],[-],,[38%],[N/A],[1021 hPa],[22.0 °C],[12:00 PM],[-],[SSE],"[13.0 km/h
		/ 3.6 m/s]",METAR VHHH 220400Z 16007KT 110V200 CAVOK 22/07 Q1021 NOSIG
0,[Clear],1996-12-22,[7.0 °C],[],[-],,[36%],[N/A],[1020 hPa],[23.0 °C],[1:00 PM],[-],[SSE],"[14.8 km/h
		/ 4.1 m/s]",METAR VHHH 220500Z 15008KT 130V200 CAVOK 23/07 Q1020 NOSIG
0,[Clear],1996-12-22,[6.0 °C],[],[-],,[35%],[N/A],[1019 hPa],[22.0 °C],[2:00 PM],[-],[SE],"[22.2 km/h
		/ 6.2 m/s]",METAR VHHH 220600Z 13012KT CAVOK 22/06 Q1019 NOSIG
0,[Clear],1996-12-22,[7.0 °C],[],[-],,[40%],[N/A],[1018 hPa],[21.0 °C],[3:00 PM],[-],[SE],"[18.5 km/h
		/ 5.1 m/s]",METAR VHHH 220700Z 14010KT 110V190 CAVOK 21/07 Q1018 NOSIG
0,[Clear],1996-12-22,[7.0 °C],[],[-],,[43%],[N/A],[1019 hPa],[20.0 °C],[5:00 PM],[-],[SE],"[13.0 km/h
		/ 3.6 m/s]",METAR VHHH 220900Z 13007KT 110V170 CAVOK 20/07 Q1019 NOSIG
0,[Clear],1996-12-22,[9.0 °C],[],[-],,[52%],[N/A],[1019 hPa],[19.0 °C],[6:00 PM],[-],[SE],"[9.3 km/h
		/ 2.6 m/s]",METAR VHHH 221000Z 13005KT CAVOK 19/09 Q1019 NOSIG
0,[Clear],1996-12-22,[10.0 °C],[],[-],,[56%],[N/A],[1019 hPa],[19.0 °C],[7:00 PM],[-],[SSE],"[7.4 km/h
		/ 2.1 m/s]",METAR VHHH 221100Z 15004KT 130V190 CAVOK 19/10 Q1019 NOSIG
0,[Clear],1996-12-22,[11.0 °C],[],[-],,[60%],[N/A],[1020 hPa],[19.0 °C],[8:00 PM],[-],[South],"[3.7 km/h
		/ 1.0 m/s]",METAR VHHH 221200Z 18002KT CAVOK 19/11 Q1020 NOSIG
0,[Clear],1996-12-23,[7.0 °C],[],[-],,[46%],[N/A],[1021 hPa],[19.0 °C],[12:00 AM],[-],[East],"[7.4 km/h
		/ 2.1 m/s]",METAR VHHH 221600Z 10004KT CAVOK 19/07 Q1021 NOSIG
0,[Clear],1996-12-23,[11.0 °C],[],[-],,[64%],[N/A],[1021 hPa],[18.0 °C],[1:00 AM],[-],[ESE],"[5.6 km/h
		/ 1.5 m/s]",METAR VHHH 221700Z 12003KT 080V140 CAVOK 18/11 Q1021 NOSIG
0,[Clear],1996-12-23,[12.0 °C],[],[-],,[72%],[N/A],[1021 hPa],[17.0 °C],[2:00 AM],[-],[Variable],"[1.9 km/h
		/ 0.5 m/s]",METAR VHHH 221800Z VRB01KT CAVOK 17/12 Q1021 NOSIG
0,[Clear],1996-12-23,[9.0 °C],[],[-],,[59%],[N/A],[1020 hPa],[17.0 °C],[3:00 AM],[-],[Variable],"[1.9 km/h
		/ 0.5 m/s]",METAR VHHH 221900Z VRB01KT CAVOK 17/09 Q1020 NOSIG
0,[Clear],1996-12-23,[11.0 °C],[],[-],,[68%],[N/A],[1020 hPa],[17.0 °C],[4:00 AM],[-],[ENE],"[7.4 km/h
		/ 2.1 m/s]",METAR VHHH 222000Z 06004KT 330V090 CAVOK 17/11 Q1020 NOSIG
0,[Clear],1996-12-23,[3.0 °C],[],[-],,[39%],[N/A],[1020 hPa],[17.0 °C],[6:00 AM],[-],[East],"[3.7 km/h
		/ 1.0 m/s]",METAR VHHH 222200Z 09002KT CAVOK 17/03 Q1020 NOSIG
0,[Clear],1996-12-23,[3.0 °C],[],[-],,[37%],[N/A],[1022 hPa],[18.0 °C],[8:00 AM],[-],[ENE],"[3.7 km/h
		/ 1.0 m/s]",METAR VHHH 230000Z 06002KT CAVOK 18/03 Q1022 NOSIG
0,[Clear],1996-12-23,[2.0 °C],[],[-],,[32%],[N/A],[1022 hPa],[19.0 °C],[9:00 AM],[-],[SSE],"[5.6 km/h
		/ 1.5 m/s]",METAR VHHH 230100Z 15003KT CAVOK 19/02 Q1022 NOSIG
0,[Clear],1996-12-23,[3.0 °C],[],[-],,[31%],[N/A],[1022 hPa],[21.0 °C],[11:00 AM],[-],[East],"[18.5 km/h
		/ 5.1 m/s]",METAR VHHH 230300Z 10010KT 060V140 CAVOK 21/03 Q1022 NOSIG
0,[Clear],1996-12-23,[5.0 °C],[],[-],,[35%],[N/A],[1021 hPa],[21.0 °C],[12:00 PM],[-],[East],"[24.1 km/h
		/ 6.7 m/s]",METAR VHHH 230400Z 10013KT 070V140 CAVOK 21/05 Q1021 NOSIG
0,[Clear],1996-12-23,[5.0 °C],[],[-],,[35%],[N/A],[1019 hPa],[21.0 °C],[2:00 PM],[-],[East],"[24.1 km/h
		/ 6.7 m/s]",METAR VHHH 230600Z 10013KT 030V130 CAVOK 21/05 Q1019 WS LDG RWY 13/31 NOSIG
0,[Clear],1996-12-23,[6.0 °C],[],[-],,[38%],[N/A],[1019 hPa],[21.0 °C],[3:00 PM],[-],[ENE],"[20.4 km/h
		/ 5.7 m/s]",METAR VHHH 230700Z 07011KT 030V130 CAVOK 21/06 Q1019 WS LDG RWY 13/31 NOSIG
0,[Clear],1996-12-23,[8.0 °C],[],[-],,[46%],[N/A],[1019 hPa],[20.0 °C],[5:00 PM],[-],[East],"[18.5 km/h
		/ 5.1 m/s]",METAR VHHH 230900Z 08010KT 040V120 CAVOK 20/08 Q1019 NOSIG
0,[Partly Cloudy],1996-12-23,[13.0 °C],[],[-],,[73%],[N/A],[1020 hPa],[18.0 °C],[7:00 PM],[10.0 km],[ENE],"[11.1 km/h
		/ 3.1 m/s]",METAR VHHH 231100Z 06006KT 080V180 9999 FEW020 18/13 Q1020 NOSIG
0,[Partly Cloudy],1996-12-23,[13.0 °C],[],[-],,[73%],[N/A],[1021 hPa],[18.0 °C],[8:00 PM],[10.0 km],[East],"[13.0 km/h
		/ 3.6 m/s]",METAR VHHH 231200Z 10007KT 070V140 9999 FEW017 18/13 Q1021 NOSIG
0,[Partly Cloudy],1996-12-23,[13.0 °C],[],[-],,[73%],[N/A],[1021 hPa],[18.0 °C],[11:00 PM],[10.0 km],[East],"[14.8 km/h
		/ 4.1 m/s]",METAR VHHH 231500Z 08008KT 030V110 9999 FEW018 18/13 Q1021 NOSIG
0,[Partly Cloudy],1996-12-24,[13.0 °C],[],[-],,[77%],[N/A],[1021 hPa],[17.0 °C],[12:00 AM],[10.0 km],[ENE],"[13.0 km/h
		/ 3.6 m/s]",METAR VHHH 231600Z 06007KT 340V140 9999 FEW018 17/13 Q1021 NOSIG
0,[Partly Cloudy],1996-12-24,[13.0 °C],[],[-],,[77%],[N/A],[1020 hPa],[17.0 °C],[2:00 AM],[10.0 km],[East],"[14.8 km/h
		/ 4.1 m/s]",METAR VHHH 231800Z 08008KT 030V130 9999 FEW018 17/13 Q1020 NOSIG
0,[Partly Cloudy],1996-12-24,[13.0 °C],[],[-],,[82%],[N/A],[1020 hPa],[16.0 °C],[3:00 AM],[10.0 km],[East],"[9.3 km/h
		/ 2.6 m/s]",METAR VHHH 231900Z 08005KT 010V160 9999 FEW018 16/13 Q1020 NOSIG
0,[Partly Cloudy],1996-12-24,[11.0 °C],[],[-],,[72%],[N/A],[1019 hPa],[16.0 °C],[4:00 AM],[10.0 km],[East],"[9.3 km/h
		/ 2.6 m/s]",METAR VHHH 232000Z 08005KT 010V120 9999 FEW020 16/11 Q1019 NOSIG
0,[Clear],1996-12-24,[10.0 °C],[],[-],,[59%],[N/A],[1020 hPa],[18.0 °C],[9:00 AM],[9.0 km],[SE],"[13.0 km/h
		/ 3.6 m/s]",METAR VHHH 240100Z 14007KT 9000 SKC 18/10 Q1020 NOSIG
0,[Clear],1996-12-24,[10.0 °C],[],[-],,[56%],[N/A],[1020 hPa],[19.0 °C],[10:00 AM],[9.0 km],[SSE],"[16.7 km/h
		/ 4.6 m/s]",METAR VHHH 240200Z 15009KT 090V170 9000 SKC 19/10 Q1020 NOSIG
0,[Clear],1996-12-24,[11.0 °C],[],[-],,[53%],[N/A],[1018 hPa],[21.0 °C],[12:00 PM],[8.0 km],[SE],"[20.4 km/h
		/ 5.7 m/s]",METAR VHHH 240400Z 13011KT 8000 SKC 21/11 Q1018 NOSIG
0,[Clear],1996-12-24,[11.0 °C],[],[-],,[56%],[N/A],[1016 hPa],[20.0 °C],[2:00 PM],[8.0 km],[SE],"[20.4 km/h
		/ 5.7 m/s]",METAR VHHH 240600Z 14011KT 8000 SKC 20/11 Q1016 NOSIG
0,[Clear],1996-12-24,[11.0 °C],[],[-],,[53%],[N/A],[1016 hPa],[21.0 °C],[3:00 PM],[8.0 km],[SE],"[20.4 km/h
		/ 5.7 m/s]",METAR VHHH 240700Z 13011KT 8000 SKC 21/11 Q1016 WS LDG RWY 13 NOSIG
0,[Clear],1996-12-24,[11.0 °C],[],[-],,[64%],[N/A],[1017 hPa],[18.0 °C],[6:00 PM],[9.0 km],[ESE],"[11.1 km/h
		/ 3.1 m/s]",METAR VHHH 241000Z 12006KT 9000 SKC 18/11 Q1017 NOSIG
0,[Clear],1996-12-24,[11.0 °C],[],[-],,[64%],[N/A],[1017 hPa],[18.0 °C],[7:00 PM],[-],[SE],"[11.1 km/h
		/ 3.1 m/s]",METAR VHHH 241100Z 13006KT CAVOK 18/11 Q1017 NOSIG
0,[Clear],1996-12-24,[11.0 °C],[],[-],,[64%],[N/A],[1018 hPa],[18.0 °C],[8:00 PM],[-],[East],"[7.4 km/h
		/ 2.1 m/s]",METAR VHHH 241200Z 10004KT CAVOK 18/11 Q1018 NOSIG
0,[Partly Cloudy],1996-12-24,[11.0 °C],[],[-],,[64%],[N/A],[1018 hPa],[18.0 °C],[9:00 PM],[8.0 km],[SE],"[9.3 km/h
		/ 2.6 m/s]",METAR VHHH 241300Z 13005KT 090V160 8000 FEW120 18/11 Q1018 NOSIG
0,[Partly Cloudy],1996-12-24,[11.0 °C],[],[-],,[64%],[N/A],[1018 hPa],[18.0 °C],[10:00 PM],[9.0 km],[ESE],"[11.1 km/h
		/ 3.1 m/s]",METAR VHHH 241400Z 11006KT 080V140 9000 FEW120 18/11 Q1018 NOSIG
0,[Clear],1996-12-24,[11.0 °C],[],[-],,[68%],[N/A],[1018 hPa],[17.0 °C],[11:00 PM],[9.0 km],[South],"[9.3 km/h
		/ 2.6 m/s]",METAR VHHH 241500Z 18005KT 090V230 9000 SKC 17/11 Q1018 NOSIG
0,[Clear],1996-12-25,[11.0 °C],[],[-],,[68%],[N/A],[1019 hPa],[17.0 °C],[12:00 AM],[-],[SSE],"[5.6 km/h
		/ 1.5 m/s]",METAR VHHH 241600Z 16003KT 130V220 CAVOK 17/11 Q1019 NOSIG
0,[Clear],1996-12-25,[11.0 °C],[],[-],,[82%],[N/A],[1018 hPa],[14.0 °C],[1:00 AM],[-],[SE],"[5.6 km/h
		/ 1.5 m/s]",METAR VHHH 241700Z 13003KT CAVOK 14/11 Q1018 NOSIG
0,[Clear],1996-12-25,[12.0 °C],[],[-],,[82%],[N/A],[1018 hPa],[15.0 °C],[2:00 AM],[8.0 km],[SE],"[9.3 km/h
		/ 2.6 m/s]",METAR VHHH 241800Z 13005KT 100V160 8000 SKC 15/12 Q1018 NOSIG
0,[Clear],1996-12-25,[11.0 °C],[],[-],,[77%],[N/A],[1017 hPa],[15.0 °C],[4:00 AM],[9.0 km],[West],"[1.9 km/h
		/ 0.5 m/s]",METAR VHHH 242000Z 28001KT 9000 SKC 15/11 Q1017 NOSIG
0,[Clear],1996-12-25,[11.0 °C],[],[-],,[88%],[N/A],[1016 hPa],[13.0 °C],[5:00 AM],[9.0 km],[WSW],"[7.4 km/h
		/ 2.1 m/s]",METAR VHHH 242100Z 24004KT 220V320 9000 SKC 13/11 Q1016 NOSIG
0,[Clear],1996-12-25,[11.0 °C],[],[-],,[77%],[N/A],[1017 hPa],[15.0 °C],[6:00 AM],[9.0 km],[SSE],"[9.3 km/h
		/ 2.6 m/s]",METAR VHHH 242200Z 15005KT 9000 SKC 15/11 Q1017 NOSIG
0,[Clear],1996-12-25,[6.0 °C],[],[-],,[52%],[N/A],[1018 hPa],[16.0 °C],[8:00 AM],[-],[ESE],"[11.1 km/h
		/ 3.1 m/s]",METAR VHHH 250000Z 12006KT CAVOK 16/06 Q1018 NOSIG
0,[Clear],1996-12-25,[5.0 °C],[],[-],,[40%],[N/A],[1019 hPa],[19.0 °C],[9:00 AM],[-],[East],"[7.4 km/h
		/ 2.1 m/s]",METAR VHHH 250100Z 08004KT 010V150 CAVOK 19/05 Q1019 NOSIG
0,[Clear],1996-12-25,[5.0 °C],[],[-],,[37%],[N/A],[1019 hPa],[20.0 °C],[10:00 AM],[-],[SE],"[1.9 km/h
		/ 0.5 m/s]",METAR VHHH 250200Z 14001KT CAVOK 20/05 Q1019 NOSIG
0,[Partly Cloudy],1996-12-25,[7.0 °C],[],[-],,[36%],[N/A],[1018 hPa],[23.0 °C],[12:00 PM],[9.0 km],[ESE],"[14.8 km/h
		/ 4.1 m/s]",METAR VHHH 250400Z 11008KT 9000 FEW080 23/07 Q1018 NOSIG
0,[Clear],1996-12-25,[10.0 °C],[],[-],,[49%],[N/A],[1015 hPa],[21.0 °C],[2:00 PM],[-],[SSE],"[24.1 km/h
		/ 6.7 m/s]",METAR VHHH 250600Z 15013KT CAVOK 21/10 Q1015 NOSIG
0,[Mostly Cloudy],1996-12-25,[12.0 °C],[],[-],,[64%],[N/A],[1016 hPa],[19.0 °C],[5:00 PM],[9.0 km],[SE],"[14.8 km/h
		/ 4.1 m/s]",METAR VHHH 250900Z 13008KT 9000 BKN080 19/12 Q1016 NOSIG
0,[Mostly Cloudy],1996-12-25,[13.0 °C],[],[-],,[68%],[N/A],[1016 hPa],[19.0 °C],[6:00 PM],[8.0 km],[SSE],"[13.0 km/h
		/ 3.6 m/s]",METAR VHHH 251000Z 15007KT 8000 BKN080 19/13 Q1016 NOSIG
0,[Mostly Cloudy],1996-12-25,[12.0 °C],[],[-],,[64%],[N/A],[1016 hPa],[19.0 °C],[7:00 PM],[9.0 km],[ESE],"[7.4 km/h
		/ 2.1 m/s]",METAR VHHH 251100Z 12004KT 9000 BKN080 19/12 Q1016 NOSIG
0,[Mostly Cloudy],1996-12-25,[13.0 °C],[],[-],,[68%],[N/A],[1017 hPa],[19.0 °C],[8:00 PM],[9.0 km],[East],"[9.3 km/h
		/ 2.6 m/s]",METAR VHHH 251200Z 09005KT 060V120 9000 BKN090 19/13 Q1017 NOSIG
0,[Mostly Cloudy],1996-12-25,[13.0 °C],[],[-],,[68%],[N/A],[1017 hPa],[19.0 °C],[10:00 PM],[9.0 km],[East],"[9.3 km/h
		/ 2.6 m/s]",METAR VHHH 251400Z 09005KT 9000 BKN090 19/13 Q1017 NOSIG
0,[Mostly Cloudy],1996-12-26,[12.0 °C],[],[-],,[60%],[N/A],[1017 hPa],[20.0 °C],[12:00 AM],[10.0 km],[SSE],"[18.5 km/h
		/ 5.1 m/s]",METAR VHHH 251600Z 15010KT 110V180 9999 FEW030 BKN080 20/12 Q1017 NOSIG
0,[Mostly Cloudy],1996-12-26,[14.0 °C],[],[-],,[73%],[N/A],[1017 hPa],[19.0 °C],[1:00 AM],[10.0 km],[East],"[13.0 km/h
		/ 3.6 m/s]",METAR VHHH 251700Z 09007KT 9999 FEW015 BKN080 19/14 Q1017 NOSIG
0,[Light Rain],1996-12-26,[13.0 °C],[Rain],[-],,[73%],[N/A],[1017 hPa],[18.0 °C],[2:00 AM],[10.0 km],[East],"[1.9 km/h
		/ 0.5 m/s]",METAR VHHH 251800Z 10001KT 9999 -RA FEW015 BKN080 18/13 Q1017 NOSIG
0,[Mostly Cloudy],1996-12-26,[15.0 °C],[],[-],,[88%],[N/A],[1016 hPa],[17.0 °C],[3:00 AM],[10.0 km],[East],"[13.0 km/h
		/ 3.6 m/s]",METAR VHHH 251900Z 09007KT 050V130 9999 FEW012 BKN080 17/15 Q1016 NOSIG
0,[Scattered Clouds],1996-12-26,[13.0 °C],[],[-],,[73%],[N/A],[1015 hPa],[18.0 °C],[5:00 AM],[10.0 km],[ESE],"[9.3 km/h
		/ 2.6 m/s]",METAR VHHH 252100Z 11005KT 050V180 9999 FEW012 SCT040 18/13 Q1015 NOSIG
0,[Partly Cloudy],1996-12-26,[13.0 °C],[],[-],,[77%],[N/A],[1016 hPa],[17.0 °C],[6:00 AM],[10.0 km],[ESE],"[11.1 km/h
		/ 3.1 m/s]",METAR VHHH 252200Z 11006KT 9999 FEW010 17/13 Q1016 NOSIG
0,[Scattered Clouds],1996-12-26,[13.0 °C],[],[-],,[77%],[N/A],[1016 hPa],[17.0 °C],[7:00 AM],[8.0 km],[East],"[11.1 km/h
		/ 3.1 m/s]",METAR VHHH 252300Z 10006KT 030V110 8000 FEW010 SCT040 17/13 Q1016 NOSIG
0,[Partly Cloudy],1996-12-26,[13.0 °C],[],[-],,[73%],[N/A],[1016 hPa],[18.0 °C],[8:00 AM],[8.0 km],[ESE],"[9.3 km/h
		/ 2.6 m/s]",METAR VHHH 260000Z 11005KT 070V150 8000 FEW015 18/13 Q1016 NOSIG
0,[Clear],1996-12-26,[13.0 °C],[],[-],,[64%],[N/A],[1017 hPa],[20.0 °C],[9:00 AM],[8.0 km],[SE],"[3.7 km/h
		/ 1.0 m/s]",METAR VHHH 260100Z 13002KT 8000 SKC 20/13 Q1017 NOSIG
0,[Clear],1996-12-26,[12.0 °C],[],[-],,[53%],[N/A],[1017 hPa],[22.0 °C],[10:00 AM],[8.0 km],[NE],"[11.1 km/h
		/ 3.1 m/s]",METAR VHHH 260200Z 04006KT 320V100 8000 SKC 22/12 Q1017 NOSIG
0,[Clear],1996-12-26,[13.0 °C],[],[-],,[53%],[N/A],[1016 hPa],[23.0 °C],[11:00 AM],[9.0 km],[SE],"[3.7 km/h
		/ 1.0 m/s]",METAR VHHH 260300Z 13002KT 9000 SKC 23/13 Q1016 NOSIG
0,[Partly Cloudy],1996-12-26,[13.0 °C],[],[-],,[53%],[N/A],[1016 hPa],[23.0 °C],[12:00 PM],[10.0 km],[SSE],"[14.8 km/h
		/ 4.1 m/s]",METAR VHHH 260400Z 16008KT 120V200 9999 FEW035 23/13 Q1016 NOSIG
0,[Scattered Clouds],1996-12-26,[12.0 °C],[],[-],,[44%],[N/A],[1015 hPa],[25.0 °C],[1:00 PM],[10.0 km],[SSE],"[9.3 km/h
		/ 2.6 m/s]",METAR VHHH 260500Z 15005KT 060V180 9999 FEW035 SCT100 25/12 Q1015 NOSIG
0,[Mostly Cloudy],1996-12-26,[13.0 °C],[],[-],,[53%],[N/A],[1014 hPa],[23.0 °C],[2:00 PM],[10.0 km],[SE],"[13.0 km/h
		/ 3.6 m/s]",METAR VHHH 260600Z 13007KT 070V250 9999 FEW035 BKN090 23/13 Q1014 NOSIG
0,[Mostly Cloudy],1996-12-26,[12.0 °C],[],[-],,[50%],[N/A],[1014 hPa],[23.0 °C],[3:00 PM],[10.0 km],[SSW],"[3.7 km/h
		/ 1.0 m/s]",METAR VHHH 260700Z 20002KT 080V290 9999 SCT030 BKN090 23/12 Q1014 NOSIG
0,[Mostly Cloudy],1996-12-26,[14.0 °C],[],[-],,[60%],[N/A],[1014 hPa],[22.0 °C],[4:00 PM],[10.0 km],[ESE],"[9.3 km/h
		/ 2.6 m/s]",METAR VHHH 260800Z 12005KT 100V260 9999 SCT030 BKN090 22/14 Q1014 NOSIG
0,[Mostly Cloudy],1996-12-26,[12.0 °C],[],[-],,[53%],[N/A],[1014 hPa],[22.0 °C],[5:00 PM],[10.0 km],[ESE],"[18.5 km/h
		/ 5.1 m/s]",METAR VHHH 260900Z 12010KT 9999 SCT030 BKN090 22/12 Q1014 NOSIG
0,[Mostly Cloudy],1996-12-26,[14.0 °C],[],[-],,[68%],[N/A],[1015 hPa],[20.0 °C],[6:00 PM],[10.0 km],[East],"[14.8 km/h
		/ 4.1 m/s]",METAR VHHH 261000Z 08008KT 9999 SCT030 BKN090 20/14 Q1015 NOSIG
0,[Mostly Cloudy],1996-12-26,[15.0 °C],[],[-],,[73%],[N/A],[1016 hPa],[20.0 °C],[8:00 PM],[10.0 km],[East],"[13.0 km/h
		/ 3.6 m/s]",METAR VHHH 261200Z 10007KT 080V140 9999 FEW018 SCT030 BKN090 20/15 Q1016 NOSIG
0,[Mostly Cloudy],1996-12-26,[15.0 °C],[],[-],,[73%],[N/A],[1017 hPa],[20.0 °C],[9:00 PM],[10.0 km],[ESE],"[9.3 km/h
		/ 2.6 m/s]",METAR VHHH 261300Z 12005KT 080V140 9999 FEW018 BKN080 20/15 Q1017 NOSIG
0,[Mostly Cloudy],1996-12-26,[16.0 °C],[],[-],,[78%],[N/A],[1017 hPa],[20.0 °C],[10:00 PM],[10.0 km],[ESE],"[16.7 km/h
		/ 4.6 m/s]",METAR VHHH 261400Z 11009KT 060V140 9999 FEW018 BKN080 20/16 Q1017 NOSIG
0,[Mostly Cloudy],1996-12-26,[15.0 °C],[],[-],,[73%],[N/A],[1017 hPa],[20.0 °C],[11:00 PM],[10.0 km],[East],"[18.5 km/h
		/ 5.1 m/s]",METAR VHHH 261500Z 10010KT 070V130 9999 FEW018 BKN080 20/15 Q1017 NOSIG
0,[Scattered Clouds],1996-12-27,[15.0 °C],[],[-],,[83%],[N/A],[1017 hPa],[18.0 °C],[2:00 AM],[10.0 km],[East],"[11.1 km/h
		/ 3.1 m/s]",METAR VHHH 261800Z 10006KT 020V150 9999 FEW018 SCT025 18/15 Q1017 NOSIG
0,[Scattered Clouds],1996-12-27,[15.0 °C],[],[-],,[83%],[N/A],[1016 hPa],[18.0 °C],[3:00 AM],[10.0 km],[East],"[7.4 km/h
		/ 2.1 m/s]",METAR VHHH 261900Z 10004KT 070V140 9999 FEW018 SCT025 18/15 Q1016 NOSIG
0,[Scattered Clouds],1996-12-27,[14.0 °C],[],[-],,[77%],[N/A],[1017 hPa],[18.0 °C],[6:00 AM],[10.0 km],[NNE],"[11.1 km/h
		/ 3.1 m/s]",METAR VHHH 262200Z 03006KT 340V130 9999 FEW018 SCT025 18/14 Q1017 NOSIG
0,[Scattered Clouds],1996-12-27,[15.0 °C],[],"[27.8 km/h
		/ 7.7 m/s]",,[83%],[N/A],[1018 hPa],[18.0 °C],[7:00 AM],[10.0 km],[ESE],"[9.3 km/h
		/ 2.6 m/s]",METAR VHHH 262300Z 11005G15KT 9999 FEW016 SCT025 18/15 Q1018 NOSIG
0,[Scattered Clouds],1996-12-27,[15.0 °C],[],[-],,[83%],[N/A],[1019 hPa],[18.0 °C],[8:00 AM],[9.0 km],[East],"[7.4 km/h
		/ 2.1 m/s]",METAR VHHH 270000Z 10004KT 060V120 9000 FEW016 SCT025 18/15 Q1019 NOSIG
0,[Partly Cloudy],1996-12-27,[13.0 °C],[],[-],,[64%],[N/A],[1020 hPa],[20.0 °C],[9:00 AM],[9.0 km],[ESE],"[18.5 km/h
		/ 5.1 m/s]",METAR VHHH 270100Z 11010KT 060V130 9000 FEW020 20/13 Q1020 NOSIG
0,[Partly Cloudy],1996-12-27,[13.0 °C],[],[-],,[57%],[N/A],[1019 hPa],[22.0 °C],[12:00 PM],[10.0 km],[East],"[25.9 km/h
		/ 7.2 m/s]",METAR VHHH 270400Z 08014KT 030V120 9999 FEW030 22/13 Q1019 NOSIG
0,[Partly Cloudy],1996-12-27,[11.0 °C],[],[-],,[53%],[N/A],[1018 hPa],[21.0 °C],[2:00 PM],[10.0 km],[ENE],"[14.8 km/h
		/ 4.1 m/s]",METAR VHHH 270600Z 06008KT 010V180 9999 FEW025 21/11 Q1018 WS LDG RWY 13/31 NOSIG
0,[Partly Cloudy],1996-12-27,[12.0 °C],[],[-],,[53%],[N/A],[1017 hPa],[22.0 °C],[3:00 PM],[10.0 km],[East],"[18.5 km/h
		/ 5.1 m/s]",METAR VHHH 270700Z 09010KT 020V140 9999 FEW030 22/12 Q1017 NOSIG
0,[Clear],1996-12-27,[13.0 °C],[],[-],,[64%],[N/A],[1017 hPa],[20.0 °C],[5:00 PM],[-],[East],"[20.4 km/h
		/ 5.7 m/s]",METAR VHHH 270900Z 09011KT 010V120 CAVOK 20/13 Q1017 NOSIG
0,[Clear],1996-12-27,[14.0 °C],[],[-],,[73%],[N/A],[1018 hPa],[19.0 °C],[7:00 PM],[-],[ENE],"[20.4 km/h
		/ 5.7 m/s]",METAR VHHH 271100Z 06011KT 020V100 CAVOK 19/14 Q1018 NOSIG
0,[Clear],1996-12-27,[14.0 °C],[],[-],,[73%],[N/A],[1019 hPa],[19.0 °C],[8:00 PM],[-],[East],"[13.0 km/h
		/ 3.6 m/s]",METAR VHHH 271200Z 10007KT 060V150 CAVOK 19/14 Q1019 NOSIG
0,[Clear],1996-12-27,[13.0 °C],[],[-],,[68%],[N/A],[1019 hPa],[19.0 °C],[9:00 PM],[-],[East],"[11.1 km/h
		/ 3.1 m/s]",METAR VHHH 271300Z 09006KT 350V140 CAVOK 19/13 Q1019 NOSIG
0,[Clear],1996-12-27,[13.0 °C],[],[-],,[68%],[N/A],[1020 hPa],[19.0 °C],[10:00 PM],[-],[East],"[13.0 km/h
		/ 3.6 m/s]",METAR VHHH 271400Z 10007KT 060V140 CAVOK 19/13 Q1020 NOSIG
0,[Clear],1996-12-27,[13.0 °C],[],[-],,[73%],[N/A],[1020 hPa],[18.0 °C],[11:00 PM],[-],[East],"[14.8 km/h
		/ 4.1 m/s]",METAR VHHH 271500Z 10008KT 060V150 CAVOK 18/13 Q1020 NOSIG
0,[Clear],1996-12-28,[13.0 °C],[],[-],,[73%],[N/A],[1019 hPa],[18.0 °C],[1:00 AM],[-],[East],"[16.7 km/h
		/ 4.6 m/s]",METAR VHHH 271700Z 10009KT 060V150 CAVOK 18/13 Q1019 NOSIG
0,[Clear],1996-12-28,[13.0 °C],[],[-],,[73%],[N/A],[1019 hPa],[18.0 °C],[2:00 AM],[-],[East],"[14.8 km/h
		/ 4.1 m/s]",METAR VHHH 271800Z 10008KT 020V150 CAVOK 18/13 Q1019 NOSIG
0,[Clear],1996-12-28,[13.0 °C],[],[-],,[73%],[N/A],[1018 hPa],[18.0 °C],[3:00 AM],[-],[East],"[18.5 km/h
		/ 5.1 m/s]",METAR VHHH 271900Z 09010KT 050V150 CAVOK 18/13 Q1018 NOSIG
0,[Clear],1996-12-28,[12.0 °C],[],[-],,[72%],[N/A],[1018 hPa],[17.0 °C],[4:00 AM],[-],[East],"[16.7 km/h
		/ 4.6 m/s]",METAR VHHH 272000Z 09009KT 060V160 CAVOK 17/12 Q1018 NOSIG
0,[Clear],1996-12-28,[13.0 °C],[],[-],,[77%],[N/A],[1019 hPa],[17.0 °C],[5:00 AM],[-],[East],"[16.7 km/h
		/ 4.6 m/s]",METAR VHHH 272100Z 10009KT 050V150 CAVOK 17/13 Q1019 NOSIG
0,[Clear],1996-12-28,[11.0 °C],[],[-],,[68%],[N/A],[1020 hPa],[17.0 °C],[7:00 AM],[-],[East],"[20.4 km/h
		/ 5.7 m/s]",METAR VHHH 272300Z 10011KT 060V130 CAVOK 17/11 Q1020 NOSIG
0,[Partly Cloudy],1996-12-28,[12.0 °C],[],[-],,[68%],[N/A],[1020 hPa],[18.0 °C],[8:00 AM],[10.0 km],[East],"[16.7 km/h
		/ 4.6 m/s]",METAR VHHH 280000Z 10009KT 040V150 9999 FEW025 18/12 Q1020 NOSIG
0,[Clear],1996-12-28,[12.0 °C],[],[-],,[60%],[N/A],[1020 hPa],[20.0 °C],[9:00 AM],[-],[East],"[25.9 km/h
		/ 7.2 m/s]",METAR VHHH 280100Z 09014KT 040V150 CAVOK 20/12 Q1020 NOSIG
0,[Clear],1996-12-28,[9.0 °C],[],[-],,[41%],[N/A],[1019 hPa],[23.0 °C],[1:00 PM],[-],[East],"[22.2 km/h
		/ 6.2 m/s]",METAR VHHH 280500Z 10012KT 060V140 CAVOK 23/09 Q1019 WS LDG RWY 13/31 NOSIG
0,[Partly Cloudy],1996-12-28,[9.0 °C],[],[-],,[43%],[N/A],[1018 hPa],[22.0 °C],[4:00 PM],[10.0 km],[ENE],"[14.8 km/h
		/ 4.1 m/s]",METAR VHHH 280800Z 07008KT 360V110 9999 FEW040 22/09 Q1018 WS LDG RWY 13/31 NOSIG
0,[Scattered Clouds],1996-12-28,[9.0 °C],[],[-],,[49%],[N/A],[1018 hPa],[20.0 °C],[6:00 PM],[10.0 km],[ENE],"[11.1 km/h
		/ 3.1 m/s]",METAR VHHH 281000Z 07006KT 030V110 9999 FEW040 SCT080 20/09 Q1018 NOSIG
0,[Scattered Clouds],1996-12-28,[11.0 °C],[],[-],,[56%],[N/A],[1019 hPa],[20.0 °C],[7:00 PM],[10.0 km],[East],"[11.1 km/h
		/ 3.1 m/s]",METAR VHHH 281100Z 08006KT 050V110 9999 FEW040 SCT080 20/11 Q1019 NOSIG
0,[Mostly Cloudy],1996-12-28,[13.0 °C],[],[-],,[64%],[N/A],[1019 hPa],[20.0 °C],[8:00 PM],[10.0 km],[NE],"[13.0 km/h
		/ 3.6 m/s]",METAR VHHH 281200Z 05007KT 9999 FEW040 BKN080 20/13 Q1019 NOSIG
0,[Scattered Clouds],1996-12-28,[14.0 °C],[],[-],,[68%],[N/A],[1019 hPa],[20.0 °C],[9:00 PM],[10.0 km],[East],"[13.0 km/h
		/ 3.6 m/s]",METAR VHHH 281300Z 08007KT 030V110 9999 FEW040 SCT090 20/14 Q1019 NOSIG
0,[Mostly Cloudy],1996-12-28,[14.0 °C],[],[-],,[73%],[N/A],[1019 hPa],[19.0 °C],[10:00 PM],[10.0 km],[ENE],"[11.1 km/h
		/ 3.1 m/s]",METAR VHHH 281400Z 06006KT 010V150 9999 FEW040 BKN080 19/14 Q1019 NOSIG
0,[Mostly Cloudy],1996-12-29,[12.0 °C],[],[-],,[64%],[N/A],[1019 hPa],[19.0 °C],[12:00 AM],[10.0 km],[East],"[13.0 km/h
		/ 3.6 m/s]",METAR VHHH 281600Z 08007KT 030V120 9999 FEW040 BKN080 19/12 Q1019 NOSIG
0,[Mostly Cloudy],1996-12-29,[9.0 °C],[],[-],,[52%],[N/A],[1018 hPa],[19.0 °C],[2:00 AM],[10.0 km],[ESE],"[9.3 km/h
		/ 2.6 m/s]",METAR VHHH 281800Z 12005KT 060V160 9999 FEW040 BKN080 19/09 Q1018 NOSIG
0,[Mostly Cloudy],1996-12-29,[8.0 °C],[],[-],,[49%],[N/A],[1018 hPa],[19.0 °C],[3:00 AM],[10.0 km],[East],"[9.3 km/h
		/ 2.6 m/s]",METAR VHHH 281900Z 09005KT 040V130 9999 FEW040 BKN090 19/08 Q1018 NOSIG
0,[Mostly Cloudy],1996-12-29,[9.0 °C],[],[-],,[52%],[N/A],[1018 hPa],[19.0 °C],[4:00 AM],[10.0 km],[ESE],"[9.3 km/h
		/ 2.6 m/s]",METAR VHHH 282000Z 11005KT 070V150 9999 FEW040 BKN080 19/09 Q1018 NOSIG
0,[Clear],1996-12-29,[12.0 °C],[],[-],,[68%],[N/A],[1018 hPa],[18.0 °C],[7:00 AM],[-],[East],"[7.4 km/h
		/ 2.1 m/s]",METAR VHHH 282300Z 08004KT 050V120 CAVOK 18/12 Q1018 NOSIG
0,[Clear],1996-12-29,[13.0 °C],[],[-],,[73%],[N/A],[1019 hPa],[18.0 °C],[8:00 AM],[-],[East],"[9.3 km/h
		/ 2.6 m/s]",METAR VHHH 290000Z 10005KT 050V140 CAVOK 18/13 Q1019 (BKN080) NOSIG
0,[Clear],1996-12-29,[12.0 °C],[],[-],,[64%],[N/A],[1019 hPa],[19.0 °C],[9:00 AM],[-],[ENE],"[7.4 km/h
		/ 2.1 m/s]",METAR VHHH 290100Z 07004KT 050V140 CAVOK 19/12 Q1019 NOSIG
0,[Clear],1996-12-29,[11.0 °C],[],[-],,[50%],[N/A],[1018 hPa],[22.0 °C],[1:00 PM],[-],[SE],"[20.4 km/h
		/ 5.7 m/s]",METAR VHHH 290500Z 14011KT CAVOK 22/11 Q1018 NOSIG
0,[Clear],1996-12-29,[11.0 °C],[],[-],,[50%],[N/A],[1017 hPa],[22.0 °C],[2:00 PM],[-],[SE],"[22.2 km/h
		/ 6.2 m/s]",METAR VHHH 290600Z 14012KT CAVOK 22/11 Q1017 NOSIG
0,[Clear],1996-12-29,[11.0 °C],[],[-],,[53%],[N/A],[1017 hPa],[21.0 °C],[3:00 PM],[-],[SE],"[24.1 km/h
		/ 6.7 m/s]",METAR VHHH 290700Z 14013KT CAVOK 21/11 Q1017 NOSIG
0,[Clear],1996-12-29,[12.0 °C],[],[-],,[56%],[N/A],[1017 hPa],[21.0 °C],[4:00 PM],[-],[SE],"[20.4 km/h
		/ 5.7 m/s]",METAR VHHH 290800Z 13011KT CAVOK 21/12 Q1017 NOSIG
0,[Mostly Cloudy],1996-12-29,[15.0 °C],[],[-],,[78%],[N/A],[1018 hPa],[19.0 °C],[8:00 PM],[8.0 km],[SE],"[13.0 km/h
		/ 3.6 m/s]",METAR VHHH 291200Z 13007KT 8000 BKN080 19/15 Q1018 NOSIG
0,[Mostly Cloudy],1996-12-29,[13.0 °C],[],[-],,[68%],[N/A],[1018 hPa],[19.0 °C],[9:00 PM],[9.0 km],[ESE],"[7.4 km/h
		/ 2.1 m/s]",METAR VHHH 291300Z 11004KT 9000 BKN080 19/13 Q1018 NOSIG
0,[Unknown],1996-12-29,[13.0 °C],[],[-],,[68%],[N/A],[1019 hPa],[19.0 °C],[10:00 PM],[9.0 km],[East],"[7.4 km/h
		/ 2.1 m/s]",METAR VHHH 291400Z 09004KT 9000 19/13 Q1019 NOSIG
0,[Unknown],1996-12-29,[14.0 °C],[],[-],,[77%],[N/A],[1018 hPa],[18.0 °C],[11:00 PM],[9.0 km],[East],"[11.1 km/h
		/ 3.1 m/s]",METAR VHHH 291500Z 08006KT 9000 18/14 Q1018 NOSIG
0,[Scattered Clouds],1996-12-30,[14.0 °C],[],[-],,[77%],[N/A],[1018 hPa],[18.0 °C],[12:00 AM],[9.0 km],[SE],"[7.4 km/h
		/ 2.1 m/s]",METAR VHHH 291600Z 14004KT 090V220 9000 SCT100 18/14 Q1018 NOSIG
0,[Partly Cloudy],1996-12-30,[13.0 °C],[],[-],,[77%],[N/A],[1018 hPa],[17.0 °C],[1:00 AM],[9.0 km],[SE],"[7.4 km/h
		/ 2.1 m/s]",METAR VHHH 291700Z 13004KT 090V150 9000 FEW100 17/13 Q1018 NOSIG
0,[Partly Cloudy],1996-12-30,[14.0 °C],[],[-],,[82%],[N/A],[1018 hPa],[17.0 °C],[2:00 AM],[8.0 km],[SE],"[9.3 km/h
		/ 2.6 m/s]",METAR VHHH 291800Z 14005KT 8000 FEW100 17/14 Q1018 NOSIG
0,[Partly Cloudy],1996-12-30,[14.0 °C],[],[-],,[88%],[N/A],[1018 hPa],[16.0 °C],[3:00 AM],[8.0 km],[SSE],"[7.4 km/h
		/ 2.1 m/s]",METAR VHHH 291900Z 15004KT 8000 FEW100 16/14 Q1018 NOSIG
0,[Partly Cloudy],1996-12-30,[14.0 °C],[],[-],,[88%],[N/A],[1018 hPa],[16.0 °C],[5:00 AM],[8.0 km],[SE],"[3.7 km/h
		/ 1.0 m/s]",METAR VHHH 292100Z 14002KT 8000 FEW100 16/14 Q1018 NOSIG
0,[Scattered Clouds],1996-12-30,[14.0 °C],[],[-],,[88%],[N/A],[1018 hPa],[16.0 °C],[6:00 AM],[8.0 km],[SE],"[7.4 km/h
		/ 2.1 m/s]",METAR VHHH 292200Z 14004KT 8000 SCT100 16/14 Q1018 NOSIG
0,[Scattered Clouds],1996-12-30,[14.0 °C],[],[-],,[88%],[N/A],[1018 hPa],[16.0 °C],[7:00 AM],[7.0 km],[SE],"[11.1 km/h
		/ 3.1 m/s]",METAR VHHH 292300Z 13006KT 7000 SCT100 16/14 Q1018 NOSIG
0,[Mostly Cloudy],1996-12-30,[14.0 °C],[],[-],,[82%],[N/A],[1019 hPa],[17.0 °C],[8:00 AM],[8.0 km],[SE],"[11.1 km/h
		/ 3.1 m/s]",METAR VHHH 300000Z 14006KT 8000 BKN090 17/14 Q1019 NOSIG
0,[Partly Cloudy],1996-12-30,[14.0 °C],[],[-],,[73%],[N/A],[1019 hPa],[19.0 °C],[9:00 AM],[6.0 km],[SE],"[11.1 km/h
		/ 3.1 m/s]",METAR VHHH 300100Z 14006KT 6000 FEW080 19/14 Q1019 NOSIG
0,[Clear],1996-12-30,[13.0 °C],[],[-],,[57%],[N/A],[1019 hPa],[22.0 °C],[11:00 AM],[6.0 km],[East],"[18.5 km/h
		/ 5.1 m/s]",METAR VHHH 300300Z 08010KT 060V120 6000 SKC 22/13 Q1019 NOSIG
0,[Clear],1996-12-30,[13.0 °C],[],[-],,[53%],[N/A],[1018 hPa],[23.0 °C],[1:00 PM],[7.0 km],[SE],"[24.1 km/h
		/ 6.7 m/s]",METAR VHHH 300500Z 14013KT 7000 SKC 23/13 Q1018 NOSIG
0,[Clear],1996-12-30,[13.0 °C],[],[-],,[53%],[N/A],[1017 hPa],[23.0 °C],[2:00 PM],[7.0 km],[SE],"[24.1 km/h
		/ 6.7 m/s]",METAR VHHH 300600Z 14013KT 7000 SKC 23/13 Q1017 NOSIG
0,[Clear],1996-12-30,[15.0 °C],[],[-],,[68%],[N/A],[1017 hPa],[21.0 °C],[5:00 PM],[6.0 km],[SE],"[20.4 km/h
		/ 5.7 m/s]",METAR VHHH 300900Z 14011KT 6000 SKC 21/15 Q1017 NOSIG
0,[Clear],1996-12-30,[15.0 °C],[],[-],,[78%],[N/A],[1017 hPa],[19.0 °C],[6:00 PM],[6.0 km],[SE],"[18.5 km/h
		/ 5.1 m/s]",METAR VHHH 301000Z 13010KT 6000 SKC 19/15 Q1017 NOSIG
0,[Clear],1996-12-30,[15.0 °C],[],[-],,[78%],[N/A],[1018 hPa],[19.0 °C],[7:00 PM],[6.0 km],[SE],"[16.7 km/h
		/ 4.6 m/s]",METAR VHHH 301100Z 13009KT 6000 SKC 19/15 Q1018 NOSIG
0,[Clear],1996-12-30,[15.0 °C],[],[-],,[73%],[N/A],[1018 hPa],[20.0 °C],[8:00 PM],[6.0 km],[ESE],"[9.3 km/h
		/ 2.6 m/s]",METAR VHHH 301200Z 12005KT 6000 SKC 20/15 Q1018 NOSIG
0,[Clear],1996-12-30,[15.0 °C],[],[-],,[73%],[N/A],[1018 hPa],[20.0 °C],[9:00 PM],[6.0 km],[East],"[11.1 km/h
		/ 3.1 m/s]",METAR VHHH 301300Z 09006KT 050V110 6000 SKC 20/15 Q1018 NOSIG
0,[Clear],1996-12-30,[16.0 °C],[],[-],,[78%],[N/A],[1019 hPa],[20.0 °C],[11:00 PM],[8.0 km],[ENE],"[14.8 km/h
		/ 4.1 m/s]",METAR VHHH 301500Z 07008KT 050V110 8000 SKC 20/16 Q1019 NOSIG
0,[Clear],1996-12-31,[15.0 °C],[],[-],,[78%],[N/A],[1018 hPa],[19.0 °C],[2:00 AM],[8.0 km],[ENE],"[16.7 km/h
		/ 4.6 m/s]",METAR VHHH 301800Z 07009KT 040V100 8000 SKC 19/15 Q1018 NOSIG
0,[Clear],1996-12-31,[16.0 °C],[],[-],,[83%],[N/A],[1017 hPa],[19.0 °C],[3:00 AM],[-],[East],"[20.4 km/h
		/ 5.7 m/s]",METAR VHHH 301900Z 08011KT CAVOK 19/16 Q1017 NOSIG
0,[Clear],1996-12-31,[16.0 °C],[],[-],,[88%],[N/A],[1017 hPa],[18.0 °C],[4:00 AM],[-],[East],"[20.4 km/h
		/ 5.7 m/s]",METAR VHHH 302000Z 08011KT CAVOK 18/16 Q1017 NOSIG
0,[Scattered Clouds],1996-12-31,[15.0 °C],[],[-],,[83%],[N/A],[1018 hPa],[18.0 °C],[6:00 AM],[8.0 km],[East],"[11.1 km/h
		/ 3.1 m/s]",METAR VHHH 302200Z 09006KT 010V140 8000 FEW020 SCT080 18/15 Q1018 NOSIG
0,[Mostly Cloudy],1996-12-31,[13.0 °C],[],[-],,[73%],[N/A],[1019 hPa],[18.0 °C],[7:00 AM],[9.0 km],[East],"[9.3 km/h
		/ 2.6 m/s]",METAR VHHH 302300Z 09005KT 030V160 9000 BKN080 18/13 Q1019 NOSIG
0,[Scattered Clouds],1996-12-31,[11.0 °C],[],[-],,[56%],[N/A],[1020 hPa],[20.0 °C],[9:00 AM],[9.0 km],[East],"[13.0 km/h
		/ 3.6 m/s]",METAR VHHH 310100Z 10007KT 060V150 9000 SCT100 20/11 Q1020 NOSIG
0,[Partly Cloudy],1996-12-31,[13.0 °C],[],[-],,[60%],[N/A],[1020 hPa],[21.0 °C],[10:00 AM],[8.0 km],[East],"[18.5 km/h
		/ 5.1 m/s]",METAR VHHH 310200Z 08010KT 020V140 8000 FEW100 21/13 Q1020 NOSIG
0,[Partly Cloudy],1996-12-31,[13.0 °C],[],[-],,[57%],[N/A],[1020 hPa],[22.0 °C],[11:00 AM],[9.0 km],[East],"[20.4 km/h
		/ 5.7 m/s]",METAR VHHH 310300Z 08011KT 040V110 9000 FEW100 22/13 Q1020 NOSIG
0,[Scattered Clouds],1996-12-31,[15.0 °C],[],[-],,[61%],[N/A],[1018 hPa],[23.0 °C],[1:00 PM],[9.0 km],[ENE],"[16.7 km/h
		/ 4.6 m/s]",METAR VHHH 310500Z 06009KT 030V120 9000 FEW025 SCT100 23/15 Q1018 NOSIG
0,[Scattered Clouds],1996-12-31,[15.0 °C],[],[-],,[64%],[N/A],[1017 hPa],[22.0 °C],[2:00 PM],[9.0 km],[SSE],"[20.4 km/h
		/ 5.7 m/s]",METAR VHHH 310600Z 15011KT 110V250 9000 FEW022 SCT300 22/15 Q1017 NOSIG
0,[Partly Cloudy],1996-12-31,[15.0 °C],[],[-],,[61%],[N/A],[1017 hPa],[23.0 °C],[3:00 PM],[9.0 km],[SE],"[18.5 km/h
		/ 5.1 m/s]",METAR VHHH 310700Z 14010KT 9000 FEW022 23/15 Q1017 NOSIG
0,[Clear],1996-12-31,[15.0 °C],[],[-],,[61%],[N/A],[1016 hPa],[23.0 °C],[4:00 PM],[-],[SE],"[18.5 km/h
		/ 5.1 m/s]",METAR VHHH 310800Z 13010KT CAVOK 23/15 Q1016 NOSIG
0,[Clear],1996-12-31,[16.0 °C],[],[-],,[73%],[N/A],[1017 hPa],[21.0 °C],[5:00 PM],[-],[SE],"[14.8 km/h
		/ 4.1 m/s]",METAR VHHH 310900Z 14008KT 120V190 CAVOK 21/16 Q1017 NOSIG
0,[Clear],1996-12-31,[15.0 °C],[],[-],,[73%],[N/A],[1018 hPa],[20.0 °C],[6:00 PM],[-],[SE],"[13.0 km/h
		/ 3.6 m/s]",METAR VHHH 311000Z 13007KT CAVOK 20/15 Q1018 NOSIG
0,[Clear],1996-12-31,[16.0 °C],[],[-],,[83%],[N/A],[1018 hPa],[19.0 °C],[7:00 PM],[-],[SE],"[13.0 km/h
		/ 3.6 m/s]",METAR VHHH 311100Z 13007KT CAVOK 19/16 Q1018 NOSIG
0,[Clear],1996-12-31,[16.0 °C],[],[-],,[83%],[N/A],[1019 hPa],[19.0 °C],[9:00 PM],[-],[SE],"[16.7 km/h
		/ 4.6 m/s]",METAR VHHH 311300Z 13009KT CAVOK 19/16 Q1019 NOSIG
0,[Clear],1996-12-31,[16.0 °C],[],[-],,[83%],[N/A],[1019 hPa],[19.0 °C],[10:00 PM],[-],[SE],"[13.0 km/h
		/ 3.6 m/s]",METAR VHHH 311400Z 14007KT CAVOK 19/16 Q1019 NOSIG
0,[Clear],1996-12-31,[16.0 °C],[],[-],,[88%],[N/A],[1018 hPa],[18.0 °C],[11:00 PM],[9.0 km],[SSE],"[11.1 km/h
		/ 3.1 m/s]",METAR VHHH 311500Z 16006KT 120V220 9000 SKC 18/16 Q1018 NOSIG
