,Conditions,Datestamp,Dew Point,Events,Gust Speed,Heat Index,Humidity,Precip,Pressure,Temp.,Time (HKT),Visibility,Wind Dir,Wind Speed,Mlabels
0,[Mostly Cloudy],1997-2-1,[17.0 °C],[],"[46.3 km/h
		/ 12.9 m/s]",,[83%],[N/A],[1016 hPa],[20.0 °C],[12:00 AM],[9.0 km],[East],"[27.8 km/h
		/ 7.7 m/s]",METAR VHHH 311600Z 08015G25KT 020V120 9000 FEW012 BKN020 20/17 Q1016 WS LDG RWY 13/31 NOSIG
0,[Mostly Cloudy],1997-2-1,[16.0 °C],[],[-],,[83%],[N/A],[1016 hPa],[19.0 °C],[1:00 AM],[8.0 km],[East],"[22.2 km/h
		/ 6.2 m/s]",METAR VHHH 311700Z 09012KT 340V120 8000 FEW010 BKN020 19/16 Q1016 WS LDG RWY 13/31 NOSIG
0,[Light Rain],1997-2-1,[16.0 °C],[Rain],"[44.4 km/h
		/ 12.3 m/s]",,[88%],[N/A],[1015 hPa],[18.0 °C],[2:00 AM],[6.0 km],[ENE],"[24.1 km/h
		/ 6.7 m/s]",METAR VHHH 311800Z 07013G24KT 020V110 6000 -RA FEW010 SCT015 BKN020 18/16 Q1015 WS LDG RWY 13/31 NOSIG
0,[Mostly Cloudy],1997-2-1,[15.0 °C],[],[-],,[83%],[N/A],[1015 hPa],[18.0 °C],[3:00 AM],[6.0 km],[East],"[24.1 km/h
		/ 6.7 m/s]",METAR VHHH 311900Z 08013KT 360V140 6000 FEW009 SCT015 BKN020 18/15 Q1015 WS LDG RWY 13/31 NOSIG
0,[Mostly Cloudy],1997-2-1,[14.0 °C],[],"[40.7 km/h
		/ 11.3 m/s]",,[82%],[N/A],[1016 hPa],[17.0 °C],[4:00 AM],[6.0 km],[East],"[20.4 km/h
		/ 5.7 m/s]",METAR VHHH 312000Z 09011G22KT 350V140 6000 FEW009 SCT015 BKN020 17/14 Q1016 WS LDG RWY 13/31 NOSIG
0,[Mostly Cloudy],1997-2-1,[14.0 °C],[],[-],,[82%],[N/A],[1016 hPa],[17.0 °C],[5:00 AM],[6.0 km],[East],"[27.8 km/h
		/ 7.7 m/s]",METAR VHHH 312100Z 09015KT 050V140 6000 SCT010 BKN018 17/14 Q1016 WS LDG RWY 13/31 TEMPO 5000 -RA
0,[Mostly Cloudy],1997-2-1,[13.0 °C],[],[-],,[77%],[N/A],[1016 hPa],[17.0 °C],[6:00 AM],[7.0 km],[East],"[25.9 km/h
		/ 7.2 m/s]",METAR VHHH 312200Z 10014KT 060V160 7000 FEW010 SCT015 BKN020 17/13 Q1016 WS LDG RWY 13/31 TEMPO 5000 -RA
0,[Mostly Cloudy],1997-2-1,[13.0 °C],[],"[46.3 km/h
		/ 12.9 m/s]",,[73%],[N/A],[1018 hPa],[18.0 °C],[9:00 AM],[6.0 km],[East],"[25.9 km/h
		/ 7.2 m/s]",METAR VHHH 010100Z 09014G25KT 050V130 6000 FEW015 SCT025 BKN100 18/13 Q1018 WS LDG RWY 13/31 TEMPO 5000 -RA
0,[Mostly Cloudy],1997-2-1,[13.0 °C],[],"[46.3 km/h
		/ 12.9 m/s]",,[73%],[N/A],[1018 hPa],[18.0 °C],[10:00 AM],[7.0 km],[East],"[27.8 km/h
		/ 7.7 m/s]",METAR VHHH 010200Z 09015G25KT 050V140 7000 FEW015 SCT025 BKN100 18/13 Q1018 WS LDG RWY 13/31 TEMPO 5000 -RA
0,[Mostly Cloudy],1997-2-1,[13.0 °C],[],"[48.2 km/h
		/ 13.4 m/s]",,[68%],[N/A],[1017 hPa],[19.0 °C],[11:00 AM],[6.0 km],[East],"[27.8 km/h
		/ 7.7 m/s]",METAR VHHH 010300Z 09015G26KT 040V130 6000 FEW014 SCT022 BKN100 19/13 Q1017 WS LDG RWY 13/31 TEMPO 5000 -RA
0,[Mostly Cloudy],1997-2-1,[12.0 °C],[],[-],,[64%],[N/A],[1015 hPa],[19.0 °C],[1:00 PM],[10.0 km],[East],"[27.8 km/h
		/ 7.7 m/s]",METAR VHHH 010500Z 10015KT 070V140 9999 SCT018 SCT025 BKN080 19/12 Q1015 WS LDG RWY 13/31 NOSIG
0,[Light Rain],1997-2-1,[12.0 °C],[Rain],[-],,[68%],[N/A],[1014 hPa],[18.0 °C],[2:00 PM],[10.0 km],[East],"[27.8 km/h
		/ 7.7 m/s]",METAR VHHH 010600Z 10015KT 9999 -RA FEW018 SCT025 BKN080 18/12 Q1014 WS LDG RWY 13/31 NOSIG
0,[Mostly Cloudy],1997-2-1,[14.0 °C],[],[-],,[77%],[N/A],[1014 hPa],[18.0 °C],[3:00 PM],[10.0 km],[East],"[25.9 km/h
		/ 7.2 m/s]",METAR VHHH 010700Z 10014KT 040V130 9999 FEW018 SCT025 BKN080 18/14 Q1014 WS LDG RWY 13/31 NOSIG
0,[Mostly Cloudy],1997-2-1,[13.0 °C],[],[-],,[73%],[N/A],[1013 hPa],[18.0 °C],[4:00 PM],[10.0 km],[East],"[25.9 km/h
		/ 7.2 m/s]",METAR VHHH 010800Z 10014KT 060V130 9999 FEW018 SCT025 BKN080 18/13 Q1013 WS LDG RWY 13/31 NOSIG
0,[Mostly Cloudy],1997-2-1,[13.0 °C],[],[-],,[68%],[N/A],[1013 hPa],[19.0 °C],[5:00 PM],[9.0 km],[East],"[29.6 km/h
		/ 8.2 m/s]",METAR VHHH 010900Z 10016KT 060V120 9000 FEW016 SCT025 BKN080 19/13 Q1013 WS LDG RWY 13/31 NOSIG
0,[Mostly Cloudy],1997-2-1,[14.0 °C],[],[-],,[77%],[N/A],[1014 hPa],[18.0 °C],[6:00 PM],[9.0 km],[East],"[18.5 km/h
		/ 5.1 m/s]",METAR VHHH 011000Z 10010KT 050V140 9000 FEW015 SCT025 BKN080 18/14 Q1014 WS LDG RWY 13/31 NOSIG
0,[Mostly Cloudy],1997-2-1,[14.0 °C],[],[-],,[77%],[N/A],[1014 hPa],[18.0 °C],[7:00 PM],[9.0 km],[East],"[20.4 km/h
		/ 5.7 m/s]",METAR VHHH 011100Z 09011KT 020V130 9000 SCT015 SCT022 BKN080 18/14 Q1014 WS LDG RWY 13/31 NOSIG
0,[Mostly Cloudy],1997-2-1,[15.0 °C],[],[-],,[83%],[N/A],[1015 hPa],[18.0 °C],[9:00 PM],[9.0 km],[East],"[18.5 km/h
		/ 5.1 m/s]",METAR VHHH 011300Z 10010KT 040V160 9000 SCT015 SCT022 BKN080 18/15 Q1015 WS LDG RWY 13/31 NOSIG
0,[Mostly Cloudy],1997-2-2,[15.0 °C],[],[-],,[83%],[N/A],[1014 hPa],[18.0 °C],[12:00 AM],[10.0 km],[East],"[20.4 km/h
		/ 5.7 m/s]",METAR VHHH 011600Z 09011KT 060V120 9999 FEW010 SCT022 BKN080 18/15 Q1014 WS LDG RWY 13 NOSIG
0,[Mostly Cloudy],1997-2-2,[15.0 °C],[],[-],,[88%],[N/A],[1013 hPa],[17.0 °C],[1:00 AM],[10.0 km],[East],"[22.2 km/h
		/ 6.2 m/s]",METAR VHHH 011700Z 09012KT 040V120 9999 FEW009 SCT020 BKN080 17/15 Q1013 WS LDG RWY 13 NOSIG
0,[Mostly Cloudy],1997-2-2,[16.0 °C],[],[-],,[88%],[N/A],[1012 hPa],[18.0 °C],[3:00 AM],[9.0 km],[East],"[16.7 km/h
		/ 4.6 m/s]",METAR VHHH 011900Z 10009KT 050V130 9000 FEW009 SCT018 BKN080 18/16 Q1012 WS LDG RWY 13 NOSIG
0,[Mostly Cloudy],1997-2-2,[-],[],[-],,[N/A%],[N/A],[-],[-],[4:00 AM],[9.0 km],[East],"[20.4 km/h
		/ 5.7 m/s]",METAR VHHH 012000Z 10011KT 070V150 9000 FEW009 SCT018 BKN080 WS LDG RWY 13 NOSIG
0,[Light Rain],1997-2-2,[16.0 °C],[Rain],[-],,[88%],[N/A],[1011 hPa],[18.0 °C],[5:00 AM],[8.0 km],[ESE],"[13.0 km/h
		/ 3.6 m/s]",METAR VHHH 012100Z 11007KT 050V130 8000 -RA FEW008 SCT018 BKN080 18/16 Q1011 WS LDG RWY 13 NOSIG
0,[Mostly Cloudy],1997-2-2,[16.0 °C],[],[-],,[88%],[N/A],[1012 hPa],[18.0 °C],[6:00 AM],[9.0 km],[ESE],"[13.0 km/h
		/ 3.6 m/s]",METAR VHHH 012200Z 11007KT 080V150 9000 FEW008 SCT018 BKN080 18/16 Q1012 WS LDG RWY 13 NOSIG
0,[Light Rain],1997-2-2,[16.0 °C],[Rain],[-],,[88%],[N/A],[1012 hPa],[18.0 °C],[7:00 AM],[9.0 km],[East],"[14.8 km/h
		/ 4.1 m/s]",METAR VHHH 012300Z 10008KT 040V130 9000 -RA FEW009 SCT018 BKN080 18/16 Q1012 NOSIG
0,[Mostly Cloudy],1997-2-2,[16.0 °C],[],[-],,[88%],[N/A],[1013 hPa],[18.0 °C],[8:00 AM],[8.0 km],[East],"[20.4 km/h
		/ 5.7 m/s]",METAR VHHH 020000Z 10011KT 060V120 8000 FEW007 SCT016 BKN080 18/16 Q1013 NOSIG
0,[Mostly Cloudy],1997-2-2,[17.0 °C],[],[-],,[88%],[N/A],[1013 hPa],[19.0 °C],[10:00 AM],[4.5 km],[East],"[13.0 km/h
		/ 3.6 m/s]",METAR VHHH 020200Z 10007KT 060V130 4500 BR FEW005 SCT012 BKN080 19/17 Q1013 TEMPO 4500 -RA
0,[Mostly Cloudy],1997-2-2,[17.0 °C],[],[-],,[83%],[N/A],[1012 hPa],[20.0 °C],[12:00 PM],[4.5 km],[East],"[14.8 km/h
		/ 4.1 m/s]",METAR VHHH 020400Z 10008KT 060V140 4500 BR FEW005 SCT012 BKN080 20/17 Q1012 TEMPO 4000 -RA
0,[Rain],1997-2-2,[17.0 °C],[Rain],[-],,[88%],[N/A],[1010 hPa],[19.0 °C],[3:00 PM],[-],[East],"[18.5 km/h
		/ 5.1 m/s]",METAR VHHH 020700Z 10010KT 4200 RA FEW008 SCT012 BKN080 19/17 Q1010 NOSIG
0,[Light Rain],1997-2-2,[17.0 °C],[Rain],[-],,[88%],[N/A],[1010 hPa],[19.0 °C],[4:00 PM],[6.0 km],[ESE],"[14.8 km/h
		/ 4.1 m/s]",METAR VHHH 020800Z 12008KT 6000 -RA FEW006 SCT012 BKN080 19/17 Q1010 RERA NOSIG
0,[Light Rain],1997-2-2,[17.0 °C],[Rain],[-],,[88%],[N/A],[1010 hPa],[19.0 °C],[5:00 PM],[4.0 km],[East],"[14.8 km/h
		/ 4.1 m/s]",METAR VHHH 020900Z 10008KT 4000 -RA FEW006 SCT012 BKN080 19/17 Q1010 NOSIG
0,[Mostly Cloudy],1997-2-2,[17.0 °C],[],[-],,[88%],[N/A],[1010 hPa],[19.0 °C],[6:00 PM],[-],[East],"[11.1 km/h
		/ 3.1 m/s]",METAR VHHH 021000Z 08006KT 040V120 4800 BR FEW008 SCT014 BKN080 19/17 Q1010 NOSIG
0,[Light Rain],1997-2-2,[17.0 °C],[Rain],[-],,[88%],[N/A],[1011 hPa],[19.0 °C],[7:00 PM],[-],[East],"[18.5 km/h
		/ 5.1 m/s]",METAR VHHH 021100Z 10010KT 060V140 4800 -RA BR FEW008 SCT012 BKN080 19/17 Q1011 NOSIG
0,[Rain],1997-2-2,[17.0 °C],[Rain],[-],,[88%],[N/A],[1012 hPa],[19.0 °C],[8:00 PM],[4.0 km],[SE],"[11.1 km/h
		/ 3.1 m/s]",METAR VHHH 021200Z 13006KT 090V160 4000 RA BR FEW006 SCT012 BKN080 19/17 Q1012 NOSIG
0,[Thunderstorms and Rain],1997-2-2,[17.0 °C],"[Rain
	,
Thunderstorm]",[-],,[88%],[N/A],[1013 hPa],[19.0 °C],[9:00 PM],[8.0 km],[East],"[18.5 km/h
		/ 5.1 m/s]",METAR VHHH 021300Z 09010KT 030V120 8000 TSRA FEW008 FEW012CB SCT014 BKN080 19/17 Q1013 RERA WS LDG RWY 13/31 TEMPO VRB15G28KT 3000 TSRA SCT006 SCT010 FEW012CB BKN080
0,[Rain],1997-2-2,[17.0 °C],[Rain],[-],,[94%],[N/A],[1012 hPa],[18.0 °C],[10:00 PM],[6.0 km],[East],"[25.9 km/h
		/ 7.2 m/s]",METAR VHHH 021400Z 08014KT 050V120 6000 RA FEW005 FEW010CB SCT012 BKN080 18/17 Q1012 RETS WS LDG RWY 13/31 TEMPO VRB15G28KT 3000 TSRA SCT006 SCT010 FEW012CB BKN080
0,[Light Rain],1997-2-3,[16.0 °C],[Rain],[-],,[88%],[N/A],[1013 hPa],[18.0 °C],[12:00 AM],[10.0 km],[East],"[25.9 km/h
		/ 7.2 m/s]",METAR VHHH 021600Z 09014KT 070V130 9999 -RA FEW008 SCT014 BKN080 18/16 Q1013 WS LDG RWY 13/31 TEMPO VRB15G28KT 3000 TSRA SCT006 SCT010 FEW012CB BKN080
0,[Light Rain],1997-2-3,[15.0 °C],[Rain],"[51.9 km/h
		/ 14.4 m/s]",,[88%],[N/A],[1012 hPa],[17.0 °C],[2:00 AM],[10.0 km],[East],"[29.6 km/h
		/ 8.2 m/s]",METAR VHHH 021800Z 10016G28KT 060V150 9999 -RA FEW008 SCT014 BKN080 17/15 Q1012 WS LDG RWY 13/31 TEMPO VRB15G28KT 3000 TSRA SCT006 SCT010 FEW012CB BKN080
0,[Light Rain],1997-2-3,[14.0 °C],[Rain],"[50.0 km/h
		/ 13.9 m/s]",,[88%],[N/A],[1012 hPa],[16.0 °C],[3:00 AM],[9.0 km],[East],"[25.9 km/h
		/ 7.2 m/s]",METAR VHHH 021900Z 09014G27KT 040V150 9000 -RA FEW008 SCT014 BKN080 16/14 Q1012 WS LDG RWY 13/31 TEMPO VRB15G28KT 3000 TSRA SCT006 SCT010 FEW012CB BKN080
0,[Light Rain],1997-2-3,[14.0 °C],[Rain],"[38.9 km/h
		/ 10.8 m/s]",,[88%],[N/A],[1013 hPa],[16.0 °C],[4:00 AM],[10.0 km],[ESE],"[18.5 km/h
		/ 5.1 m/s]",METAR VHHH 022000Z 11010G21KT 060V200 9999 -RA FEW006 SCT016 BKN080 16/14 Q1013 RERA WS LDG RWY 13/31 TEMPO VRB15G28KT 3000 TSRA SCT006 SCT010 FEW012CB BKN080
0,[Rain],1997-2-3,[14.0 °C],[Rain],"[55.6 km/h
		/ 15.4 m/s]",,[88%],[N/A],[1013 hPa],[16.0 °C],[5:00 AM],[9.0 km],[East],"[27.8 km/h
		/ 7.7 m/s]",METAR VHHH 022100Z 10015G30KT 030V150 9000 RA FEW006 SCT014 BKN080 16/14 Q1013 WS LDG RWY 13/31 TEMPO VRB15G28KT 3000 TSRA SCT006 SCT010 FEW012CB BKN080
0,[Light Rain],1997-2-3,[14.0 °C],[Rain],[-],,[88%],[N/A],[1013 hPa],[16.0 °C],[6:00 AM],[10.0 km],[ESE],"[20.4 km/h
		/ 5.7 m/s]",METAR VHHH 022200Z 11011KT 070V140 9999 -RA FEW006 SCT018 BKN080 16/14 Q1013 RERA WS LDG RWY 13/31 TEMPO VRB15G28KT 3000 TSRA SCT006 SCT010 FEW012CB BKN080
0,[Rain],1997-2-3,[14.0 °C],[Rain],"[55.6 km/h
		/ 15.4 m/s]",,[88%],[N/A],[1015 hPa],[16.0 °C],[8:00 AM],[6.0 km],[East],"[29.6 km/h
		/ 8.2 m/s]",METAR VHHH 030000Z 09016G30KT 040V150 6000 RA FEW008 BKN014 BKN080 16/14 Q1015 WS LDG RWY 13/31 TEMPO 4000 RA
0,[Light Rain],1997-2-3,[14.0 °C],[Rain],[-],,[88%],[N/A],[1015 hPa],[16.0 °C],[9:00 AM],[10.0 km],[ESE],"[18.5 km/h
		/ 5.1 m/s]",METAR VHHH 030100Z 11010KT 060V150 9999 -RA FEW008 SCT016 BKN080 16/14 Q1015 WS LDG RWY 13/31 TEMPO 4000 RA
0,[Mostly Cloudy],1997-2-3,[14.0 °C],[],[-],,[88%],[N/A],[1016 hPa],[16.0 °C],[10:00 AM],[10.0 km],[East],"[25.9 km/h
		/ 7.2 m/s]",METAR VHHH 030200Z 10014KT 060V130 9999 FEW013 SCT018 BKN080 16/14 Q1016 WS LDG RWY 13/31 TEMPO 4000 RA
0,[Mostly Cloudy],1997-2-3,[14.0 °C],[],"[53.7 km/h
		/ 14.9 m/s]",,[82%],[N/A],[1015 hPa],[17.0 °C],[11:00 AM],[10.0 km],[East],"[29.6 km/h
		/ 8.2 m/s]",METAR VHHH 030300Z 09016G29KT 050V160 9999 FEW013 SCT018 BKN080 17/14 Q1015 NOSIG
0,[Mostly Cloudy],1997-2-3,[13.0 °C],[],[-],,[82%],[N/A],[1015 hPa],[16.0 °C],[12:00 PM],[10.0 km],[East],"[24.1 km/h
		/ 6.7 m/s]",METAR VHHH 030400Z 10013KT 030V150 9999 FEW012 SCT018 BKN080 16/13 Q1015 WS LDG RWY 13/31 NOSIG
0,[Overcast],1997-2-3,[13.0 °C],[],[-],,[82%],[N/A],[1014 hPa],[16.0 °C],[1:00 PM],[10.0 km],[East],"[24.1 km/h
		/ 6.7 m/s]",METAR VHHH 030500Z 10013KT 060V140 9999 FEW010 SCT014 OVC080 16/13 Q1014 WS LDG RWY 13/31 NOSIG
0,[Rain Showers],1997-2-3,[13.0 °C],[Rain],[-],,[82%],[N/A],[1013 hPa],[16.0 °C],[2:00 PM],[10.0 km],[East],"[13.0 km/h
		/ 3.6 m/s]",METAR VHHH 030600Z 10007KT 050V160 9999 SHRA FEW008 SCT014 OVC080 16/13 Q1013 RERA WS LDG RWY 13/31 TEMPO 3000 RA
0,[Light Rain Showers],1997-2-3,[13.0 °C],[Rain],[-],,[82%],[N/A],[1013 hPa],[16.0 °C],[3:00 PM],[10.0 km],[ENE],"[13.0 km/h
		/ 3.6 m/s]",METAR VHHH 030700Z 07007KT 010V120 9999 -SHRA FEW010 SCT014 OVC080 16/13 Q1013 WS LDG RWY 13/31 NOSIG
0,[Light Rain],1997-2-3,[13.0 °C],[Rain],[-],,[88%],[N/A],[1013 hPa],[15.0 °C],[4:00 PM],[8.0 km],[ENE],"[11.1 km/h
		/ 3.1 m/s]",METAR VHHH 030800Z 06006KT 010V110 8000 -RA FEW008 SCT014 OVC080 15/13 Q1013 WS LDG RWY 13/31 TEMPO 3000 RA
0,[Light Rain],1997-2-3,[13.0 °C],[Rain],[-],,[88%],[N/A],[1014 hPa],[15.0 °C],[5:00 PM],[9.0 km],[NE],"[13.0 km/h
		/ 3.6 m/s]",METAR VHHH 030900Z 05007KT 350V090 9000 -RA FEW007 SCT014 OVC080 15/13 Q1014 WS LDG RWY 13/31 TEMPO 3000 RA
0,[Heavy Rain],1997-2-3,[13.0 °C],[Rain],[-],,[88%],[N/A],[1014 hPa],[15.0 °C],[6:00 PM],[-],[NE],"[5.6 km/h
		/ 1.5 m/s]",METAR VHHH 031000Z 04003KT 3600 +RA FEW007 BKN013 OVC080 15/13 Q1014 WS LDG RWY 13/31 TEMPO 3000 RA
0,[Rain],1997-2-3,[12.0 °C],[Rain],[-],,[88%],[N/A],[1015 hPa],[14.0 °C],[7:00 PM],[-],[NNW],"[11.1 km/h
		/ 3.1 m/s]",METAR VHHH 031100Z 34006KT 290V050 4300 RA FEW007 BKN016 OVC080 14/12 Q1015 RERA WS LDG RWY 13/31 TEMPO 3000 RA
0,[Light Rain],1997-2-3,[12.0 °C],[Rain],[-],,[82%],[N/A],[1015 hPa],[15.0 °C],[8:00 PM],[10.0 km],[ESE],"[18.5 km/h
		/ 5.1 m/s]",METAR VHHH 031200Z 11010KT 060V160 9999 -RA FEW007 SCT016 OVC080 15/12 Q1015 WS LDG RWY 13/31 TEMPO 3000 RA
0,[Mostly Cloudy],1997-2-3,[12.0 °C],[],[-],,[82%],[N/A],[1016 hPa],[15.0 °C],[9:00 PM],[10.0 km],[East],"[14.8 km/h
		/ 4.1 m/s]",METAR VHHH 031300Z 09008KT 350V140 9999 FEW010 SCT020 BKN080 15/12 Q1016 RERA WS LDG RWY 13/31 TEMPO 3000 RA
0,[Mostly Cloudy],1997-2-3,[12.0 °C],[],[-],,[82%],[N/A],[1016 hPa],[15.0 °C],[10:00 PM],[10.0 km],[East],"[16.7 km/h
		/ 4.6 m/s]",METAR VHHH 031400Z 10009KT 070V150 9999 FEW010 SCT020 BKN080 15/12 Q1016 WS LDG RWY 13/31 TEMPO 3000 RA
0,[Light Rain],1997-2-3,[13.0 °C],[Rain],[-],,[88%],[N/A],[1017 hPa],[15.0 °C],[11:00 PM],[10.0 km],[East],"[16.7 km/h
		/ 4.6 m/s]",METAR VHHH 031500Z 10009KT 050V120 9999 -RA FEW010 SCT016 BKN080 15/13 Q1017 NOSIG
0,[Mostly Cloudy],1997-2-4,[13.0 °C],[],[-],,[88%],[N/A],[1016 hPa],[15.0 °C],[12:00 AM],[10.0 km],[East],"[11.1 km/h
		/ 3.1 m/s]",METAR VHHH 031600Z 08006KT 360V110 9999 FEW010 SCT016 BKN080 15/13 Q1016 NOSIG
0,[Mostly Cloudy],1997-2-4,[13.0 °C],[],[-],,[88%],[N/A],[1016 hPa],[15.0 °C],[1:00 AM],[10.0 km],[East],"[14.8 km/h
		/ 4.1 m/s]",METAR VHHH 031700Z 10008KT 060V130 9999 FEW010 SCT014 BKN080 15/13 Q1016 NOSIG
0,[Mostly Cloudy],1997-2-4,[13.0 °C],[],[-],,[88%],[N/A],[1016 hPa],[15.0 °C],[2:00 AM],[10.0 km],[ENE],"[11.1 km/h
		/ 3.1 m/s]",METAR VHHH 031800Z 06006KT 010V100 9999 FEW010 SCT014 BKN080 15/13 Q1016 NOSIG
0,[Mostly Cloudy],1997-2-4,[12.0 °C],[],[-],,[88%],[N/A],[1016 hPa],[14.0 °C],[3:00 AM],[10.0 km],[NE],"[16.7 km/h
		/ 4.6 m/s]",METAR VHHH 031900Z 04009KT 350V090 9999 FEW007 SCT014 BKN080 14/12 Q1016 NOSIG
0,[Mostly Cloudy],1997-2-4,[12.0 °C],[],[-],,[88%],[N/A],[1015 hPa],[14.0 °C],[4:00 AM],[10.0 km],[ENE],"[9.3 km/h
		/ 2.6 m/s]",METAR VHHH 032000Z 07005KT 020V130 9999 FEW008 SCT014 BKN080 14/12 Q1015 NOSIG
0,[Mostly Cloudy],1997-2-4,[12.0 °C],[],[-],,[88%],[N/A],[1015 hPa],[14.0 °C],[5:00 AM],[10.0 km],[NE],"[7.4 km/h
		/ 2.1 m/s]",METAR VHHH 032100Z 05004KT 360V110 9999 FEW008 SCT014 BKN080 14/12 Q1015 NOSIG
0,[Mostly Cloudy],1997-2-4,[12.0 °C],[],[-],,[82%],[N/A],[1015 hPa],[15.0 °C],[6:00 AM],[10.0 km],[ENE],"[9.3 km/h
		/ 2.6 m/s]",METAR VHHH 032200Z 06005KT 350V170 9999 FEW014 SCT019 BKN080 15/12 Q1015 NOSIG
0,[Mostly Cloudy],1997-2-4,[12.0 °C],[],[-],,[82%],[N/A],[1016 hPa],[15.0 °C],[7:00 AM],[10.0 km],[NE],"[7.4 km/h
		/ 2.1 m/s]",METAR VHHH 032300Z 05004KT 9999 FEW015 SCT019 BKN080 15/12 Q1016 NOSIG
0,[Mostly Cloudy],1997-2-4,[11.0 °C],[],[-],,[77%],[N/A],[1017 hPa],[15.0 °C],[8:00 AM],[10.0 km],[East],"[3.7 km/h
		/ 1.0 m/s]",METAR VHHH 040000Z 08002KT 9999 FEW014 BKN040 15/11 Q1017 NOSIG
0,[Scattered Clouds],1997-2-4,[12.0 °C],[],[-],,[77%],[N/A],[1017 hPa],[16.0 °C],[9:00 AM],[10.0 km],[ENE],"[11.1 km/h
		/ 3.1 m/s]",METAR VHHH 040100Z 06006KT 290V160 9999 FEW014 SCT080 16/12 Q1017 NOSIG
0,[Mostly Cloudy],1997-2-4,[12.0 °C],[],[-],,[72%],[N/A],[1017 hPa],[17.0 °C],[11:00 AM],[10.0 km],[East],"[18.5 km/h
		/ 5.1 m/s]",METAR VHHH 040300Z 10010KT 060V130 9999 FEW016 BKN080 17/12 Q1017 NOSIG
0,[Mostly Cloudy],1997-2-4,[13.0 °C],[],[-],,[73%],[N/A],[1017 hPa],[18.0 °C],[12:00 PM],[10.0 km],[East],"[7.4 km/h
		/ 2.1 m/s]",METAR VHHH 040400Z 09004KT 350V140 9999 FEW016 BKN080 18/13 Q1017 NOSIG
0,[Mostly Cloudy],1997-2-4,[13.0 °C],[],[-],,[68%],[N/A],[1016 hPa],[19.0 °C],[1:00 PM],[10.0 km],[East],"[13.0 km/h
		/ 3.6 m/s]",METAR VHHH 040500Z 09007KT 030V120 9999 FEW016 SCT025 BKN080 19/13 Q1016 NOSIG
0,[Mostly Cloudy],1997-2-4,[13.0 °C],[],[-],,[73%],[N/A],[1015 hPa],[18.0 °C],[2:00 PM],[10.0 km],[East],"[9.3 km/h
		/ 2.6 m/s]",METAR VHHH 040600Z 08005KT 010V130 9999 FEW016 SCT022 BKN100 18/13 Q1015 NOSIG
0,[Mostly Cloudy],1997-2-4,[13.0 °C],[],[-],,[73%],[N/A],[1015 hPa],[18.0 °C],[3:00 PM],[10.0 km],[SSE],"[14.8 km/h
		/ 4.1 m/s]",METAR VHHH 040700Z 16008KT 140V210 9999 FEW016 SCT022 BKN100 18/13 Q1015 NOSIG
0,[Mostly Cloudy],1997-2-4,[14.0 °C],[],[-],,[77%],[N/A],[1015 hPa],[18.0 °C],[4:00 PM],[10.0 km],[East],"[7.4 km/h
		/ 2.1 m/s]",METAR VHHH 040800Z 08004KT 020V110 9999 FEW016 SCT022 BKN100 18/14 Q1015 NOSIG
0,[Mostly Cloudy],1997-2-4,[-],[],[-],,[N/A%],[N/A],[-],[-],[5:00 PM],[10.0 km],[East],"[14.8 km/h
		/ 4.1 m/s]",METAR VHHH 040900Z 09008KT 060V130 9999 FEW016 SCT025 BKN090 NOSIG
0,[Mostly Cloudy],1997-2-4,[13.0 °C],[],[-],,[73%],[N/A],[1016 hPa],[18.0 °C],[6:00 PM],[10.0 km],[ENE],"[7.4 km/h
		/ 2.1 m/s]",METAR VHHH 041000Z 06004KT 360V170 9999 FEW015 SCT025 BKN090 18/13 Q1016 NOSIG
0,[Mostly Cloudy],1997-2-4,[13.0 °C],[],[-],,[77%],[N/A],[1016 hPa],[17.0 °C],[7:00 PM],[10.0 km],[East],"[13.0 km/h
		/ 3.6 m/s]",METAR VHHH 041100Z 08007KT 060V120 9999 FEW014 SCT022 BKN090 17/13 Q1016 NOSIG
0,[Mostly Cloudy],1997-2-4,[13.0 °C],[],[-],,[77%],[N/A],[1017 hPa],[17.0 °C],[8:00 PM],[10.0 km],[NE],"[7.4 km/h
		/ 2.1 m/s]",METAR VHHH 041200Z 04004KT 010V100 9999 FEW012 SCT018 BKN080 17/13 Q1017 NOSIG
0,[Mostly Cloudy],1997-2-4,[13.0 °C],[],[-],,[77%],[N/A],[1018 hPa],[17.0 °C],[9:00 PM],[10.0 km],[ENE],"[7.4 km/h
		/ 2.1 m/s]",METAR VHHH 041300Z 06004KT 020V100 9999 FEW012 SCT018 BKN080 17/13 Q1018 NOSIG
0,[Mostly Cloudy],1997-2-4,[13.0 °C],[],[-],,[82%],[N/A],[1018 hPa],[16.0 °C],[10:00 PM],[10.0 km],[NE],"[5.6 km/h
		/ 1.5 m/s]",METAR VHHH 041400Z 04003KT 9999 FEW012 SCT018 BKN080 16/13 Q1018 NOSIG
0,[Mostly Cloudy],1997-2-4,[13.0 °C],[],[-],,[82%],[N/A],[1018 hPa],[16.0 °C],[11:00 PM],[10.0 km],[NNE],"[1.9 km/h
		/ 0.5 m/s]",METAR VHHH 041500Z 03001KT 9999 FEW011 SCT016 BKN080 16/13 Q1018 NOSIG
0,[Mostly Cloudy],1997-2-5,[13.0 °C],[],[-],,[82%],[N/A],[1018 hPa],[16.0 °C],[12:00 AM],[10.0 km],[East],"[3.7 km/h
		/ 1.0 m/s]",METAR VHHH 041600Z 09002KT 9999 FEW012 SCT018 BKN080 16/13 Q1018 NOSIG
0,[Mostly Cloudy],1997-2-5,[13.0 °C],[],[-],,[82%],[N/A],[1018 hPa],[16.0 °C],[1:00 AM],[10.0 km],[WNW],"[1.9 km/h
		/ 0.5 m/s]",METAR VHHH 041700Z 30001KT 9999 FEW012 SCT018 BKN080 16/13 Q1018 NOSIG
0,[Mostly Cloudy],1997-2-5,[13.0 °C],[],[-],,[82%],[N/A],[1018 hPa],[16.0 °C],[2:00 AM],[10.0 km],[SSE],"[1.9 km/h
		/ 0.5 m/s]",METAR VHHH 041800Z 15001KT 9999 FEW014 SCT020 BKN080 16/13 Q1018 NOSIG
0,[Mostly Cloudy],1997-2-5,[13.0 °C],[],[-],,[82%],[N/A],[1018 hPa],[16.0 °C],[3:00 AM],[10.0 km],[West],"[1.9 km/h
		/ 0.5 m/s]",METAR VHHH 041900Z 28001KT 9999 FEW014 SCT020 BKN080 16/13 Q1018 NOSIG
0,[Mostly Cloudy],1997-2-5,[12.0 °C],[],[-],,[82%],[N/A],[1017 hPa],[15.0 °C],[4:00 AM],[10.0 km],[NNW],"[1.9 km/h
		/ 0.5 m/s]",METAR VHHH 042000Z 33001KT 290V350 9999 FEW014 SCT025 BKN080 15/12 Q1017 NOSIG
0,[Mostly Cloudy],1997-2-5,[12.0 °C],[],[-],,[77%],[N/A],[1017 hPa],[16.0 °C],[5:00 AM],[10.0 km],[SSE],"[13.0 km/h
		/ 3.6 m/s]",METAR VHHH 042100Z 16007KT 110V170 9999 FEW014 BKN080 16/12 Q1017 NOSIG
0,[Mostly Cloudy],1997-2-5,[12.0 °C],[],[-],,[82%],[N/A],[1017 hPa],[15.0 °C],[6:00 AM],[10.0 km],[ESE],"[11.1 km/h
		/ 3.1 m/s]",METAR VHHH 042200Z 12006KT 9999 FEW014 BKN080 15/12 Q1017 NOSIG
0,[Mostly Cloudy],1997-2-5,[13.0 °C],[],[-],,[82%],[N/A],[1017 hPa],[16.0 °C],[7:00 AM],[10.0 km],[ENE],"[13.0 km/h
		/ 3.6 m/s]",METAR VHHH 042300Z 07007KT 350V120 9999 FEW014 BKN080 16/13 Q1017 NOSIG
0,[Mostly Cloudy],1997-2-5,[12.0 °C],[],[-],,[77%],[N/A],[1018 hPa],[16.0 °C],[8:00 AM],[10.0 km],[ESE],"[7.4 km/h
		/ 2.1 m/s]",METAR VHHH 050000Z 11004KT 350V190 9999 FEW012 SCT016 BKN100 16/12 Q1018 NOSIG
0,[Mostly Cloudy],1997-2-5,[12.0 °C],[],[-],,[77%],[N/A],[1019 hPa],[16.0 °C],[9:00 AM],[10.0 km],[ESE],"[11.1 km/h
		/ 3.1 m/s]",METAR VHHH 050100Z 12006KT 060V170 9999 FEW012 SCT016 BKN100 16/12 Q1019 NOSIG
0,[Mostly Cloudy],1997-2-5,[12.0 °C],[],[-],,[77%],[N/A],[1019 hPa],[16.0 °C],[10:00 AM],[10.0 km],[ESE],"[9.3 km/h
		/ 2.6 m/s]",METAR VHHH 050200Z 11005KT 060V160 9999 FEW012 SCT016 BKN100 16/12 Q1019 NOSIG
0,[Mostly Cloudy],1997-2-5,[12.0 °C],[],[-],,[68%],[N/A],[1019 hPa],[18.0 °C],[11:00 AM],[10.0 km],[East],"[16.7 km/h
		/ 4.6 m/s]",METAR VHHH 050300Z 08009KT 020V140 9999 FEW012 SCT018 BKN100 18/12 Q1019 NOSIG
0,[Mostly Cloudy],1997-2-5,[13.0 °C],[],[-],,[77%],[N/A],[1018 hPa],[17.0 °C],[12:00 PM],[10.0 km],[East],"[13.0 km/h
		/ 3.6 m/s]",METAR VHHH 050400Z 10007KT 060V130 9999 FEW012 SCT016 BKN100 17/13 Q1018 NOSIG
0,[Mostly Cloudy],1997-2-5,[13.0 °C],[],[-],,[77%],[N/A],[1018 hPa],[17.0 °C],[1:00 PM],[10.0 km],[SE],"[7.4 km/h
		/ 2.1 m/s]",METAR VHHH 050500Z 13004KT 080V210 9999 FEW012 SCT016 BKN100 17/13 Q1018 NOSIG
0,[Mostly Cloudy],1997-2-5,[13.0 °C],[],[-],,[73%],[N/A],[1017 hPa],[18.0 °C],[2:00 PM],[10.0 km],[East],"[9.3 km/h
		/ 2.6 m/s]",METAR VHHH 050600Z 09005KT 330V200 9999 FEW015 SCT022 BKN080 18/13 Q1017 NOSIG
0,[Mostly Cloudy],1997-2-5,[13.0 °C],[],[-],,[73%],[N/A],[1016 hPa],[18.0 °C],[3:00 PM],[9.0 km],[East],"[13.0 km/h
		/ 3.6 m/s]",METAR VHHH 050700Z 10007KT 040V140 9000 FEW015 SCT022 BKN080 18/13 Q1016 NOSIG
0,[Mostly Cloudy],1997-2-5,[13.0 °C],[],[-],,[73%],[N/A],[1016 hPa],[18.0 °C],[4:00 PM],[8.0 km],[SSE],"[14.8 km/h
		/ 4.1 m/s]",METAR VHHH 050800Z 15008KT 110V180 8000 FEW015 SCT022 BKN060 18/13 Q1016 NOSIG
0,[Mostly Cloudy],1997-2-5,[13.0 °C],[],[-],,[77%],[N/A],[1016 hPa],[17.0 °C],[5:00 PM],[9.0 km],[SE],"[11.1 km/h
		/ 3.1 m/s]",METAR VHHH 050900Z 14006KT 9000 FEW017 SCT022 BKN060 17/13 Q1016 NOSIG
0,[Mostly Cloudy],1997-2-5,[13.0 °C],[],[-],,[77%],[N/A],[1016 hPa],[17.0 °C],[6:00 PM],[9.0 km],[ESE],"[7.4 km/h
		/ 2.1 m/s]",METAR VHHH 051000Z 12004KT 080V140 9000 FEW017 SCT022 BKN060 17/13 Q1016 NOSIG
0,[Mostly Cloudy],1997-2-5,[12.0 °C],[],[-],,[72%],[N/A],[1016 hPa],[17.0 °C],[7:00 PM],[9.0 km],[ENE],"[5.6 km/h
		/ 1.5 m/s]",METAR VHHH 051100Z 06003KT 9000 FEW018 SCT025 BKN080 17/12 Q1016 NOSIG
0,[Mostly Cloudy],1997-2-5,[12.0 °C],[],[-],,[72%],[N/A],[1017 hPa],[17.0 °C],[8:00 PM],[9.0 km],[NE],"[9.3 km/h
		/ 2.6 m/s]",METAR VHHH 051200Z 05005KT 9000 FEW020 SCT025 BKN080 17/12 Q1017 NOSIG
0,[Mostly Cloudy],1997-2-5,[12.0 °C],[],[-],,[72%],[N/A],[1017 hPa],[17.0 °C],[9:00 PM],[10.0 km],[ENE],"[11.1 km/h
		/ 3.1 m/s]",METAR VHHH 051300Z 06006KT 030V110 9999 FEW016 SCT022 BKN090 17/12 Q1017 NOSIG
0,[Mostly Cloudy],1997-2-5,[10.0 °C],[],[-],,[63%],[N/A],[1018 hPa],[17.0 °C],[10:00 PM],[10.0 km],[ENE],"[7.4 km/h
		/ 2.1 m/s]",METAR VHHH 051400Z 07004KT 010V180 9999 FEW016 SCT022 BKN090 17/10 Q1018 NOSIG
0,[Light Rain],1997-2-5,[11.0 °C],[Rain],[-],,[72%],[N/A],[1018 hPa],[16.0 °C],[11:00 PM],[10.0 km],[NNE],"[11.1 km/h
		/ 3.1 m/s]",METAR VHHH 051500Z 03006KT 350V060 9999 -RA(60) FEW016 SCT020 BKN090 16/11 Q1018 TEMPO 5000 -RA
0,[Mostly Cloudy],1997-2-6,[11.0 °C],[],[-],,[72%],[N/A],[1018 hPa],[16.0 °C],[12:00 AM],[10.0 km],[NE],"[13.0 km/h
		/ 3.6 m/s]",METAR VHHH 051600Z 05007KT 350V120 9999 FEW014 SCT020 BKN080 16/11 Q1018 NOSIG
0,[Mostly Cloudy],1997-2-6,[13.0 °C],[],[-],,[82%],[N/A],[1018 hPa],[16.0 °C],[1:00 AM],[9.0 km],[NE],"[13.0 km/h
		/ 3.6 m/s]",METAR VHHH 051700Z 04007KT 340V110 9000 FEW013 SCT018 BKN080 16/13 Q1018 TEMPO 5000 -RA
0,[Mostly Cloudy],1997-2-6,[13.0 °C],[],[-],,[88%],[N/A],[1018 hPa],[15.0 °C],[2:00 AM],[9.0 km],[East],"[11.1 km/h
		/ 3.1 m/s]",METAR VHHH 051800Z 10006KT 040V150 9000 FEW010 SCT014 BKN060 15/13 Q1018 TEMPO 5000 -RA
0,[Light Rain],1997-2-6,[13.0 °C],[Rain],[-],,[88%],[N/A],[1017 hPa],[15.0 °C],[3:00 AM],[9.0 km],[NNE],"[9.3 km/h
		/ 2.6 m/s]",METAR VHHH 051900Z 02005KT 350V070 9000 -RA FEW008 SCT014 BKN060 15/13 Q1017 TEMPO 5000 -RA
0,[Light Rain],1997-2-6,[13.0 °C],[Rain],[-],,[88%],[N/A],[1016 hPa],[15.0 °C],[4:00 AM],[9.0 km],[NNE],"[14.8 km/h
		/ 4.1 m/s]",METAR VHHH 052000Z 03008KT 360V070 9000 -RA FEW008 SCT014 BKN060 15/13 Q1016 TEMPO 5000 -RA
0,[Rain],1997-2-6,[-],[Rain],[-],,[N/A%],[N/A],[-],[-],[5:00 AM],[7.0 km],[NNE],"[9.3 km/h
		/ 2.6 m/s]",METAR VHHH 052100Z 03005KT 7000 RA 63 FEW006 SCT014 BKN060 TEMPO 5000 -RA
0,[Rain],1997-2-6,[12.0 °C],[Rain],[-],,[88%],[N/A],[1017 hPa],[14.0 °C],[6:00 AM],[7.0 km],[ENE],"[13.0 km/h
		/ 3.6 m/s]",METAR VHHH 052200Z 07007KT 030V140 7000 RA FEW005 SCT011 BKN060 14/12 Q1017 TEMPO 5000 -RA
0,[Light Rain],1997-2-6,[12.0 °C],[Rain],[-],,[88%],[N/A],[1018 hPa],[14.0 °C],[7:00 AM],[7.0 km],[East],"[1.9 km/h
		/ 0.5 m/s]",METAR VHHH 052300Z 10001KT 7000 -RA FEW008 SCT014 BKN060 14/12 Q1018 TEMPO 5000 -RA
0,[Light Rain],1997-2-6,[13.0 °C],[Rain],[-],,[94%],[N/A],[1018 hPa],[14.0 °C],[8:00 AM],[7.0 km],[SSE],"[11.1 km/h
		/ 3.1 m/s]",METAR VHHH 060000Z 15006KT 100V190 7000 -RA61 FEW005 SCT014 BKN060 14/13 Q1018 NOSIG
0,[Light Rain],1997-2-6,[13.0 °C],[Rain],[-],,[88%],[N/A],[1018 hPa],[15.0 °C],[9:00 AM],[8.0 km],[SE],"[13.0 km/h
		/ 3.6 m/s]",METAR VHHH 060100Z 13007KT 090V160 8000 -RA(61) FEW005 SCT014 BKN060 15/13 Q1018 RERA TEMPO 5000 -RA
0,[Mostly Cloudy],1997-2-6,[12.0 °C],[],[-],,[82%],[N/A],[1018 hPa],[15.0 °C],[10:00 AM],[10.0 km],[SE],"[16.7 km/h
		/ 4.6 m/s]",METAR VHHH 060200Z 13009KT 070V190 9999 FEW008 SCT016 BKN080 15/12 Q1018 NOSIG
0,[Mostly Cloudy],1997-2-6,[13.0 °C],[],[-],,[82%],[N/A],[1018 hPa],[16.0 °C],[11:00 AM],[10.0 km],[East],"[13.0 km/h
		/ 3.6 m/s]",METAR VHHH 060300Z 10007KT 050V160 9999 FEW010 SCT016 BKN080 16/13 Q1018 NOSIG
0,[Mostly Cloudy],1997-2-6,[13.0 °C],[],[-],,[77%],[N/A],[1018 hPa],[17.0 °C],[12:00 PM],[10.0 km],[ESE],"[18.5 km/h
		/ 5.1 m/s]",METAR VHHH 060400Z 11010KT 280V160 9999 FEW011 SCT016 BKN080 17/13 Q1018 NOSIG
0,[Mostly Cloudy],1997-2-6,[13.0 °C],[],[-],,[77%],[N/A],[1016 hPa],[17.0 °C],[1:00 PM],[10.0 km],[East],"[14.8 km/h
		/ 4.1 m/s]",METAR VHHH 060500Z 10008KT 030V150 9999 FEW010 SCT016 BKN080 17/13 Q1016 NOSIG
0,[Mostly Cloudy],1997-2-6,[13.0 °C],[],[-],,[77%],[N/A],[1016 hPa],[17.0 °C],[2:00 PM],[10.0 km],[East],"[18.5 km/h
		/ 5.1 m/s]",METAR VHHH 060600Z 09010KT 030V130 9999 FEW009 SCT016 BKN080 17/13 Q1016 NOSIG
0,[Mostly Cloudy],1997-2-6,[13.0 °C],[],[-],,[82%],[N/A],[1015 hPa],[16.0 °C],[3:00 PM],[10.0 km],[East],"[11.1 km/h
		/ 3.1 m/s]",METAR VHHH 060700Z 08006KT 030V120 9999 FEW008 SCT015 BKN080 16/13 Q1015 NOSIG
0,[Mostly Cloudy],1997-2-6,[13.0 °C],[],[-],,[82%],[N/A],[1014 hPa],[16.0 °C],[4:00 PM],[10.0 km],[ESE],"[18.5 km/h
		/ 5.1 m/s]",METAR VHHH 060800Z 11010KT 050V150 9999 FEW008 SCT015 BKN080 16/13 Q1014 NOSIG
0,[Mostly Cloudy],1997-2-6,[13.0 °C],[],[-],,[82%],[N/A],[1014 hPa],[16.0 °C],[5:00 PM],[10.0 km],[East],"[14.8 km/h
		/ 4.1 m/s]",METAR VHHH 060900Z 10008KT 080V150 9999 EW008 SCT015 BKN080 16/13 Q1014 NOSIG
0,[Light Rain],1997-2-6,[13.0 °C],[Rain],[-],,[88%],[N/A],[1014 hPa],[15.0 °C],[6:00 PM],[8.0 km],[ESE],"[9.3 km/h
		/ 2.6 m/s]",METAR VHHH 061000Z 11005KT 070V150 8000 -RA FEW008 SCT014 BKN080 15/13 Q1014 TEMPO 5000 -RA
0,[Light Rain],1997-2-6,[13.0 °C],[Rain],[-],,[88%],[N/A],[1015 hPa],[15.0 °C],[7:00 PM],[8.0 km],[East],"[9.3 km/h
		/ 2.6 m/s]",METAR VHHH 061100Z 09005KT 030V140 8000 -RA FEW008 SCT014 BKN080 15/13 Q1015 TEMPO 5000 -RA
0,[Light Rain],1997-2-6,[13.0 °C],[Rain],[-],,[88%],[N/A],[1015 hPa],[15.0 °C],[8:00 PM],[9.0 km],[East],"[13.0 km/h
		/ 3.6 m/s]",METAR VHHH 061200Z 08007KT 010V150 9000 -RA FEW008 SCT014 BKN080 15/13 Q1015 TEMPO 5000 -RA
0,[Light Rain],1997-2-6,[13.0 °C],[Rain],[-],,[88%],[N/A],[1015 hPa],[15.0 °C],[9:00 PM],[9.0 km],[ESE],"[11.1 km/h
		/ 3.1 m/s]",METAR VHHH 061300Z 11006KT 050V180 9000 -RA FEW008 SCT014 BKN080 15/13 Q1015 TEMPO 5000 -RA
0,[Light Rain],1997-2-6,[13.0 °C],[Rain],[-],,[88%],[N/A],[1015 hPa],[15.0 °C],[10:00 PM],[8.0 km],[East],"[14.8 km/h
		/ 4.1 m/s]",METAR VHHH 061400Z 10008KT 060V150 8000 -RA FEW006 SCT014 BKN080 15/13 Q1015 RERA TEMPO 5000 -RA
0,[Light Rain],1997-2-6,[13.0 °C],[Rain],[-],,[88%],[N/A],[1015 hPa],[15.0 °C],[11:00 PM],[9.0 km],[ESE],"[16.7 km/h
		/ 4.6 m/s]",METAR VHHH 061500Z 11009KT 020V150 9000 -RA FEW008 SCT014 BKN080 15/13 Q1015 TEMPO 5000 -RA
0,[Light Rain],1997-2-7,[13.0 °C],[Rain],[-],,[88%],[N/A],[1015 hPa],[15.0 °C],[12:00 AM],[10.0 km],[East],"[14.8 km/h
		/ 4.1 m/s]",METAR VHHH 061600Z 10008KT 060V150 9999 -RA FEW010 SCT015 BKN080 15/13 Q1015 TEMPO 5000 -RA
0,[Rain],1997-2-7,[13.0 °C],[Rain],[-],,[88%],[N/A],[1014 hPa],[15.0 °C],[1:00 AM],[9.0 km],[East],"[18.5 km/h
		/ 5.1 m/s]",METAR VHHH 061700Z 10010KT 030V150 9000 RA FEW007 SCT014 BKN080 15/13 Q1014 WS LDG RWY 13/31 TEMPO 5000 -RA
0,[Light Rain],1997-2-7,[13.0 °C],[Rain],[-],,[88%],[N/A],[1013 hPa],[15.0 °C],[2:00 AM],[10.0 km],[East],"[14.8 km/h
		/ 4.1 m/s]",METAR VHHH 061800Z 10008KT 050V150 9999 -RA FEW010 SCT015 BKN080 15/13 Q1013 WS LDG RWY 13/31 TEMPO 5000 -RA
0,[Light Rain],1997-2-7,[13.0 °C],[Rain],[-],,[88%],[N/A],[1013 hPa],[15.0 °C],[3:00 AM],[10.0 km],[ESE],"[16.7 km/h
		/ 4.6 m/s]",METAR VHHH 061900Z 11009KT 050V160 9999 -RA FEW010 SCT015 BKN080 15/13 Q1013 WS LDG RWY 13/31 TEMPO 5000 -RA
0,[Light Rain],1997-2-7,[13.0 °C],[Rain],[-],,[88%],[N/A],[1012 hPa],[15.0 °C],[4:00 AM],[10.0 km],[East],"[14.8 km/h
		/ 4.1 m/s]",METAR VHHH 062000Z 10008KT 310V150 9999 -RA FEW010 SCT015 BKN080 15/13 Q1012 WS LDG RWY 13/31 TEMPO 5000 -RA
0,[Rain],1997-2-7,[13.0 °C],[Rain],[-],,[94%],[N/A],[1013 hPa],[14.0 °C],[5:00 AM],[8.0 km],[NNW],"[9.3 km/h
		/ 2.6 m/s]",METAR VHHH 062100Z 34005KT 300V100 8000 RA FEW008 SCT015 BKN080 14/13 Q1013 WS LG RWY 13/31 TEMPO 5000 RA
0,[Light Rain],1997-2-7,[12.0 °C],[Rain],[-],,[94%],[N/A],[1014 hPa],[13.0 °C],[6:00 AM],[7.0 km],[NNW],"[18.5 km/h
		/ 5.1 m/s]",METAR VHHH 062200Z 34010KT 7000 -RA FEW008 SCT015 BKN080 13/12 Q1014 WS LDG RWY 13/31 TEMPO 5000 RA
0,[Rain],1997-2-7,[12.0 °C],[Rain],[-],,[94%],[N/A],[1015 hPa],[13.0 °C],[7:00 AM],[4.0 km],[North],"[14.8 km/h
		/ 4.1 m/s]",METAR VHHH 062300Z 35008KT 4000 RA FEW006 SCT014 OVC080 13/12 Q1015 WS LDG RWY 13/31 TEMPO 4000 RA
0,[Mostly Cloudy],1997-2-7,[11.0 °C],[],[-],,[88%],[N/A],[1015 hPa],[13.0 °C],[8:00 AM],[10.0 km],[North],"[11.1 km/h
		/ 3.1 m/s]",METAR VHHH 070000Z 35006KT 300V020 9999 FEW007 SCT015 BKN080 13/11 Q1015 RERA WS LDG RWY 13/31 TEMPO 4000 RA
0,[Mostly Cloudy],1997-2-7,[11.0 °C],[],[-],,[77%],[N/A],[1015 hPa],[15.0 °C],[9:00 AM],[10.0 km],[Variable],"[1.9 km/h
		/ 0.5 m/s]",METAR VHHH 070100Z VRB01KT 9999 FEW014 SCT025 BKN090 15/11 Q1015 WS LDG RWY 13/31 NOSIG
0,[Mostly Cloudy],1997-2-7,[12.0 °C],[],[-],,[72%],[N/A],[1015 hPa],[17.0 °C],[10:00 AM],[10.0 km],[SE],"[5.6 km/h
		/ 1.5 m/s]",METAR VHHH 070200Z 14003KT 9999 FEW025 BKN090 17/12 Q1015 NOSIG
0,[Mostly Cloudy],1997-2-7,[13.0 °C],[],[-],,[73%],[N/A],[1015 hPa],[18.0 °C],[11:00 AM],[10.0 km],[SE],"[14.8 km/h
		/ 4.1 m/s]",METAR VHHH 070300Z 13008KT 9999 FEW025 BKN090 18/13 Q1015 NOSIG
0,[Mostly Cloudy],1997-2-7,[13.0 °C],[],[-],,[68%],[N/A],[1014 hPa],[19.0 °C],[12:00 PM],[10.0 km],[SW],"[13.0 km/h
		/ 3.6 m/s]",METAR VHHH 070400Z 22007KT 150V270 9999 FEW025 BKN090 19/13 Q1014 NOSIG
0,[Mostly Cloudy],1997-2-7,[13.0 °C],[],[-],,[73%],[N/A],[1014 hPa],[18.0 °C],[1:00 PM],[10.0 km],[SE],"[7.4 km/h
		/ 2.1 m/s]",METAR VHHH 070500Z 14004KT 110V180 9999 FEW013 SCT025 BKN080 18/13 Q1014 NOSIG
0,[Light Rain],1997-2-7,[13.0 °C],[Rain],[-],,[77%],[N/A],[1012 hPa],[17.0 °C],[2:00 PM],[10.0 km],[SW],"[9.3 km/h
		/ 2.6 m/s]",METAR VHHH 070600Z 22005KT 140V250 9999 -RA FEW014 SCT030 BKN080 17/13 Q1012 NOSIG
0,[Light Rain],1997-2-7,[13.0 °C],[Rain],[-],,[77%],[N/A],[1012 hPa],[17.0 °C],[3:00 PM],[10.0 km],[ESE],"[7.4 km/h
		/ 2.1 m/s]",METAR VHHH 070700Z 11004KT 050V120 9999 -RA FEW016 SCT020 BKN080 17/13 Q1012 NOSIG
0,[Mostly Cloudy],1997-2-7,[13.0 °C],[],[-],,[82%],[N/A],[1012 hPa],[16.0 °C],[4:00 PM],[10.0 km],[NNW],"[3.7 km/h
		/ 1.0 m/s]",METAR VHHH 070800Z 33002KT 9999 FEW016 SCT020 BKN080 16/13 Q1012 NOSIG
0,[Mostly Cloudy],1997-2-7,[-],[],[-],,[N/A%],[N/A],[1012 hPa],[-],[5:00 PM],[10.0 km],[SE],"[11.1 km/h
		/ 3.1 m/s]",METAR VHHH 070900Z 14006KT 090V180 9999 FEW014 SCT020 BKN080 Q1012 NOSIG
0,[Mostly Cloudy],1997-2-7,[13.0 °C],[],[-],,[82%],[N/A],[1011 hPa],[16.0 °C],[6:00 PM],[10.0 km],[South],"[3.7 km/h
		/ 1.0 m/s]",METAR VHHH 071000Z 19002KT 120V230 9999 FEW016 SCT025 BKN080 16/13 Q1011 NOSIG
0,[Light Rain],1997-2-7,[13.0 °C],[Rain],[-],,[82%],[N/A],[1011 hPa],[16.0 °C],[7:00 PM],[10.0 km],[ESE],"[1.9 km/h
		/ 0.5 m/s]",METAR VHHH 071100Z 12001KT 9999 -RA FEW016 SCT025 BKN080 16/13 Q1011 NOSIG
0,[Light Rain],1997-2-7,[14.0 °C],[Rain],[-],,[94%],[N/A],[1012 hPa],[15.0 °C],[8:00 PM],[8.0 km],[ESE],"[7.4 km/h
		/ 2.1 m/s]",METAR VHHH 071200Z 12004KT 8000 -RA FEW007 SCT013 BKN080 15/14 Q1012 NOSIG
0,[Light Rain],1997-2-7,[14.0 °C],[Rain],[-],,[94%],[N/A],[1012 hPa],[15.0 °C],[9:00 PM],[7.0 km],[SE],"[7.4 km/h
		/ 2.1 m/s]",METAR VHHH 071300Z 13004KT 7000 -RA FEW006 SCT012 BKN080 15/14 Q1012 TEMPO 5000 -RA
0,[Light Rain],1997-2-7,[14.0 °C],[Rain],[-],,[94%],[N/A],[1013 hPa],[15.0 °C],[10:00 PM],[7.0 km],[East],"[1.9 km/h
		/ 0.5 m/s]",METAR VHHH 071400Z 10001KT 7000 -RA FEW007 SCT013 BKN080 15/14 Q1013 TEMPO 5000 -RA
0,[Light Rain],1997-2-7,[13.0 °C],[Rain],[-],,[88%],[N/A],[1013 hPa],[15.0 °C],[11:00 PM],[8.0 km],[WSW],"[9.3 km/h
		/ 2.6 m/s]",METAR VHHH 071500Z 24005KT 190V270 8000 -RA FEW007 SCT013 BKN080 15/13 Q1013 TEMPO 5000 -RA
0,[Light Rain],1997-2-8,[12.0 °C],[Rain],[-],,[94%],[N/A],[1013 hPa],[13.0 °C],[1:00 AM],[9.0 km],[NW],"[9.3 km/h
		/ 2.6 m/s]",METAR VHHH 071700Z 32005KT 290V360 9000 -RA FEW008 SCT015 BKN080 13/12 Q1013 TEMPO 5000 -RA
0,[Mostly Cloudy],1997-2-8,[12.0 °C],[],[-],,[94%],[N/A],[1012 hPa],[13.0 °C],[2:00 AM],[10.0 km],[West],"[9.3 km/h
		/ 2.6 m/s]",METAR VHHH 071800Z 28005KT 9999 FEW007 SCT015 BKN080 13/12 Q1012 TEMPO 5000 -RA
0,[Light Rain],1997-2-8,[11.0 °C],[Rain],[-],,[88%],[N/A],[1012 hPa],[13.0 °C],[3:00 AM],[10.0 km],[WNW],"[14.8 km/h
		/ 4.1 m/s]",METAR VHHH 071900Z 30008KT 280V340 9999 -RA FEW008 SCT015 BKN080 13/11 Q1012 TEMPO 5000 -RA
0,[Light Rain],1997-2-8,[11.0 °C],[Rain],[-],,[88%],[N/A],[1011 hPa],[13.0 °C],[4:00 AM],[10.0 km],[WNW],"[7.4 km/h
		/ 2.1 m/s]",METAR VHHH 072000Z 29004KT 9999 -RA FEW008 SCT015 BKN080 13/11 Q1011 TEMPO 5000 -RA
0,[Light Rain],1997-2-8,[11.0 °C],[Rain],[-],,[88%],[N/A],[1011 hPa],[13.0 °C],[5:00 AM],[10.0 km],[NNW],"[1.9 km/h
		/ 0.5 m/s]",METAR VHHH 072100Z 33001KT 280V050 9999 -RA FEW008 SCT015 BKN080 13/11 Q1011 TEMPO 5000 -RA
0,[Mostly Cloudy],1997-2-8,[11.0 °C],[],[-],,[88%],[N/A],[1011 hPa],[13.0 °C],[6:00 AM],[10.0 km],[South],"[1.9 km/h
		/ 0.5 m/s]",METAR VHHH 072200Z 19001KT 9999 FEW009 BKN080 13/11 Q1011 TEMPO 5000 -RA
0,[Mostly Cloudy],1997-2-8,[11.0 °C],[],[-],,[88%],[N/A],[1012 hPa],[13.0 °C],[7:00 AM],[10.0 km],[West],"[11.1 km/h
		/ 3.1 m/s]",METAR VHHH 072300Z 28006KT 9999 FEW009 SCT019 BKN080 13/11 Q1012 TEMPO 5000 -RA
0,[Mostly Cloudy],1997-2-8,[11.0 °C],[],[-],,[82%],[N/A],[1013 hPa],[14.0 °C],[8:00 AM],[10.0 km],[SW],"[14.8 km/h
		/ 4.1 m/s]",METAR VHHH 080000Z 23008KT 200V260 9999 FEW014 SCT020 BKN080 14/11 Q1013 NOSIG
0,[Mostly Cloudy],1997-2-8,[11.0 °C],[],[-],,[82%],[N/A],[1014 hPa],[14.0 °C],[9:00 AM],[10.0 km],[West],"[11.1 km/h
		/ 3.1 m/s]",METAR VHHH 080100Z 27006KT 210V310 9999 FEW014 SCT020 BKN080 14/11 Q1014 NOSIG
0,[Mostly Cloudy],1997-2-8,[11.0 °C],[],[-],,[77%],[N/A],[1014 hPa],[15.0 °C],[10:00 AM],[10.0 km],[WSW],"[13.0 km/h
		/ 3.6 m/s]",METAR VHHH 080200Z 25007KT 220V300 9999 FEW016 SCT020 BKN080 15/11 Q1014 NOSIG
0,[Mostly Cloudy],1997-2-8,[12.0 °C],[],[-],,[77%],[N/A],[1014 hPa],[16.0 °C],[11:00 AM],[10.0 km],[South],"[1.9 km/h
		/ 0.5 m/s]",METAR VHHH 080300Z 18001KT 9999 FEW020 BKN080 16/12 Q1014 NOSIG
0,[Mostly Cloudy],1997-2-8,[12.0 °C],[],[-],,[72%],[N/A],[1013 hPa],[17.0 °C],[12:00 PM],[10.0 km],[ESE],"[3.7 km/h
		/ 1.0 m/s]",METAR VHHH 080400Z 12002KT 9999 FEW020 BKN080 17/12 Q1013 NOSIG
0,[Mostly Cloudy],1997-2-8,[12.0 °C],[],[-],,[72%],[N/A],[1013 hPa],[17.0 °C],[1:00 PM],[10.0 km],[West],"[16.7 km/h
		/ 4.6 m/s]",METAR VHHH 080500Z 26009KT 220V290 9999 SCT018 BKN080 17/12 Q1013 NOSIG
0,[Mostly Cloudy],1997-2-8,[12.0 °C],[],"[35.2 km/h
		/ 9.8 m/s]",,[72%],[N/A],[1012 hPa],[17.0 °C],[2:00 PM],[9.0 km],[SW],"[14.8 km/h
		/ 4.1 m/s]",METAR VHHH 080600Z 23008G19KT 110V280 9000 SCT018 BKN080 17/12 Q1012 NOSIG
0,[Mostly Cloudy],1997-2-8,[12.0 °C],[],[-],,[68%],[N/A],[1011 hPa],[18.0 °C],[3:00 PM],[7.0 km],[WSW],"[16.7 km/h
		/ 4.6 m/s]",METAR VHHH 080700Z 24009KT 180V330 7000 SCT018 BKN080 18/12 Q1011 NOSIG
0,[Mostly Cloudy],1997-2-8,[12.0 °C],[],"[31.5 km/h
		/ 8.7 m/s]",,[72%],[N/A],[1011 hPa],[17.0 °C],[4:00 PM],[6.0 km],[SW],"[13.0 km/h
		/ 3.6 m/s]",METAR VHHH 080800Z 23007G17KT 160V360 6000 SCT018 BKN080 17/12 Q1011 NOSIG
0,[Haze],1997-2-8,[12.0 °C],[],[-],,[72%],[N/A],[1011 hPa],[17.0 °C],[5:00 PM],[-],[WSW],"[11.1 km/h
		/ 3.1 m/s]",METAR VHHH 080900Z 24006KT 200V320 4800 HZ SCT018 BKN080 17/12 Q1011 TEMPO 5000 HZ
0,[Haze],1997-2-8,[12.0 °C],[],[-],,[72%],[N/A],[1011 hPa],[17.0 °C],[6:00 PM],[-],[WSW],"[7.4 km/h
		/ 2.1 m/s]",METAR VHHH 081000Z 24004KT 180V280 4600 HZ SCT016 BKN080 17/12 Q1011 TEMPO 5000 HZ
0,[Mostly Cloudy],1997-2-8,[12.0 °C],[],[-],,[72%],[N/A],[1012 hPa],[17.0 °C],[7:00 PM],[6.0 km],[WSW],"[1.9 km/h
		/ 0.5 m/s]",METAR VHHH 081100Z 25001KT 6000 SCT015 BKN080 17/12 Q1012 TEMPO 5000 HZ
0,[Mostly Cloudy],1997-2-8,[13.0 °C],[],[-],,[77%],[N/A],[1013 hPa],[17.0 °C],[8:00 PM],[6.0 km],[SW],"[14.8 km/h
		/ 4.1 m/s]",METAR VHHH 081200Z 23008KT 200V270 6000 SCT015 BKN080 17/13 Q1013 TEMPO 5000 HZ
0,[Mostly Cloudy],1997-2-8,[12.0 °C],[],[-],,[77%],[N/A],[1013 hPa],[16.0 °C],[9:00 PM],[6.0 km],[SW],"[7.4 km/h
		/ 2.1 m/s]",METAR VHHH 081300Z 23004KT 210V280 6000 SCT014 BKN080 16/12 Q1013 NOSIG
0,[Mostly Cloudy],1997-2-8,[13.0 °C],[],[-],,[82%],[N/A],[1014 hPa],[16.0 °C],[10:00 PM],[6.0 km],[South],"[1.9 km/h
		/ 0.5 m/s]",METAR VHHH 081400Z 18001KT 6000 FEW018 BKN080 16/13 Q1014 TEMPO 5000 HZ
0,[Mostly Cloudy],1997-2-8,[12.0 °C],[],[-],,[77%],[N/A],[1014 hPa],[16.0 °C],[11:00 PM],[6.0 km],[WSW],"[7.4 km/h
		/ 2.1 m/s]",METAR VHHH 081500Z 25004KT 190V280 6000 FEW018 BKN080 16/12 Q1014 TEMPO 5000 HZ
0,[Mostly Cloudy],1997-2-9,[12.0 °C],[],[-],,[77%],[N/A],[1014 hPa],[16.0 °C],[12:00 AM],[6.0 km],[NW],"[7.4 km/h
		/ 2.1 m/s]",METAR VHHH 081600Z 32004KT 6000 FEW012 BKN080 16/12 Q1014 TEMPO 5000 HZ
0,[Mostly Cloudy],1997-2-9,[13.0 °C],[],[-],,[88%],[N/A],[1014 hPa],[15.0 °C],[1:00 AM],[6.0 km],[West],"[7.4 km/h
		/ 2.1 m/s]",METAR VHHH 081700Z 28004KT 240V320 6000 FEW012 BKN080 15/13 Q1014 TEMPO 5000 HZ
0,[Mostly Cloudy],1997-2-9,[12.0 °C],[],[-],,[82%],[N/A],[1014 hPa],[15.0 °C],[2:00 AM],[6.0 km],[West],"[1.9 km/h
		/ 0.5 m/s]",METAR VHHH 081800Z 27001KT 6000 FEW012 BKN080 15/12 Q1014 TEMPO 5000 HZ
0,[Mostly Cloudy],1997-2-9,[12.0 °C],[],[-],,[82%],[N/A],[1014 hPa],[15.0 °C],[3:00 AM],[8.0 km],[WSW],"[1.9 km/h
		/ 0.5 m/s]",METAR VHHH 081900Z 24001KT 8000 SCT020 BKN080 15/12 Q1014 TEMPO 5000 HZ
0,[Mostly Cloudy],1997-2-9,[12.0 °C],[],[-],,[82%],[N/A],[1013 hPa],[15.0 °C],[4:00 AM],[8.0 km],[West],"[1.9 km/h
		/ 0.5 m/s]",METAR VHHH 082000Z 28001KT 8000 SCT020 BKN080 15/12 Q1013 TEMPO 5000 HZ
0,[Mostly Cloudy],1997-2-9,[13.0 °C],[],[-],,[88%],[N/A],[1013 hPa],[15.0 °C],[5:00 AM],[8.0 km],[SE],"[9.3 km/h
		/ 2.6 m/s]",METAR VHHH 082100Z 13005KT 050V160 8000 FEW020 BKN080 15/13 Q1013 NOSIG
0,[Mostly Cloudy],1997-2-9,[12.0 °C],[],[-],,[82%],[N/A],[1013 hPa],[15.0 °C],[6:00 AM],[10.0 km],[NW],"[3.7 km/h
		/ 1.0 m/s]",METAR VHHH 082200Z 32002KT 9999 FEW016 BKN100 15/12 Q1013 NOSIG
0,[Partly Cloudy],1997-2-9,[11.0 °C],[],[-],,[82%],[N/A],[1014 hPa],[14.0 °C],[7:00 AM],[10.0 km],[SSW],"[11.1 km/h
		/ 3.1 m/s]",METAR VHHH 082300Z 21006KT 9999 FEW015 14/11 Q1014 NOSIG
0,[Partly Cloudy],1997-2-9,[12.0 °C],[],[-],,[77%],[N/A],[1014 hPa],[16.0 °C],[8:00 AM],[10.0 km],[East],"[18.5 km/h
		/ 5.1 m/s]",METAR VHHH 090000Z 10010KT 070V140 9999 FEW014 16/12 Q1014 NOSIG
0,[Mostly Cloudy],1997-2-9,[13.0 °C],[],[-],,[82%],[N/A],[1015 hPa],[16.0 °C],[9:00 AM],[10.0 km],[East],"[11.1 km/h
		/ 3.1 m/s]",METAR VHHH 090100Z 09006KT 060V140 9999 FEW009 SCT016 BKN080 16/13 Q1015 NOSIG
0,[Mostly Cloudy],1997-2-9,[13.0 °C],[],[-],,[82%],[N/A],[1016 hPa],[16.0 °C],[10:00 AM],[10.0 km],[East],"[13.0 km/h
		/ 3.6 m/s]",METAR VHHH 090200Z 09007KT 030V130 9999 FEW008 SCT014 BKN080 16/13 Q1016 NOSIG
0,[Mostly Cloudy],1997-2-9,[13.0 °C],[],[-],,[77%],[N/A],[1016 hPa],[17.0 °C],[11:00 AM],[10.0 km],[East],"[3.7 km/h
		/ 1.0 m/s]",METAR VHHH 090300Z 09002KT 9999 FEW007 SCT014 BKN080 17/13 Q1016 NOSIG
0,[Mostly Cloudy],1997-2-9,[14.0 °C],[],[-],,[82%],[N/A],[1015 hPa],[17.0 °C],[12:00 PM],[10.0 km],[ESE],"[9.3 km/h
		/ 2.6 m/s]",METAR VHHH 090400Z 11005KT 070V140 9999 FEW007 SCT014 BKN080 17/14 Q1015 NOSIG
0,[Mostly Cloudy],1997-2-9,[14.0 °C],[],[-],,[82%],[N/A],[1014 hPa],[17.0 °C],[1:00 PM],[10.0 km],[ESE],"[9.3 km/h
		/ 2.6 m/s]",METAR VHHH 090500Z 11005KT 020V210 9999 FEW009 SCT014 BKN080 17/14 Q1014 NOSIG
0,[Mostly Cloudy],1997-2-9,[13.0 °C],[],[-],,[77%],[N/A],[1013 hPa],[17.0 °C],[2:00 PM],[10.0 km],[Variable],"[3.7 km/h
		/ 1.0 m/s]",METAR VHHH 090600Z VRB02KT 9999 FEW010 SCT015 BKN080 17/13 Q1013 NOSIG
0,[Mostly Cloudy],1997-2-9,[13.0 °C],[],[-],,[77%],[N/A],[1013 hPa],[17.0 °C],[3:00 PM],[10.0 km],[SW],"[7.4 km/h
		/ 2.1 m/s]",METAR VHHH 090700Z 23004KT 180V320 9999 FEW009 SCT015 BKN080 17/13 Q1013 NOSIG
0,[Mostly Cloudy],1997-2-9,[13.0 °C],[],"[31.5 km/h
		/ 8.7 m/s]",,[73%],[N/A],[1012 hPa],[18.0 °C],[4:00 PM],[8.0 km],[SW],"[9.3 km/h
		/ 2.6 m/s]",METAR VHHH 090800Z 23005G17KT 090V310 8000 FEW010 SCT015 BKN080 18/13 Q1012 NOSIG
0,[Mostly Cloudy],1997-2-9,[14.0 °C],[],[-],,[82%],[N/A],[1013 hPa],[17.0 °C],[5:00 PM],[8.0 km],[SSW],"[7.4 km/h
		/ 2.1 m/s]",METAR VHHH 090900Z 21004KT 180V270 8000 FEW010 SCT015 BKN080 17/14 Q1013 NOSIG
0,[Mostly Cloudy],1997-2-9,[13.0 °C],[],[-],,[77%],[N/A],[1013 hPa],[17.0 °C],[6:00 PM],[7.0 km],[SW],"[3.7 km/h
		/ 1.0 m/s]",METAR VHHH 091000Z 22002KT 7000 FEW010 SCT015 BKN080 17/13 Q1013 NOSIG
0,[Mostly Cloudy],1997-2-9,[13.0 °C],[],[-],,[77%],[N/A],[1014 hPa],[17.0 °C],[7:00 PM],[6.0 km],[ENE],"[9.3 km/h
		/ 2.6 m/s]",METAR VHHH 091100Z 06005KT 020V120 6000 FEW012 SCT018 BKN080 17/13 Q1014 NOSIG
0,[Mostly Cloudy],1997-2-9,[13.0 °C],[],[-],,[77%],[N/A],[1014 hPa],[17.0 °C],[8:00 PM],[7.0 km],[ESE],"[3.7 km/h
		/ 1.0 m/s]",METAR VHHH 091200Z 11002KT 7000 FEW012 SCT020 BKN080 17/13 Q1014 NOSIG
0,[Mostly Cloudy],1997-2-9,[13.0 °C],[],[-],,[77%],[N/A],[1014 hPa],[17.0 °C],[9:00 PM],[7.0 km],[South],"[7.4 km/h
		/ 2.1 m/s]",METAR VHHH 091300Z 17004KT 110V230 7000 FEW012 SCT022 BKN080 17/13 Q1014 NOSIG
0,[Scattered Clouds],1997-2-9,[13.0 °C],[],[-],,[77%],[N/A],[1014 hPa],[17.0 °C],[10:00 PM],[8.0 km],[East],"[16.7 km/h
		/ 4.6 m/s]",METAR VHHH 091400Z 10009KT 070V150 8000 FEW015 SCT100 17/13 Q1014 NOSIG
0,[Mostly Cloudy],1997-2-9,[13.0 °C],[],[-],,[77%],[N/A],[1015 hPa],[17.0 °C],[11:00 PM],[8.0 km],[South],"[1.9 km/h
		/ 0.5 m/s]",METAR VHHH 091500Z 19001KT 8000 FEW014 SCT018 BKN080 17/13 Q1015 NOSIG
0,[Mostly Cloudy],1997-2-10,[13.0 °C],[],[-],,[77%],[N/A],[1015 hPa],[17.0 °C],[12:00 AM],[10.0 km],[SE],"[7.4 km/h
		/ 2.1 m/s]",METAR VHHH 091600Z 13004KT 100V190 9999 FEW014 SCT018 BKN080 17/13 Q1015 NOSIG
0,[Mostly Cloudy],1997-2-10,[13.0 °C],[],[-],,[77%],[N/A],[1015 hPa],[17.0 °C],[1:00 AM],[10.0 km],[NE],"[11.1 km/h
		/ 3.1 m/s]",METAR VHHH 091700Z 05006KT 350V080 9999 FEW013 SCT018 BKN080 17/13 Q1015 NOSIG
0,[Mostly Cloudy],1997-2-10,[13.0 °C],[],[-],,[82%],[N/A],[1014 hPa],[16.0 °C],[2:00 AM],[10.0 km],[ESE],"[7.4 km/h
		/ 2.1 m/s]",METAR VHHH 091800Z 12004KT 9999 FEW013 SCT018 BKN080 16/13 Q1014 NOSIG
0,[Mostly Cloudy],1997-2-10,[13.0 °C],[],[-],,[82%],[N/A],[1014 hPa],[16.0 °C],[3:00 AM],[10.0 km],[ESE],"[7.4 km/h
		/ 2.1 m/s]",METAR VHHH 091900Z 12004KT 080V160 9999 FEW013 SCT018 BKN080 16/13 Q1014 NOSIG
0,[Mostly Cloudy],1997-2-10,[14.0 °C],[],[-],,[88%],[N/A],[1014 hPa],[16.0 °C],[4:00 AM],[10.0 km],[East],"[7.4 km/h
		/ 2.1 m/s]",METAR VHHH 092000Z 10004KT 060V140 9999 FEW010 SCT018 BKN080 16/14 Q1014 NOSIG
0,[Mostly Cloudy],1997-2-10,[14.0 °C],[],[-],,[88%],[N/A],[1014 hPa],[16.0 °C],[5:00 AM],[10.0 km],[ESE],"[13.0 km/h
		/ 3.6 m/s]",METAR VHHH 092100Z 11007KT 070V140 9999 FEW010 SCT018 BKN080 16/14 Q1014 NOSIG
0,[Mostly Cloudy],1997-2-10,[14.0 °C],[],[-],,[88%],[N/A],[1014 hPa],[16.0 °C],[6:00 AM],[10.0 km],[NNE],"[14.8 km/h
		/ 4.1 m/s]",METAR VHHH 092200Z 03008KT 290V090 9999 FEW012 SCT016 BKN080 16/14 Q1014 NOSIG
0,[Mostly Cloudy],1997-2-10,[13.0 °C],[],[-],,[82%],[N/A],[1015 hPa],[16.0 °C],[7:00 AM],[10.0 km],[NE],"[9.3 km/h
		/ 2.6 m/s]",METAR VHHH 092300Z 05005KT 210V120 9999 FEW012 SCT020 BKN080 16/13 Q1015 NOSIG
0,[Mostly Cloudy],1997-2-10,[13.0 °C],[],[-],,[82%],[N/A],[1015 hPa],[16.0 °C],[8:00 AM],[10.0 km],[ESE],"[7.4 km/h
		/ 2.1 m/s]",METAR VHHH 100000Z 11004KT 360V160 9999 FEW008 SCT016 BKN080 16/13 Q1015 NOSIG
0,[Mostly Cloudy],1997-2-10,[14.0 °C],[],[-],,[82%],[N/A],[1016 hPa],[17.0 °C],[9:00 AM],[10.0 km],[East],"[13.0 km/h
		/ 3.6 m/s]",METAR VHHH 100100Z 09007KT 060V130 9999 FEW006 SCT015 BKN080 17/14 Q1016 NOSIG
0,[Mostly Cloudy],1997-2-10,[14.0 °C],[],[-],,[88%],[N/A],[1017 hPa],[16.0 °C],[10:00 AM],[9.0 km],[East],"[13.0 km/h
		/ 3.6 m/s]",METAR VHHH 100200Z 09007KT 050V130 9000 FEW006 SCT015 BKN080 16/14 Q1017 NOSIG
0,[Mostly Cloudy],1997-2-10,[14.0 °C],[],[-],,[88%],[N/A],[1017 hPa],[16.0 °C],[11:00 AM],[7.0 km],[NNE],"[7.4 km/h
		/ 2.1 m/s]",METAR VHHH 100300Z 03004KT 330V130 7000 FEW006 SCT015 BKN080 16/14 Q1017 NOSIG
0,[Mostly Cloudy],1997-2-10,[13.0 °C],[],[-],,[77%],[N/A],[1016 hPa],[17.0 °C],[12:00 PM],[7.0 km],[NNE],"[9.3 km/h
		/ 2.6 m/s]",METAR VHHH 100400Z 03005KT 340V060 7000 FEW006 SCT015 BKN080 17/13 Q1016 NOSIG
0,[Mostly Cloudy],1997-2-10,[12.0 °C],[],[-],,[77%],[N/A],[1016 hPa],[16.0 °C],[1:00 PM],[7.0 km],[NNW],"[7.4 km/h
		/ 2.1 m/s]",METAR VHHH 100500Z 33004KT 7000 FEW008 SCT016 BKN080 16/12 Q1016 NOSIG
0,[Light Rain],1997-2-10,[12.0 °C],[Rain],[-],,[77%],[N/A],[1014 hPa],[16.0 °C],[2:00 PM],[9.0 km],[NNW],"[7.4 km/h
		/ 2.1 m/s]",METAR VHHH 100600Z 33004KT 290V350 9000 -RA FEW008 SCT014 BKN080 16/12 Q1014 NOSIG
0,[Mostly Cloudy],1997-2-10,[12.0 °C],[],[-],,[72%],[N/A],[1014 hPa],[17.0 °C],[3:00 PM],[9.0 km],[NNW],"[11.1 km/h
		/ 3.1 m/s]",METAR VHHH 100700Z 33006KT 270V340 9000 FEW008 SCT014 BKN080 17/12 Q1014 NOSIG
0,[Mostly Cloudy],1997-2-10,[12.0 °C],[],[-],,[72%],[N/A],[1016 hPa],[17.0 °C],[4:00 PM],[9.0 km],[WNW],"[3.7 km/h
		/ 1.0 m/s]",METAR VHHH 100800Z 30002KT 9000 FEW014 SCT025 BKN080 17/12 Q1016 NOSIG
0,[Mostly Cloudy],1997-2-10,[11.0 °C],[],[-],,[68%],[N/A],[-],[17.0 °C],[5:00 PM],[10.0 km],[NNW],"[7.4 km/h
		/ 2.1 m/s]",METAR VHHH 100900Z 34004KT 260V010 9999 FEW020 SCT025 BKN080 17/11 QNH 1014 NOSIG
0,[Mostly Cloudy],1997-2-10,[11.0 °C],[],[-],,[68%],[N/A],[1014 hPa],[17.0 °C],[6:00 PM],[10.0 km],[Variable],"[1.9 km/h
		/ 0.5 m/s]",METAR VHHH 101000Z VRB01KT 9999 SCT025 BKN080 17/11 Q1014 WS LDG RWY 13 NOSIG
0,[Mostly Cloudy],1997-2-10,[11.0 °C],[],[-],,[72%],[N/A],[1015 hPa],[16.0 °C],[7:00 PM],[10.0 km],[NNW],"[7.4 km/h
		/ 2.1 m/s]",METAR VHHH 101100Z 33004KT 9999 SCT025 BKN080 16/11 Q1015 WS LDG RWY 13 NOSIG
0,[Mostly Cloudy],1997-2-10,[11.0 °C],[],[-],,[72%],[N/A],[1015 hPa],[16.0 °C],[8:00 PM],[10.0 km],[NW],"[3.7 km/h
		/ 1.0 m/s]",METAR VHHH 101200Z 31002KT 9999 SCT030 BKN080 16/11 Q1015 WS LDG RWY 13 NOSIG
0,[Mostly Cloudy],1997-2-10,[11.0 °C],[],[-],,[72%],[N/A],[1016 hPa],[16.0 °C],[9:00 PM],[10.0 km],[WSW],"[3.7 km/h
		/ 1.0 m/s]",METAR VHHH 101300Z 24002KT 9999 SCT025 BKN080 16/11 Q1016 WS LDG RWY 13 NOSIG
0,[Mostly Cloudy],1997-2-10,[10.0 °C],[],[-],,[68%],[N/A],[1016 hPa],[16.0 °C],[10:00 PM],[10.0 km],[Variable],"[3.7 km/h
		/ 1.0 m/s]",METAR VHHH 101400Z VRB02KT 9999 SCT025 BKN080 16/10 Q1016 WS LDG RWY 13 NOSIG
0,[Mostly Cloudy],1997-2-10,[10.0 °C],[],[-],,[68%],[N/A],[1017 hPa],[16.0 °C],[11:00 PM],[10.0 km],[West],"[5.6 km/h
		/ 1.5 m/s]",METAR VHHH 101500Z 27003KT 9999 FEW025 SCT040 BKN080 16/10 Q1017 NOSIG
0,[Mostly Cloudy],1997-2-11,[10.0 °C],[],[-],,[72%],[N/A],[1018 hPa],[15.0 °C],[12:00 AM],[10.0 km],[ENE],"[13.0 km/h
		/ 3.6 m/s]",METAR VHHH 101600Z 07007KT 9999 SCT035 BKN080 15/10 Q1018 NOSIG
0,[Light Rain],1997-2-11,[10.0 °C],[Rain],[-],,[77%],[N/A],[1018 hPa],[14.0 °C],[1:00 AM],[10.0 km],[NNW],"[7.4 km/h
		/ 2.1 m/s]",METAR VHHH 101700Z 33004KT 9999 -RA SCT035 BKN080 14/10 Q1018 WS LDG RWY 13 NOSIG
0,[Mostly Cloudy],1997-2-11,[9.0 °C],[],[-],,[72%],[N/A],[1018 hPa],[14.0 °C],[2:00 AM],[10.0 km],[North],"[11.1 km/h
		/ 3.1 m/s]",METAR VHHH 101800Z 36006KT 330V030 9999 SCT035 BKN080 14/09 Q1018 WS LDG RWY 13 NOSIG
0,[Mostly Cloudy],1997-2-11,[9.0 °C],[],[-],,[72%],[N/A],[1017 hPa],[14.0 °C],[3:00 AM],[10.0 km],[ENE],"[5.6 km/h
		/ 1.5 m/s]",METAR VHHH 101900Z 06003KT 9999 SCT015 BKN080 14/09 Q1017 WS LDG RWY 13 NOSIG
0,[Mostly Cloudy],1997-2-11,[8.0 °C],[],[-],,[67%],[N/A],[1017 hPa],[14.0 °C],[4:00 AM],[10.0 km],[North],"[5.6 km/h
		/ 1.5 m/s]",METAR VHHH 102000Z 35003KT 9999 SCT035 BKN080 14/08 Q1017 WS LDG RWY 13 NOSIG
0,[Mostly Cloudy],1997-2-11,[8.0 °C],[],[-],,[67%],[N/A],[1017 hPa],[14.0 °C],[5:00 AM],[10.0 km],[ENE],"[5.6 km/h
		/ 1.5 m/s]",METAR VHHH 102100Z 06003KT 9999 SCT035 BKN080 14/08 Q1017 WS LDG RWY 13 NOSIG
0,[Mostly Cloudy],1997-2-11,[8.0 °C],[],[-],,[67%],[N/A],[1019 hPa],[14.0 °C],[6:00 AM],[10.0 km],[WNW],"[9.3 km/h
		/ 2.6 m/s]",METAR VHHH 102200Z 29005KT 260V330 9999 FEW030 SCT035 BKN080 14/08 Q1019 WS LDG RWY 13 NOSIG
0,[Mostly Cloudy],1997-2-11,[8.0 °C],[],[-],,[67%],[N/A],[1019 hPa],[14.0 °C],[7:00 AM],[10.0 km],[NE],"[11.1 km/h
		/ 3.1 m/s]",METAR VHHH 102300Z 05006KT 030V100 9999 SCT035 BKN080 14/08 Q1019 WS LDG RWY 13 NOSIG
0,[Scattered Clouds],1997-2-11,[8.0 °C],[],[-],,[67%],[N/A],[1020 hPa],[14.0 °C],[8:00 AM],[10.0 km],[ENE],"[3.7 km/h
		/ 1.0 m/s]",METAR VHHH 110000Z 07002KT 9999 SCT035 SCT045 14/08 Q1020 NOSIG
0,[Mostly Cloudy],1997-2-11,[7.0 °C],[],[-],,[63%],[N/A],[1020 hPa],[14.0 °C],[9:00 AM],[10.0 km],[NNE],"[5.6 km/h
		/ 1.5 m/s]",METAR VHHH 110100Z 03003KT 9999 SCT035 BKN060 14/07 Q1020 WS LDG RWY 13/31 NOSIG
0,[Mostly Cloudy],1997-2-11,[7.0 °C],[],[-],,[59%],[N/A],[1020 hPa],[15.0 °C],[10:00 AM],[10.0 km],[North],"[14.8 km/h
		/ 4.1 m/s]",METAR VHHH 110200Z 35008KT 300V090 9999 FEW035 BKN080 15/07 Q1020 WS LDG RWY 13/31 NOSIG
0,[Mostly Cloudy],1997-2-11,[8.0 °C],[],[-],,[63%],[N/A],[1020 hPa],[15.0 °C],[11:00 AM],[10.0 km],[ENE],"[11.1 km/h
		/ 3.1 m/s]",METAR VHHH 110300Z 06006KT 310V130 9999 FEW030 BKN080 15/08 Q1020 WS LDG RWY 13/31 NOSIG
0,[Mostly Cloudy],1997-2-11,[8.0 °C],[],[-],,[59%],[N/A],[1020 hPa],[16.0 °C],[12:00 PM],[10.0 km],[ENE],"[11.1 km/h
		/ 3.1 m/s]",METAR VHHH 110400Z 06006KT 360V110 9999 SCT025 BKN080 16/08 Q1020 WS LDG RWY 13/31 NOSIG
0,[Mostly Cloudy],1997-2-11,[8.0 °C],[],[-],,[59%],[N/A],[1019 hPa],[16.0 °C],[1:00 PM],[10.0 km],[NNE],"[5.6 km/h
		/ 1.5 m/s]",METAR VHHH 110500Z 03003KT 9999 SCT030 BKN080 16/08 Q1019 WS LDG RWY 13/31 NOSIG
0,[Scattered Clouds],1997-2-11,[9.0 °C],[],[-],,[56%],[N/A],[1018 hPa],[18.0 °C],[2:00 PM],[10.0 km],[ENE],"[18.5 km/h
		/ 5.1 m/s]",METAR VHHH 110600Z 07010KT 030V120 9999 FEW035 SCT100 18/09 Q1018 NOSIG
0,[Scattered Clouds],1997-2-11,[9.0 °C],[],[-],,[56%],[N/A],[1018 hPa],[18.0 °C],[3:00 PM],[10.0 km],[NNE],"[5.6 km/h
		/ 1.5 m/s]",METAR VHHH 110700Z 03003KT 9999 FEW035 SCT100 18/09 Q1018 WS LDG RWY 13/31 NOSIG
0,[Mostly Cloudy],1997-2-11,[10.0 °C],[],[-],,[59%],[N/A],[1017 hPa],[18.0 °C],[4:00 PM],[10.0 km],[NE],"[7.4 km/h
		/ 2.1 m/s]",METAR VHHH 110800Z 04004KT 010V100 9999 FEW035 BKN090 18/10 Q1017 WS LDG RWY 13/31 NOSIG
0,[Mostly Cloudy],1997-2-11,[10.0 °C],[],[-],,[63%],[N/A],[1018 hPa],[17.0 °C],[5:00 PM],[10.0 km],[East],"[9.3 km/h
		/ 2.6 m/s]",METAR VHHH 110900Z 08005KT 030V120 9999 FEW035 BKN080 17/10 Q1018 WS LDG RWY 13/31 NOSIG
0,[Mostly Cloudy],1997-2-11,[9.0 °C],[],[-],,[59%],[N/A],[1018 hPa],[17.0 °C],[6:00 PM],[10.0 km],[NE],"[13.0 km/h
		/ 3.6 m/s]",METAR VHHH 111000Z 05007KT 340V090 9999 FEW035 BKN080 17/09 Q1018 WS LDG RWY 13/31 NOSIG
0,[Mostly Cloudy],1997-2-11,[10.0 °C],[],[-],,[68%],[N/A],[1019 hPa],[16.0 °C],[7:00 PM],[10.0 km],[NNE],"[7.4 km/h
		/ 2.1 m/s]",METAR VHHH 111100Z 03004KT 350V170 9999 SCT025 BKN080 16/10 Q1019 WS LDG RWY 13/31 NOSIG
0,[Mostly Cloudy],1997-2-11,[9.0 °C],[],[-],,[63%],[N/A],[1019 hPa],[16.0 °C],[8:00 PM],[10.0 km],[NE],"[11.1 km/h
		/ 3.1 m/s]",METAR VHHH 111200Z 05006KT 340V110 9999 SCT025 BKN080 16/09 Q1019 NOSIG
0,[Mostly Cloudy],1997-2-11,[10.0 °C],[],[-],,[68%],[N/A],[1019 hPa],[16.0 °C],[9:00 PM],[10.0 km],[NNE],"[7.4 km/h
		/ 2.1 m/s]",METAR VHHH 111300Z 02004KT 280V130 9999 FEW020 BKN080 16/10 Q1019 NOSIG
0,[Mostly Cloudy],1997-2-11,[10.0 °C],[],[-],,[68%],[N/A],[1020 hPa],[16.0 °C],[10:00 PM],[10.0 km],[NE],"[11.1 km/h
		/ 3.1 m/s]",METAR VHHH 111400Z 05006KT 340V090 9999 FEW022 BKN080 16/10 Q1020 NOSIG
0,[Mostly Cloudy],1997-2-11,[11.0 °C],[],[-],,[77%],[N/A],[1020 hPa],[15.0 °C],[11:00 PM],[9.0 km],[East],"[18.5 km/h
		/ 5.1 m/s]",METAR VHHH 111500Z 09010KT 060V150 9000 SCT017 BKN080 15/11 Q1020 NOSIG
0,[Mostly Cloudy],1997-2-12,[11.0 °C],[],[-],,[77%],[N/A],[1020 hPa],[15.0 °C],[12:00 AM],[9.0 km],[East],"[18.5 km/h
		/ 5.1 m/s]",METAR VHHH 111600Z 10010KT 040V150 9000 SCT016 BKN080 15/11 Q1020 NOSIG
0,[Mostly Cloudy],1997-2-12,[11.0 °C],[],[-],,[77%],[N/A],[1019 hPa],[15.0 °C],[1:00 AM],[9.0 km],[East],"[14.8 km/h
		/ 4.1 m/s]",METAR VHHH 111700Z 08008KT 010V140 9000 SCT016 BKN080 15/11 Q1019 NOSIG
0,[Mostly Cloudy],1997-2-12,[11.0 °C],[],[-],,[77%],[N/A],[1020 hPa],[15.0 °C],[2:00 AM],[7.0 km],[East],"[18.5 km/h
		/ 5.1 m/s]",METAR VHHH 111800Z 10010KT 050V130 7000 SCT016 BKN080 15/11 Q1020 NOSIG
0,[Light Rain],1997-2-12,[11.0 °C],[Rain],[-],,[82%],[N/A],[1019 hPa],[14.0 °C],[3:00 AM],[7.0 km],[East],"[11.1 km/h
		/ 3.1 m/s]",METAR VHHH 111900Z 09006KT 290V130 7000 -RA SCT016 BKN080 14/11 Q1019 NOSIG
0,[Light Rain],1997-2-12,[11.0 °C],[Rain],[-],,[77%],[N/A],[1019 hPa],[15.0 °C],[4:00 AM],[7.0 km],[East],"[13.0 km/h
		/ 3.6 m/s]",METAR VHHH 112000Z 09007KT 030V140 7000 -RA FEW016 SCT025 BKN080 15/11 Q1019 NOSIG
0,[Light Rain],1997-2-12,[11.0 °C],[Rain],[-],,[77%],[N/A],[1019 hPa],[15.0 °C],[5:00 AM],[8.0 km],[East],"[11.1 km/h
		/ 3.1 m/s]",METAR VHHH 112100Z 09006KT 360V150 8000 -RA FEW016 SCT025 BKN080 15/11 Q1019 NOSIG
0,[Mostly Cloudy],1997-2-12,[11.0 °C],[],[-],,[82%],[N/A],[1019 hPa],[14.0 °C],[6:00 AM],[9.0 km],[East],"[14.8 km/h
		/ 4.1 m/s]",METAR VHHH 112200Z 09008KT 020V120 9000 SCT020 BKN080 14/11 Q1019 NOSIG
0,[Light Rain],1997-2-12,[11.0 °C],[Rain],[-],,[82%],[N/A],[1020 hPa],[14.0 °C],[7:00 AM],[7.0 km],[NE],"[11.1 km/h
		/ 3.1 m/s]",METAR VHHH 112300Z 04006KT 280V110 7000 -RA FEW013 SCT020 BKN080 14/11 Q1020 TEMPO 5000 -RA
0,[Light Rain],1997-2-12,[11.0 °C],[Rain],[-],,[88%],[N/A],[1020 hPa],[13.0 °C],[8:00 AM],[6.0 km],[East],"[16.7 km/h
		/ 4.6 m/s]",METAR VHHH 120000Z 10009KT 060V130 6000 -RA(61) FEW013 SCT020 BKN080 13/11 Q1020 TEMPO 4000 -RA
0,[Light Rain],1997-2-12,[11.0 °C],[Rain],[-],,[82%],[N/A],[1021 hPa],[14.0 °C],[9:00 AM],[6.0 km],[East],"[13.0 km/h
		/ 3.6 m/s]",METAR VHHH 120100Z 08007KT 340V210 6000 -RA FEW013 SCT020 BKN080 14/11 Q1021 TEMPO 4000 -RA
0,[Mostly Cloudy],1997-2-12,[10.0 °C],[],[-],,[77%],[N/A],[1021 hPa],[14.0 °C],[10:00 AM],[6.0 km],[ESE],"[14.8 km/h
		/ 4.1 m/s]",METAR VHHH 120200Z 11008KT 060V150 6000 FEW013 SCT020 BKN080 14/10 Q1021 TEMPO 4000 -RA
0,[Mostly Cloudy],1997-2-12,[11.0 °C],[],[-],,[77%],[N/A],[1022 hPa],[15.0 °C],[11:00 AM],[7.0 km],[North],"[9.3 km/h
		/ 2.6 m/s]",METAR VHHH 120300Z 36005KT 310V060 7000 FEW015 SCT020 BKN080 15/11 Q1022 TEMPO 4000 -RA
0,[Light Rain],1997-2-12,[11.0 °C],[Rain],[-],,[77%],[N/A],[1022 hPa],[15.0 °C],[12:00 PM],[6.0 km],[East],"[9.3 km/h
		/ 2.6 m/s]",METAR VHHH 120400Z 09005KT 060V130 6000 -RA FEW014 SCT020 BKN080 15/11 Q1022 TEMPO 4000 -RA
0,[Light Rain],1997-2-12,[12.0 °C],[Rain],[-],,[88%],[N/A],[1021 hPa],[14.0 °C],[1:00 PM],[-],[East],"[14.8 km/h
		/ 4.1 m/s]",METAR VHHH 120500Z 08008KT 020V130 4800 -RA FEW014 SCT020 BKN080 14/12 Q1021 TEMPO 4000 -RA
0,[Mostly Cloudy],1997-2-12,[11.0 °C],[],[-],,[77%],[N/A],[1019 hPa],[15.0 °C],[2:00 PM],[6.0 km],[East],"[20.4 km/h
		/ 5.7 m/s]",METAR VHHH 120600Z 09011KT 060V120 6000 FEW014 SCT018 BKN080 15/11 Q1019 TEMPO 4000 -RA
0,[Mostly Cloudy],1997-2-12,[11.0 °C],[],[-],,[77%],[N/A],[1019 hPa],[15.0 °C],[3:00 PM],[6.0 km],[NNE],"[7.4 km/h
		/ 2.1 m/s]",METAR VHHH 120700Z 03004KT 320V130 6000 FEW014 SCT018 BKN080 15/11 Q1019 TEMPO 4000 -RA
0,[Mostly Cloudy],1997-2-12,[11.0 °C],[],[-],,[77%],[N/A],[1019 hPa],[15.0 °C],[4:00 PM],[6.0 km],[NNE],"[11.1 km/h
		/ 3.1 m/s]",METAR VHHH 120800Z 03006KT 350V080 6000 FEW014 SCT018 BKN080 15/11 Q1019 TEMPO 4000 -RA
0,[Mostly Cloudy],1997-2-12,[11.0 °C],[],[-],,[77%],[N/A],[1018 hPa],[15.0 °C],[5:00 PM],[7.0 km],[East],"[11.1 km/h
		/ 3.1 m/s]",METAR VHHH 120900Z 08006KT 020V160 7000 FEW015 SCT020 BKN080 15/11 Q1018 TEMPO 4000 -RA
0,[Mostly Cloudy],1997-2-12,[11.0 °C],[],[-],,[77%],[N/A],[1018 hPa],[15.0 °C],[6:00 PM],[7.0 km],[East],"[18.5 km/h
		/ 5.1 m/s]",METAR VHHH 121000Z 10010KT 060V130 7000 FEW015 SCT020 BKN080 15/11 Q1018 TEMPO 4000 -RA
0,[Mostly Cloudy],1997-2-12,[11.0 °C],[],[-],,[77%],[N/A],[1019 hPa],[15.0 °C],[7:00 PM],[8.0 km],[East],"[11.1 km/h
		/ 3.1 m/s]",METAR VHHH 121100Z 08006KT 040V150 8000 FEW015 SCT020 BKN080 15/11 Q1019 TEMPO 4000 -RA
0,[Mostly Cloudy],1997-2-12,[11.0 °C],[],[-],,[77%],[N/A],[1019 hPa],[15.0 °C],[8:00 PM],[8.0 km],[East],"[18.5 km/h
		/ 5.1 m/s]",METAR VHHH 121200Z 09010KT 050V130 8000 FEW015 SCT020 BKN080 15/11 Q1019 TEMPO 4000 -RA
0,[Light Rain],1997-2-12,[11.0 °C],[Rain],[-],,[82%],[N/A],[1020 hPa],[14.0 °C],[9:00 PM],[6.0 km],[ESE],"[7.4 km/h
		/ 2.1 m/s]",METAR VHHH 121300Z 11004KT 030V160 6000 -RA FEW015 SCT020 BKN080 14/11 Q1020 TEMPO 4000 -RA
0,[Light Rain],1997-2-12,[12.0 °C],[Rain],[-],,[88%],[N/A],[1021 hPa],[14.0 °C],[10:00 PM],[6.0 km],[East],"[13.0 km/h
		/ 3.6 m/s]",METAR VHHH 121400Z 09007KT 360V120 6000 -RA FEW013 SCT020 BKN080 14/12 Q1021 TEMPO 4000 -RA
0,[Light Rain],1997-2-12,[11.0 °C],[Rain],[-],,[82%],[N/A],[1021 hPa],[14.0 °C],[11:00 PM],[6.0 km],[East],"[16.7 km/h
		/ 4.6 m/s]",METAR VHHH 121500Z 09009KT 030V140 6000 -RA FEW013 SCT020 BKN080 14/11 Q1021 TEMPO 4000 -RA
0,[Light Rain],1997-2-13,[12.0 °C],[Rain],[-],,[94%],[N/A],[1021 hPa],[13.0 °C],[12:00 AM],[6.0 km],[ENE],"[7.4 km/h
		/ 2.1 m/s]",METAR VHHH 121600Z 07004KT 330V150 6000 -RA FEW013 SCT020 BKN080 13/12 Q1021 TEMPO 4000 -RA
0,[Light Rain],1997-2-13,[12.0 °C],[Rain],[-],,[94%],[N/A],[1021 hPa],[13.0 °C],[1:00 AM],[7.0 km],[East],"[13.0 km/h
		/ 3.6 m/s]",METAR VHHH 121700Z 09007KT 030V140 7000 -RA FEW013 SCT020 BKN080 13/12 Q1021 TEMPO 4000 -RA
0,[Rain],1997-2-13,[12.0 °C],[Rain],[-],,[94%],[N/A],[1021 hPa],[13.0 °C],[2:00 AM],[4.5 km],[East],"[9.3 km/h
		/ 2.6 m/s]",METAR VHHH 121800Z 10005KT 050V120 4500 RA FEW012 SCT020 BKN080 13/12 Q1021 TEMPO 4000 -RA
0,[Mostly Cloudy],1997-2-13,[11.0 °C],[],[-],,[88%],[N/A],[1020 hPa],[13.0 °C],[3:00 AM],[7.0 km],[East],"[16.7 km/h
		/ 4.6 m/s]",METAR VHHH 121900Z 09009KT 060V140 7000 FEW013 SCT020 BKN080 13/11 Q1020 RERA TEMPO 4000 -RA
0,[Light Rain],1997-2-13,[11.0 °C],[Rain],[-],,[88%],[N/A],[1020 hPa],[13.0 °C],[4:00 AM],[8.0 km],[East],"[9.3 km/h
		/ 2.6 m/s]",METAR VHHH 122000Z 09005KT 330V120 8000 -RA FEW013 SCT020 BKN080 13/11 Q1020 TEMPO 4000 -RA
0,[Mostly Cloudy],1997-2-13,[11.0 °C],[],[-],,[88%],[N/A],[1020 hPa],[13.0 °C],[5:00 AM],[8.0 km],[East],"[18.5 km/h
		/ 5.1 m/s]",METAR VHHH 122100Z 10010KT 040V120 8000 FEW012 SCT020 BKN080 13/11 Q1020 TEMPO 4000 -RA
0,[Light Rain],1997-2-13,[11.0 °C],[Rain],[-],,[88%],[N/A],[1020 hPa],[13.0 °C],[6:00 AM],[7.0 km],[East],"[18.5 km/h
		/ 5.1 m/s]",METAR VHHH 122200Z 09010KT 040V120 7000 -RA FEW012 SCT020 BKN080 13/11 Q1020 TEMPO 4000 -RA
0,[Mostly Cloudy],1997-2-13,[11.0 °C],[],[-],,[82%],[N/A],[1020 hPa],[14.0 °C],[7:00 AM],[4.5 km],[East],"[24.1 km/h
		/ 6.7 m/s]",METAR VHHH 122300Z 09013KT 040V150 4500 BR FEW012 SCT020 BKN080 14/11 Q1020 TEMPO 4000 -RA
0,[Mostly Cloudy],1997-2-13,[11.0 °C],[],[-],,[82%],[N/A],[1021 hPa],[14.0 °C],[8:00 AM],[6.0 km],[East],"[14.8 km/h
		/ 4.1 m/s]",METAR VHHH 130000Z 09008KT 040V150 6000 FEW011 SCT020 BKN080 14/11 Q1021 TEMPO 4000 -RA
0,[Scattered Clouds],1997-2-13,[11.0 °C],[],[-],,[77%],[N/A],[1020 hPa],[15.0 °C],[9:00 AM],[6.0 km],[East],"[18.5 km/h
		/ 5.1 m/s]",METAR VHHH 130100Z 09010KT 040V150 6000 FEW018 SCT080 15/11 Q1020 TEMPO 4000 -RA
0,[Mostly Cloudy],1997-2-13,[10.0 °C],[],[-],,[72%],[N/A],[1021 hPa],[15.0 °C],[10:00 AM],[6.0 km],[East],"[16.7 km/h
		/ 4.6 m/s]",METAR VHHH 130200Z 08009KT 010V180 6000 FEW016 SCT025 BKN080 15/10 Q1021 TEMPO VIS 4000M -RA
0,[Mostly Cloudy],1997-2-13,[10.0 °C],[],[-],,[72%],[N/A],[1021 hPa],[15.0 °C],[11:00 AM],[6.0 km],[East],"[20.4 km/h
		/ 5.7 m/s]",METAR VHHH 130300Z 09011KT 040V140 6000 FEW016 SCT025 BKN080 15/10 Q1021 TEMPO 4000 -RA
0,[Mostly Cloudy],1997-2-13,[10.0 °C],[],[-],,[68%],[N/A],[1020 hPa],[16.0 °C],[12:00 PM],[8.0 km],[East],"[25.9 km/h
		/ 7.2 m/s]",METAR VHHH 130400Z 10014KT 060V130 8000 FEW016 SCT025 BKN080 16/10 Q1020 TEMPO 4000 -RA
0,[Mostly Cloudy],1997-2-13,[9.0 °C],[],[-],,[63%],[N/A],[1019 hPa],[16.0 °C],[1:00 PM],[9.0 km],[East],"[18.5 km/h
		/ 5.1 m/s]",METAR VHHH 130500Z 09010KT 040V140 9000 FEW020 SCT030 BKN080 16/09 Q1019 TEMPO 4000 -RA
0,[Light Rain],1997-2-13,[10.0 °C],[Rain],[-],,[72%],[N/A],[1018 hPa],[15.0 °C],[2:00 PM],[8.0 km],[East],"[14.8 km/h
		/ 4.1 m/s]",METAR VHHH 130600Z 09008KT 060V140 8000 -RA FEW025 SCT035 BKN080 15/10 Q1018 TEMPO 5000 -RA
0,[Light Rain],1997-2-13,[10.0 °C],[Rain],[-],,[72%],[N/A],[1018 hPa],[15.0 °C],[3:00 PM],[6.0 km],[East],"[9.3 km/h
		/ 2.6 m/s]",METAR VHHH 130700Z 09005KT 050V130 6000 -RA FEW022 SCT035 BKN080 15/10 Q1018 TEMPO 5000 -RA
0,[Mostly Cloudy],1997-2-13,[11.0 °C],[],[-],,[77%],[N/A],[1017 hPa],[15.0 °C],[4:00 PM],[7.0 km],[East],"[9.3 km/h
		/ 2.6 m/s]",METAR VHHH 130800Z 09005KT 010V160 7000 FEW015 SCT030 BKN080 15/11 Q1017 TEMPO 5000 -RA
0,[Mostly Cloudy],1997-2-13,[11.0 °C],[],[-],,[77%],[N/A],[1018 hPa],[15.0 °C],[5:00 PM],[8.0 km],[East],"[13.0 km/h
		/ 3.6 m/s]",METAR VHHH 130900Z 10007KT 010V130 8000 FEW015 SCT025 BKN080 15/11 Q1018 TEMPO 5000 -RA
0,[Mostly Cloudy],1997-2-13,[11.0 °C],[],[-],,[77%],[N/A],[1018 hPa],[15.0 °C],[6:00 PM],[7.0 km],[NNE],"[7.4 km/h
		/ 2.1 m/s]",METAR VHHH 131000Z 03004KT 360V090 7000 FEW015 SCT030 BKN080 15/11 Q1018 NOSIG
0,[Mostly Cloudy],1997-2-13,[11.0 °C],[],[-],,[77%],[N/A],[1018 hPa],[15.0 °C],[7:00 PM],[7.0 km],[East],"[13.0 km/h
		/ 3.6 m/s]",METAR VHHH 131100Z 09007KT 060V120 7000 FEW015 SCT025 BKN080 15/11 Q1018 NOSIG
0,[Mostly Cloudy],1997-2-13,[11.0 °C],[],[-],,[77%],[N/A],[1019 hPa],[15.0 °C],[8:00 PM],[8.0 km],[East],"[22.2 km/h
		/ 6.2 m/s]",METAR VHHH 131200Z 10012KT 060V130 8000 FEW015 SCT025 BKN080 15/11 Q1019 NOSIG
0,[Mostly Cloudy],1997-2-13,[11.0 °C],[],"[55.6 km/h
		/ 15.4 m/s]",,[77%],[N/A],[1019 hPa],[15.0 °C],[9:00 PM],[10.0 km],[East],"[37.0 km/h
		/ 10.3 m/s]",METAR VHHH 131300Z 10020G30KT 070V140 9999 FEW016 SCT020 BKN080 15/11 Q1019 NOSIG
0,[Mostly Cloudy],1997-2-13,[10.0 °C],[],"[50.0 km/h
		/ 13.9 m/s]",,[72%],[N/A],[1020 hPa],[15.0 °C],[10:00 PM],[10.0 km],[East],"[31.5 km/h
		/ 8.7 m/s]",METAR VHHH 131400Z 10017G27KT 050V130 9999 FEW016 SCT020 BKN080 15/10 Q1020 NOSIG
0,[Mostly Cloudy],1997-2-13,[9.0 °C],[],[-],,[67%],[N/A],[1020 hPa],[15.0 °C],[11:00 PM],[10.0 km],[East],"[13.0 km/h
		/ 3.6 m/s]",METAR VHHH 131500Z 10007KT 020V160 9999 FEW020 SCT030 BKN080 15/09 Q1020 NOSIG
0,[Mostly Cloudy],1997-2-14,[10.0 °C],[],"[59.3 km/h
		/ 16.5 m/s]",,[72%],[N/A],[1020 hPa],[15.0 °C],[12:00 AM],[10.0 km],[East],"[35.2 km/h
		/ 9.8 m/s]",METAR VHHH 131600Z 10019G32KT 030V130 9999 FEW020 SCT030 BKN080 15/10 Q1020 WS LDG RWY 13 NOSIG
0,[Mostly Cloudy],1997-2-14,[9.0 °C],[],"[55.6 km/h
		/ 15.4 m/s]",,[67%],[N/A],[1019 hPa],[15.0 °C],[1:00 AM],[10.0 km],[East],"[35.2 km/h
		/ 9.8 m/s]",METAR VHHH 131700Z 10019G30KT 050V130 9999 FEW020 SCT030 BKN080 15/09 Q1019 WS LDG RWY 13 NOSIG
0,[Mostly Cloudy],1997-2-14,[8.0 °C],[],"[53.7 km/h
		/ 14.9 m/s]",,[63%],[N/A],[1018 hPa],[15.0 °C],[2:00 AM],[10.0 km],[East],"[35.2 km/h
		/ 9.8 m/s]",METAR VHHH 131800Z 10019G29KT 060V130 9999 FEW020 SCT030 BKN080 15/08 Q1018 WS LDG RWY 13 NOSIG
0,[Mostly Cloudy],1997-2-14,[8.0 °C],[],[-],,[63%],[N/A],[1019 hPa],[15.0 °C],[3:00 AM],[10.0 km],[East],"[24.1 km/h
		/ 6.7 m/s]",METAR VHHH 131900Z 09013KT 020V130 9999 FEW020 SCT030 BKN080 15/08 Q1019 WS LDG RWY 13 NOSIG
0,[Mostly Cloudy],1997-2-14,[9.0 °C],[],[-],,[72%],[N/A],[1018 hPa],[14.0 °C],[4:00 AM],[10.0 km],[East],"[22.2 km/h
		/ 6.2 m/s]",METAR VHHH 132000Z 10012KT 010V150 9999 FEW020 SCT030 BKN080 14/09 Q1018 WS LDG RWY 13/31 NOSIG
0,[Mostly Cloudy],1997-2-14,[9.0 °C],[],[-],,[72%],[N/A],[1018 hPa],[14.0 °C],[5:00 AM],[10.0 km],[East],"[16.7 km/h
		/ 4.6 m/s]",METAR VHHH 132100Z 08009KT 030V140 9999 FEW020 SCT030 BKN080 14/09 Q1018 WS LDG RWY 13/31 NOSIG
0,[Mostly Cloudy],1997-2-14,[9.0 °C],[],[-],,[72%],[N/A],[1018 hPa],[14.0 °C],[6:00 AM],[10.0 km],[East],"[22.2 km/h
		/ 6.2 m/s]",METAR VHHH 132200Z 10012KT 040V130 9999 FEW020 SCT025 BKN080 14/09 Q1018 WS LDG RWY 13/31 NOSIG
0,[Mostly Cloudy],1997-2-14,[9.0 °C],[],[-],,[72%],[N/A],[1019 hPa],[14.0 °C],[7:00 AM],[10.0 km],[East],"[18.5 km/h
		/ 5.1 m/s]",METAR VHHH 132300Z 09010KT 060V150 9999 FEW020 SCT025 BKN080 14/09 Q1019 WS LDG RWY 13/31 NOSIG
0,[Mostly Cloudy],1997-2-14,[9.0 °C],[],[-],,[72%],[N/A],[1019 hPa],[14.0 °C],[8:00 AM],[10.0 km],[East],"[27.8 km/h
		/ 7.7 m/s]",METAR VHHH 140000Z 10015KT 050V130 9999 FEW018 SCT025 BKN080 14/09 Q1019 WS LDG RWY 13/31 NOSIG
0,[Mostly Cloudy],1997-2-14,[9.0 °C],[],"[46.3 km/h
		/ 12.9 m/s]",,[72%],[N/A],[1020 hPa],[14.0 °C],[9:00 AM],[10.0 km],[East],"[22.2 km/h
		/ 6.2 m/s]",METAR VHHH 140100Z 10012G25KT 030V180 9999 FEW018 SCT022 BKN080 14/09 Q1020 WS LDG RWY 13/31 NOSIG
0,[Mostly Cloudy],1997-2-14,[9.0 °C],[],[-],,[67%],[N/A],[1020 hPa],[15.0 °C],[10:00 AM],[10.0 km],[East],"[18.5 km/h
		/ 5.1 m/s]",METAR VHHH 140200Z 10010KT 050V150 9999 FEW018 SCT022 BKN080 15/09 Q1020 WS LDG RWY 13/31 NOSIG
0,[Mostly Cloudy],1997-2-14,[9.0 °C],[],"[50.0 km/h
		/ 13.9 m/s]",,[67%],[N/A],[1019 hPa],[15.0 °C],[11:00 AM],[10.0 km],[East],"[29.6 km/h
		/ 8.2 m/s]",METAR VHHH 140300Z 10016G27KT 050V190 9999 FEW018 SCT022 BKN080 15/09 Q1019 WS LDG RWY 13/31 NOSIG
0,[Mostly Cloudy],1997-2-14,[10.0 °C],[],[-],,[68%],[N/A],[1019 hPa],[16.0 °C],[12:00 PM],[10.0 km],[East],"[25.9 km/h
		/ 7.2 m/s]",METAR VHHH 140400Z 10014KT 060V150 9999 FEW018 SCT022 BKN080 16/10 Q1019 WS LDG RWY 13/31 NOSIG
0,[Mostly Cloudy],1997-2-14,[10.0 °C],[],"[51.9 km/h
		/ 14.4 m/s]",,[68%],[N/A],[1017 hPa],[16.0 °C],[1:00 PM],[10.0 km],[East],"[22.2 km/h
		/ 6.2 m/s]",METAR VHHH 140500Z 09012G28KT 030V130 9999 FEW018 SCT022 BKN080 16/10 Q1017 WS LDG RWY 13/31 NOSIG
0,[Mostly Cloudy],1997-2-14,[9.0 °C],[],"[50.0 km/h
		/ 13.9 m/s]",,[67%],[N/A],[1016 hPa],[15.0 °C],[2:00 PM],[10.0 km],[East],"[31.5 km/h
		/ 8.7 m/s]",METAR VHHH 140600Z 10017G27KT 060V130 9999 FEW018 SCT025 BKN080 15/09 Q1016 WS LDG RWY 13/31 NOSIG
0,[Light Rain],1997-2-14,[10.0 °C],[Rain],[-],,[72%],[N/A],[1015 hPa],[15.0 °C],[3:00 PM],[10.0 km],[East],"[22.2 km/h
		/ 6.2 m/s]",METAR VHHH 140700Z 09012KT 050V130 9999 -RA FEW016 SCT022 BKN080 15/10 Q1015 WS LDG RWY 13/31 NOSIG
0,[Light Rain],1997-2-14,[10.0 °C],[Rain],[-],,[72%],[N/A],[1015 hPa],[15.0 °C],[4:00 PM],[10.0 km],[East],"[18.5 km/h
		/ 5.1 m/s]",METAR VHHH 140800Z 09010KT 070V140 9999 -RA FEW016 SCT020 BKN080 15/10 Q1015 WS LDG RWY 13/31 NOSIG
0,[Mostly Cloudy],1997-2-14,[10.0 °C],[],[-],,[72%],[N/A],[1015 hPa],[15.0 °C],[5:00 PM],[10.0 km],[ESE],"[20.4 km/h
		/ 5.7 m/s]",METAR VHHH 140900Z 11011KT 070V150 9999 FEW016 SCT020 BKN080 15/10 Q1015 WS LDG RWY 13/31 NOSIG
0,[Mostly Cloudy],1997-2-14,[10.0 °C],[],[-],,[72%],[N/A],[1015 hPa],[15.0 °C],[6:00 PM],[10.0 km],[East],"[20.4 km/h
		/ 5.7 m/s]",METAR VHHH 141000Z 10011KT 020V140 9999 FEW016 SCT020 BKN080 15/10 Q1015 NOSIG
0,[Mostly Cloudy],1997-2-14,[10.0 °C],[],[-],,[72%],[N/A],[1015 hPa],[15.0 °C],[7:00 PM],[10.0 km],[East],"[22.2 km/h
		/ 6.2 m/s]",METAR VHHH 141100Z 10012KT 070V130 9999 FEW015 SCT018 BKN080 15/10 Q1015 NOSIG
0,[Mostly Cloudy],1997-2-14,[10.0 °C],[],[-],,[72%],[N/A],[1015 hPa],[15.0 °C],[8:00 PM],[10.0 km],[East],"[25.9 km/h
		/ 7.2 m/s]",METAR VHHH 141200Z 10014KT 9999 FEW015 SCT018 BKN080 15/10 Q1015 NOSIG
0,[Mostly Cloudy],1997-2-14,[10.0 °C],[],[-],,[72%],[N/A],[1015 hPa],[15.0 °C],[9:00 PM],[10.0 km],[East],"[24.1 km/h
		/ 6.7 m/s]",METAR VHHH 141300Z 10013KT 060V140 9999 FEW015 SCT020 BKN080 15/10 Q1015 NOSIG
0,[Mostly Cloudy],1997-2-14,[11.0 °C],[],[-],,[77%],[N/A],[1016 hPa],[15.0 °C],[10:00 PM],[10.0 km],[East],"[24.1 km/h
		/ 6.7 m/s]",METAR VHHH 141400Z 10013KT 070V160 9999 FEW015 SCT020 BKN080 15/11 Q1016 NOSIG
0,[Mostly Cloudy],1997-2-14,[11.0 °C],[],[-],,[77%],[N/A],[1016 hPa],[15.0 °C],[11:00 PM],[10.0 km],[East],"[22.2 km/h
		/ 6.2 m/s]",METAR VHHH 141500Z 10012KT 050V140 9999 FEW014 SCT018 BKN080 15/11 Q1016 NOSIG
0,[Mostly Cloudy],1997-2-15,[11.0 °C],[],[-],,[77%],[N/A],[1016 hPa],[15.0 °C],[12:00 AM],[10.0 km],[East],"[16.7 km/h
		/ 4.6 m/s]",METAR VHHH 141600Z 09009KT 030V140 9999 FEW013 SCT018 BKN080 15/11 Q1016 NOSIG
0,[Mostly Cloudy],1997-2-15,[12.0 °C],[],"[40.7 km/h
		/ 11.3 m/s]",,[88%],[N/A],[1015 hPa],[14.0 °C],[1:00 AM],[10.0 km],[East],"[20.4 km/h
		/ 5.7 m/s]",METAR VHHH 141700Z 08011G22KT 020V130 9999 FEW012 SCT018 BKN080 14/12 Q1015 NOSIG
0,[Mostly Cloudy],1997-2-15,[12.0 °C],[],[-],,[82%],[N/A],[1015 hPa],[15.0 °C],[2:00 AM],[10.0 km],[East],"[13.0 km/h
		/ 3.6 m/s]",METAR VHHH 141800Z 09007KT 010V130 9999 FEW012 SCT018 BKN080 15/12 Q1015 NOSIG
0,[Mostly Cloudy],1997-2-15,[12.0 °C],[],[-],,[88%],[N/A],[1015 hPa],[14.0 °C],[3:00 AM],[9.0 km],[East],"[7.4 km/h
		/ 2.1 m/s]",METAR VHHH 141900Z 09004KT 030V150 9000 FEW010 SCT017 BKN080 14/12 Q1015 NOSIG
0,[Mostly Cloudy],1997-2-15,[12.0 °C],[],[-],,[88%],[N/A],[1014 hPa],[14.0 °C],[4:00 AM],[9.0 km],[ESE],"[11.1 km/h
		/ 3.1 m/s]",METAR VHHH 142000Z 11006KT 080V150 9000 FEW011 SCT017 BKN080 14/12 Q1014 NOSIG
0,[Mostly Cloudy],1997-2-15,[13.0 °C],[],[-],,[88%],[N/A],[1013 hPa],[15.0 °C],[5:00 AM],[8.0 km],[East],"[13.0 km/h
		/ 3.6 m/s]",METAR VHHH 142100Z 10007KT 060V130 8000 FEW011 SCT019 BKN080 15/13 Q1013 NOSIG
0,[Mostly Cloudy],1997-2-15,[12.0 °C],[],[-],,[82%],[N/A],[1013 hPa],[15.0 °C],[6:00 AM],[8.0 km],[East],"[9.3 km/h
		/ 2.6 m/s]",METAR VHHH 142200Z 10005KT 050V140 8000 FEW011 SCT017 BKN080 15/12 Q1013 NOSIG
0,[Mostly Cloudy],1997-2-15,[13.0 °C],[],[-],,[88%],[N/A],[1014 hPa],[15.0 °C],[7:00 AM],[6.0 km],[East],"[9.3 km/h
		/ 2.6 m/s]",METAR VHHH 142300Z 09005KT 310V120 6000 FEW010 SCT014 BKN080 15/13 Q1014 NOSIG
0,[Light Rain],1997-2-15,[13.0 °C],[Rain],[-],,[88%],[N/A],[1014 hPa],[15.0 °C],[8:00 AM],[-],[SE],"[9.3 km/h
		/ 2.6 m/s]",METAR VHHH 150000Z 13005KT 4800 -RA SCT008 SCT015 BKN080 15/13 Q1014 TEMPO 4500 -RA
0,[Mostly Cloudy],1997-2-15,[13.0 °C],[],[-],,[88%],[N/A],[1015 hPa],[15.0 °C],[9:00 AM],[6.0 km],[WSW],"[7.4 km/h
		/ 2.1 m/s]",METAR VHHH 150100Z 25004KT 210V310 6000 FEW006 SCT014 BKN080 15/13 Q1015 TEMPO 4000 RA
0,[Light Rain],1997-2-15,[13.0 °C],[Rain],[-],,[88%],[N/A],[1016 hPa],[15.0 °C],[10:00 AM],[6.0 km],[NW],"[3.7 km/h
		/ 1.0 m/s]",METAR VHHH 150200Z 32002KT 6000 -RA FEW004 SCT012 BKN080 15/13 Q1016 TEMPO 3000 RA
0,[Light Rain],1997-2-15,[13.0 °C],[Rain],[-],,[88%],[N/A],[1016 hPa],[15.0 °C],[11:00 AM],[7.0 km],[NW],"[9.3 km/h
		/ 2.6 m/s]",METAR VHHH 150300Z 32005KT 7000 -RA FEW004 SCT012 BKN080 15/13 Q1016 TEMPO 3000 RA
0,[Mostly Cloudy],1997-2-15,[12.0 °C],[],[-],,[82%],[N/A],[1015 hPa],[15.0 °C],[12:00 PM],[10.0 km],[NNW],"[7.4 km/h
		/ 2.1 m/s]",METAR VHHH 150400Z 33004KT 290V360 9999 FEW008 SCT022 BKN080 15/12 Q1015 TEMPO 3000 RA
0,[Mostly Cloudy],1997-2-15,[12.0 °C],[],[-],,[82%],[N/A],[1015 hPa],[15.0 °C],[1:00 PM],[-],[NW],"[18.5 km/h
		/ 5.1 m/s]",METAR VHHH 150500Z 32010KT BKN080 9999 -RA FEW008 SCT020 BKN080 15/12 Q1015 WS LDY RWY 13 TEMPO 3000 RA NOSIG
0,[Light Rain],1997-2-15,[13.0 °C],[Rain],[-],,[88%],[N/A],[1014 hPa],[15.0 °C],[2:00 PM],[10.0 km],[NW],"[13.0 km/h
		/ 3.6 m/s]",METAR VHHH 150600Z 31007KT 280V350 9999 -RA FEW007 SCT018 BKN080 15/13 Q1014 RERA WS LDG RWY 13 TEMPO 3000 RA
0,[Light Rain],1997-2-15,[13.0 °C],[Rain],[-],,[88%],[N/A],[1014 hPa],[15.0 °C],[3:00 PM],[10.0 km],[Variable],"[1.9 km/h
		/ 0.5 m/s]",METAR VHHH 150700Z VRB01KT 9999 -RA FEW007 SCT018 BKN080 15/13 Q1014 NOSIG
0,[Light Rain],1997-2-15,[13.0 °C],[Rain],[-],,[82%],[N/A],[1014 hPa],[16.0 °C],[4:00 PM],[10.0 km],[West],"[14.8 km/h
		/ 4.1 m/s]",METAR VHHH 150800Z 28008KT 250V310 9999 -RA FEW012 SCT020 BKN080 16/13 Q1014 NOSIG
0,[Mostly Cloudy],1997-2-15,[13.0 °C],[],[-],,[82%],[N/A],[1014 hPa],[16.0 °C],[5:00 PM],[10.0 km],[NNW],"[9.3 km/h
		/ 2.6 m/s]",METAR VHHH 150900Z 33005KT 290V020 9999 FEW010 SCT020 BKN080 16/13 Q1014 NOSIG
0,[Light Rain],1997-2-15,[13.0 °C],[Rain],[-],,[88%],[N/A],[1014 hPa],[15.0 °C],[6:00 PM],[9.0 km],[NNW],"[7.4 km/h
		/ 2.1 m/s]",METAR VHHH 151000Z 33004KT 9000 -RA FEW010 SCT018 BKN080 15/13 Q1014 NOSIG
0,[Mostly Cloudy],1997-2-15,[12.0 °C],[],[-],,[82%],[N/A],[1015 hPa],[15.0 °C],[7:00 PM],[9.0 km],[NW],"[11.1 km/h
		/ 3.1 m/s]",METAR VHHH 151100Z 32006KT 290V030 9000 FEW012 SCT020 BKN080 15/12 Q1015 WS LDG RWY 13 NOSIG
0,[Mostly Cloudy],1997-2-15,[12.0 °C],[],[-],,[82%],[N/A],[1015 hPa],[15.0 °C],[8:00 PM],[10.0 km],[Variable],"[1.9 km/h
		/ 0.5 m/s]",METAR VHHH 151200Z VRB01KT 9999 FEW012 SCT020 BKN080 15/12 Q1015 WS LDG RWY 13 NOSIG
0,[Mostly Cloudy],1997-2-15,[11.0 °C],[],[-],,[77%],[N/A],[1017 hPa],[15.0 °C],[10:00 PM],[10.0 km],[NW],"[7.4 km/h
		/ 2.1 m/s]",METAR VHHH 151400Z 32004KT 270V350 9999 FEW012 SCT024 BKN080 15/11 Q1017 WS LDG RWY 13 NOSIG
0,[Light Rain],1997-2-15,[11.0 °C],[Rain],[-],,[77%],[N/A],[1017 hPa],[15.0 °C],[11:00 PM],[10.0 km],[Variable],"[3.7 km/h
		/ 1.0 m/s]",METAR VHHH 151500Z VRB02KT 9999 -RA FEW012 SCT025 BKN080 15/11 Q1017 WS LDG RWY 13 NOSIG
0,[Mostly Cloudy],1997-2-16,[10.0 °C],[],[-],,[77%],[N/A],[1017 hPa],[14.0 °C],[12:00 AM],[10.0 km],[NW],"[9.3 km/h
		/ 2.6 m/s]",METAR VHHH 151600Z 32005KT 9999 FEW012 SCT025 BKN080 14/10 Q1017 NOSIG
0,[Mostly Cloudy],1997-2-16,[10.0 °C],[],[-],,[77%],[N/A],[1017 hPa],[14.0 °C],[1:00 AM],[10.0 km],[NNW],"[9.3 km/h
		/ 2.6 m/s]",METAR VHHH 151700Z 33005KT 300V360 9999 FEW012 SCT025 BKN080 14/10 Q1017 NOSIG
0,[Mostly Cloudy],1997-2-16,[9.0 °C],[],[-],,[72%],[N/A],[1017 hPa],[14.0 °C],[2:00 AM],[10.0 km],[NW],"[13.0 km/h
		/ 3.6 m/s]",METAR VHHH 151800Z 31007KT 280V350 9999 FEW015 SCT030 BKN080 14/09 Q1017 NOSIG
0,[Mostly Cloudy],1997-2-16,[8.0 °C],[],[-],,[72%],[N/A],[1016 hPa],[13.0 °C],[3:00 AM],[10.0 km],[SW],"[1.9 km/h
		/ 0.5 m/s]",METAR VHHH 151900Z 22001KT 9999 SCT030 BKN080 13/08 Q1016 NOSIG
0,[Mostly Cloudy],1997-2-16,[9.0 °C],[],[-],,[77%],[N/A],[1016 hPa],[13.0 °C],[4:00 AM],[10.0 km],[Variable],"[3.7 km/h
		/ 1.0 m/s]",METAR VHHH 152000Z VRB02KT 9999 SCT030 BKN080 13/09 Q1016 WS LDG RWY 13 NOSIG
0,[Mostly Cloudy],1997-2-16,[8.0 °C],[],[-],,[72%],[N/A],[1016 hPa],[13.0 °C],[5:00 AM],[10.0 km],[SSW],"[3.7 km/h
		/ 1.0 m/s]",METAR VHHH 152100Z 21002KT 9999 SCT030 BKN080 13/08 Q1016 WS LDG RWY 13 NOSIG
0,[Mostly Cloudy],1997-2-16,[8.0 °C],[],[-],,[72%],[N/A],[1016 hPa],[13.0 °C],[6:00 AM],[10.0 km],[West],"[7.4 km/h
		/ 2.1 m/s]",METAR VHHH 152200Z 27004KT 250V350 9999 FEW025 SCT030 BKN080 13/08 Q1016 WS LDG RWY 13 NOSIG
0,[Mostly Cloudy],1997-2-16,[8.0 °C],[],[-],,[72%],[N/A],[1017 hPa],[13.0 °C],[7:00 AM],[10.0 km],[NNW],"[9.3 km/h
		/ 2.6 m/s]",METAR VHHH 152300Z 33005KT 300V010 9999 FEW021 SCT028 BKN080 13/08 Q1017 WS LDG RWY 13 NOSIG
0,[Mostly Cloudy],1997-2-16,[8.0 °C],[],[-],,[72%],[N/A],[1018 hPa],[13.0 °C],[8:00 AM],[10.0 km],[NW],"[5.6 km/h
		/ 1.5 m/s]",METAR VHHH 160000Z 32003KT 9999 FEW022 SCT026 BKN080 13/08 Q1018 NOSIG
0,[Mostly Cloudy],1997-2-16,[9.0 °C],[],[-],,[77%],[N/A],[1019 hPa],[13.0 °C],[9:00 AM],[10.0 km],[ENE],"[1.9 km/h
		/ 0.5 m/s]",METAR VHHH 160100Z 07001KT 9999 FEW018 SCT025 BKN080 13/09 Q1019 NOSIG
0,[Mostly Cloudy],1997-2-16,[9.0 °C],[],[-],,[77%],[N/A],[1019 hPa],[13.0 °C],[10:00 AM],[10.0 km],[Variable],"[1.9 km/h
		/ 0.5 m/s]",METAR VHHH 160200Z VRB01KT 9999 FEW018 SCT025 BKN080 13/09 Q1019 NOSIG
0,[Mostly Cloudy],1997-2-16,[10.0 °C],[],[-],,[77%],[N/A],[1019 hPa],[14.0 °C],[11:00 AM],[10.0 km],[NE],"[9.3 km/h
		/ 2.6 m/s]",METAR VHHH 160300Z 05005KT 010V100 9999 FEW022 SCT025 BKN080 14/10 Q1019 NOSIG
0,[Mostly Cloudy],1997-2-16,[10.0 °C],[],[-],,[72%],[N/A],[1018 hPa],[15.0 °C],[1:00 PM],[10.0 km],[NE],"[13.0 km/h
		/ 3.6 m/s]",METAR VHHH 160500Z 04007KT 340V100 9999 FEW020 SCT025 BKN080 15/10 Q1018 NOSIG
0,[Mostly Cloudy],1997-2-16,[10.0 °C],[],[-],,[72%],[N/A],[1017 hPa],[15.0 °C],[2:00 PM],[10.0 km],[NNW],"[1.9 km/h
		/ 0.5 m/s]",METAR VHHH 160600Z 33001KT 9999 FEW020 SCT025 BKN080 15/10 Q1017 NOSIG
0,[Mostly Cloudy],1997-2-16,[10.0 °C],[],[-],,[72%],[N/A],[1017 hPa],[15.0 °C],[3:00 PM],[10.0 km],[NNW],"[3.7 km/h
		/ 1.0 m/s]",METAR VHHH 160700Z 33002KT 9999 SCT025 BKN080 15/10 Q1017 NOSIG
0,[Mostly Cloudy],1997-2-16,[9.0 °C],[],[-],,[72%],[N/A],[1017 hPa],[14.0 °C],[4:00 PM],[10.0 km],[NE],"[7.4 km/h
		/ 2.1 m/s]",METAR VHHH 160800Z 05004KT 9999 FEW020 SCT025 BKN080 14/09 Q1017 NOSIG
0,[Mostly Cloudy],1997-2-16,[9.0 °C],[],[-],,[72%],[N/A],[1017 hPa],[14.0 °C],[5:00 PM],[10.0 km],[ENE],"[14.8 km/h
		/ 4.1 m/s]",METAR VHHH 160900Z 06008KT 9999 SCT020 BKN080 14/09 Q1017 NOSIG
0,[Mostly Cloudy],1997-2-16,[10.0 °C],[],[-],,[77%],[N/A],[1018 hPa],[14.0 °C],[6:00 PM],[10.0 km],[North],"[7.4 km/h
		/ 2.1 m/s]",METAR VHHH 161000Z 36004KT 330V040 9999 SCT018 BKN080 14/10 Q1018 NOSIG
0,[Mostly Cloudy],1997-2-16,[10.0 °C],[],[-],,[77%],[N/A],[1018 hPa],[14.0 °C],[7:00 PM],[10.0 km],[North],"[7.4 km/h
		/ 2.1 m/s]",METAR VHHH 161100Z 35004KT 320V030 9999 SCT018 BKN080 14/10 Q1018 NOSIG
0,[Mostly Cloudy],1997-2-16,[10.0 °C],[],[-],,[77%],[N/A],[1019 hPa],[14.0 °C],[8:00 PM],[10.0 km],[NNW],"[1.9 km/h
		/ 0.5 m/s]",METAR VHHH 161200Z 33001KT 9999 FEW016 SCT020 BKN080 14/10 Q1019 NOSIG
0,[Mostly Cloudy],1997-2-16,[10.0 °C],[],[-],,[82%],[N/A],[1020 hPa],[13.0 °C],[9:00 PM],[10.0 km],[North],"[1.9 km/h
		/ 0.5 m/s]",METAR VHHH 161300Z 36001KT 9999 FEW013 SCT020 BKN080 13/10 Q1020 NOSIG
0,[Mostly Cloudy],1997-2-16,[10.0 °C],[],[-],,[82%],[N/A],[1020 hPa],[13.0 °C],[10:00 PM],[10.0 km],[NE],"[7.4 km/h
		/ 2.1 m/s]",METAR VHHH 161400Z 04004KT 330V070 9999 FEW013 SCT020 BKN080 13/10 Q1020 NOSIG
0,[Mostly Cloudy],1997-2-16,[10.0 °C],[],[-],,[82%],[N/A],[1020 hPa],[13.0 °C],[11:00 PM],[10.0 km],[ENE],"[3.7 km/h
		/ 1.0 m/s]",METAR VHHH 161500Z 07002KT 9999 FEW014 SCT020 BKN080 13/10 Q1020 NOSIG
0,[Mostly Cloudy],1997-2-17,[11.0 °C],[],[-],,[82%],[N/A],[1020 hPa],[14.0 °C],[12:00 AM],[10.0 km],[NNE],"[11.1 km/h
		/ 3.1 m/s]",METAR VHHH 161600Z 03006KT 340V150 9999 FEW014 SCT020 BKN080 14/11 Q1020 NOSIG
0,[Mostly Cloudy],1997-2-17,[11.0 °C],[],[-],,[88%],[N/A],[1020 hPa],[13.0 °C],[1:00 AM],[10.0 km],[ENE],"[3.7 km/h
		/ 1.0 m/s]",METAR VHHH 161700Z 07002KT 9999 FEW013 SCT020 BKN080 13/11 Q1020 NOSIG
0,[Light Rain],1997-2-17,[11.0 °C],[Rain],[-],,[88%],[N/A],[1020 hPa],[13.0 °C],[2:00 AM],[9.0 km],[NNE],"[9.3 km/h
		/ 2.6 m/s]",METAR VHHH 161800Z 02005KT 320V090 9000 -RA FEW013 SCT020 BKN080 13/11 Q1020 NOSIG
0,[Mostly Cloudy],1997-2-17,[10.0 °C],[],[-],,[82%],[N/A],[1019 hPa],[13.0 °C],[3:00 AM],[10.0 km],[East],"[1.9 km/h
		/ 0.5 m/s]",METAR VHHH 161900Z 08001KT 9999 FEW014 SCT020 BKN080 13/10 Q1019 NOSIG
0,[Mostly Cloudy],1997-2-17,[10.0 °C],[],[-],,[82%],[N/A],[1019 hPa],[13.0 °C],[4:00 AM],[10.0 km],[Variable],"[1.9 km/h
		/ 0.5 m/s]",METAR VHHH 162000Z VRB01KT 9999 FEW014 SCT020 BKN080 13/10 Q1019 NOSIG
0,[Mostly Cloudy],1997-2-17,[10.0 °C],[],[-],,[82%],[N/A],[1019 hPa],[13.0 °C],[5:00 AM],[10.0 km],[WNW],"[1.9 km/h
		/ 0.5 m/s]",METAR VHHH 162100Z 29001KT 9999 FEW012 SCT020 BKN080 13/10 Q1019 NOSIG
0,[Mostly Cloudy],1997-2-17,[10.0 °C],[],[-],,[82%],[N/A],[1019 hPa],[13.0 °C],[6:00 AM],[10.0 km],[NNE],"[9.3 km/h
		/ 2.6 m/s]",METAR VHHH 162200Z 03005KT 360V060 9999 FEW012 SCT020 BKN080 13/10 Q1019 NOSIG
0,[Mostly Cloudy],1997-2-17,[9.0 °C],[],[-],,[77%],[N/A],[1019 hPa],[13.0 °C],[7:00 AM],[10.0 km],[NE],"[1.9 km/h
		/ 0.5 m/s]",METAR VHHH 162300Z 05001KT 9999 FEW012 SCT035 BKN080 13/09 Q1019 NOSIG
0,[Mostly Cloudy],1997-2-17,[9.0 °C],[],[-],,[72%],[N/A],[1020 hPa],[14.0 °C],[8:00 AM],[10.0 km],[North],"[11.1 km/h
		/ 3.1 m/s]",METAR VHHH 170000Z 01006KT 320V080 9999 FEW035 BKN080 14/09 Q1020 NOSIG
0,[Mostly Cloudy],1997-2-17,[9.0 °C],[],[-],,[72%],[N/A],[1020 hPa],[14.0 °C],[9:00 AM],[10.0 km],[NNE],"[11.1 km/h
		/ 3.1 m/s]",METAR VHHH 170100Z 03006KT 010V080 9999 FEW035 BKN080 14/09 Q1020 NOSIG
0,[Mostly Cloudy],1997-2-17,[9.0 °C],[],[-],,[67%],[N/A],[1020 hPa],[15.0 °C],[10:00 AM],[10.0 km],[East],"[18.5 km/h
		/ 5.1 m/s]",METAR VHHH 170200Z 10010KT 9999 FEW040 BKN080 15/09 Q1020 NOSIG
0,[Mostly Cloudy],1997-2-17,[9.0 °C],[],[-],,[67%],[N/A],[1020 hPa],[15.0 °C],[11:00 AM],[10.0 km],[ENE],"[9.3 km/h
		/ 2.6 m/s]",METAR VHHH 170300Z 07005KT 340V120 9999 FEW020 SCT035 BKN080 15/09 Q1020 WS LDG RWY 13 NOSIG
0,[Mostly Cloudy],1997-2-17,[9.0 °C],[],[-],,[67%],[N/A],[1020 hPa],[15.0 °C],[12:00 PM],[10.0 km],[ENE],"[13.0 km/h
		/ 3.6 m/s]",METAR VHHH 170400Z 07007KT 020V120 9999 FEW020 SCT025 BKN080 15/09 Q1020 WS LDG RWY 13 NOSIG
0,[Mostly Cloudy],1997-2-17,[10.0 °C],[],[-],,[72%],[N/A],[1019 hPa],[15.0 °C],[1:00 PM],[10.0 km],[NNE],"[1.9 km/h
		/ 0.5 m/s]",METAR VHHH 170500Z 03001KT 9999 FEW018 SCT025 BKN080 15/10 Q1019 WS LDG RWY 13 NOSIG
0,[Mostly Cloudy],1997-2-17,[10.0 °C],[],[-],,[72%],[N/A],[1018 hPa],[15.0 °C],[2:00 PM],[9.0 km],[ENE],"[3.7 km/h
		/ 1.0 m/s]",METAR VHHH 170600Z 06002KT 9000 FEW018 SCT025 BKN080 15/10 Q1018 NOSIG
0,[Mostly Cloudy],1997-2-17,[10.0 °C],[],[-],,[72%],[N/A],[1018 hPa],[15.0 °C],[3:00 PM],[9.0 km],[North],"[7.4 km/h
		/ 2.1 m/s]",METAR VHHH 170700Z 36004KT 290V090 9000 FEW018 SCT025 BKN080 15/10 Q1018 NOSIG
0,[Mostly Cloudy],1997-2-17,[10.0 °C],[],[-],,[72%],[N/A],[1018 hPa],[15.0 °C],[4:00 PM],[9.0 km],[NW],"[9.3 km/h
		/ 2.6 m/s]",METAR VHHH 170800Z 31005KT 270V020 9000 FEW018 SCT025 BKN080 15/10 Q1018 NOSIG
0,[Mostly Cloudy],1997-2-17,[10.0 °C],[],[-],,[77%],[N/A],[1018 hPa],[14.0 °C],[5:00 PM],[7.0 km],[NW],"[14.8 km/h
		/ 4.1 m/s]",METAR VHHH 170900Z 32008KT 290V360 7000 FEW018 SCT025 BKN080 14/10 Q1018 WS LDG RWY 13 NOSIG
0,[Mostly Cloudy],1997-2-17,[9.0 °C],[],[-],,[72%],[N/A],[1018 hPa],[14.0 °C],[6:00 PM],[7.0 km],[North],"[7.4 km/h
		/ 2.1 m/s]",METAR VHHH 171000Z 35004KT 310V030 7000 FEW017 SCT035 BKN080 14/09 Q1018 WS LDG RWY 13 NOSIG
0,[Mostly Cloudy],1997-2-17,[9.0 °C],[],[-],,[77%],[N/A],[1019 hPa],[13.0 °C],[7:00 PM],[7.0 km],[NW],"[5.6 km/h
		/ 1.5 m/s]",METAR VHHH 171100Z 32003KT 7000 FEW016 SCT035 BKN080 13/09 Q1019 WS LDG RWY 13 NOSIG
0,[Mostly Cloudy],1997-2-17,[9.0 °C],[],[-],,[77%],[N/A],[1020 hPa],[13.0 °C],[9:00 PM],[10.0 km],[NNE],"[7.4 km/h
		/ 2.1 m/s]",METAR VHHH 171300Z 02004KT 9999 FEW016 SCT025 BKN080 13/09 Q1020 WS LDG RWY 13 NOSIG
0,[Mostly Cloudy],1997-2-17,[9.0 °C],[],[-],,[77%],[N/A],[1021 hPa],[13.0 °C],[10:00 PM],[10.0 km],[North],"[9.3 km/h
		/ 2.6 m/s]",METAR VHHH 171400Z 01005KT 330V050 9999 FEW016 SCT025 BKN080 13/09 Q1021 WS LDG RWY 13 NOSIG
0,[Mostly Cloudy],1997-2-17,[9.0 °C],[],[-],,[77%],[N/A],[1021 hPa],[13.0 °C],[11:00 PM],[10.0 km],[ENE],"[1.9 km/h
		/ 0.5 m/s]",METAR VHHH 171500Z 06001KT 9999 FEW016 SCT025 BKN080 13/09 Q1021 WS LDG RWY 13 NOSIG
0,[Mostly Cloudy],1997-2-18,[9.0 °C],[],[-],,[77%],[N/A],[1021 hPa],[13.0 °C],[12:00 AM],[10.0 km],[ENE],"[9.3 km/h
		/ 2.6 m/s]",METAR VHHH 171600Z 06005KT 030V100 9999 FEW016 SCT025 BKN080 13/09 Q1021 NOSIG
0,[Mostly Cloudy],1997-2-18,[10.0 °C],[],[-],,[88%],[N/A],[1021 hPa],[12.0 °C],[1:00 AM],[10.0 km],[NE],"[7.4 km/h
		/ 2.1 m/s]",METAR VHHH 171700Z 04004KT 9999 FEW015 SCT030 BKN080 12/10 Q1021 NOSIG
0,[Mostly Cloudy],1997-2-18,[9.0 °C],[],[-],,[82%],[N/A],[1021 hPa],[12.0 °C],[2:00 AM],[10.0 km],[NW],"[7.4 km/h
		/ 2.1 m/s]",METAR VHHH 171800Z 32004KT 9999 FEW015 SCT030 BKN080 12/09 Q1021 NOSIG
0,[Mostly Cloudy],1997-2-18,[9.0 °C],[],[-],,[82%],[N/A],[1020 hPa],[12.0 °C],[3:00 AM],[10.0 km],[NW],"[1.9 km/h
		/ 0.5 m/s]",METAR VHHH 171900Z 31001KT 9999 FEW015 SCT020 BKN080 12/09 Q1020 NOSIG
0,[Mostly Cloudy],1997-2-18,[9.0 °C],[],[-],,[82%],[N/A],[1020 hPa],[12.0 °C],[4:00 AM],[10.0 km],[NW],"[9.3 km/h
		/ 2.6 m/s]",METAR VHHH 172000Z 32005KT 9999 FEW015 SCT020 BKN080 12/09 Q1020 NOSIG
0,[Mostly Cloudy],1997-2-18,[9.0 °C],[],[-],,[82%],[N/A],[1020 hPa],[12.0 °C],[5:00 AM],[10.0 km],[NW],"[5.6 km/h
		/ 1.5 m/s]",METAR VHHH 172100Z 32003KT 9999 FEW015 SCT020 BKN080 12/09 Q1020 NOSIG
0,[Light Rain],1997-2-18,[9.0 °C],[Rain],[-],,[82%],[N/A],[1021 hPa],[12.0 °C],[6:00 AM],[10.0 km],[NW],"[1.9 km/h
		/ 0.5 m/s]",METAR VHHH 172200Z 31001KT 9999 -RA FEW015 SCT020 BKN080 12/09 Q1021 NOSIG
0,[Light Rain],1997-2-18,[9.0 °C],[Rain],[-],,[88%],[N/A],[1022 hPa],[11.0 °C],[7:00 AM],[6.0 km],[NW],"[7.4 km/h
		/ 2.1 m/s]",METAR VHHH 172300Z 32004KT 280V360 6000 -RA FEW013 SCT020 BKN080 11/09 Q1022 TEMPO 4500 -RA
0,[Light Rain],1997-2-18,[9.0 °C],[Rain],[-],,[82%],[N/A],[1022 hPa],[12.0 °C],[8:00 AM],[8.0 km],[WNW],"[1.9 km/h
		/ 0.5 m/s]",METAR VHHH 180000Z 30001KT 8000 -RA FEW014 SCT018 BKN080 12/09 Q1022 TEMPO 4500 -RA
0,[Mostly Cloudy],1997-2-18,[9.0 °C],[],[-],,[82%],[N/A],[1023 hPa],[12.0 °C],[9:00 AM],[10.0 km],[SE],"[7.4 km/h
		/ 2.1 m/s]",METAR VHHH 180100Z 13004KT 090V180 9999 FEW014 SCT025 BKN080 12/09 Q1023 NOSIG
0,[Partly Cloudy],1997-2-18,[9.0 °C],[],[-],,[72%],[N/A],[1023 hPa],[14.0 °C],[10:00 AM],[10.0 km],[ENE],"[1.9 km/h
		/ 0.5 m/s]",METAR VHHH 180200Z 07001KT 9999 FEW018 14/09 Q1023 NOSIG
0,[Mostly Cloudy],1997-2-18,[8.0 °C],[],[-],,[63%],[N/A],[1023 hPa],[15.0 °C],[11:00 AM],[10.0 km],[ENE],"[7.4 km/h
		/ 2.1 m/s]",METAR VHHH 180300Z 06004KT 010V120 9999 FEW020 SCT035 BKN080 15/08 Q1023 NOSIG
0,[Mostly Cloudy],1997-2-18,[9.0 °C],[],[-],,[63%],[N/A],[1023 hPa],[16.0 °C],[12:00 PM],[10.0 km],[NE],"[13.0 km/h
		/ 3.6 m/s]",METAR VHHH 180400Z 05007KT 340V070 9999 SCT030 BKN100 16/09 Q1023 NOSIG
0,[Mostly Cloudy],1997-2-18,[9.0 °C],[],[-],,[59%],[N/A],[1022 hPa],[17.0 °C],[1:00 PM],[10.0 km],[ENE],"[11.1 km/h
		/ 3.1 m/s]",METAR VHHH 180500Z 06006KT 020V120 9999 FEW035 BKN120 17/09 Q1022 NOSIG
0,[Mostly Cloudy],1997-2-18,[9.0 °C],[],[-],,[56%],[N/A],[1021 hPa],[18.0 °C],[2:00 PM],[10.0 km],[Variable],"[5.6 km/h
		/ 1.5 m/s]",METAR VHHH 180600Z VRB03KT 9999 FEW035 BKN100 18/09 Q1021 NOSIG
0,[Mostly Cloudy],1997-2-18,[9.0 °C],[],[-],,[63%],[N/A],[1020 hPa],[16.0 °C],[3:00 PM],[10.0 km],[South],"[11.1 km/h
		/ 3.1 m/s]",METAR VHHH 180700Z 19006KT 090V240 9999 FEW030 BKN090 16/09 Q1020 NOSIG
0,[Mostly Cloudy],1997-2-18,[9.0 °C],[],[-],,[59%],[N/A],[1020 hPa],[17.0 °C],[4:00 PM],[10.0 km],[NE],"[11.1 km/h
		/ 3.1 m/s]",METAR VHHH 180800Z 05006KT 9999 FEW030 BKN090 17/09 Q1020 NOSIG
0,[Mostly Cloudy],1997-2-18,[8.0 °C],[],[-],,[55%],[N/A],[1020 hPa],[17.0 °C],[5:00 PM],[10.0 km],[NE],"[13.0 km/h
		/ 3.6 m/s]",METAR VHHH 180900Z 04007KT 360V080 9999 FEW030 BKN090 17/08 Q1020 NOSIG
0,[Mostly Cloudy],1997-2-18,[7.0 °C],[],[-],,[55%],[N/A],[1021 hPa],[16.0 °C],[6:00 PM],[10.0 km],[NE],"[13.0 km/h
		/ 3.6 m/s]",METAR VHHH 181000Z 04007KT 360V070 9999 FEW030 BKN090 16/07 Q1021 NOSIG
0,[Mostly Cloudy],1997-2-18,[7.0 °C],[],[-],,[59%],[N/A],[1021 hPa],[15.0 °C],[7:00 PM],[10.0 km],[NE],"[11.1 km/h
		/ 3.1 m/s]",METAR VHHH 181100Z 05006KT 020V080 9999 FEW030 BKN090 15/07 Q1021 NOSIG
0,[Mostly Cloudy],1997-2-18,[7.0 °C],[],[-],,[59%],[N/A],[1022 hPa],[15.0 °C],[8:00 PM],[10.0 km],[East],"[7.4 km/h
		/ 2.1 m/s]",METAR VHHH 181200Z 08004KT 020V150 9999 FEW030 BKN090 15/07 Q1022 NOSIG
0,[Mostly Cloudy],1997-2-18,[7.0 °C],[],[-],,[59%],[N/A],[1023 hPa],[15.0 °C],[9:00 PM],[10.0 km],[ENE],"[7.4 km/h
		/ 2.1 m/s]",METAR VHHH 181300Z 07004KT 020V120 9999 FEW020 BKN090 15/07 Q1023 NOSIG
0,[Mostly Cloudy],1997-2-18,[7.0 °C],[],[-],,[59%],[N/A],[1023 hPa],[15.0 °C],[10:00 PM],[10.0 km],[ENE],"[9.3 km/h
		/ 2.6 m/s]",METAR VHHH 181400Z 06005KT 340V090 9999 FEW025 SCT030 BKN090 15/07 Q1023 NOSIG
0,[Mostly Cloudy],1997-2-18,[8.0 °C],[],[-],,[63%],[N/A],[1023 hPa],[15.0 °C],[11:00 PM],[10.0 km],[NNE],"[5.6 km/h
		/ 1.5 m/s]",METAR VHHH 181500Z 03003KT 9999 FEW025 SCT035 BKN080 15/08 Q1023 NOSIG
0,[Mostly Cloudy],1997-2-19,[9.0 °C],[],[-],,[67%],[N/A],[1024 hPa],[15.0 °C],[12:00 AM],[10.0 km],[NNE],"[7.4 km/h
		/ 2.1 m/s]",METAR VHHH 181600Z 03004KT 350V110 9999 FEW020 SCT030 BKN080 15/09 Q1024 NOSIG
0,[Mostly Cloudy],1997-2-19,[8.0 °C],[],[-],,[67%],[N/A],[1024 hPa],[14.0 °C],[1:00 AM],[10.0 km],[NNE],"[7.4 km/h
		/ 2.1 m/s]",METAR VHHH 181700Z 03004KT 360V080 9999 FEW016 SCT025 BKN080 14/08 Q1024 NOSIG
0,[Mostly Cloudy],1997-2-19,[9.0 °C],[],[-],,[72%],[N/A],[1023 hPa],[14.0 °C],[2:00 AM],[10.0 km],[NNE],"[7.4 km/h
		/ 2.1 m/s]",METAR VHHH 181800Z 02004KT 290V060 9999 FEW016 SCT025 BKN080 14/09 Q1023 NOSIG
0,[Partly Cloudy],1997-2-19,[9.0 °C],[],[-],,[77%],[N/A],[1023 hPa],[13.0 °C],[3:00 AM],[10.0 km],[NNE],"[11.1 km/h
		/ 3.1 m/s]",METAR VHHH 181900Z 02006KT 350V070 9999 FEW016 13/09 Q1023 NOSIG
0,[Scattered Clouds],1997-2-19,[8.0 °C],[],[-],,[72%],[N/A],[1023 hPa],[13.0 °C],[4:00 AM],[10.0 km],[NNE],"[3.7 km/h
		/ 1.0 m/s]",METAR VHHH 182000Z 03002KT 9999 FEW016 SCT100 13/08 Q1023 NOSIG
0,[Mostly Cloudy],1997-2-19,[8.0 °C],[],[-],,[72%],[N/A],[1023 hPa],[13.0 °C],[5:00 AM],[10.0 km],[ENE],"[7.4 km/h
		/ 2.1 m/s]",METAR VHHH 182100Z 06004KT 010V110 9999 FEEW016 BKN100 13/08 Q1023 NOSIG
0,[Mostly Cloudy],1997-2-19,[8.0 °C],[],[-],,[67%],[N/A],[1023 hPa],[14.0 °C],[6:00 AM],[10.0 km],[ENE],"[7.4 km/h
		/ 2.1 m/s]",METAR VHHH 182200Z 06004KT 360V110 9999 FEW016 BKN100 14/08 Q1023 NOSIG
0,[Mostly Cloudy],1997-2-19,[6.0 °C],[],[-],,[63%],[N/A],[1024 hPa],[13.0 °C],[7:00 AM],[9.0 km],[NNE],"[9.3 km/h
		/ 2.6 m/s]",METAR VHHH 182300Z 03005KT 350V080 9000 FEW030 BKN100 13/06 Q1024 NOSIG
0,[Mostly Cloudy],1997-2-19,[6.0 °C],[],[-],,[59%],[N/A],[1024 hPa],[14.0 °C],[8:00 AM],[10.0 km],[NE],"[9.3 km/h
		/ 2.6 m/s]",METAR VHHH 190000Z 04005KT 360V110 9999 FEW030 BKN090 14/06 Q1024 NOSIG
0,[Mostly Cloudy],1997-2-19,[6.0 °C],[],[-],,[55%],[N/A],[1025 hPa],[15.0 °C],[9:00 AM],[10.0 km],[NNE],"[13.0 km/h
		/ 3.6 m/s]",METAR VHHH 190100Z 02007KT 310V110 9999 FEW030 BKN090 15/06 Q1025 NOSIG
0,[Clear],1997-2-19,[7.0 °C],[],[-],,[52%],[N/A],[1025 hPa],[17.0 °C],[10:00 AM],[-],[NNE],"[11.1 km/h
		/ 3.1 m/s]",METAR VHHH 190200Z 02006KT 340V120 CAVOK 17/07 Q1025 NOSIG
0,[Clear],1997-2-19,[4.0 °C],[],[-],,[40%],[N/A],[1025 hPa],[18.0 °C],[11:00 AM],[-],[East],"[13.0 km/h
		/ 3.6 m/s]",METAR VHHH 190300Z 09007KT 020V160 CAVOK 18/04 Q1025 NOSIG
0,[Clear],1997-2-19,[4.0 °C],[],"[40.7 km/h
		/ 11.3 m/s]",,[37%],[N/A],[1024 hPa],[19.0 °C],[12:00 PM],[-],[East],"[16.7 km/h
		/ 4.6 m/s]",METAR VHHH 190400Z 08009G22KT 010V120 CAVOK 19/04 Q1024 WS LDG RWY 13/31 NOSIG
0,[Clear],1997-2-19,[3.0 °C],[],[-],,[35%],[N/A],[1023 hPa],[19.0 °C],[1:00 PM],[-],[East],"[27.8 km/h
		/ 7.7 m/s]",METAR VHHH 190500Z 10015KT 060V130 CAVOK 19/03 Q1023 WS LDG RWY 13/31 NOSIG
0,[Clear],1997-2-19,[0.0 °C],[],[-],,[30%],[N/A],[1021 hPa],[18.0 °C],[2:00 PM],[-],[ENE],"[20.4 km/h
		/ 5.7 m/s]",METAR VHHH 190600Z 07011KT 030V130 CAVOK 18/00 Q1021 NOSIG
0,[Clear],1997-2-19,[3.0 °C],[],[-],,[37%],[N/A],[1021 hPa],[18.0 °C],[3:00 PM],[-],[East],"[16.7 km/h
		/ 4.6 m/s]",METAR VHHH 190700Z 10009KT 040V150 CAVOK 18/03 Q1021 NOSIG
0,[Clear],1997-2-19,[5.0 °C],[],[-],,[42%],[N/A],[1021 hPa],[18.0 °C],[4:00 PM],[-],[ENE],"[22.2 km/h
		/ 6.2 m/s]",METAR VHHH 190800Z 07012KT 030V130 CAVOK 18/05 Q1021 NOSIG
0,[Clear],1997-2-19,[2.0 °C],[],"[40.7 km/h
		/ 11.3 m/s]",,[37%],[N/A],[1021 hPa],[17.0 °C],[5:00 PM],[-],[East],"[22.2 km/h
		/ 6.2 m/s]",METAR VHHH 190900Z 10012G22KT 030V130 CAVOK 17/02 Q1021 NOSIG
0,[Clear],1997-2-19,[4.0 °C],[],[-],,[45%],[N/A],[1021 hPa],[16.0 °C],[6:00 PM],[-],[East],"[24.1 km/h
		/ 6.7 m/s]",METAR VHHH 191000Z 08013KT 050V120 CAVOK 16/04 Q1021 NOSIG
0,[Partly Cloudy],1997-2-19,[5.0 °C],[],[-],,[48%],[N/A],[1021 hPa],[16.0 °C],[7:00 PM],[10.0 km],[East],"[27.8 km/h
		/ 7.7 m/s]",METAR VHHH 191100Z 09015KT 050V120 9999 FEW040 16/05 Q1021 NOSIG
0,[Clear],1997-2-19,[6.0 °C],[],[-],,[52%],[N/A],[1022 hPa],[16.0 °C],[8:00 PM],[-],[East],"[24.1 km/h
		/ 6.7 m/s]",METAR VHHH 191200Z 08013KT 050V110 CAVOK 16/06 Q1022 WS LDG RWY 13/31 NOSIG
0,[Clear],1997-2-19,[7.0 °C],[],[-],,[55%],[N/A],[1022 hPa],[16.0 °C],[9:00 PM],[-],[East],"[20.4 km/h
		/ 5.7 m/s]",METAR VHHH 191300Z 09011KT 040V120 CAVOK 16/07 Q1022 WS LDG RWY 13/31 NOSIG
0,[Clear],1997-2-19,[7.0 °C],[],[-],,[55%],[N/A],[1022 hPa],[16.0 °C],[10:00 PM],[-],[East],"[22.2 km/h
		/ 6.2 m/s]",METAR VHHH 191400Z 08012KT 050V120 CAVOK 16/07 Q1022 WS LDG RWY 13/31 NOSIG
0,[Clear],1997-2-19,[6.0 °C],[],[-],,[52%],[N/A],[1023 hPa],[16.0 °C],[11:00 PM],[-],[East],"[22.2 km/h
		/ 6.2 m/s]",METAR VHHH 191500Z 09012KT 060V120 CAVOK 16/06 Q1023 WS LDG RWY 13/31 NOSIG
0,[Clear],1997-2-20,[6.0 °C],[],[-],,[55%],[N/A],[1023 hPa],[15.0 °C],[12:00 AM],[-],[East],"[18.5 km/h
		/ 5.1 m/s]",METAR VHHH 191600Z 08010KT 050V120 CAVOK 15/06 Q1023 WS LDG RWY 13/31 NOSIG
0,[Partly Cloudy],1997-2-20,[6.0 °C],[],[-],,[55%],[N/A],[1023 hPa],[15.0 °C],[1:00 AM],[10.0 km],[ENE],"[18.5 km/h
		/ 5.1 m/s]",METAR VHHH 191700Z 07010KT 300V140 9999 FEW030 15/06 Q1023 WS LDG RWY 13/31 NOSIG
0,[Partly Cloudy],1997-2-20,[7.0 °C],[],[-],,[63%],[N/A],[1023 hPa],[14.0 °C],[2:00 AM],[10.0 km],[ESE],"[13.0 km/h
		/ 3.6 m/s]",METAR VHHH 191800Z 11007KT 060V160 9999 FEW030 14/07 Q1023 WS LDG RWY 13/31 NOSIG
0,[Partly Cloudy],1997-2-20,[5.0 °C],[],[-],,[55%],[N/A],[1023 hPa],[14.0 °C],[3:00 AM],[10.0 km],[East],"[20.4 km/h
		/ 5.7 m/s]",METAR VHHH 191900Z 09011KT 060V120 9999 FEW030 14/05 Q1023 WS LDG RWY 13/31 NOSIG
0,[Partly Cloudy],1997-2-20,[5.0 °C],[],[-],,[55%],[N/A],[1022 hPa],[14.0 °C],[4:00 AM],[10.0 km],[ESE],"[14.8 km/h
		/ 4.1 m/s]",METAR VHHH 192000Z 12008KT 070V160 9999 FEW030 14/05 Q1022 NOSIG
0,[Clear],1997-2-20,[2.0 °C],[],[-],,[42%],[N/A],[1022 hPa],[15.0 °C],[5:00 AM],[-],[SE],"[16.7 km/h
		/ 4.6 m/s]",METAR VHHH 192100Z 14009KT 070V170 CAVOK 15/02 Q1022 NOSIG
0,[Clear],1997-2-20,[1.0 °C],[],[-],,[39%],[N/A],[1022 hPa],[15.0 °C],[6:00 AM],[-],[ESE],"[16.7 km/h
		/ 4.6 m/s]",METAR VHHH 192200Z 12009KT 090V170 CAVOK 15/01 Q1022 NOSIG
0,[Clear],1997-2-20,[1.0 °C],[],[-],,[39%],[N/A],[1023 hPa],[15.0 °C],[7:00 AM],[-],[SE],"[16.7 km/h
		/ 4.6 m/s]",METAR VHHH 192300Z 13009KT 090V160 CAVOK 15/01 Q1023 NOSIG
0,[Scattered Clouds],1997-2-20,[0.0 °C],[],[-],,[34%],[N/A],[1023 hPa],[16.0 °C],[8:00 AM],[10.0 km],[ESE],"[14.8 km/h
		/ 4.1 m/s]",METAR VHHH 200000Z 12008KT 070V190 9999 FEW030 SCT080 16/00 Q1023 NOSIG
0,[Mostly Cloudy],1997-2-20,[1.0 °C],[],[-],,[34%],[N/A],[1024 hPa],[17.0 °C],[9:00 AM],[10.0 km],[ESE],"[18.5 km/h
		/ 5.1 m/s]",METAR VHHH 200100Z 11010KT 070V150 9999 FEW030 BKN090 17/01 Q1024 NOSIG
0,[Mostly Cloudy],1997-2-20,[2.0 °C],[],[-],,[34%],[N/A],[1024 hPa],[18.0 °C],[10:00 AM],[10.0 km],[East],"[16.7 km/h
		/ 4.6 m/s]",METAR VHHH 200200Z 09009KT 050V140 9999 FEW035 BKN090 18/02 Q1024 NOSIG
0,[Clear],1997-2-20,[2.0 °C],[],[-],,[30%],[N/A],[1024 hPa],[20.0 °C],[11:00 AM],[-],[East],"[18.5 km/h
		/ 5.1 m/s]",METAR VHHH 200300Z 10010KT 060V150 CAVOK 20/02 Q1024 NOSIG
0,[Clear],1997-2-20,[-2.0 °C],[],[-],,[23%],[N/A],[1023 hPa],[20.0 °C],[12:00 PM],[-],[SE],"[27.8 km/h
		/ 7.7 m/s]",METAR VHHH 200400Z 13015KT CAVOK 20/M02 Q1023 NOSIG
0,[Clear],1997-2-20,[0.0 °C],[],[-],,[26%],[N/A],[1022 hPa],[20.0 °C],[1:00 PM],[-],[East],"[22.2 km/h
		/ 6.2 m/s]",METAR VHHH 200500Z 10012KT 050V140 CAVOK 20/00 Q1022 NOSIG
0,[Clear],1997-2-20,[4.0 °C],[],[-],,[33%],[N/A],[1021 hPa],[21.0 °C],[2:00 PM],[-],[SE],"[27.8 km/h
		/ 7.7 m/s]",METAR VHHH 200600Z 13015KT CAVOK 21/04 Q1021 NOSIG
0,[Clear],1997-2-20,[2.0 °C],[],[-],,[28%],[N/A],[1021 hPa],[21.0 °C],[3:00 PM],[-],[ENE],"[20.4 km/h
		/ 5.7 m/s]",METAR VHHH 200700Z 07011KT CAVOK 21/02 Q1021 NOSIG
0,[Clear],1997-2-20,[1.0 °C],[],[-],,[28%],[N/A],[1020 hPa],[20.0 °C],[4:00 PM],[-],[East],"[16.7 km/h
		/ 4.6 m/s]",METAR VHHH 200800Z 09009KT 050V140 CAVOK 20/01 Q1020 NOSIG
0,[Clear],1997-2-20,[2.0 °C],[],[-],,[32%],[N/A],[1021 hPa],[19.0 °C],[5:00 PM],[-],[ENE],"[22.2 km/h
		/ 6.2 m/s]",METAR VHHH 200900Z 07012KT CAVOK 19/02 Q1021 NOSIG
0,[Clear],1997-2-20,[5.0 °C],[],[-],,[45%],[N/A],[1021 hPa],[17.0 °C],[6:00 PM],[-],[East],"[11.1 km/h
		/ 3.1 m/s]",METAR VHHH 201000Z 08006KT CAVOK 17/05 Q1021 NOSIG
0,[Clear],1997-2-20,[4.0 °C],[],[-],,[42%],[N/A],[1021 hPa],[17.0 °C],[7:00 PM],[-],[East],"[14.8 km/h
		/ 4.1 m/s]",METAR VHHH 201100Z 09008KT 060V140 CAVOK 17/04 Q1021 NOSIG
0,[Clear],1997-2-20,[4.0 °C],[],[-],,[40%],[N/A],[1022 hPa],[18.0 °C],[8:00 PM],[-],[SSE],"[11.1 km/h
		/ 3.1 m/s]",METAR VHHH 201200Z 15006KT 110V170 CAVOK 18/04 Q1022 NOSIG
0,[Partly Cloudy],1997-2-20,[4.0 °C],[],[-],,[42%],[N/A],[1022 hPa],[17.0 °C],[9:00 PM],[10.0 km],[East],"[13.0 km/h
		/ 3.6 m/s]",METAR VHHH 201300Z 10007KT 040V140 9999 FEW040 17/04 Q1022 NOSIG
0,[Mostly Cloudy],1997-2-20,[5.0 °C],[],[-],,[45%],[N/A],[1023 hPa],[17.0 °C],[10:00 PM],[10.0 km],[East],"[14.8 km/h
		/ 4.1 m/s]",METAR VHHH 201400Z 09008KT 050V120 9999 FEW035 BKN080 17/05 Q1023 NOSIG
0,[Mostly Cloudy],1997-2-20,[6.0 °C],[],[-],,[45%],[N/A],[1023 hPa],[18.0 °C],[11:00 PM],[10.0 km],[SE],"[7.4 km/h
		/ 2.1 m/s]",METAR VHHH 201500Z 14004KT 080V190 9999 FEW035 BKN080 18/06 Q1023 NOSIG
0,[Mostly Cloudy],1997-2-21,[6.0 °C],[],[-],,[48%],[N/A],[1023 hPa],[17.0 °C],[12:00 AM],[10.0 km],[East],"[13.0 km/h
		/ 3.6 m/s]",METAR VHHH 201600Z 10007KT 030V140 9999 FEW035 BKN080 17/06 Q1023 NOSIG
0,[Scattered Clouds],1997-2-21,[6.0 °C],[],[-],,[48%],[N/A],[1023 hPa],[17.0 °C],[1:00 AM],[10.0 km],[NE],"[1.9 km/h
		/ 0.5 m/s]",METAR VHHH 201700Z 04001KT 9999 FEW035 SCT100 17/06 Q1023 NOSIG
0,[Partly Cloudy],1997-2-21,[8.0 °C],[],[-],,[59%],[N/A],[1023 hPa],[16.0 °C],[2:00 AM],[10.0 km],[ESE],"[7.4 km/h
		/ 2.1 m/s]",METAR VHHH 201800Z 12004KT 9999 FEW035 16/08 Q1023 NOSIG
0,[Partly Cloudy],1997-2-21,[10.0 °C],[],[-],,[72%],[N/A],[1022 hPa],[15.0 °C],[3:00 AM],[10.0 km],[SE],"[7.4 km/h
		/ 2.1 m/s]",METAR VHHH 201900Z 14004KT 9999 FEW035 15/10 Q1022 NOSIG
0,[Partly Cloudy],1997-2-21,[10.0 °C],[],[-],,[77%],[N/A],[1022 hPa],[14.0 °C],[4:00 AM],[10.0 km],[ESE],"[1.9 km/h
		/ 0.5 m/s]",METAR VHHH 202000Z 12001KT 9999 FEW035 14/10 Q1022 NOSIG
0,[Unknown],1997-2-21,[8.0 °C],[],[-],,[72%],[N/A],[1022 hPa],[13.0 °C],[5:00 AM],[10.0 km],[Calm],[Calm],METAR VHHH 202100Z 00000KT 9999 CAVOK 13/08 Q1022 NOSIG
0,[Clear],1997-2-21,[9.0 °C],[],[-],,[77%],[N/A],[1022 hPa],[13.0 °C],[6:00 AM],[-],[Calm],[Calm],METAR VHHH 202200Z 00000KT CAVOK 13/09 Q1022 NOSIG
0,[Clear],1997-2-21,[9.0 °C],[],[-],,[77%],[N/A],[1023 hPa],[13.0 °C],[7:00 AM],[-],[Calm],[Calm],METAR VHHH 202300Z 00000KT CAVOK 13/09 Q1023 NOSIG
0,[Clear],1997-2-21,[10.0 °C],[],[-],,[68%],[N/A],[1023 hPa],[16.0 °C],[8:00 AM],[-],[ESE],"[7.4 km/h
		/ 2.1 m/s]",METAR VHHH 210000Z 11004KT CAVOK 16/10 Q1023 NOSIG
0,[Clear],1997-2-21,[10.0 °C],[],[-],,[59%],[N/A],[1024 hPa],[18.0 °C],[9:00 AM],[9.0 km],[SE],"[16.7 km/h
		/ 4.6 m/s]",METAR VHHH 210100Z 14009KT 9000 SKC 18/10 Q1024 NOSIG
0,[Clear],1997-2-21,[12.0 °C],[],[-],,[64%],[N/A],[1024 hPa],[19.0 °C],[10:00 AM],[9.0 km],[SE],"[18.5 km/h
		/ 5.1 m/s]",METAR VHHH 210200Z 14010KT 9000 SKC 19/12 Q1024 NOSIG
0,[Clear],1997-2-21,[10.0 °C],[],[-],,[52%],[N/A],[1024 hPa],[20.0 °C],[11:00 AM],[9.0 km],[ESE],"[13.0 km/h
		/ 3.6 m/s]",METAR VHHH 210300Z 11007KT 9000 SKC 20/10 Q1024 NOSIG
0,[Clear],1997-2-21,[8.0 °C],[],[-],,[41%],[N/A],[1023 hPa],[22.0 °C],[12:00 PM],[9.0 km],[East],"[16.7 km/h
		/ 4.6 m/s]",METAR VHHH 210400Z 09009KT 050V120 9000 SKC 22/08 Q1023 NOSIG
0,[Clear],1997-2-21,[7.0 °C],[],[-],,[36%],[N/A],[1022 hPa],[23.0 °C],[1:00 PM],[-],[East],"[24.1 km/h
		/ 6.7 m/s]",METAR VHHH 210500Z 10013KT CAVOK 23/07 Q1022 NOSIG
0,[Clear],1997-2-21,[6.0 °C],[],[-],,[33%],[N/A],[1021 hPa],[23.0 °C],[2:00 PM],[-],[ENE],"[22.2 km/h
		/ 6.2 m/s]",METAR VHHH 210600Z 07012KT 030V110 CAVOK 23/06 Q1021 NOSIG
0,[Clear],1997-2-21,[6.0 °C],[],[-],,[33%],[N/A],[1021 hPa],[23.0 °C],[3:00 PM],[-],[East],"[24.1 km/h
		/ 6.7 m/s]",METAR VHHH 210700Z 08013KT 060V120 CAVOK 23/06 Q1021 NOSIG
0,[Clear],1997-2-21,[6.0 °C],[],[-],,[38%],[N/A],[1020 hPa],[21.0 °C],[4:00 PM],[-],[East],"[22.2 km/h
		/ 6.2 m/s]",METAR VHHH 210800Z 09012KT 060V140 CAVOK 21/06 Q1020 NOSIG
0,[Clear],1997-2-21,[6.0 °C],[],[-],,[38%],[N/A],[1020 hPa],[21.0 °C],[5:00 PM],[-],[East],"[16.7 km/h
		/ 4.6 m/s]",METAR VHHH 210900Z 09009KT 060V130 CAVOK 21/06 Q1020 NOSIG
0,[Clear],1997-2-21,[8.0 °C],[],[-],,[46%],[N/A],[1021 hPa],[20.0 °C],[6:00 PM],[-],[East],"[16.7 km/h
		/ 4.6 m/s]",METAR VHHH 211000Z 10009KT 050V140 CAVOK 20/08 Q1021 NOSIG
0,[Clear],1997-2-21,[11.0 °C],[],[-],,[60%],[N/A],[1021 hPa],[19.0 °C],[7:00 PM],[-],[East],"[11.1 km/h
		/ 3.1 m/s]",METAR VHHH 211100Z 09006KT 340V160 CAVOK 19/11 Q1021 NOSIG
0,[Clear],1997-2-21,[13.0 °C],[],[-],,[73%],[N/A],[1022 hPa],[18.0 °C],[8:00 PM],[-],[East],"[9.3 km/h
		/ 2.6 m/s]",METAR VHHH 211200Z 08005KT 360V150 CAVOK 18/13 Q1022 NOSIG
0,[Partly Cloudy],1997-2-21,[13.0 °C],[],[-],,[73%],[N/A],[1022 hPa],[18.0 °C],[9:00 PM],[10.0 km],[East],"[9.3 km/h
		/ 2.6 m/s]",METAR VHHH 211300Z 08005KT 360V130 9999 FEW020 18/13 Q1022 NOSIG
0,[Partly Cloudy],1997-2-21,[12.0 °C],[],[-],,[68%],[N/A],[1023 hPa],[18.0 °C],[10:00 PM],[10.0 km],[ENE],"[24.1 km/h
		/ 6.7 m/s]",METAR VHHH 211400Z 07013KT 030V100 9999 FEW020 18/12 Q1023 NOSIG
0,[Partly Cloudy],1997-2-21,[9.0 °C],[],[-],,[59%],[N/A],[1023 hPa],[17.0 °C],[11:00 PM],[10.0 km],[East],"[18.5 km/h
		/ 5.1 m/s]",METAR VHHH 211500Z 08010KT 030V130 9999 FEW020 17/09 Q1023 WS LDG RWY 13 NOSIG
0,[Clear],1997-2-22,[7.0 °C],[],"[48.2 km/h
		/ 13.4 m/s]",,[52%],[N/A],[1023 hPa],[17.0 °C],[12:00 AM],[-],[East],"[27.8 km/h
		/ 7.7 m/s]",METAR VHHH 211600Z 10015G26KT 050V140 CAVOK 17/07 Q1023 WS LDG RWY 13 NOSIG
0,[Clear],1997-2-22,[7.0 °C],[],[-],,[52%],[N/A],[1023 hPa],[17.0 °C],[1:00 AM],[-],[East],"[24.1 km/h
		/ 6.7 m/s]",METAR VHHH 211700Z 10013KT 040V130 CAVOK 17/07 Q1023 WS LDG RWY 13 NOSIG
0,[Clear],1997-2-22,[5.0 °C],[],[-],,[45%],[N/A],[1022 hPa],[17.0 °C],[3:00 AM],[-],[East],"[25.9 km/h
		/ 7.2 m/s]",METAR VHHH 211900Z 09014KT 050V130 CAVOK 17/05 Q1022 WS LDG RWY 13 NOSIG
0,[Clear],1997-2-22,[5.0 °C],[],[-],,[45%],[N/A],[1022 hPa],[17.0 °C],[4:00 AM],[-],[East],"[25.9 km/h
		/ 7.2 m/s]",METAR VHHH 212000Z 09014KT CAVOK 17/05 Q1022 WS LDG RWY 13 NOSIG
0,[Mostly Cloudy],1997-2-22,[5.0 °C],[],"[46.3 km/h
		/ 12.9 m/s]",,[45%],[N/A],[1022 hPa],[17.0 °C],[5:00 AM],[10.0 km],[East],"[27.8 km/h
		/ 7.7 m/s]",METAR VHHH 212100Z 09015G25KT 060V150 9999 FEW040 BKN080 17/05 Q1022 WS LDG RWY 13 NOSIG
0,[Clear],1997-2-22,[5.0 °C],[],"[55.6 km/h
		/ 15.4 m/s]",,[45%],[N/A],[1022 hPa],[17.0 °C],[6:00 AM],[-],[East],"[31.5 km/h
		/ 8.7 m/s]",METAR VHHH 212200Z 09017G30KT 050V120 CAVOK 17/05 Q1022 WS LDG RWY 13 NOSIG
0,[Clear],1997-2-22,[5.0 °C],[],"[55.6 km/h
		/ 15.4 m/s]",,[48%],[N/A],[1023 hPa],[16.0 °C],[7:00 AM],[-],[East],"[29.6 km/h
		/ 8.2 m/s]",METAR VHHH 212300Z 09016G30KT 040V110 CAVOK 16/05 Q1023 WS LDG RWY 13 NOSIG
0,[Clear],1997-2-22,[7.0 °C],[],[-],,[52%],[N/A],[1024 hPa],[17.0 °C],[8:00 AM],[-],[East],"[29.6 km/h
		/ 8.2 m/s]",METAR VHHH 220000Z 10016KT 050V130 CAVOK 17/07 Q1024 WS LDG RWY 13 NOSIG
0,[Clear],1997-2-22,[7.0 °C],[],"[57.4 km/h
		/ 15.9 m/s]",,[49%],[N/A],[1024 hPa],[18.0 °C],[9:00 AM],[-],[East],"[33.3 km/h
		/ 9.3 m/s]",METAR VHHH 220100Z 09018G31KT 050V120 CAVOK 18/07 Q1024 WS LDG RWY 13/31 NOSIG
0,[Clear],1997-2-22,[7.0 °C],[],"[50.0 km/h
		/ 13.9 m/s]",,[46%],[N/A],[1024 hPa],[19.0 °C],[10:00 AM],[-],[East],"[29.6 km/h
		/ 8.2 m/s]",METAR VHHH 220200Z 09016G27KT 050V130 CAVOK 19/07 Q1024 WS LDG RWY 13/31 NOSIG
0,[Clear],1997-2-22,[7.0 °C],[],[-],,[46%],[N/A],[1024 hPa],[19.0 °C],[11:00 AM],[-],[East],"[22.2 km/h
		/ 6.2 m/s]",METAR VHHH 220300Z 10012KT 060V140 CAVOK 19/07 Q1024 WS LDG RWY 13/31 NOSIG
0,[Clear],1997-2-22,[6.0 °C],[],[-],,[38%],[N/A],[1023 hPa],[21.0 °C],[12:00 PM],[-],[East],"[24.1 km/h
		/ 6.7 m/s]",METAR VHHH 220400Z 10013KT 070V130 CAVOK 21/06 Q1023 WS LDG RWY 13/31 NOSIG
0,[Clear],1997-2-22,[7.0 °C],[],[-],,[46%],[N/A],[1022 hPa],[19.0 °C],[1:00 PM],[-],[East],"[13.0 km/h
		/ 3.6 m/s]",METAR VHHH 220500Z 09007KT 010V170 CAVOK 19/07 Q1022 WS LDG RWY 13/31 NOSIG
0,[Clear],1997-2-22,[9.0 °C],[],"[48.2 km/h
		/ 13.4 m/s]",,[52%],[N/A],[1021 hPa],[19.0 °C],[2:00 PM],[-],[East],"[24.1 km/h
		/ 6.7 m/s]",METAR VHHH 220600Z 09013G26KT 020V130 CAVOK 19/09 Q1021 WS LDG RWY 13/31 NOSIG
0,[Clear],1997-2-22,[11.0 °C],[],[-],,[56%],[N/A],[1021 hPa],[20.0 °C],[3:00 PM],[-],[East],"[25.9 km/h
		/ 7.2 m/s]",METAR VHHH 220700Z 09014KT 060V120 CAVOK 20/11 Q1021 WS LDG RWY 13/31 NOSIG
0,[Partly Cloudy],1997-2-22,[11.0 °C],[],[-],,[60%],[N/A],[1020 hPa],[19.0 °C],[4:00 PM],[10.0 km],[East],"[22.2 km/h
		/ 6.2 m/s]",METAR VHHH 220800Z 08012KT 050V110 9999 FEW025 19/11 Q1020 WS LDG RWY 13/31 NOSIG
0,[Partly Cloudy],1997-2-22,[12.0 °C],[],[-],,[64%],[N/A],[1020 hPa],[19.0 °C],[5:00 PM],[10.0 km],[East],"[31.5 km/h
		/ 8.7 m/s]",METAR VHHH 220900Z 09017KT 060V120 9999 FEW020 19/12 Q1020 NOSIG
0,[Scattered Clouds],1997-2-23,[10.0 °C],[],"[42.6 km/h
		/ 11.8 m/s]",,[68%],[N/A],[1022 hPa],[16.0 °C],[12:00 AM],[10.0 km],[East],"[24.1 km/h
		/ 6.7 m/s]",METAR VHHH 221600Z 09013G23KT 050V140 9999 FEW020 SCT080 16/10 Q1022 WS LDG RWY 13/31 NOSIG
0,[Scattered Clouds],1997-2-23,[10.0 °C],[],"[53.7 km/h
		/ 14.9 m/s]",,[68%],[N/A],[1022 hPa],[16.0 °C],[1:00 AM],[10.0 km],[East],"[35.2 km/h
		/ 9.8 m/s]",METAR VHHH 221700Z 10019G29KT 9999 FEW020 SCT080 16/10 Q1022 WS LDG RWY 13/31 NOSIG
0,[Scattered Clouds],1997-2-23,[9.0 °C],[],"[57.4 km/h
		/ 15.9 m/s]",,[63%],[N/A],[1022 hPa],[16.0 °C],[2:00 AM],[10.0 km],[East],"[31.5 km/h
		/ 8.7 m/s]",METAR VHHH 221800Z 09017G31KT 060V140 9999 FEW020 SCT080 16/09 Q1022 WS LDG RWY 13/31 NOSIG
0,[Scattered Clouds],1997-2-23,[9.0 °C],[],"[55.6 km/h
		/ 15.4 m/s]",,[63%],[N/A],[1021 hPa],[16.0 °C],[3:00 AM],[10.0 km],[East],"[35.2 km/h
		/ 9.8 m/s]",METAR VHHH 221900Z 09019G30KT 060V140 9999 FEW020 SCT080 16/09 Q1021 WS LDG RWY 13/31 NOSIG
0,[Scattered Clouds],1997-2-23,[9.0 °C],[],[-],,[63%],[N/A],[1021 hPa],[16.0 °C],[4:00 AM],[10.0 km],[ESE],"[35.2 km/h
		/ 9.8 m/s]",METAR VHHH 222000Z 11019KT 080V140 9999 FEW020 SCT080 16/09 Q1021 WS LDG RWY 13/31 NOSIG
0,[Mostly Cloudy],1997-2-23,[10.0 °C],[],[-],,[68%],[N/A],[1021 hPa],[16.0 °C],[5:00 AM],[10.0 km],[ESE],"[33.3 km/h
		/ 9.3 m/s]",METAR VHHH 222100Z 11018KT 070V140 9999 FEW020 BKN080 16/10 Q1021 WS LDG RWY 13/31 NOSIG
0,[Mostly Cloudy],1997-2-23,[10.0 °C],[],"[50.0 km/h
		/ 13.9 m/s]",,[68%],[N/A],[1022 hPa],[16.0 °C],[6:00 AM],[10.0 km],[East],"[31.5 km/h
		/ 8.7 m/s]",METAR VHHH 222200Z 10017G27KT 9999 FEW020 BKN080 16/10 Q1022 WS LDG RWY 13/31 NOSIG
0,[Mostly Cloudy],1997-2-23,[9.0 °C],[],[-],,[67%],[N/A],[1022 hPa],[15.0 °C],[7:00 AM],[10.0 km],[East],"[22.2 km/h
		/ 6.2 m/s]",METAR VHHH 222300Z 10012KT 060V130 9999 FEW020 BKN080 15/09 Q1022 WS LDG RWY 13/31 NOSIG
0,[Mostly Cloudy],1997-2-23,[8.0 °C],[],"[53.7 km/h
		/ 14.9 m/s]",,[59%],[N/A],[1022 hPa],[16.0 °C],[8:00 AM],[10.0 km],[East],"[31.5 km/h
		/ 8.7 m/s]",METAR VHHH 230000Z 08017G29KT 360V120 9999 FEW025 BKN080 16/08 Q1022 WS LDG RWY 13/31 NOSIG
0,[Mostly Cloudy],1997-2-23,[9.0 °C],[],[-],,[59%],[N/A],[1023 hPa],[17.0 °C],[9:00 AM],[10.0 km],[East],"[31.5 km/h
		/ 8.7 m/s]",METAR VHHH 230100Z 09017KT 050V120 9999 FEW030 BKN080 17/09 Q1023 WS LDG RWY 13/31 NOSIG
0,[Partly Cloudy],1997-2-23,[9.0 °C],[],[-],,[56%],[N/A],[1023 hPa],[18.0 °C],[10:00 AM],[10.0 km],[ESE],"[13.0 km/h
		/ 3.6 m/s]",METAR VHHH 230200Z 12007KT 050V160 9999 FEW035 18/09 Q1023 NOSIG
0,[Partly Cloudy],1997-2-23,[10.0 °C],[],"[48.2 km/h
		/ 13.4 m/s]",,[56%],[N/A],[1023 hPa],[19.0 °C],[11:00 AM],[10.0 km],[ESE],"[24.1 km/h
		/ 6.7 m/s]",METAR VHHH 230300Z 12013G26KT 060V190 9999 FEW035 19/10 Q1023 WS LDG RWY 13/31 NOSIG
0,[Partly Cloudy],1997-2-23,[10.0 °C],[],"[44.4 km/h
		/ 12.3 m/s]",,[52%],[N/A],[1022 hPa],[20.0 °C],[12:00 PM],[10.0 km],[ENE],"[18.5 km/h
		/ 5.1 m/s]",METAR VHHH 230400Z 06010G24KT 340V190 9999 FEW040 20/10 Q1022 WS LDG RWY 13/31 NOSIG
0,[Partly Cloudy],1997-2-23,[9.0 °C],[],"[53.7 km/h
		/ 14.9 m/s]",,[46%],[N/A],[1021 hPa],[21.0 °C],[1:00 PM],[10.0 km],[East],"[31.5 km/h
		/ 8.7 m/s]",METAR VHHH 230500Z 10017G29KT 060V130 9999 FEW040 21/09 Q1021 WS LDG RWY 13/31 NOSIG
0,[Partly Cloudy],1997-2-23,[10.0 °C],[],"[44.4 km/h
		/ 12.3 m/s]",,[52%],[N/A],[1020 hPa],[20.0 °C],[2:00 PM],[10.0 km],[East],"[25.9 km/h
		/ 7.2 m/s]",METAR VHHH 230600Z 08014G24KT 040V140 9999 FEW035 20/10 Q1020 WS LDG RWY 13/31 NOSIG
0,[Partly Cloudy],1997-2-23,[10.0 °C],[],[-],,[49%],[N/A],[1020 hPa],[21.0 °C],[3:00 PM],[10.0 km],[East],"[20.4 km/h
		/ 5.7 m/s]",METAR VHHH 230700Z 08011KT 030V140 9999 FEW035 21/10 Q1020 WS LDG RWY 13/31 NOSIG
0,[Partly Cloudy],1997-2-23,[11.0 °C],[],[-],,[56%],[N/A],[1019 hPa],[20.0 °C],[4:00 PM],[10.0 km],[ENE],"[18.5 km/h
		/ 5.1 m/s]",METAR VHHH 230800Z 07010KT 030V110 9999 FEW035 20/11 Q1019 WS LDG RWY 13/31 NOSIG
0,[Scattered Clouds],1997-2-23,[10.0 °C],[],[-],,[52%],[N/A],[1019 hPa],[20.0 °C],[5:00 PM],[10.0 km],[East],"[22.2 km/h
		/ 6.2 m/s]",METAR VHHH 230900Z 08012KT 010V130 9999 FEW035 SCT120 20/10 Q1019 WS LDG RWY 13/31 NOSIG
0,[Scattered Clouds],1997-2-23,[10.0 °C],[],[-],,[59%],[N/A],[1020 hPa],[18.0 °C],[6:00 PM],[10.0 km],[East],"[13.0 km/h
		/ 3.6 m/s]",METAR VHHH 231000Z 09007KT 350V170 9999 FEW035 SCT120 18/10 Q1020 WS LDG RWY 13/31 NOSIG
0,[Scattered Clouds],1997-2-23,[10.0 °C],[],[-],,[59%],[N/A],[1020 hPa],[18.0 °C],[7:00 PM],[10.0 km],[East],"[13.0 km/h
		/ 3.6 m/s]",METAR VHHH 231100Z 10007KT 030V190 9999 FEW035 SCT090 18/10 Q1020 WS LDG RWY 13/31 NOSIG
0,[Scattered Clouds],1997-2-23,[11.0 °C],[],[-],,[64%],[N/A],[1020 hPa],[18.0 °C],[8:00 PM],[10.0 km],[East],"[9.3 km/h
		/ 2.6 m/s]",METAR VHHH 231200Z 09005KT 030V150 9999 FEW035 SCT090 18/11 Q1020 NOSIG
0,[Partly Cloudy],1997-2-23,[12.0 °C],[],[-],,[72%],[N/A],[1021 hPa],[17.0 °C],[9:00 PM],[10.0 km],[ESE],"[18.5 km/h
		/ 5.1 m/s]",METAR VHHH 231300Z 11010KT 060V150 9999 FEW035 17/12 Q1021 NOSIG
0,[Partly Cloudy],1997-2-23,[13.0 °C],[],[-],,[77%],[N/A],[1021 hPa],[17.0 °C],[10:00 PM],[10.0 km],[East],"[14.8 km/h
		/ 4.1 m/s]",METAR VHHH 231400Z 10008KT 050V150 9999 FEW016 17/13 Q1021 NOSIG
0,[Partly Cloudy],1997-2-23,[13.0 °C],[],[-],,[77%],[N/A],[1021 hPa],[17.0 °C],[11:00 PM],[10.0 km],[East],"[16.7 km/h
		/ 4.6 m/s]",METAR VHHH 231500Z 10009KT 360V140 9999 FEW015 17/13 Q1021 NOSIG
0,[Partly Cloudy],1997-2-24,[12.0 °C],[],"[37.0 km/h
		/ 10.3 m/s]",,[77%],[N/A],[1021 hPa],[16.0 °C],[12:00 AM],[10.0 km],[East],"[16.7 km/h
		/ 4.6 m/s]",METAR VHHH 231600Z 10009G20KT 340V180 9999 FEW015 16/12 Q1021 NOSIG
0,[Partly Cloudy],1997-2-24,[11.0 °C],[],"[44.4 km/h
		/ 12.3 m/s]",,[68%],[N/A],[1021 hPa],[17.0 °C],[1:00 AM],[10.0 km],[East],"[25.9 km/h
		/ 7.2 m/s]",METAR VHHH 231700Z 09014G24KT 040V140 9999 FEW015 17/11 Q1021 NOSIG
0,[Scattered Clouds],1997-2-24,[11.0 °C],[],"[51.9 km/h
		/ 14.4 m/s]",,[68%],[N/A],[1021 hPa],[17.0 °C],[2:00 AM],[10.0 km],[East],"[31.5 km/h
		/ 8.7 m/s]",METAR VHHH 231800Z 09017G28KT 060V130 9999 FEW020 SCT025 17/11 Q1021 WS LDG RWY 13/31 NOSIG
0,[Scattered Clouds],1997-2-24,[10.0 °C],[],[-],,[59%],[N/A],[1021 hPa],[18.0 °C],[3:00 AM],[10.0 km],[East],"[29.6 km/h
		/ 8.2 m/s]",METAR VHHH 231900Z 10016KT 070V130 9999 FEW020 SCT025 18/10 Q1021 WS LDG RWY 13/31 NOSIG
0,[Scattered Clouds],1997-2-24,[11.0 °C],[],"[57.4 km/h
		/ 15.9 m/s]",,[64%],[N/A],[1020 hPa],[18.0 °C],[4:00 AM],[10.0 km],[East],"[25.9 km/h
		/ 7.2 m/s]",METAR VHHH 232000Z 09014G31KT 050V120 9999 FEW020 SCT025 18/11 Q1020 WS LDG RWY 13/31 NOSIG
0,[Scattered Clouds],1997-2-24,[10.0 °C],[],[-],,[59%],[N/A],[1020 hPa],[18.0 °C],[5:00 AM],[10.0 km],[East],"[16.7 km/h
		/ 4.6 m/s]",METAR VHHH 232100Z 09009KT 250V130 9999 FEW020 SCT025 18/10 Q1020 WS LDG RWY 13/31 NOSIG
0,[Mostly Cloudy],1997-2-24,[11.0 °C],[],[-],,[64%],[N/A],[1021 hPa],[18.0 °C],[6:00 AM],[10.0 km],[East],"[18.5 km/h
		/ 5.1 m/s]",METAR VHHH 232200Z 08010KT 020V120 9999 FEW025 SCT030 BKN080 18/11 Q1021 WS LDG RWY 13/31 NOSIG
0,[Mostly Cloudy],1997-2-24,[12.0 °C],[],[-],,[68%],[N/A],[1022 hPa],[18.0 °C],[7:00 AM],[10.0 km],[East],"[18.5 km/h
		/ 5.1 m/s]",METAR VHHH 232300Z 09010KT 010V160 9999 FEW025 BKN080 18/12 Q1022 WS LDG RWY 13/31 NOSIG
0,[Mostly Cloudy],1997-2-24,[11.0 °C],[],[-],,[64%],[N/A],[1022 hPa],[18.0 °C],[8:00 AM],[10.0 km],[East],"[18.5 km/h
		/ 5.1 m/s]",METAR VHHH 240000Z 10010KT 040V140 9999 SCT030 BKN100 18/11 Q1022 WS LDG RWY 13/31 NOSIG
0,[Mostly Cloudy],1997-2-24,[12.0 °C],[],[-],,[60%],[N/A],[1022 hPa],[20.0 °C],[9:00 AM],[10.0 km],[East],"[16.7 km/h
		/ 4.6 m/s]",METAR VHHH 240100Z 08009KT 030V160 9999 SCT025 BKN090 20/12 Q1022 NOSIG
0,[Mostly Cloudy],1997-2-24,[12.0 °C],[],[-],,[60%],[N/A],[1022 hPa],[20.0 °C],[10:00 AM],[10.0 km],[East],"[25.9 km/h
		/ 7.2 m/s]",METAR VHHH 240200Z 10014KT 040V150 9999 FEW025 BKN100 20/12 Q1022 NOSIG
0,[Scattered Clouds],1997-2-24,[13.0 °C],[],[-],,[57%],[N/A],[1022 hPa],[22.0 °C],[11:00 AM],[10.0 km],[East],"[18.5 km/h
		/ 5.1 m/s]",METAR VHHH 240300Z 09010KT 050V150 9999 FEW025 SCT100 22/13 Q1022 NOSIG
0,[Mostly Cloudy],1997-2-24,[13.0 °C],[],[-],,[57%],[N/A],[1021 hPa],[22.0 °C],[12:00 PM],[10.0 km],[East],"[25.9 km/h
		/ 7.2 m/s]",METAR VHHH 240400Z 10014KT 060V130 9999 FEW025 BKN120 22/13 Q1021 NOSIG
0,[Mostly Cloudy],1997-2-24,[13.0 °C],[],[-],,[53%],[N/A],[1021 hPa],[23.0 °C],[1:00 PM],[10.0 km],[East],"[24.1 km/h
		/ 6.7 m/s]",METAR VHHH 240500Z 10013KT 060V140 9999 FEW025 BKN100 23/13 Q1021 NOSIG
0,[Mostly Cloudy],1997-2-24,[14.0 °C],[],[-],,[53%],[N/A],[1020 hPa],[24.0 °C],[2:00 PM],[10.0 km],[East],"[25.9 km/h
		/ 7.2 m/s]",METAR VHHH 240600Z 10014KT 070V130 9999 FEW030 BKN100 24/14 Q1020 NOSIG
0,[Partly Cloudy],1997-2-24,[14.0 °C],[],[-],,[53%],[N/A],[1019 hPa],[24.0 °C],[3:00 PM],[10.0 km],[East],"[22.2 km/h
		/ 6.2 m/s]",METAR VHHH 240700Z 09012KT 060V120 9999 FEW030 24/14 Q1019 NOSIG
0,[Partly Cloudy],1997-2-24,[15.0 °C],[],[-],,[57%],[N/A],[1019 hPa],[24.0 °C],[4:00 PM],[10.0 km],[ESE],"[22.2 km/h
		/ 6.2 m/s]",METAR VHHH 240800Z 11012KT 080V150 9999 FEW030 24/15 Q1019 NOSIG
0,[Partly Cloudy],1997-2-24,[14.0 °C],[],[-],,[60%],[N/A],[1019 hPa],[22.0 °C],[5:00 PM],[10.0 km],[East],"[18.5 km/h
		/ 5.1 m/s]",METAR VHHH 240900Z 10010KT 070V140 9999 FEW030 22/14 Q1019 NOSIG
0,[Partly Cloudy],1997-2-24,[14.0 °C],[],[-],,[64%],[N/A],[1019 hPa],[21.0 °C],[6:00 PM],[10.0 km],[East],"[16.7 km/h
		/ 4.6 m/s]",METAR VHHH 241000Z 09009KT 040V130 9999 FEW030 21/14 Q1019 NOSIG
0,[Partly Cloudy],1997-2-24,[13.0 °C],[],[-],,[64%],[N/A],[1020 hPa],[20.0 °C],[7:00 PM],[10.0 km],[East],"[16.7 km/h
		/ 4.6 m/s]",METAR VHHH 241100Z 09009KT 040V120 9999 FEW030 20/13 Q1020 NOSIG
0,[Partly Cloudy],1997-2-24,[13.0 °C],[],[-],,[68%],[N/A],[1021 hPa],[19.0 °C],[8:00 PM],[10.0 km],[East],"[11.1 km/h
		/ 3.1 m/s]",METAR VHHH 241200Z 10006KT 030V140 9999 FEW025 19/13 Q1021 NOSIG
0,[Scattered Clouds],1997-2-24,[13.0 °C],[],[-],,[64%],[N/A],[1021 hPa],[20.0 °C],[9:00 PM],[10.0 km],[East],"[13.0 km/h
		/ 3.6 m/s]",METAR VHHH 241300Z 09007KT 050V130 9999 FEW025 SCT100 20/13 Q1021 NOSIG
0,[Scattered Clouds],1997-2-24,[14.0 °C],[],[-],,[73%],[N/A],[1021 hPa],[19.0 °C],[10:00 PM],[10.0 km],[East],"[13.0 km/h
		/ 3.6 m/s]",METAR VHHH 241400Z 08007KT 040V130 9999 FEW022 SCT100 19/14 Q1021 NOSIG
0,[Scattered Clouds],1997-2-24,[15.0 °C],[],[-],,[78%],[N/A],[1021 hPa],[19.0 °C],[11:00 PM],[10.0 km],[SSE],"[14.8 km/h
		/ 4.1 m/s]",METAR VHHH 241500Z 15008KT 110V200 9999 FEW022 SCT100 19/15 Q1021 NOSIG
0,[Scattered Clouds],1997-2-25,[13.0 °C],[],[-],,[68%],[N/A],[1021 hPa],[19.0 °C],[12:00 AM],[10.0 km],[ESE],"[14.8 km/h
		/ 4.1 m/s]",METAR VHHH 241600Z 12008KT 080V180 9999 FEW022 SCT090 19/13 Q1021 NOSIG
0,[Mostly Cloudy],1997-2-25,[13.0 °C],[],[-],,[64%],[N/A],[1019 hPa],[20.0 °C],[3:00 AM],[10.0 km],[East],"[18.5 km/h
		/ 5.1 m/s]",METAR VHHH 241900Z 09010KT 060V120 9999 FEW020 BKN100 20/13 Q1019 NOSIG
0,[Mostly Cloudy],1997-2-25,[13.0 °C],[],[-],,[64%],[N/A],[1019 hPa],[20.0 °C],[4:00 AM],[10.0 km],[ESE],"[9.3 km/h
		/ 2.6 m/s]",METAR VHHH 242000Z 11005KT 080V180 9999 SCT020 BKN100 20/13 Q1019 NOSIG
0,[Mostly Cloudy],1997-2-25,[13.0 °C],[],[-],,[68%],[N/A],[1019 hPa],[19.0 °C],[5:00 AM],[10.0 km],[ESE],"[9.3 km/h
		/ 2.6 m/s]",METAR VHHH 242100Z 12005KT 090V160 9999 SCT020 BKN100 19/13 Q1019 NOSIG
0,[Mostly Cloudy],1997-2-25,[13.0 °C],[],[-],,[68%],[N/A],[1020 hPa],[19.0 °C],[6:00 AM],[10.0 km],[SE],"[11.1 km/h
		/ 3.1 m/s]",METAR VHHH 242200Z 13006KT 090V160 9999 SCT015 BKN100 19/13 Q1020 NOSIG
0,[Mostly Cloudy],1997-2-25,[14.0 °C],[],[-],,[73%],[N/A],[1020 hPa],[19.0 °C],[7:00 AM],[10.0 km],[SSE],"[9.3 km/h
		/ 2.6 m/s]",METAR VHHH 242300Z 16005KT 100V180 9999 FEW018 SCT025 BKN080 19/14 Q1020 NOSIG
0,[Mostly Cloudy],1997-2-25,[14.0 °C],[],[-],,[68%],[N/A],[1020 hPa],[20.0 °C],[8:00 AM],[10.0 km],[SE],"[9.3 km/h
		/ 2.6 m/s]",METAR VHHH 250000Z 14005KT 020V180 9999 FEW018 SCT025 BKN100 20/14 Q1020 NOSIG
0,[Mostly Cloudy],1997-2-25,[15.0 °C],[],[-],,[68%],[N/A],[1021 hPa],[21.0 °C],[9:00 AM],[10.0 km],[SE],"[14.8 km/h
		/ 4.1 m/s]",METAR VHHH 250100Z 14008KT 090V170 9999 FEW018 SCT025 BKN080 21/15 Q1021 NOSIG
0,[Mostly Cloudy],1997-2-25,[15.0 °C],[],[-],,[68%],[N/A],[1021 hPa],[21.0 °C],[10:00 AM],[10.0 km],[East],"[11.1 km/h
		/ 3.1 m/s]",METAR VHHH 250200Z 10006KT 070V150 9999 FEW020 SCT025 BKN080 21/15 Q1021 NOSIG
0,[Mostly Cloudy],1997-2-25,[17.0 °C],[],[-],,[73%],[N/A],[1021 hPa],[22.0 °C],[11:00 AM],[10.0 km],[East],"[11.1 km/h
		/ 3.1 m/s]",METAR VHHH 250300Z 08006KT 350V120 9999 FEW020 SCT025 BKN080 22/17 Q1021 NOSIG
0,[Mostly Cloudy],1997-2-25,[15.0 °C],[],[-],,[64%],[N/A],[1020 hPa],[22.0 °C],[12:00 PM],[10.0 km],[SE],"[11.1 km/h
		/ 3.1 m/s]",METAR VHHH 250400Z 13006KT 090V190 9999 FEW020 SCT030 BKN080 22/15 Q1020 NOSIG
0,[Mostly Cloudy],1997-2-25,[15.0 °C],[],[-],,[61%],[N/A],[1020 hPa],[23.0 °C],[1:00 PM],[10.0 km],[SE],"[13.0 km/h
		/ 3.6 m/s]",METAR VHHH 250500Z 14007KT 9999 FEW025 BKN080 23/15 Q1020 NOSIG
0,[Scattered Clouds],1997-2-25,[17.0 °C],[],[-],,[65%],[N/A],[1019 hPa],[24.0 °C],[2:00 PM],[10.0 km],[East],"[24.1 km/h
		/ 6.7 m/s]",METAR VHHH 250600Z 08013KT 030V110 9999 FEW025 SCT080 24/17 Q1019 NOSIG
0,[Mostly Cloudy],1997-2-25,[17.0 °C],[],[-],,[65%],[N/A],[1018 hPa],[24.0 °C],[3:00 PM],[10.0 km],[East],"[14.8 km/h
		/ 4.1 m/s]",METAR VHHH 250700Z 09008KT 020V130 9999 FEW025 BKN080 24/17 Q1018 NOSIG
0,[Mostly Cloudy],1997-2-25,[17.0 °C],[],[-],,[65%],[N/A],[1018 hPa],[24.0 °C],[4:00 PM],[10.0 km],[East],"[18.5 km/h
		/ 5.1 m/s]",METAR VHHH 250800Z 08010KT 050V140 9999 FEW025 BKN090 24/17 Q1018 NOSIG
0,[Mostly Cloudy],1997-2-25,[17.0 °C],[],[-],,[65%],[N/A],[1018 hPa],[24.0 °C],[5:00 PM],[10.0 km],[East],"[16.7 km/h
		/ 4.6 m/s]",METAR VHHH 250900Z 08009KT 040V120 9999 FEW025 BKN090 24/17 Q1018 NOSIG
0,[Mostly Cloudy],1997-2-25,[17.0 °C],[],[-],,[73%],[N/A],[1018 hPa],[22.0 °C],[6:00 PM],[10.0 km],[East],"[9.3 km/h
		/ 2.6 m/s]",METAR VHHH 251000Z 08005KT 360V140 9999 FEW025 BKN080 22/17 Q1018 NOSIG
0,[Mostly Cloudy],1997-2-25,[16.0 °C],[],[-],,[69%],[N/A],[1019 hPa],[22.0 °C],[7:00 PM],[10.0 km],[East],"[11.1 km/h
		/ 3.1 m/s]",METAR VHHH 251100Z 10006KT 050V160 9999 FEW025 BKN080 22/16 Q1019 NOSIG
0,[Mostly Cloudy],1997-2-25,[16.0 °C],[],[-],,[69%],[N/A],[1019 hPa],[22.0 °C],[8:00 PM],[10.0 km],[ENE],"[16.7 km/h
		/ 4.6 m/s]",METAR VHHH 251200Z 07009KT 010V130 9999 FEW025 BKN080 22/16 Q1019 NOSIG
0,[Mostly Cloudy],1997-2-25,[16.0 °C],[],[-],,[69%],[N/A],[1019 hPa],[22.0 °C],[9:00 PM],[10.0 km],[ENE],"[16.7 km/h
		/ 4.6 m/s]",METAR VHHH 251300Z 07009KT 020V110 9999 FEW025 BKN080 22/16 Q1019 NOSIG
0,[Mostly Cloudy],1997-2-25,[16.0 °C],[],[-],,[69%],[N/A],[1020 hPa],[22.0 °C],[10:00 PM],[10.0 km],[East],"[20.4 km/h
		/ 5.7 m/s]",METAR VHHH 251400Z 08011KT 9999 FEW025 BKN080 22/16 Q1020 NOSIG
0,[Mostly Cloudy],1997-2-25,[16.0 °C],[],[-],,[69%],[N/A],[1019 hPa],[22.0 °C],[11:00 PM],[10.0 km],[East],"[22.2 km/h
		/ 6.2 m/s]",METAR VHHH 251500Z 08012KT 030V120 9999 FEW025 BKN080 22/16 Q1019 NOSIG
0,[Mostly Cloudy],1997-2-26,[16.0 °C],[],[-],,[73%],[N/A],[1019 hPa],[21.0 °C],[12:00 AM],[10.0 km],[East],"[20.4 km/h
		/ 5.7 m/s]",METAR VHHH 251600Z 08011KT 020V100 9999 FEW025 BKN080 21/16 Q1019 NOSIG
0,[Mostly Cloudy],1997-2-26,[16.0 °C],[],[-],,[73%],[N/A],[1019 hPa],[21.0 °C],[1:00 AM],[10.0 km],[East],"[18.5 km/h
		/ 5.1 m/s]",METAR VHHH 251700Z 08010KT 050V120 9999 FEW025 BKN080 21/16 Q1019 NOSIG
0,[Scattered Clouds],1997-2-26,[16.0 °C],[],[-],,[73%],[N/A],[1018 hPa],[21.0 °C],[2:00 AM],[10.0 km],[ENE],"[13.0 km/h
		/ 3.6 m/s]",METAR VHHH 251800Z 07007KT 360V120 9999 FEW020 SCT025 21/16 Q1018 NOSIG
0,[Scattered Clouds],1997-2-26,[16.0 °C],[],[-],,[73%],[N/A],[1018 hPa],[21.0 °C],[3:00 AM],[10.0 km],[East],"[18.5 km/h
		/ 5.1 m/s]",METAR VHHH 251900Z 09010KT 050V130 9999 FEW018 SCT025 21/16 Q1018 NOSIG
0,[Scattered Clouds],1997-2-26,[16.0 °C],[],[-],,[73%],[N/A],[1018 hPa],[21.0 °C],[4:00 AM],[10.0 km],[East],"[14.8 km/h
		/ 4.1 m/s]",METAR VHHH 252000Z 08008KT 340V130 9999 FEW018 SCT025 21/16 Q1018 NOSIG
0,[Scattered Clouds],1997-2-26,[16.0 °C],[],[-],,[73%],[N/A],[1018 hPa],[21.0 °C],[5:00 AM],[10.0 km],[ENE],"[7.4 km/h
		/ 2.1 m/s]",METAR VHHH 252100Z 07004KT 320V190 9999 FEW018 SCT025 21/16 Q1018 NOSIG
0,[Scattered Clouds],1997-2-26,[17.0 °C],[],[-],,[78%],[N/A],[1018 hPa],[21.0 °C],[6:00 AM],[10.0 km],[NE],"[13.0 km/h
		/ 3.6 m/s]",METAR VHHH 252200Z 05007KT 350V110 9999 SCT018 SCT025 21/17 Q1018 NOSIG
0,[Scattered Clouds],1997-2-26,[17.0 °C],[],[-],,[78%],[N/A],[1018 hPa],[21.0 °C],[7:00 AM],[10.0 km],[Variable],"[3.7 km/h
		/ 1.0 m/s]",METAR VHHH 252300Z VRB02KT 9999 SCT018 SCT025 21/17 Q1018 NOSIG
0,[Mostly Cloudy],1997-2-26,[17.0 °C],[],[-],,[78%],[N/A],[1019 hPa],[21.0 °C],[8:00 AM],[10.0 km],[South],"[3.7 km/h
		/ 1.0 m/s]",METAR VHHH 260000Z 18002KT 9999 FEW016 SCT020 BKN080 21/17 Q1019 NOSIG
0,[Mostly Cloudy],1997-2-26,[18.0 °C],[],[-],,[73%],[N/A],[1020 hPa],[23.0 °C],[9:00 AM],[10.0 km],[Variable],"[1.9 km/h
		/ 0.5 m/s]",METAR VHHH 260100Z VRB01KT 9999 FEW016 SCT020 BKN080 23/18 Q1020 NOSIG
0,[Mostly Cloudy],1997-2-26,[17.0 °C],[],[-],,[65%],[N/A],[1020 hPa],[24.0 °C],[10:00 AM],[10.0 km],[ENE],"[11.1 km/h
		/ 3.1 m/s]",METAR VHHH 260200Z 07006KT 320V160 9999 FEW017 SCT022 BKN080 24/17 Q1020 NOSIG
0,[Mostly Cloudy],1997-2-26,[17.0 °C],[],[-],,[61%],[N/A],[1020 hPa],[25.0 °C],[11:00 AM],[10.0 km],[ENE],"[11.1 km/h
		/ 3.1 m/s]",METAR VHHH 260300Z 07006KT 350V110 9999 FEW017 SCT022 BKN080 25/17 Q1020 NOSIG
0,[Mostly Cloudy],1997-2-26,[18.0 °C],[],[-],,[65%],[N/A],[1019 hPa],[25.0 °C],[12:00 PM],[10.0 km],[ENE],"[16.7 km/h
		/ 4.6 m/s]",METAR VHHH 260400Z 07009KT 030V140 9999 FEW020 SCT025 BKN080 25/18 Q1019 NOSIG
0,[Mostly Cloudy],1997-2-26,[18.0 °C],[],[-],,[61%],[N/A],[1018 hPa],[26.0 °C],[1:00 PM],[10.0 km],[East],"[13.0 km/h
		/ 3.6 m/s]",METAR VHHH 260500Z 08007KT 340V160 9999 FEW020 SCT025 BKN080 26/18 Q1018 NOSIG
0,[Mostly Cloudy],1997-2-26,[17.0 °C],[],[-],,[57%],[N/A],[1017 hPa],[26.0 °C],[2:00 PM],[10.0 km],[East],"[22.2 km/h
		/ 6.2 m/s]",METAR VHHH 260600Z 10012KT 060V130 9999 FEW025 BKN080 26/17 Q1017 NOSIG
0,[Scattered Clouds],1997-2-26,[18.0 °C],[],[-],,[61%],[N/A],[1017 hPa],[26.0 °C],[3:00 PM],[10.0 km],[East],"[20.4 km/h
		/ 5.7 m/s]",METAR VHHH 260700Z 08011KT 020V130 9999 FEW025 SCT100 26/18 Q1017 NOSIG
0,[Partly Cloudy],1997-2-26,[17.0 °C],[],[-],,[61%],[N/A],[1016 hPa],[25.0 °C],[4:00 PM],[10.0 km],[East],"[14.8 km/h
		/ 4.1 m/s]",METAR VHHH 260800Z 09008KT 030V140 9999 FEW025 25/17 Q1016 NOSIG
0,[Partly Cloudy],1997-2-26,[17.0 °C],[],[-],,[65%],[N/A],[1017 hPa],[24.0 °C],[5:00 PM],[10.0 km],[East],"[18.5 km/h
		/ 5.1 m/s]",METAR VHHH 260900Z 08010KT 050V110 9999 FEW025 24/17 Q1017 NOSIG
0,[Partly Cloudy],1997-2-26,[17.0 °C],[],[-],,[69%],[N/A],[1017 hPa],[23.0 °C],[6:00 PM],[10.0 km],[East],"[16.7 km/h
		/ 4.6 m/s]",METAR VHHH 261000Z 10009KT 060V120 9999 FEW020 23/17 Q1017 NOSIG
0,[Clear],1997-2-26,[16.0 °C],[],[-],,[69%],[N/A],[1017 hPa],[22.0 °C],[7:00 PM],[-],[East],"[13.0 km/h
		/ 3.6 m/s]",METAR VHHH 261100Z 08007KT 040V130 CAVOK 22/16 Q1017 NOSIG
0,[Clear],1997-2-26,[16.0 °C],[],[-],,[69%],[N/A],[1017 hPa],[22.0 °C],[8:00 PM],[-],[ENE],"[13.0 km/h
		/ 3.6 m/s]",METAR VHHH 261200Z 07007KT 280V100 CAVOK 22/16 Q1017 NOSIG
0,[Clear],1997-2-26,[15.0 °C],[],[-],,[64%],[N/A],[1017 hPa],[22.0 °C],[9:00 PM],[-],[East],"[13.0 km/h
		/ 3.6 m/s]",METAR VHHH 261300Z 09007KT CAVOK 22/15 Q1017 NOSIG
0,[Clear],1997-2-26,[16.0 °C],[],[-],,[69%],[N/A],[1018 hPa],[22.0 °C],[10:00 PM],[-],[East],"[14.8 km/h
		/ 4.1 m/s]",METAR VHHH 261400Z 08008KT CAVOK 22/16 Q1018 NOSIG
0,[Clear],1997-2-26,[16.0 °C],[],[-],,[69%],[N/A],[1018 hPa],[22.0 °C],[11:00 PM],[-],[East],"[14.8 km/h
		/ 4.1 m/s]",METAR VHHH 261500Z 09008KT 050V120 CAVOK 22/16 Q1018 NOSIG
0,[Clear],1997-2-27,[15.0 °C],[],[-],,[64%],[N/A],[1018 hPa],[22.0 °C],[12:00 AM],[-],[East],"[13.0 km/h
		/ 3.6 m/s]",METAR VHHH 261600Z 09007KT CAVOK 22/15 Q1018 NOSIG
0,[Clear],1997-2-27,[15.0 °C],[],[-],,[73%],[N/A],[1018 hPa],[20.0 °C],[1:00 AM],[-],[East],"[14.8 km/h
		/ 4.1 m/s]",METAR VHHH 261700Z 09008KT 060V120 CAVOK 20/15 Q1018 NOSIG
0,[Clear],1997-2-27,[14.0 °C],[],[-],,[64%],[N/A],[1018 hPa],[21.0 °C],[2:00 AM],[-],[East],"[18.5 km/h
		/ 5.1 m/s]",METAR VHHH 261800Z 09010KT 040V120 CAVOK 21/14 Q1018 NOSIG
0,[Partly Cloudy],1997-2-27,[15.0 °C],[],[-],,[78%],[N/A],[1018 hPa],[19.0 °C],[3:00 AM],[10.0 km],[East],"[14.8 km/h
		/ 4.1 m/s]",METAR VHHH 261900Z 09008KT 050V170 9999 FEW016 19/15 Q1018 NOSIG
0,[Partly Cloudy],1997-2-27,[16.0 °C],[],[-],,[83%],[N/A],[1018 hPa],[19.0 °C],[4:00 AM],[10.0 km],[NE],"[13.0 km/h
		/ 3.6 m/s]",METAR VHHH 262000Z 05007KT 320V120 9999 FEW016 19/16 Q1018 NOSIG
0,[Partly Cloudy],1997-2-27,[14.0 °C],[],"[42.6 km/h
		/ 11.8 m/s]",,[73%],[N/A],[1018 hPa],[19.0 °C],[6:00 AM],[10.0 km],[East],"[24.1 km/h
		/ 6.7 m/s]",METAR VHHH 262200Z 08013G23KT 020V120 9999 FEW016 19/14 Q1018 NOSIG
0,[Clear],1997-2-27,[15.0 °C],[],[-],,[83%],[N/A],[1019 hPa],[18.0 °C],[7:00 AM],[-],[SE],"[18.5 km/h
		/ 5.1 m/s]",METAR VHHH 262300Z 13010KT CAVOK 18/15 Q1019 NOSIG
0,[Partly Cloudy],1997-2-27,[15.0 °C],[],[-],,[78%],[N/A],[1019 hPa],[19.0 °C],[8:00 AM],[9.0 km],[SE],"[18.5 km/h
		/ 5.1 m/s]",METAR VHHH 270000Z 13010KT 080V160 9000 FEW030 19/15 Q1019 NOSIG
0,[Scattered Clouds],1997-2-27,[13.0 °C],[],[-],,[57%],[N/A],[1020 hPa],[22.0 °C],[9:00 AM],[9.0 km],[ESE],"[13.0 km/h
		/ 3.6 m/s]",METAR VHHH 270100Z 11007KT 060V210 9000 FEW030 SCT100 22/13 Q1020 NOSIG
0,[Scattered Clouds],1997-2-27,[13.0 °C],[],[-],,[57%],[N/A],[1020 hPa],[22.0 °C],[10:00 AM],[9.0 km],[East],"[13.0 km/h
		/ 3.6 m/s]",METAR VHHH 270200Z 09007KT 260V160 9000 FEW030 SCT100 22/13 Q1020 NOSIG
0,[Mostly Cloudy],1997-2-27,[14.0 °C],[],"[44.4 km/h
		/ 12.3 m/s]",,[57%],[N/A],[1020 hPa],[23.0 °C],[11:00 AM],[10.0 km],[East],"[24.1 km/h
		/ 6.7 m/s]",METAR VHHH 270300Z 09013G24KT 020V130 9999 FEW025 SCT030 BKN090 23/14 Q1020 WS LDG RWY 13/31 NOSIG
0,[Mostly Cloudy],1997-2-27,[14.0 °C],[],"[59.3 km/h
		/ 16.5 m/s]",,[57%],[N/A],[1019 hPa],[23.0 °C],[12:00 PM],[10.0 km],[East],"[31.5 km/h
		/ 8.7 m/s]",METAR VHHH 270400Z 09017G32KT 050V130 9999 FEW025 SCT030 BKN080 23/14 Q1019 WS LDG RWY 13/31 NOSIG
0,[Scattered Clouds],1997-2-27,[14.0 °C],[],[-],,[57%],[N/A],[1018 hPa],[23.0 °C],[1:00 PM],[10.0 km],[East],"[27.8 km/h
		/ 7.7 m/s]",METAR VHHH 270500Z 09015KT 050V120 9999 FEW025 SCT030 23/14 Q1018 WS LDG RWY 13/31 NOSIG
0,[Scattered Clouds],1997-2-27,[14.0 °C],[],"[46.3 km/h
		/ 12.9 m/s]",,[57%],[N/A],[1017 hPa],[23.0 °C],[2:00 PM],[10.0 km],[East],"[25.9 km/h
		/ 7.2 m/s]",METAR VHHH 270600Z 09014G25KT 060V120 9999 FEW022 SCT030 23/14 Q1017 WS LDG RWY 13/31 NOSIG
0,[Scattered Clouds],1997-2-27,[15.0 °C],[],[-],,[61%],[N/A],[1017 hPa],[23.0 °C],[3:00 PM],[10.0 km],[East],"[25.9 km/h
		/ 7.2 m/s]",METAR VHHH 270700Z 10014KT 060V130 9999 FEW025 SCT030 23/15 Q1017 WS LDG RWY 13/31 NOSIG
0,[Scattered Clouds],1997-2-27,[15.0 °C],[],[-],,[64%],[N/A],[1017 hPa],[22.0 °C],[5:00 PM],[10.0 km],[East],"[18.5 km/h
		/ 5.1 m/s]",METAR VHHH 270900Z 09010KT 350V150 9999 SCT025 SCT080 22/15 Q1017 WS LDG RWY 13/31 NOSIG
0,[Mostly Cloudy],1997-2-27,[16.0 °C],[],[-],,[69%],[N/A],[1017 hPa],[22.0 °C],[6:00 PM],[10.0 km],[East],"[18.5 km/h
		/ 5.1 m/s]",METAR VHHH 271000Z 09010KT 040V130 9999 FEW017 SCT025 BKN100 22/16 Q1017 WS LDG RWY 13/31 NOSIG
0,[Mostly Cloudy],1997-2-27,[15.0 °C],[],[-],,[68%],[N/A],[1017 hPa],[21.0 °C],[7:00 PM],[10.0 km],[East],"[25.9 km/h
		/ 7.2 m/s]",METAR VHHH 271100Z 09014KT 050V140 9999 FEW017 SCT025 BKN100 21/15 Q1017 WS LDG RWY 13/31 NOSIG
0,[Scattered Clouds],1997-2-27,[15.0 °C],[],[-],,[73%],[N/A],[1017 hPa],[20.0 °C],[8:00 PM],[10.0 km],[East],"[14.8 km/h
		/ 4.1 m/s]",METAR VHHH 271200Z 10008KT 040V160 9999 FEW016 SCT080 20/15 Q1017 NOSIG
0,[Scattered Clouds],1997-2-27,[15.0 °C],[],[-],,[73%],[N/A],[1018 hPa],[20.0 °C],[9:00 PM],[10.0 km],[East],"[13.0 km/h
		/ 3.6 m/s]",METAR VHHH 271300Z 09007KT 030V230 9999 FEW014 SCT025 20/15 Q1018 WS LDG RWY 13/31 NOSIG
0,[Scattered Clouds],1997-2-27,[16.0 °C],[],[-],,[78%],[N/A],[1018 hPa],[20.0 °C],[10:00 PM],[10.0 km],[ESE],"[14.8 km/h
		/ 4.1 m/s]",METAR VHHH 271400Z 11008KT 060V140 9999 FEW011 SCT025 20/16 Q1018 NOSIG
0,[Scattered Clouds],1997-2-28,[16.0 °C],[],[-],,[83%],[N/A],[1018 hPa],[19.0 °C],[12:00 AM],[10.0 km],[SE],"[11.1 km/h
		/ 3.1 m/s]",METAR VHHH 271600Z 13006KT 090V190 9999 FEW008 SCT025 19/16 Q1018 NOSIG
0,[Scattered Clouds],1997-2-28,[16.0 °C],[],[-],,[83%],[N/A],[1018 hPa],[19.0 °C],[1:00 AM],[10.0 km],[East],"[9.3 km/h
		/ 2.6 m/s]",METAR VHHH 271700Z 09005KT 040V140 9999 FEW008 SCT025 19/16 Q1018 NOSIG
0,[Scattered Clouds],1997-2-28,[15.0 °C],[],[-],,[83%],[N/A],[1017 hPa],[18.0 °C],[4:00 AM],[10.0 km],[East],"[11.1 km/h
		/ 3.1 m/s]",METAR VHHH 272000Z 10006KT 060V140 9999 FEW008 SCT020 18/15 Q1017 NOSIG
0,[Partly Cloudy],1997-2-28,[16.0 °C],[],[-],,[94%],[N/A],[1017 hPa],[17.0 °C],[6:00 AM],[10.0 km],[ESE],"[14.8 km/h
		/ 4.1 m/s]",METAR VHHH 272200Z 11008KT 070V170 9999 FEW010 17/16 Q1017 NOSIG
0,[Partly Cloudy],1997-2-28,[16.0 °C],[],[-],,[94%],[N/A],[1018 hPa],[17.0 °C],[7:00 AM],[8.0 km],[SE],"[22.2 km/h
		/ 6.2 m/s]",METAR VHHH 272300Z 14012KT 120V180 8000 FEW007 17/16 Q1018 NOSIG
0,[Scattered Clouds],1997-2-28,[16.0 °C],[],[-],,[88%],[N/A],[1019 hPa],[18.0 °C],[8:00 AM],[9.0 km],[SE],"[18.5 km/h
		/ 5.1 m/s]",METAR VHHH 280000Z 14010KT 9000 FEW008 SCT025 18/16 Q1019 NOSIG
0,[Partly Cloudy],1997-2-28,[15.0 °C],[],[-],,[68%],[N/A],[1019 hPa],[21.0 °C],[9:00 AM],[8.0 km],[SE],"[20.4 km/h
		/ 5.7 m/s]",METAR VHHH 280100Z 14011KT 8000 FEW014 21/15 Q1019 NOSIG
0,[Scattered Clouds],1997-2-28,[16.0 °C],[],[-],,[65%],[N/A],[1019 hPa],[23.0 °C],[10:00 AM],[9.0 km],[SSE],"[20.4 km/h
		/ 5.7 m/s]",METAR VHHH 280200Z 15011KT 9000 SCT025 23/16 Q1019 NOSIG
0,[Scattered Clouds],1997-2-28,[16.0 °C],[],[-],,[65%],[N/A],[1019 hPa],[23.0 °C],[11:00 AM],[9.0 km],[SE],"[18.5 km/h
		/ 5.1 m/s]",METAR VHHH 280300Z 14010KT 060V130 9000 FEW025 SCT030 23/16 Q1019 NOSIG
0,[Mostly Cloudy],1997-2-28,[16.0 °C],[],[-],,[65%],[N/A],[1018 hPa],[23.0 °C],[12:00 PM],[9.0 km],[SE],"[24.1 km/h
		/ 6.7 m/s]",METAR VHHH 280400Z 14013KT 9000 FEW004 BKN025 23/16 Q1018 NOSIG
0,[Scattered Clouds],1997-2-28,[16.0 °C],[],[-],,[73%],[N/A],[1017 hPa],[21.0 °C],[1:00 PM],[9.0 km],[SE],"[27.8 km/h
		/ 7.7 m/s]",METAR VHHH 280500Z 13015KT 110V210 9000 FEW005 SCT025 21/16 Q1017 NOSIG
0,[Partly Cloudy],1997-2-28,[16.0 °C],[],[-],,[61%],[N/A],[1016 hPa],[24.0 °C],[2:00 PM],[10.0 km],[SE],"[24.1 km/h
		/ 6.7 m/s]",METAR VHHH 280600Z 14013KT 9999 FEW020 24/16 Q1016 NOSIG
0,[Partly Cloudy],1997-2-28,[16.0 °C],[],[-],,[61%],[N/A],[1015 hPa],[24.0 °C],[3:00 PM],[10.0 km],[SE],"[25.9 km/h
		/ 7.2 m/s]",METAR VHHH 280700Z 14014KT 9999 FEW020 24/16 Q1015 WS LDG RWY 13 NOSIG
0,[Partly Cloudy],1997-2-28,[16.0 °C],[],[-],,[61%],[N/A],[1015 hPa],[24.0 °C],[4:00 PM],[10.0 km],[SE],"[22.2 km/h
		/ 6.2 m/s]",METAR VHHH 280800Z 14012KT 9999 FEW020 24/16 Q1015 WS LDG RWY 13 NOSIG
0,[Partly Cloudy],1997-2-28,[16.0 °C],[],[-],,[65%],[N/A],[1015 hPa],[23.0 °C],[5:00 PM],[10.0 km],[SE],"[24.1 km/h
		/ 6.7 m/s]",METAR VHHH 280900Z 14013KT 9999 FEW020 23/16 Q1015 WS LDG RWY 13/31 NOSIG
0,[Clear],1997-2-28,[16.0 °C],[],[-],,[69%],[N/A],[1015 hPa],[22.0 °C],[6:00 PM],[-],[SE],"[24.1 km/h
		/ 6.7 m/s]",METAR VHHH 281000Z 13013KT CAVOK 22/16 Q1015 NOSIG
0,[Clear],1997-2-28,[16.0 °C],[],[-],,[69%],[N/A],[1015 hPa],[22.0 °C],[7:00 PM],[-],[SSE],"[7.4 km/h
		/ 2.1 m/s]",METAR VHHH 281100Z 15004KT 110V240 CAVOK 22/16 Q1015 NOSIG
0,[Clear],1997-2-28,[16.0 °C],[],[-],,[73%],[N/A],[1015 hPa],[21.0 °C],[8:00 PM],[8.0 km],[SE],"[11.1 km/h
		/ 3.1 m/s]",METAR VHHH 281200Z 13006KT 100V180 8000 SKC 21/16 Q1015 NOSIG
0,[Clear],1997-2-28,[16.0 °C],[],[-],,[78%],[N/A],[1016 hPa],[20.0 °C],[9:00 PM],[8.0 km],[SE],"[14.8 km/h
		/ 4.1 m/s]",METAR VHHH 281300Z 14008KT 8000 SKC 20/16 Q1016 NOSIG
0,[Partly Cloudy],1997-2-28,[16.0 °C],[],[-],,[78%],[N/A],[1016 hPa],[20.0 °C],[10:00 PM],[8.0 km],[SE],"[14.8 km/h
		/ 4.1 m/s]",METAR VHHH 281400Z 13008KT 8000 FEW025 20/16 Q1016 NOSIG
0,[Light Drizzle],1997-2-28,[18.0 °C],[],[-],,[94%],[N/A],[1017 hPa],[19.0 °C],[11:00 PM],[8.0 km],[ESE],"[13.0 km/h
		/ 3.6 m/s]",METAR VHHH 281500Z 12007KT 8000 -DZ FEW025 BKN090 19/18 Q1017 TEMPO 4500 BR
0,[Scattered Clouds],1997-3-1,[17.0 °C],[],[-],,[83%],[N/A],[1017 hPa],[20.0 °C],[12:00 AM],[7.0 km],[SSW],"[3.7 km/h
		/ 1.0 m/s]",METAR VHHH 281600Z 21002KT 7000 FEW025 SCT100 20/17 Q1017 TEMPO 4500 BR
0,[Scattered Clouds],1997-3-1,[17.0 °C],[],[-],,[88%],[N/A],[1016 hPa],[19.0 °C],[1:00 AM],[6.0 km],[SW],"[7.4 km/h
		/ 2.1 m/s]",METAR VHHH 281700Z 23004KT 6000 FEW025 SCT100 19/17 Q1016 TEMPO 4500 BR
0,[Scattered Clouds],1997-3-1,[17.0 °C],[],[-],,[94%],[N/A],[1016 hPa],[18.0 °C],[2:00 AM],[4.0 km],[Calm],[Calm],METAR VHHH 281800Z 00000KT 4000 BR FEW020 SCT100 18/17 Q1016 TEMPO 3500 BR
0,[Scattered Clouds],1997-3-1,[17.0 °C],[],[-],,[94%],[N/A],[1015 hPa],[18.0 °C],[3:00 AM],[4.0 km],[Calm],[Calm],METAR VHHH 281900Z 00000KT 4000 BR FEW020 SCT100 18/17 Q1015 TEMPO 3500 BR
0,[Unknown],1997-3-1,[17.0 °C],[],[-],,[94%],[N/A],[1015 hPa],[18.0 °C],[4:00 AM],[4.0 km],[Calm],[Calm],METAR VHHH 282000Z 00000KT 4000 18/17 Q1015 TEMPO 3500 BR
0,[Mist],1997-3-1,[17.0 °C],[],[-],,[100%],[N/A],[1015 hPa],[17.0 °C],[5:00 AM],[-],[Calm],[Calm],METAR VHHH 282100Z 00000KT 4200 BR 17/17 Q1015 TEMPO 3500 BR
0,[Partly Cloudy],1997-3-1,[16.0 °C],[],[-],,[94%],[N/A],[1015 hPa],[17.0 °C],[6:00 AM],[4.5 km],[WSW],"[1.9 km/h
		/ 0.5 m/s]",METAR VHHH 282200Z 24001KT 4500 BR FEW020 17/16 Q1015 TEMPO 1500 BCFG
0,[Partly Cloudy],1997-3-1,[17.0 °C],[],[-],,[100%],[N/A],[1015 hPa],[17.0 °C],[7:00 AM],[-],[SW],"[7.4 km/h
		/ 2.1 m/s]",METAR VHHH 282300Z 23004KT 190V260 3800 BR FEW015 17/17 Q1015 TEMPO 1500 BCFG
0,[Haze],1997-3-1,[17.0 °C],[],[-],,[83%],[N/A],[1016 hPa],[20.0 °C],[8:00 AM],[-],[WSW],"[3.7 km/h
		/ 1.0 m/s]",METAR VHHH 010000Z 25002KT 4800 HZ SKC 20/17 Q1016 BR TEMPO 1500 BCFG
0,[Haze],1997-3-1,[16.0 °C],[],[-],,[69%],[N/A],[1016 hPa],[22.0 °C],[9:00 AM],[4.0 km],[West],"[3.7 km/h
		/ 1.0 m/s]",METAR VHHH 010100Z 26002KT 4000 HZ SKC 22/16 Q1016 TEMPO 1500 BCFG
0,[Haze],1997-3-1,[17.0 °C],[],[-],,[65%],[N/A],[1016 hPa],[24.0 °C],[10:00 AM],[4.0 km],[SE],"[7.4 km/h
		/ 2.1 m/s]",METAR VHHH 010200Z 14004KT 4000 HZ SKC 24/17 Q1016 TEMPO 2500 HZ
0,[Haze],1997-3-1,[17.0 °C],[],[-],,[57%],[N/A],[1016 hPa],[26.0 °C],[11:00 AM],[-],[SE],"[11.1 km/h
		/ 3.1 m/s]",METAR VHHH 010300Z 14006KT 120V220 4800 HZ FEW020 26/17 Q1016 TEMPO 2500 HZ
0,[Haze],1997-3-1,[17.0 °C],[],[-],,[57%],[N/A],[1015 hPa],[26.0 °C],[12:00 PM],[-],[SSE],"[11.1 km/h
		/ 3.1 m/s]",METAR VHHH 010400Z 15006KT 4800 HZ FEW020 26/17 Q1015 TEMPO 2500 HZ
0,[Haze],1997-3-1,[17.0 °C],[],[-],,[57%],[N/A],[1014 hPa],[26.0 °C],[1:00 PM],[-],[SE],"[20.4 km/h
		/ 5.7 m/s]",METAR VHHH 010500Z 13011KT 4800 HZ FEW020 26/17 Q1014 TEMPO 2500 HZ
0,[Partly Cloudy],1997-3-1,[16.0 °C],[],[-],,[54%],[N/A],[1013 hPa],[26.0 °C],[2:00 PM],[6.0 km],[ESE],"[20.4 km/h
		/ 5.7 m/s]",METAR VHHH 010600Z 12011KT 6000 FEW025 26/16 Q1013 TEMPO 4000 HZ
0,[Partly Cloudy],1997-3-1,[17.0 °C],[],[-],,[57%],[N/A],[1012 hPa],[26.0 °C],[3:00 PM],[6.0 km],[SE],"[20.4 km/h
		/ 5.7 m/s]",METAR VHHH 010700Z 13011KT 6000 FEW025 26/17 Q1012 TEMPO 4000 HZ
0,[Partly Cloudy],1997-3-1,[17.0 °C],[],[-],,[57%],[N/A],[1012 hPa],[26.0 °C],[4:00 PM],[6.0 km],[SE],"[24.1 km/h
		/ 6.7 m/s]",METAR VHHH 010800Z 14013KT 6000 FEW025 26/17 Q1012 TEMPO 4000 HZ
0,[Partly Cloudy],1997-3-1,[17.0 °C],[],[-],,[65%],[N/A],[1013 hPa],[24.0 °C],[5:00 PM],[7.0 km],[East],"[18.5 km/h
		/ 5.1 m/s]",METAR VHHH 010900Z 08010KT 060V130 7000 FEW016 24/17 Q1013 NOSIG
0,[Haze],1997-3-1,[18.0 °C],[],[-],,[78%],[N/A],[1014 hPa],[22.0 °C],[6:00 PM],[4.0 km],[East],"[25.9 km/h
		/ 7.2 m/s]",METAR VHHH 011000Z 08014KT 4000 HZ FEW012 SCT020 22/18 Q1014 TEMPO 3000 HZ
0,[Mostly Cloudy],1997-3-1,[17.0 °C],[],[-],,[83%],[N/A],[1015 hPa],[20.0 °C],[7:00 PM],[6.0 km],[ENE],"[22.2 km/h
		/ 6.2 m/s]",METAR VHHH 011100Z 07012KT 010V180 6000 FEW008 SCT014 BKN080 20/17 Q1015 WS LDG RWY 13/31 TEMPO 3000 HZ
0,[Mostly Cloudy],1997-3-1,[17.0 °C],[],[-],,[83%],[N/A],[1016 hPa],[20.0 °C],[8:00 PM],[6.0 km],[ENE],"[16.7 km/h
		/ 4.6 m/s]",METAR VHHH 011200Z 06009KT 360V110 6000 FEW008 SCT014 BKN080 20/17 Q1016 WS LDG RWY 13/31 TEMPO 4000 BR
0,[Mostly Cloudy],1997-3-1,[16.0 °C],[],[-],,[78%],[N/A],[1017 hPa],[20.0 °C],[9:00 PM],[7.0 km],[ENE],"[22.2 km/h
		/ 6.2 m/s]",METAR VHHH 011300Z 07012KT 360V140 7000 FEW012 SCT016 BKN080 20/16 Q1017 WS LDG RWY 13/31 TEMPO 4000 BR
0,[Mostly Cloudy],1997-3-1,[16.0 °C],[],[-],,[78%],[N/A],[1017 hPa],[20.0 °C],[10:00 PM],[7.0 km],[East],"[20.4 km/h
		/ 5.7 m/s]",METAR VHHH 011400Z 08011KT 030V130 7000 FEW010 SCT014 BKN080 20/16 Q1017 NOSIG
0,[Light Rain],1997-3-1,[16.0 °C],[Rain],[-],,[83%],[N/A],[1018 hPa],[19.0 °C],[11:00 PM],[6.0 km],[ENE],"[22.2 km/h
		/ 6.2 m/s]",METAR VHHH 011500Z 07012KT 010V110 6000 -RA FEW008 SCT014 BKN080 19/16 Q1018 NOSIG
0,[Light Rain],1997-3-2,[16.0 °C],[Rain],[-],,[88%],[N/A],[1018 hPa],[18.0 °C],[12:00 AM],[6.0 km],[ENE],"[24.1 km/h
		/ 6.7 m/s]",METAR VHHH 011600Z 07013KT 350V160 6000 -RA FEW008 SCT014 BKN080 18/16 Q1018 TEMPO 4000 BR/FBL RAIN
0,[Mostly Cloudy],1997-3-2,[15.0 °C],[],[-],,[83%],[N/A],[1017 hPa],[18.0 °C],[1:00 AM],[8.0 km],[ENE],"[24.1 km/h
		/ 6.7 m/s]",METAR VHHH 011700Z 07013KT 020V140 8000 FEW008 SCT014 BKN080 18/15 Q1017 TEMPO 4000 BR -RA
0,[Mostly Cloudy],1997-3-2,[15.0 °C],[],[-],,[83%],[N/A],[1017 hPa],[18.0 °C],[2:00 AM],[10.0 km],[East],"[20.4 km/h
		/ 5.7 m/s]",METAR VHHH 011800Z 08011KT 030V110 9999 FEW014 BKN080 18/15 Q1017 TEMPO 4000 BR -RA
0,[Mostly Cloudy],1997-3-2,[14.0 °C],[],"[46.3 km/h
		/ 12.9 m/s]",,[77%],[N/A],[1016 hPa],[18.0 °C],[3:00 AM],[10.0 km],[East],"[27.8 km/h
		/ 7.7 m/s]",METAR VHHH 011900Z 08015G25KT 030V110 9999 FEW020 BKN080 18/14 Q1016 TEMPO 4000 BR -RA
0,[Mostly Cloudy],1997-3-2,[14.0 °C],[],[-],,[82%],[N/A],[1015 hPa],[17.0 °C],[4:00 AM],[10.0 km],[East],"[31.5 km/h
		/ 8.7 m/s]",METAR VHHH 012000Z 08017KT 020V120 9999 FEW010 BKN080 17/14 Q1015 NOSIG
0,[Mostly Cloudy],1997-3-2,[14.0 °C],[],"[40.7 km/h
		/ 11.3 m/s]",,[82%],[N/A],[1016 hPa],[17.0 °C],[5:00 AM],[10.0 km],[ENE],"[18.5 km/h
		/ 5.1 m/s]",METAR VHHH 012100Z 06010G22KT 360V070 9999 FEW010 BKN080 17/14 Q1016 NOSIG
0,[Mostly Cloudy],1997-3-2,[14.0 °C],[],[-],,[82%],[N/A],[1018 hPa],[17.0 °C],[6:00 AM],[9.0 km],[East],"[13.0 km/h
		/ 3.6 m/s]",METAR VHHH 012200Z 10007KT 050V120 9000 FEW008 SCT012 BKN080 17/14 Q1018 NOSIG
0,[Mostly Cloudy],1997-3-2,[14.0 °C],[],[-],,[82%],[N/A],[1018 hPa],[17.0 °C],[7:00 AM],[7.0 km],[East],"[13.0 km/h
		/ 3.6 m/s]",METAR VHHH 012300Z 10007KT 070V160 7000 FEW008 SCT012 BKN080 17/14 Q1018 TEMPO 5000 -RA BR
0,[Mostly Cloudy],1997-3-2,[14.0 °C],[],[-],,[77%],[N/A],[1020 hPa],[18.0 °C],[8:00 AM],[10.0 km],[ENE],"[9.3 km/h
		/ 2.6 m/s]",METAR VHHH 020000Z 06005KT 010V100 9999 FEW012 BKN080 18/14 Q1020 TEMPO 5000 -RA BR
0,[Mostly Cloudy],1997-3-2,[14.0 °C],[],[-],,[73%],[N/A],[1021 hPa],[19.0 °C],[9:00 AM],[9.0 km],[SE],"[13.0 km/h
		/ 3.6 m/s]",METAR VHHH 020100Z 14007KT 120V200 9000 FEW014 SCT020 BKN080 19/14 Q1021 NOSIG
0,[Mostly Cloudy],1997-3-2,[14.0 °C],[],[-],,[73%],[N/A],[1021 hPa],[19.0 °C],[10:00 AM],[9.0 km],[East],"[1.9 km/h
		/ 0.5 m/s]",METAR VHHH 020200Z 10001KT 9000 FEW016 SCT022 BKN080 19/14 Q1021 TEMPO 4500 -RA
0,[Mostly Cloudy],1997-3-2,[14.0 °C],[],[-],,[73%],[N/A],[1021 hPa],[19.0 °C],[11:00 AM],[8.0 km],[NNW],"[13.0 km/h
		/ 3.6 m/s]",METAR VHHH 020300Z 33007KT 270V010 8000 FEW016 SCT022 BKN080 19/14 Q1021 NOSIG
0,[Mostly Cloudy],1997-3-2,[14.0 °C],[],[-],,[64%],[N/A],[1020 hPa],[21.0 °C],[12:00 PM],[10.0 km],[SE],"[14.8 km/h
		/ 4.1 m/s]",METAR VHHH 020400Z 13008KT 090V160 9999 FEW020 SCT030 BKN080 21/14 Q1020 WS LDG RWY 13/31 NOSIG
0,[Mostly Cloudy],1997-3-2,[12.0 °C],[],[-],,[53%],[N/A],[1019 hPa],[22.0 °C],[1:00 PM],[10.0 km],[NNE],"[16.7 km/h
		/ 4.6 m/s]",METAR VHHH 020500Z 02009KT 320V100 9999 SCT030 BKN080 22/12 Q1019 NOSIG
0,[Mostly Cloudy],1997-3-2,[11.0 °C],[],[-],,[53%],[N/A],[1019 hPa],[21.0 °C],[2:00 PM],[10.0 km],[NE],"[18.5 km/h
		/ 5.1 m/s]",METAR VHHH 020600Z 04010KT 350V100 9999 SCT030 BKN080 21/11 Q1019 WS LDG RWY 13/31 NOSIG
0,[Partly Cloudy],1997-3-2,[12.0 °C],[],[-],,[56%],[N/A],[1018 hPa],[21.0 °C],[3:00 PM],[10.0 km],[NW],"[14.8 km/h
		/ 4.1 m/s]",METAR VHHH 020700Z 31008KT 270V340 9999 FEW030 21/12 Q1018 WS LDG RWY 13/31 NOSIG
0,[Partly Cloudy],1997-3-2,[11.0 °C],[],"[31.5 km/h
		/ 8.7 m/s]",,[50%],[N/A],[1018 hPa],[22.0 °C],[4:00 PM],[10.0 km],[NNE],"[13.0 km/h
		/ 3.6 m/s]",METAR VHHH 020800Z 03007G17KT 310V080 9999 FEW030 22/11 Q1018 WS LDG RWY 13/31 NOSIG
0,[Partly Cloudy],1997-3-2,[12.0 °C],[],[-],,[56%],[N/A],[1018 hPa],[21.0 °C],[5:00 PM],[10.0 km],[North],"[16.7 km/h
		/ 4.6 m/s]",METAR VHHH 020900Z 35009KT 310V180 9999 FEW030 21/12 Q1018 WS LDG RWY 13/31 NOSIG
0,[Partly Cloudy],1997-3-2,[11.0 °C],[],[-],,[56%],[N/A],[1019 hPa],[20.0 °C],[6:00 PM],[10.0 km],[NE],"[14.8 km/h
		/ 4.1 m/s]",METAR VHHH 021000Z 05008KT 210V150 9999 FEW030 20/11 Q1019 WS LDG RWY 13/31 NOSIG
0,[Partly Cloudy],1997-3-2,[11.0 °C],[],[-],,[64%],[N/A],[1019 hPa],[18.0 °C],[7:00 PM],[10.0 km],[Variable],"[1.9 km/h
		/ 0.5 m/s]",METAR VHHH 021100Z VRB01KT 9999 FEW030 18/11 Q1019 WS LDG RWY 13/31 NOSIG
0,[Partly Cloudy],1997-3-2,[10.0 °C],[],[-],,[63%],[N/A],[1020 hPa],[17.0 °C],[8:00 PM],[10.0 km],[NE],"[11.1 km/h
		/ 3.1 m/s]",METAR VHHH 021200Z 04006KT 350V090 9999 FEW035 17/10 Q1020 WS LDG RWY 13/31 NOSIG
0,[Partly Cloudy],1997-3-2,[10.0 °C],[],[-],,[63%],[N/A],[1022 hPa],[17.0 °C],[9:00 PM],[10.0 km],[NNE],"[11.1 km/h
		/ 3.1 m/s]",METAR VHHH 021300Z 02006KT 320V120 9999 FEW030 17/10 Q1022 WS LDG RWY 13/31 NOSIG
0,[Scattered Clouds],1997-3-2,[10.0 °C],[],[-],,[63%],[N/A],[1023 hPa],[17.0 °C],[10:00 PM],[10.0 km],[NNW],"[11.1 km/h
		/ 3.1 m/s]",METAR VHHH 021400Z 34006KT 300V010 9999 FEW030 SCT080 17/10 Q1023 WS LDG RWY 13/31 NOSIG
0,[Scattered Clouds],1997-3-2,[10.0 °C],[],[-],,[68%],[N/A],[1023 hPa],[16.0 °C],[11:00 PM],[10.0 km],[NNE],"[14.8 km/h
		/ 4.1 m/s]",METAR VHHH 021500Z 02008KT 330V050 9999 FEW030 SCT080 16/10 Q1023 WS LDG RWY 13/31 NOSIG
0,[Scattered Clouds],1997-3-3,[10.0 °C],[],[-],,[68%],[N/A],[1023 hPa],[16.0 °C],[12:00 AM],[10.0 km],[North],"[11.1 km/h
		/ 3.1 m/s]",METAR VHHH 021600Z 36006KT 9999 FEW035 SCT080 16/10 Q1023 WS LDG RWY 13/31 NOSIG
0,[Clear],1997-3-3,[9.0 °C],[],[-],,[67%],[N/A],[1023 hPa],[15.0 °C],[1:00 AM],[-],[NNE],"[13.0 km/h
		/ 3.6 m/s]",METAR VHHH 021700Z 02007KT 310V110 CAVOK 15/09 Q1023 WS LDG RWY 13/31 NOSIG
0,[Clear],1997-3-3,[9.0 °C],[],[-],,[67%],[N/A],[1023 hPa],[15.0 °C],[2:00 AM],[-],[North],"[11.1 km/h
		/ 3.1 m/s]",METAR VHHH 021800Z 36006KT 330V060 CAVOK 15/09 Q1023 WS LDG RWY 13/31 NOSIG
0,[Clear],1997-3-3,[9.0 °C],[],[-],,[72%],[N/A],[1022 hPa],[14.0 °C],[3:00 AM],[-],[North],"[11.1 km/h
		/ 3.1 m/s]",METAR VHHH 021900Z 01006KT 340V070 CAVOK 14/09 Q1022 WS LDG RWY 13/31 NOSIG
0,[Partly Cloudy],1997-3-3,[8.0 °C],[],[-],,[67%],[N/A],[1022 hPa],[14.0 °C],[4:00 AM],[10.0 km],[North],"[9.3 km/h
		/ 2.6 m/s]",METAR VHHH 022000Z 01005KT 310V040 9999 FEW025 14/08 Q1022 WS LDG RWY 13/31 NOSIG
0,[Scattered Clouds],1997-3-3,[8.0 °C],[],[-],,[67%],[N/A],[1022 hPa],[14.0 °C],[5:00 AM],[10.0 km],[NE],"[13.0 km/h
		/ 3.6 m/s]",METAR VHHH 022100Z 04007KT 340V090 9999 SCT025 14/08 Q1022 WS LDG RWY 13/31 NOSIG
0,[Mostly Cloudy],1997-3-3,[8.0 °C],[],[-],,[67%],[N/A],[1022 hPa],[14.0 °C],[6:00 AM],[10.0 km],[North],"[7.4 km/h
		/ 2.1 m/s]",METAR VHHH 022200Z 36004KT 310V050 9999 FEW030 BKN080 14/08 Q1022 WS LDG RWY 13/31 NOSIG
0,[Mostly Cloudy],1997-3-3,[8.0 °C],[],[-],,[63%],[N/A],[1023 hPa],[15.0 °C],[7:00 AM],[10.0 km],[NNW],"[7.4 km/h
		/ 2.1 m/s]",METAR VHHH 022300Z 33004KT 300V010 9999 FEW025 BKN080 15/08 Q1023 WS LDG RWY 13/31 NOSIG
0,[Mostly Cloudy],1997-3-3,[8.0 °C],[],[-],,[63%],[N/A],[1024 hPa],[15.0 °C],[8:00 AM],[10.0 km],[North],"[13.0 km/h
		/ 3.6 m/s]",METAR VHHH 030000Z 36007KT 290V090 9999 FEW025 BKN080 15/08 Q1024 WS LDG RWY 13/31 NOSIG
0,[Mostly Cloudy],1997-3-3,[8.0 °C],[],[-],,[63%],[N/A],[1025 hPa],[15.0 °C],[9:00 AM],[10.0 km],[NNE],"[9.3 km/h
		/ 2.6 m/s]",METAR VHHH 030100Z 02005KT 300V100 9999 FEW025 SCT030 BKN080 15/08 Q1025 WS LDG RWY 13/31 NOSIG
0,[Mostly Cloudy],1997-3-3,[9.0 °C],[],[-],,[63%],[N/A],[1025 hPa],[16.0 °C],[10:00 AM],[10.0 km],[ENE],"[11.1 km/h
		/ 3.1 m/s]",METAR VHHH 030200Z 06006KT 310V120 9999 FEW025 SCT030 BKN080 16/09 Q1025 WS LDG RWY 13/31 NOSIG
0,[Mostly Cloudy],1997-3-3,[9.0 °C],[],[-],,[59%],[N/A],[1025 hPa],[17.0 °C],[11:00 AM],[10.0 km],[NNE],"[14.8 km/h
		/ 4.1 m/s]",METAR VHHH 030300Z 02008KT 330V060 9999 FEW025 SCT030 BKN080 17/09 Q1025 NOSIG
0,[Mostly Cloudy],1997-3-3,[9.0 °C],[],[-],,[59%],[N/A],[1024 hPa],[17.0 °C],[12:00 PM],[10.0 km],[NNE],"[18.5 km/h
		/ 5.1 m/s]",METAR VHHH 030400Z 02010KT 350V080 9999 SCT030 BKN080 17/09 Q1024 WS LDG RWY 13/31 NOSIG
0,[Mostly Cloudy],1997-3-3,[9.0 °C],[],[-],,[56%],[N/A],[1023 hPa],[18.0 °C],[1:00 PM],[10.0 km],[ENE],"[13.0 km/h
		/ 3.6 m/s]",METAR VHHH 030500Z 06007KT 340V120 9999 SCT030 BKN080 18/09 Q1023 WS LDG RWY 13/31 NOSIG
0,[Mostly Cloudy],1997-3-3,[9.0 °C],[],[-],,[56%],[N/A],[1022 hPa],[18.0 °C],[2:00 PM],[10.0 km],[ENE],"[9.3 km/h
		/ 2.6 m/s]",METAR VHHH 030600Z 07005KT 360V150 9999 SCT030 BKN080 18/09 Q1022 NOSIG
0,[Mostly Cloudy],1997-3-3,[10.0 °C],[],[-],,[59%],[N/A],[1021 hPa],[18.0 °C],[3:00 PM],[10.0 km],[ESE],"[13.0 km/h
		/ 3.6 m/s]",METAR VHHH 030700Z 12007KT 080V170 9999 SCT030 BKN080 18/10 Q1021 NOSIG
0,[Partly Cloudy],1997-3-3,[8.0 °C],[],[-],,[49%],[N/A],[1021 hPa],[19.0 °C],[4:00 PM],[10.0 km],[SE],"[11.1 km/h
		/ 3.1 m/s]",METAR VHHH 030800Z 13006KT 110V210 9999 FEW025 19/08 Q1021 NOSIG
0,[Partly Cloudy],1997-3-3,[9.0 °C],[],[-],,[52%],[N/A],[1021 hPa],[19.0 °C],[5:00 PM],[10.0 km],[SE],"[22.2 km/h
		/ 6.2 m/s]",METAR VHHH 030900Z 13012KT 9999 FEW025 19/09 Q1021 NOSIG
0,[Partly Cloudy],1997-3-3,[10.0 °C],[],[-],,[63%],[N/A],[1021 hPa],[17.0 °C],[6:00 PM],[10.0 km],[SE],"[20.4 km/h
		/ 5.7 m/s]",METAR VHHH 031000Z 13011KT 9999 FEW025 17/10 Q1021 NOSIG
0,[Partly Cloudy],1997-3-3,[10.0 °C],[],[-],,[63%],[N/A],[1022 hPa],[17.0 °C],[7:00 PM],[10.0 km],[ESE],"[13.0 km/h
		/ 3.6 m/s]",METAR VHHH 031100Z 11007KT 9999 FEW025 17/10 Q1022 NOSIG
0,[Partly Cloudy],1997-3-3,[11.0 °C],[],[-],,[68%],[N/A],[1022 hPa],[17.0 °C],[8:00 PM],[10.0 km],[ESE],"[9.3 km/h
		/ 2.6 m/s]",METAR VHHH 031200Z 12005KT 080V140 9999 FEW025 17/11 Q1022 NOSIG
0,[Partly Cloudy],1997-3-3,[11.0 °C],[],[-],,[68%],[N/A],[1023 hPa],[17.0 °C],[9:00 PM],[10.0 km],[ENE],"[14.8 km/h
		/ 4.1 m/s]",METAR VHHH 031300Z 07008KT 030V110 9999 FEW018 17/11 Q1023 NOSIG
0,[Partly Cloudy],1997-3-3,[10.0 °C],[],[-],,[68%],[N/A],[1023 hPa],[16.0 °C],[10:00 PM],[10.0 km],[ENE],"[14.8 km/h
		/ 4.1 m/s]",METAR VHHH 031400Z 06008KT 350V090 9999 FEW020 16/10 Q1023 NOSIG
0,[Scattered Clouds],1997-3-3,[11.0 °C],[],[-],,[72%],[N/A],[1024 hPa],[16.0 °C],[11:00 PM],[10.0 km],[ENE],"[13.0 km/h
		/ 3.6 m/s]",METAR VHHH 031500Z 06007KT 360V100 9999 FEW018 SCT025 16/11 Q1024 NOSIG
0,[Scattered Clouds],1997-3-4,[12.0 °C],[],[-],,[77%],[N/A],[1024 hPa],[16.0 °C],[12:00 AM],[10.0 km],[East],"[18.5 km/h
		/ 5.1 m/s]",METAR VHHH 031600Z 09010KT 030V120 9999 FEW017 SCT025 16/12 Q1024 NOSIG
0,[Scattered Clouds],1997-3-4,[11.0 °C],[],[-],,[72%],[N/A],[1024 hPa],[16.0 °C],[1:00 AM],[10.0 km],[East],"[18.5 km/h
		/ 5.1 m/s]",METAR VHHH 031700Z 08010KT 040V140 9999 FEW016 SCT025 16/11 Q1024 NOSIG
0,[Partly Cloudy],1997-3-4,[10.0 °C],[],[-],,[72%],[N/A],[1023 hPa],[15.0 °C],[2:00 AM],[10.0 km],[East],"[14.8 km/h
		/ 4.1 m/s]",METAR VHHH 031800Z 09008KT 050V140 9999 FEW016 15/10 Q1023 NOSIG
0,[Partly Cloudy],1997-3-4,[10.0 °C],[],[-],,[72%],[N/A],[1023 hPa],[15.0 °C],[3:00 AM],[10.0 km],[ENE],"[16.7 km/h
		/ 4.6 m/s]",METAR VHHH 031900Z 06009KT 340V140 9999 FEW020 15/10 Q1023 NOSIG
0,[Partly Cloudy],1997-3-4,[10.0 °C],[],[-],,[72%],[N/A],[1023 hPa],[15.0 °C],[4:00 AM],[10.0 km],[ENE],"[14.8 km/h
		/ 4.1 m/s]",METAR VHHH 032000Z 07008KT 260V110 9999 FEW020 15/10 Q1023 NOSIG
0,[Partly Cloudy],1997-3-4,[11.0 °C],[],[-],,[77%],[N/A],[1023 hPa],[15.0 °C],[5:00 AM],[10.0 km],[ENE],"[11.1 km/h
		/ 3.1 m/s]",METAR VHHH 032100Z 06006KT 030V140 9999 FEW020 15/11 Q1023 NOSIG
0,[Partly Cloudy],1997-3-4,[11.0 °C],[],[-],,[82%],[N/A],[1023 hPa],[14.0 °C],[6:00 AM],[10.0 km],[NE],"[5.6 km/h
		/ 1.5 m/s]",METAR VHHH 032200Z 04003KT 340V080 9999 FEW025 14/11 Q1023 NOSIG
0,[Partly Cloudy],1997-3-4,[10.0 °C],[],[-],,[77%],[N/A],[1023 hPa],[14.0 °C],[7:00 AM],[10.0 km],[ESE],"[13.0 km/h
		/ 3.6 m/s]",METAR VHHH 032300Z 12007KT 9999 FEW030 14/10 Q1023 NOSIG
0,[Scattered Clouds],1997-3-4,[11.0 °C],[],[-],,[72%],[N/A],[1024 hPa],[16.0 °C],[8:00 AM],[10.0 km],[West],"[1.9 km/h
		/ 0.5 m/s]",METAR VHHH 040000Z 28001KT 9999 FEW025 SCT100 16/11 Q1024 NOSIG
0,[Scattered Clouds],1997-3-4,[9.0 °C],[],[-],,[59%],[N/A],[1024 hPa],[17.0 °C],[9:00 AM],[10.0 km],[East],"[9.3 km/h
		/ 2.6 m/s]",METAR VHHH 040100Z 08005KT 040V140 9999 FEW025 SCT045 17/09 Q1024 NOSIG
0,[Scattered Clouds],1997-3-4,[11.0 °C],[],[-],,[64%],[N/A],[1024 hPa],[18.0 °C],[10:00 AM],[10.0 km],[SE],"[18.5 km/h
		/ 5.1 m/s]",METAR VHHH 040200Z 14010KT 120V180 9999 FEW025 SCT050 18/11 Q1024 NOSIG
0,[Mostly Cloudy],1997-3-4,[11.0 °C],[],[-],,[60%],[N/A],[1024 hPa],[19.0 °C],[11:00 AM],[10.0 km],[ESE],"[16.7 km/h
		/ 4.6 m/s]",METAR VHHH 040300Z 12009KT 090V160 9999 FEW030 BKN080 19/11 Q1024 NOSIG
0,[Scattered Clouds],1997-3-4,[8.0 °C],[],[-],,[46%],[N/A],[1023 hPa],[20.0 °C],[12:00 PM],[10.0 km],[SSE],"[24.1 km/h
		/ 6.7 m/s]",METAR VHHH 040400Z 15013KT 100V180 9999 FEW035 SCT090 20/08 Q1023 NOSIG
0,[Partly Cloudy],1997-3-4,[7.0 °C],[],[-],,[40%],[N/A],[1022 hPa],[21.0 °C],[1:00 PM],[10.0 km],[SE],"[27.8 km/h
		/ 7.7 m/s]",METAR VHHH 040500Z 14015KT 110V170 9999 FEW030 21/07 Q1022 NOSIG
0,[Clear],1997-3-4,[7.0 °C],[],[-],,[43%],[N/A],[1021 hPa],[20.0 °C],[2:00 PM],[-],[SE],"[27.8 km/h
		/ 7.7 m/s]",METAR VHHH 040600Z 13015KT CAVOK 20/07 Q1021 NOSIG
0,[Clear],1997-3-4,[8.0 °C],[],[-],,[46%],[N/A],[1020 hPa],[20.0 °C],[3:00 PM],[-],[SE],"[27.8 km/h
		/ 7.7 m/s]",METAR VHHH 040700Z 13015KT CAVOK 20/08 Q1020 NOSIG
0,[Clear],1997-3-4,[9.0 °C],[],[-],,[52%],[N/A],[1019 hPa],[19.0 °C],[4:00 PM],[-],[SE],"[27.8 km/h
		/ 7.7 m/s]",METAR VHHH 040800Z 13015KT CAVOK 19/09 Q1019 NOSIG
0,[Clear],1997-3-4,[10.0 °C],[],[-],,[56%],[N/A],[1019 hPa],[19.0 °C],[5:00 PM],[-],[SE],"[24.1 km/h
		/ 6.7 m/s]",METAR VHHH 040900Z 13013KT CAVOK 19/10 Q1019 NOSIG
0,[Clear],1997-3-4,[10.0 °C],[],[-],,[56%],[N/A],[1020 hPa],[19.0 °C],[6:00 PM],[-],[East],"[18.5 km/h
		/ 5.1 m/s]",METAR VHHH 041000Z 10010KT CAVOK 19/10 Q1020 NOSIG
0,[Clear],1997-3-4,[11.0 °C],[],[-],,[64%],[N/A],[1020 hPa],[18.0 °C],[7:00 PM],[-],[East],"[16.7 km/h
		/ 4.6 m/s]",METAR VHHH 041100Z 08009KT CAVOK 18/11 Q1020 NOSIG
0,[Partly Cloudy],1997-3-4,[11.0 °C],[],[-],,[64%],[N/A],[1021 hPa],[18.0 °C],[8:00 PM],[10.0 km],[East],"[18.5 km/h
		/ 5.1 m/s]",METAR VHHH 041200Z 08010KT 040V110 9999 FEW020 18/11 Q1021 NOSIG
0,[Partly Cloudy],1997-3-4,[12.0 °C],[],[-],,[68%],[N/A],[1021 hPa],[18.0 °C],[9:00 PM],[10.0 km],[East],"[13.0 km/h
		/ 3.6 m/s]",METAR VHHH 041300Z 09007KT 060V130 9999 FEW020 18/12 Q1021 NOSIG
0,[Partly Cloudy],1997-3-4,[13.0 °C],[],[-],,[77%],[N/A],[1022 hPa],[17.0 °C],[10:00 PM],[10.0 km],[East],"[13.0 km/h
		/ 3.6 m/s]",METAR VHHH 041400Z 10007KT 040V140 9999 FEW020 17/13 Q1022 NOSIG
0,[Partly Cloudy],1997-3-4,[14.0 °C],[],[-],,[77%],[N/A],[1022 hPa],[18.0 °C],[11:00 PM],[10.0 km],[East],"[9.3 km/h
		/ 2.6 m/s]",METAR VHHH 041500Z 10005KT 040V130 9999 FEW018 18/14 Q1022 NOSIG
0,[Mostly Cloudy],1997-3-5,[14.0 °C],[],[-],,[77%],[N/A],[1022 hPa],[18.0 °C],[12:00 AM],[10.0 km],[East],"[14.8 km/h
		/ 4.1 m/s]",METAR VHHH 041600Z 09008KT 020V190 9999 FEW016 BKN040 18/14 Q1022 NOSIG
0,[Mostly Cloudy],1997-3-5,[15.0 °C],[],[-],,[88%],[N/A],[1021 hPa],[17.0 °C],[1:00 AM],[10.0 km],[East],"[13.0 km/h
		/ 3.6 m/s]",METAR VHHH 041700Z 08007KT 030V150 9999 SCT016 BKN035 17/15 Q1021 NOSIG
0,[Mostly Cloudy],1997-3-5,[14.0 °C],[],[-],,[77%],[N/A],[1021 hPa],[18.0 °C],[2:00 AM],[10.0 km],[East],"[18.5 km/h
		/ 5.1 m/s]",METAR VHHH 041800Z 08010KT 020V130 9999 FEW017 BKN035 18/14 Q1021 NOSIG
0,[Mostly Cloudy],1997-3-5,[14.0 °C],[],[-],,[82%],[N/A],[1021 hPa],[17.0 °C],[3:00 AM],[9.0 km],[East],"[14.8 km/h
		/ 4.1 m/s]",METAR VHHH 041900Z 10008KT 050V190 9000 SCT017 BKN040 17/14 Q1021 NOSIG
0,[Scattered Clouds],1997-3-5,[11.0 °C],[],[-],,[68%],[N/A],[1021 hPa],[17.0 °C],[4:00 AM],[10.0 km],[East],"[18.5 km/h
		/ 5.1 m/s]",METAR VHHH 042000Z 10010KT 060V050 9999 FEW017 SCT040 17/11 Q1021 NOSIG
0,[Mostly Cloudy],1997-3-5,[11.0 °C],[],[-],,[68%],[N/A],[1021 hPa],[17.0 °C],[5:00 AM],[10.0 km],[East],"[18.5 km/h
		/ 5.1 m/s]",METAR VHHH 042100Z 08010KT 040V140 9999 FEW017 BKN040 17/11 Q1021 NOSIG
0,[Mostly Cloudy],1997-3-5,[12.0 °C],[],[-],,[72%],[N/A],[1021 hPa],[17.0 °C],[6:00 AM],[10.0 km],[ESE],"[18.5 km/h
		/ 5.1 m/s]",METAR VHHH 042200Z 11010KT 070V140 9999 FEW017 BKN040 17/12 Q1021 NOSIG
0,[Scattered Clouds],1997-3-5,[11.0 °C],[],[-],,[68%],[N/A],[1021 hPa],[17.0 °C],[7:00 AM],[9.0 km],[East],"[18.5 km/h
		/ 5.1 m/s]",METAR VHHH 042300Z 09010KT 9000 SCT035 SCT050 17/11 Q1021 NOSIG
0,[Mostly Cloudy],1997-3-5,[11.0 °C],[],[-],,[68%],[N/A],[1022 hPa],[17.0 °C],[8:00 AM],[9.0 km],[East],"[18.5 km/h
		/ 5.1 m/s]",METAR VHHH 050000Z 09010KT 060V120 9000 FEW022 BKN050 17/11 Q1022 NOSIG
0,[Mostly Cloudy],1997-3-5,[11.0 °C],[],[-],,[64%],[N/A],[1022 hPa],[18.0 °C],[9:00 AM],[9.0 km],[East],"[20.4 km/h
		/ 5.7 m/s]",METAR VHHH 050100Z 09011KT 060V130 9000 FEW020 BKN080 18/11 Q1022 NOSIG
0,[Mostly Cloudy],1997-3-5,[10.0 °C],[],[-],,[52%],[N/A],[1022 hPa],[20.0 °C],[10:00 AM],[9.0 km],[East],"[18.5 km/h
		/ 5.1 m/s]",METAR VHHH 050200Z 10010KT 050V140 9000 FEW025 BKN080 20/10 Q1022 NOSIG
0,[Scattered Clouds],1997-3-5,[11.0 °C],[],[-],,[53%],[N/A],[1022 hPa],[21.0 °C],[11:00 AM],[9.0 km],[East],"[25.9 km/h
		/ 7.2 m/s]",METAR VHHH 050300Z 08014KT 060V120 9000 FEW025 SCT080 21/11 Q1022 NOSIG
0,[Clear],1997-3-5,[11.0 °C],[],[-],,[50%],[N/A],[1021 hPa],[22.0 °C],[12:00 PM],[8.0 km],[East],"[18.5 km/h
		/ 5.1 m/s]",METAR VHHH 050400Z 09010KT 040V130 8000 SKC 22/11 Q1021 NOSIG
0,[Partly Cloudy],1997-3-5,[10.0 °C],[],[-],,[46%],[N/A],[1020 hPa],[22.0 °C],[1:00 PM],[9.0 km],[East],"[11.1 km/h
		/ 3.1 m/s]",METAR VHHH 050500Z 08006KT 360V150 9000 FEW025 22/10 Q1020 NOSIG
0,[Partly Cloudy],1997-3-5,[11.0 °C],[],[-],,[50%],[N/A],[1019 hPa],[22.0 °C],[2:00 PM],[10.0 km],[ESE],"[18.5 km/h
		/ 5.1 m/s]",METAR VHHH 050600Z 11010KT 050V150 9999 FEW025 22/11 Q1019 NOSIG
0,[Clear],1997-3-5,[12.0 °C],[],[-],,[56%],[N/A],[1018 hPa],[21.0 °C],[3:00 PM],[-],[SE],"[24.1 km/h
		/ 6.7 m/s]",METAR VHHH 050700Z 13013KT CAVOK 21/12 Q1018 NOSIG
0,[Partly Cloudy],1997-3-5,[12.0 °C],[],[-],,[56%],[N/A],[1018 hPa],[21.0 °C],[4:00 PM],[10.0 km],[ESE],"[22.2 km/h
		/ 6.2 m/s]",METAR VHHH 050800Z 12012KT 090V150 9999 FEW030 21/12 Q1018 NOSIG
0,[Clear],1997-3-5,[11.0 °C],[],[-],,[53%],[N/A],[1017 hPa],[21.0 °C],[5:00 PM],[-],[East],"[22.2 km/h
		/ 6.2 m/s]",METAR VHHH 050900Z 10012KT CAVOK 21/11 Q1017 NOSIG
0,[Clear],1997-3-5,[11.0 °C],[],[-],,[56%],[N/A],[1017 hPa],[20.0 °C],[6:00 PM],[-],[East],"[20.4 km/h
		/ 5.7 m/s]",METAR VHHH 051000Z 10011KT CAVOK 20/11 Q1017 NOSIG
0,[Clear],1997-3-5,[10.0 °C],[],[-],,[56%],[N/A],[1018 hPa],[19.0 °C],[7:00 PM],[-],[ESE],"[16.7 km/h
		/ 4.6 m/s]",METAR VHHH 051100Z 12009KT 080V140 CAVOK 19/10 Q1018 NOSIG
0,[Partly Cloudy],1997-3-5,[11.0 °C],[],[-],,[60%],[N/A],[1018 hPa],[19.0 °C],[8:00 PM],[10.0 km],[East],"[14.8 km/h
		/ 4.1 m/s]",METAR VHHH 051200Z 09008KT 070V140 9999 FEW030 19/11 Q1018 NOSIG
0,[Clear],1997-3-5,[11.0 °C],[],[-],,[60%],[N/A],[1019 hPa],[19.0 °C],[9:00 PM],[-],[ESE],"[11.1 km/h
		/ 3.1 m/s]",METAR VHHH 051300Z 11006KT 070V170 CAVOK 19/11 Q1019 NOSIG
0,[Clear],1997-3-5,[12.0 °C],[],[-],,[64%],[N/A],[1019 hPa],[19.0 °C],[10:00 PM],[-],[ESE],"[9.3 km/h
		/ 2.6 m/s]",METAR VHHH 051400Z 11005KT CAVOK 19/12 Q1019 NOSIG
0,[Partly Cloudy],1997-3-5,[12.0 °C],[],[-],,[64%],[N/A],[1019 hPa],[19.0 °C],[11:00 PM],[10.0 km],[ESE],"[11.1 km/h
		/ 3.1 m/s]",METAR VHHH 051500Z 11006KT 080V160 9999 FEW025 19/12 Q1019 NOSIG
0,[Partly Cloudy],1997-3-6,[13.0 °C],[],[-],,[68%],[N/A],[1019 hPa],[19.0 °C],[12:00 AM],[10.0 km],[ESE],"[11.1 km/h
		/ 3.1 m/s]",METAR VHHH 051600Z 12006KT 090V170 9999 FEW025 19/13 Q1019 NOSIG
0,[Clear],1997-3-6,[13.0 °C],[],[-],,[77%],[N/A],[1020 hPa],[17.0 °C],[1:00 AM],[-],[SE],"[11.1 km/h
		/ 3.1 m/s]",METAR VHHH 051700Z 14006KT CAVOK 17/13 Q1020 NOSIG
0,[Partly Cloudy],1997-3-6,[13.0 °C],[],[-],,[73%],[N/A],[1020 hPa],[18.0 °C],[2:00 AM],[10.0 km],[SE],"[14.8 km/h
		/ 4.1 m/s]",METAR VHHH 051800Z 14008KT 9999 FEW018 18/13 Q1020 NOSIG
0,[Partly Cloudy],1997-3-6,[12.0 °C],[],[-],,[64%],[N/A],[1019 hPa],[19.0 °C],[3:00 AM],[10.0 km],[ENE],"[14.8 km/h
		/ 4.1 m/s]",METAR VHHH 051900Z 06008KT 020V090 9999 FEW018 19/12 Q1019 NOSIG
0,[Mostly Cloudy],1997-3-6,[14.0 °C],[],[-],,[77%],[N/A],[1019 hPa],[18.0 °C],[4:00 AM],[10.0 km],[SSE],"[7.4 km/h
		/ 2.1 m/s]",METAR VHHH 052000Z 15004KT 080V190 9999 BKN080 18/14 Q1019 NOSIG
0,[Clear],1997-3-6,[14.0 °C],[],[-],,[82%],[N/A],[1019 hPa],[17.0 °C],[5:00 AM],[-],[SE],"[11.1 km/h
		/ 3.1 m/s]",METAR VHHH 052100Z 14006KT CAVOK 17/14 Q1019 NOSIG
0,[Scattered Clouds],1997-3-6,[13.0 °C],[],[-],,[77%],[N/A],[1020 hPa],[17.0 °C],[7:00 AM],[10.0 km],[ESE],"[9.3 km/h
		/ 2.6 m/s]",METAR VHHH 052300Z 11005KT 9999 FEW016 SCT080 17/13 Q1020 NOSIG
0,[Partly Cloudy],1997-3-6,[14.0 °C],[],[-],,[68%],[N/A],[1020 hPa],[20.0 °C],[8:00 AM],[10.0 km],[SE],"[11.1 km/h
		/ 3.1 m/s]",METAR VHHH 060000Z 13006KT 080V140 9999 FEW016 20/14 Q1020 NOSIG
0,[Partly Cloudy],1997-3-6,[15.0 °C],[],[-],,[68%],[N/A],[1020 hPa],[21.0 °C],[9:00 AM],[10.0 km],[SE],"[13.0 km/h
		/ 3.6 m/s]",METAR VHHH 060100Z 14007KT 090V170 9999 FEW016 21/15 Q1020 NOSIG
0,[Partly Cloudy],1997-3-6,[16.0 °C],[],[-],,[65%],[N/A],[1021 hPa],[23.0 °C],[10:00 AM],[10.0 km],[East],"[13.0 km/h
		/ 3.6 m/s]",METAR VHHH 060200Z 10007KT 050V140 9999 FEW020 23/16 Q1021 NOSIG
0,[Partly Cloudy],1997-3-6,[17.0 °C],[],[-],,[65%],[N/A],[1020 hPa],[24.0 °C],[11:00 AM],[10.0 km],[SSE],"[14.8 km/h
		/ 4.1 m/s]",METAR VHHH 060300Z 15008KT 120V190 9999 FEW025 24/17 Q1020 NOSIG
0,[Partly Cloudy],1997-3-6,[16.0 °C],[],[-],,[61%],[N/A],[1019 hPa],[24.0 °C],[12:00 PM],[10.0 km],[SSE],"[22.2 km/h
		/ 6.2 m/s]",METAR VHHH 060400Z 15012KT 120V200 9999 FEW025 24/16 Q1019 NOSIG
0,[Partly Cloudy],1997-3-6,[16.0 °C],[],[-],,[57%],[N/A],[1018 hPa],[25.0 °C],[1:00 PM],[10.0 km],[SE],"[16.7 km/h
		/ 4.6 m/s]",METAR VHHH 060500Z 14009KT 120V180 9999 FEW025 25/16 Q1018 NOSIG
0,[Partly Cloudy],1997-3-6,[15.0 °C],[],[-],,[54%],[N/A],[1018 hPa],[25.0 °C],[2:00 PM],[10.0 km],[SE],"[22.2 km/h
		/ 6.2 m/s]",METAR VHHH 060600Z 13012KT 9999 FEW025 25/15 Q1018 NOSIG
0,[Partly Cloudy],1997-3-6,[14.0 °C],[],[-],,[47%],[N/A],[1017 hPa],[26.0 °C],[3:00 PM],[10.0 km],[SE],"[20.4 km/h
		/ 5.7 m/s]",METAR VHHH 060700Z 13011KT 9999 FEW025 26/14 Q1017 NOSIG
0,[Partly Cloudy],1997-3-6,[16.0 °C],[],[-],,[61%],[N/A],[1016 hPa],[24.0 °C],[4:00 PM],[10.0 km],[SE],"[27.8 km/h
		/ 7.7 m/s]",METAR VHHH 060800Z 14015KT 9999 FEW025 24/16 Q1016 NOSIG
0,[Partly Cloudy],1997-3-6,[16.0 °C],[],[-],,[65%],[N/A],[1016 hPa],[23.0 °C],[5:00 PM],[10.0 km],[SE],"[18.5 km/h
		/ 5.1 m/s]",METAR VHHH 060900Z 13010KT 9999 FEW030 23/16 Q1016 NOSIG
0,[Clear],1997-3-6,[17.0 °C],[],[-],,[73%],[N/A],[1016 hPa],[22.0 °C],[6:00 PM],[-],[ESE],"[16.7 km/h
		/ 4.6 m/s]",METAR VHHH 061000Z 11009KT CAVOK 22/17 Q1016 NOSIG
0,[Clear],1997-3-6,[17.0 °C],[],[-],,[83%],[N/A],[1017 hPa],[20.0 °C],[7:00 PM],[-],[SE],"[16.7 km/h
		/ 4.6 m/s]",METAR VHHH 061100Z 14009KT CAVOK 20/17 Q1017 NOSIG
0,[Clear],1997-3-6,[16.0 °C],[],[-],,[73%],[N/A],[1017 hPa],[21.0 °C],[8:00 PM],[-],[SE],"[13.0 km/h
		/ 3.6 m/s]",METAR VHHH 061200Z 13007KT CAVOK 21/16 Q1017 NOSIG
0,[Clear],1997-3-6,[17.0 °C],[],[-],,[78%],[N/A],[1018 hPa],[21.0 °C],[9:00 PM],[-],[SE],"[11.1 km/h
		/ 3.1 m/s]",METAR VHHH 061300Z 14006KT CAVOK 21/17 Q1018 NOSIG
0,[Clear],1997-3-6,[17.0 °C],[],[-],,[78%],[N/A],[1019 hPa],[21.0 °C],[10:00 PM],[-],[SE],"[9.3 km/h
		/ 2.6 m/s]",METAR VHHH 061400Z 14005KT CAVOK 21/17 Q1019 NOSIG
0,[Clear],1997-3-6,[17.0 °C],[],[-],,[83%],[N/A],[1019 hPa],[20.0 °C],[11:00 PM],[-],[SE],"[7.4 km/h
		/ 2.1 m/s]",METAR VHHH 061500Z 14004KT CAVOK 20/17 Q1019 NOSIG
0,[Clear],1997-3-7,[17.0 °C],[],[-],,[88%],[N/A],[1019 hPa],[19.0 °C],[12:00 AM],[9.0 km],[SE],"[11.1 km/h
		/ 3.1 m/s]",METAR VHHH 061600Z 13006KT 9000 SKC 19/17 Q1019 NOSIG
0,[Partly Cloudy],1997-3-7,[17.0 °C],[],[-],,[88%],[N/A],[1019 hPa],[19.0 °C],[1:00 AM],[9.0 km],[SE],"[11.1 km/h
		/ 3.1 m/s]",METAR VHHH 061700Z 14006KT 100V160 9000 FEW015 19/17 Q1019 NOSIG
0,[Scattered Clouds],1997-3-7,[17.0 °C],[],[-],,[88%],[N/A],[1019 hPa],[19.0 °C],[2:00 AM],[8.0 km],[SE],"[13.0 km/h
		/ 3.6 m/s]",METAR VHHH 061800Z 13007KT 8000 FEW008 SCT015 19/17 Q1019 NOSIG
0,[Partly Cloudy],1997-3-7,[17.0 °C],[],[-],,[94%],[N/A],[1019 hPa],[18.0 °C],[3:00 AM],[7.0 km],[SE],"[13.0 km/h
		/ 3.6 m/s]",METAR VHHH 061900Z 14007KT 7000 FEW008 18/17 Q1019 NOSIG
0,[Scattered Clouds],1997-3-7,[17.0 °C],[],[-],,[94%],[N/A],[1018 hPa],[18.0 °C],[4:00 AM],[6.0 km],[ESE],"[11.1 km/h
		/ 3.1 m/s]",METAR VHHH 062000Z 12006KT 6000 FEW006 SCT015 18/17 Q1018 NOSIG
0,[Scattered Clouds],1997-3-7,[17.0 °C],[],[-],,[94%],[N/A],[1018 hPa],[18.0 °C],[5:00 AM],[6.0 km],[East],"[1.9 km/h
		/ 0.5 m/s]",METAR VHHH 062100Z 10001KT 070V130 6000 FEW006 SCT015 18/17 Q1018 NOSIG
0,[Partly Cloudy],1997-3-7,[17.0 °C],[],[-],,[94%],[N/A],[1019 hPa],[18.0 °C],[6:00 AM],[6.0 km],[SE],"[1.9 km/h
		/ 0.5 m/s]",METAR VHHH 062200Z 13001KT 6000 FEW007 18/17 Q1019 TEMPO 4500 BR
0,[Scattered Clouds],1997-3-7,[17.0 °C],[],[-],,[94%],[N/A],[1019 hPa],[18.0 °C],[7:00 AM],[-],[SE],"[9.3 km/h
		/ 2.6 m/s]",METAR VHHH 062300Z 13005KT 4800 BR FEW015 SCT020 18/17 Q1019 TEMPO 4500 BR
0,[Scattered Clouds],1997-3-7,[18.0 °C],[],[-],,[88%],[N/A],[1020 hPa],[20.0 °C],[8:00 AM],[5.0 km],[ENE],"[9.3 km/h
		/ 2.6 m/s]",METAR VHHH 070000Z 07005KT 5000 FEW006 SCT012 20/18 Q1020 TEMPO 4500 BR
0,[Partly Cloudy],1997-3-7,[17.0 °C],[],[-],,[78%],[N/A],[1021 hPa],[21.0 °C],[9:00 AM],[7.0 km],[East],"[11.1 km/h
		/ 3.1 m/s]",METAR VHHH 070100Z 10006KT 070V150 7000 FEW010 21/17 Q1021 NOSIG
0,[Partly Cloudy],1997-3-7,[17.0 °C],[],[-],,[73%],[N/A],[1021 hPa],[22.0 °C],[10:00 AM],[8.0 km],[East],"[9.3 km/h
		/ 2.6 m/s]",METAR VHHH 070200Z 10005KT 070V140 8000 FEW010 22/17 Q1021 NOSIG
0,[Partly Cloudy],1997-3-7,[18.0 °C],[],[-],,[73%],[N/A],[1021 hPa],[23.0 °C],[11:00 AM],[8.0 km],[SSE],"[18.5 km/h
		/ 5.1 m/s]",METAR VHHH 070300Z 15010KT 8000 FEW018 23/18 Q1021 NOSIG
0,[Partly Cloudy],1997-3-7,[18.0 °C],[],[-],,[65%],[N/A],[1020 hPa],[25.0 °C],[12:00 PM],[10.0 km],[SE],"[20.4 km/h
		/ 5.7 m/s]",METAR VHHH 070400Z 14011KT 120V180 9999 FEW025 25/18 Q1020 NOSIG
0,[Partly Cloudy],1997-3-7,[17.0 °C],[],[-],,[61%],[N/A],[1019 hPa],[25.0 °C],[1:00 PM],[10.0 km],[SE],"[22.2 km/h
		/ 6.2 m/s]",METAR VHHH 070500Z 14012KT 9999 FEW022 25/17 Q1019 NOSIG
0,[Partly Cloudy],1997-3-7,[17.0 °C],[],[-],,[57%],[N/A],[1018 hPa],[26.0 °C],[2:00 PM],[10.0 km],[SE],"[29.6 km/h
		/ 8.2 m/s]",METAR VHHH 070600Z 14016KT 9999 FEW022 26/17 Q1018 NOSIG
0,[Partly Cloudy],1997-3-7,[16.0 °C],[],[-],,[57%],[N/A],[1017 hPa],[25.0 °C],[3:00 PM],[10.0 km],[SE],"[24.1 km/h
		/ 6.7 m/s]",METAR VHHH 070700Z 14013KT 9999 FEW022 25/16 Q1017 NOSIG
0,[Partly Cloudy],1997-3-7,[16.0 °C],[],[-],,[57%],[N/A],[1017 hPa],[25.0 °C],[4:00 PM],[10.0 km],[SE],"[24.1 km/h
		/ 6.7 m/s]",METAR VHHH 070800Z 14013KT 9999 FEW022 25/16 Q1017 NOSIG
0,[Clear],1997-3-7,[16.0 °C],[],[-],,[61%],[N/A],[1017 hPa],[24.0 °C],[5:00 PM],[-],[SE],"[22.2 km/h
		/ 6.2 m/s]",METAR VHHH 070900Z 13012KT CAVOK 24/16 Q1017 NOSIG
0,[Clear],1997-3-7,[16.0 °C],[],[-],,[69%],[N/A],[1018 hPa],[22.0 °C],[6:00 PM],[-],[ESE],"[20.4 km/h
		/ 5.7 m/s]",METAR VHHH 071000Z 12011KT CAVOK 22/16 Q1018 NOSIG
0,[Clear],1997-3-7,[15.0 °C],[],[-],,[64%],[N/A],[1018 hPa],[22.0 °C],[7:00 PM],[-],[ESE],"[14.8 km/h
		/ 4.1 m/s]",METAR VHHH 071100Z 12008KT CAVOK 22/15 Q1018 NOSIG
0,[Clear],1997-3-7,[16.0 °C],[],[-],,[69%],[N/A],[1018 hPa],[22.0 °C],[8:00 PM],[-],[SE],"[13.0 km/h
		/ 3.6 m/s]",METAR VHHH 071200Z 14007KT 120V190 CAVOK 22/16 Q1018 NOSIG
0,[Clear],1997-3-7,[16.0 °C],[],[-],,[73%],[N/A],[1019 hPa],[21.0 °C],[9:00 PM],[-],[SE],"[9.3 km/h
		/ 2.6 m/s]",METAR VHHH 071300Z 14005KT CAVOK 21/16 Q1019 NOSIG
0,[Clear],1997-3-7,[16.0 °C],[],[-],,[73%],[N/A],[1019 hPa],[21.0 °C],[10:00 PM],[-],[SE],"[9.3 km/h
		/ 2.6 m/s]",METAR VHHH 071400Z 13005KT CAVOK 21/16 Q1019 NOSIG
0,[Clear],1997-3-7,[16.0 °C],[],[-],,[69%],[N/A],[1019 hPa],[22.0 °C],[11:00 PM],[-],[SE],"[9.3 km/h
		/ 2.6 m/s]",METAR VHHH 071500Z 14005KT CAVOK 22/16 Q1019 NOSIG
0,[Clear],1997-3-8,[16.0 °C],[],[-],,[73%],[N/A],[1019 hPa],[21.0 °C],[12:00 AM],[-],[SE],"[7.4 km/h
		/ 2.1 m/s]",METAR VHHH 071600Z 13004KT CAVOK 21/16 Q1019 NOSIG
0,[Clear],1997-3-8,[17.0 °C],[],[-],,[83%],[N/A],[1019 hPa],[20.0 °C],[1:00 AM],[-],[SSE],"[9.3 km/h
		/ 2.6 m/s]",METAR VHHH 071700Z 15005KT CAVOK 20/17 Q1019 NOSIG
0,[Clear],1997-3-8,[17.0 °C],[],[-],,[88%],[N/A],[1018 hPa],[19.0 °C],[2:00 AM],[-],[SE],"[7.4 km/h
		/ 2.1 m/s]",METAR VHHH 071800Z 14004KT CAVOK 19/17 Q1018 NOSIG
0,[Clear],1997-3-8,[17.0 °C],[],[-],,[88%],[N/A],[1017 hPa],[19.0 °C],[3:00 AM],[-],[SE],"[11.1 km/h
		/ 3.1 m/s]",METAR VHHH 071900Z 14006KT CAVOK 19/17 Q1017 NOSIG
0,[Clear],1997-3-8,[17.0 °C],[],[-],,[88%],[N/A],[1017 hPa],[19.0 °C],[4:00 AM],[-],[SE],"[11.1 km/h
		/ 3.1 m/s]",METAR VHHH 072000Z 13006KT CAVOK 19/17 Q1017 NOSIG
0,[Partly Cloudy],1997-3-8,[17.0 °C],[],[-],,[88%],[N/A],[1017 hPa],[19.0 °C],[5:00 AM],[10.0 km],[SE],"[13.0 km/h
		/ 3.6 m/s]",METAR VHHH 072100Z 14007KT 9999 FEW014 19/17 Q1017 NOSIG
0,[Scattered Clouds],1997-3-8,[17.0 °C],[],[-],,[88%],[N/A],[1018 hPa],[19.0 °C],[6:00 AM],[10.0 km],[SE],"[14.8 km/h
		/ 4.1 m/s]",METAR VHHH 072200Z 14008KT 9999 FEW014 SCT025 19/17 Q1018 NOSIG
0,[Scattered Clouds],1997-3-8,[18.0 °C],[],[-],,[88%],[N/A],[1019 hPa],[20.0 °C],[7:00 AM],[10.0 km],[ESE],"[7.4 km/h
		/ 2.1 m/s]",METAR VHHH 072300Z 11004KT 070V140 9999 FEW014 SCT020 20/18 Q1019 NOSIG
0,[Partly Cloudy],1997-3-8,[18.0 °C],[],[-],,[83%],[N/A],[1020 hPa],[21.0 °C],[8:00 AM],[9.0 km],[ESE],"[11.1 km/h
		/ 3.1 m/s]",METAR VHHH 080000Z 11006KT 050V160 9000 FEW012 21/18 Q1020 NOSIG
0,[Scattered Clouds],1997-3-8,[18.0 °C],[],[-],,[78%],[N/A],[1020 hPa],[22.0 °C],[9:00 AM],[9.0 km],[SE],"[7.4 km/h
		/ 2.1 m/s]",METAR VHHH 080100Z 14004KT 060V200 9000 FEW013 SCT020 22/18 Q1020 NOSIG
0,[Scattered Clouds],1997-3-8,[18.0 °C],[],[-],,[69%],[N/A],[1021 hPa],[24.0 °C],[10:00 AM],[10.0 km],[ENE],"[13.0 km/h
		/ 3.6 m/s]",METAR VHHH 080200Z 06007KT 350V130 9999 FEW016 SCT020 24/18 Q1021 NOSIG
0,[Scattered Clouds],1997-3-8,[17.0 °C],[],[-],,[57%],[N/A],[1021 hPa],[26.0 °C],[11:00 AM],[10.0 km],[East],"[14.8 km/h
		/ 4.1 m/s]",METAR VHHH 080300Z 09008KT 050V150 9999 FEW018 SCT025 26/17 Q1021 NOSIG
0,[Scattered Clouds],1997-3-8,[17.0 °C],[],[-],,[57%],[N/A],[1020 hPa],[26.0 °C],[12:00 PM],[10.0 km],[ENE],"[16.7 km/h
		/ 4.6 m/s]",METAR VHHH 080400Z 06009KT 340V130 9999 SCT020 SCT080 26/17 Q1020 NOSIG
0,[Mostly Cloudy],1997-3-8,[16.0 °C],[],[-],,[54%],[N/A],[1019 hPa],[26.0 °C],[1:00 PM],[10.0 km],[East],"[20.4 km/h
		/ 5.7 m/s]",METAR VHHH 080500Z 09011KT 030V110 9999 SCT022 BKN080 26/16 Q1019 NOSIG
0,[Scattered Clouds],1997-3-8,[17.0 °C],[],[-],,[57%],[N/A],[1018 hPa],[26.0 °C],[2:00 PM],[10.0 km],[SE],"[13.0 km/h
		/ 3.6 m/s]",METAR VHHH 080600Z 13007KT 070V170 9999 FEW020 SCT030 26/17 Q1018 NOSIG
0,[Scattered Clouds],1997-3-8,[17.0 °C],[],[-],,[61%],[N/A],[1018 hPa],[25.0 °C],[3:00 PM],[10.0 km],[SE],"[18.5 km/h
		/ 5.1 m/s]",METAR VHHH 080700Z 14010KT 110V180 9999 FEW020 SCT030 25/17 Q1018 NOSIG
0,[Partly Cloudy],1997-3-8,[17.0 °C],[],[-],,[61%],[N/A],[1017 hPa],[25.0 °C],[4:00 PM],[10.0 km],[SE],"[14.8 km/h
		/ 4.1 m/s]",METAR VHHH 080800Z 14008KT 090V190 9999 FEW020 25/17 Q1017 NOSIG
0,[Partly Cloudy],1997-3-8,[17.0 °C],[],[-],,[61%],[N/A],[1017 hPa],[25.0 °C],[5:00 PM],[10.0 km],[SE],"[18.5 km/h
		/ 5.1 m/s]",METAR VHHH 080900Z 14010KT 090V170 9999 FEW020 25/17 Q1017 NOSIG
0,[Partly Cloudy],1997-3-8,[18.0 °C],[],[-],,[73%],[N/A],[1018 hPa],[23.0 °C],[6:00 PM],[10.0 km],[East],"[16.7 km/h
		/ 4.6 m/s]",METAR VHHH 081000Z 10009KT 060V150 9999 FEW014 23/18 Q1018 NSOIG
0,[Partly Cloudy],1997-3-8,[18.0 °C],[],[-],,[78%],[N/A],[1018 hPa],[22.0 °C],[7:00 PM],[10.0 km],[East],"[20.4 km/h
		/ 5.7 m/s]",METAR VHHH 081100Z 09011KT 050V140 9999 FEW010 22/18 Q1018 NOSIG
0,[Scattered Clouds],1997-3-8,[18.0 °C],[],[-],,[83%],[N/A],[1018 hPa],[21.0 °C],[8:00 PM],[10.0 km],[East],"[18.5 km/h
		/ 5.1 m/s]",METAR VHHH 081200Z 10010KT 060V140 9999 FEW007 SCT015 21/18 Q1018 NOSIG
0,[Scattered Clouds],1997-3-8,[18.0 °C],[],[-],,[83%],[N/A],[1019 hPa],[21.0 °C],[9:00 PM],[10.0 km],[East],"[16.7 km/h
		/ 4.6 m/s]",METAR VHHH 081300Z 08009KT 040V130 9999 FEW010 SCT015 21/18 Q1019 NOSIG
0,[Scattered Clouds],1997-3-8,[18.0 °C],[],[-],,[83%],[N/A],[1019 hPa],[21.0 °C],[10:00 PM],[10.0 km],[East],"[20.4 km/h
		/ 5.7 m/s]",METAR VHHH 081400Z 08011KT 040V130 9999 FEW009 SCT015 21/18 Q1019 NOSIG
0,[Scattered Clouds],1997-3-8,[18.0 °C],[],[-],,[83%],[N/A],[1019 hPa],[21.0 °C],[11:00 PM],[10.0 km],[East],"[22.2 km/h
		/ 6.2 m/s]",METAR VHHH 081500Z 08012KT 030V120 9999 FEW008 SCT015 21/18 Q1019 NOSIG
0,[Scattered Clouds],1997-3-9,[18.0 °C],[],[-],,[83%],[N/A],[1019 hPa],[21.0 °C],[12:00 AM],[10.0 km],[East],"[14.8 km/h
		/ 4.1 m/s]",METAR VHHH 081600Z 10008KT 060V150 9999 FEW008 SCT015 21/18 Q1019 NOSIG
0,[Scattered Clouds],1997-3-9,[18.0 °C],[],[-],,[88%],[N/A],[1019 hPa],[20.0 °C],[1:00 AM],[9.0 km],[ESE],"[13.0 km/h
		/ 3.6 m/s]",METAR VHHH 081700Z 11007KT 040V150 9000 FEW008 SCT016 20/18 Q1019 NOSIG
0,[Mostly Cloudy],1997-3-9,[18.0 °C],[],[-],,[88%],[N/A],[1018 hPa],[20.0 °C],[2:00 AM],[8.0 km],[East],"[14.8 km/h
		/ 4.1 m/s]",METAR VHHH 081800Z 10008KT 020V150 8000 FEW007 BKN016 20/18 Q1018 NOSIG
0,[Scattered Clouds],1997-3-9,[18.0 °C],[],[-],,[88%],[N/A],[1018 hPa],[20.0 °C],[3:00 AM],[9.0 km],[East],"[18.5 km/h
		/ 5.1 m/s]",METAR VHHH 081900Z 09010KT 050V120 9000 FEW007 SCT016 20/18 Q1018 NOSIG
0,[Scattered Clouds],1997-3-9,[17.0 °C],[],[-],,[83%],[N/A],[1018 hPa],[20.0 °C],[4:00 AM],[9.0 km],[East],"[18.5 km/h
		/ 5.1 m/s]",METAR VHHH 082000Z 08010KT 020V100 9000 FEW007 SCT015 20/17 Q1018 NOSIG
0,[Scattered Clouds],1997-3-9,[17.0 °C],[],[-],,[83%],[N/A],[1018 hPa],[20.0 °C],[5:00 AM],[9.0 km],[East],"[18.5 km/h
		/ 5.1 m/s]",METAR VHHH 082100Z 08010KT 020V120 9000 FEW009 SCT015 20/17 Q1018 NOSIG
0,[Scattered Clouds],1997-3-9,[17.0 °C],[],[-],,[88%],[N/A],[1018 hPa],[19.0 °C],[6:00 AM],[9.0 km],[East],"[18.5 km/h
		/ 5.1 m/s]",METAR VHHH 082200Z 09010KT 040V110 9000 FEW007 SCT015 19/17 Q1018 NOSIG
0,[Mostly Cloudy],1997-3-9,[17.0 °C],[],[-],,[88%],[N/A],[1019 hPa],[19.0 °C],[7:00 AM],[-],[East],"[20.4 km/h
		/ 5.7 m/s]",METAR VHHH 082300Z 08011KT 040V100 4800 BR FEW007 SCT015 BKN080 19/17 Q1019 TEMPO 4500 BR
0,[Mostly Cloudy],1997-3-9,[16.0 °C],[],"[37.0 km/h
		/ 10.3 m/s]",,[78%],[N/A],[1020 hPa],[20.0 °C],[8:00 AM],[7.0 km],[ENE],"[18.5 km/h
		/ 5.1 m/s]",METAR VHHH 090000Z 07010G20KT 340V110 7000 FEW008 SCT014 BKN100 20/16 Q1020 NOSIG
0,[Mostly Cloudy],1997-3-9,[16.0 °C],[],[-],,[78%],[N/A],[1020 hPa],[20.0 °C],[9:00 AM],[7.0 km],[East],"[13.0 km/h
		/ 3.6 m/s]",METAR VHHH 090100Z 10007KT 050V150 7000 FEW008 SCT014 BKN080 20/16 Q1020 NOSIG
0,[Mostly Cloudy],1997-3-9,[16.0 °C],[],[-],,[73%],[N/A],[1021 hPa],[21.0 °C],[10:00 AM],[7.0 km],[East],"[16.7 km/h
		/ 4.6 m/s]",METAR VHHH 090200Z 09009KT 020V130 7000 FEW009 SCT014 BKN080 21/16 Q1021 NOSIG
0,[Mostly Cloudy],1997-3-9,[16.0 °C],[],[-],,[73%],[N/A],[1021 hPa],[21.0 °C],[11:00 AM],[7.0 km],[East],"[18.5 km/h
		/ 5.1 m/s]",METAR VHHH 090300Z 08010KT 020V130 7000 FEW012 SCT016 BKN080 21/16 Q1021 NOSIG
0,[Scattered Clouds],1997-3-9,[16.0 °C],[],[-],,[69%],[N/A],[1020 hPa],[22.0 °C],[12:00 PM],[6.0 km],[East],"[20.4 km/h
		/ 5.7 m/s]",METAR VHHH 090400Z 08011KT 020V120 6000 FEW008 SCT016 22/16 Q1020 NOSIG
0,[Mostly Cloudy],1997-3-9,[17.0 °C],[],[-],,[78%],[N/A],[1019 hPa],[21.0 °C],[1:00 PM],[8.0 km],[East],"[22.2 km/h
		/ 6.2 m/s]",METAR VHHH 090500Z 09012KT 060V140 8000 FEW010 BKN020 21/17 Q1019 NOSIG
0,[Scattered Clouds],1997-3-9,[17.0 °C],[],[-],,[73%],[N/A],[1018 hPa],[22.0 °C],[2:00 PM],[8.0 km],[East],"[13.0 km/h
		/ 3.6 m/s]",METAR VHHH 090600Z 08007KT 040V130 8000 FEW010 SCT015 22/17 Q1018 NOSIG
0,[Partly Cloudy],1997-3-9,[17.0 °C],[],"[31.5 km/h
		/ 8.7 m/s]",,[69%],[N/A],[1017 hPa],[23.0 °C],[3:00 PM],[9.0 km],[East],"[13.0 km/h
		/ 3.6 m/s]",METAR VHHH 090700Z 10007G17KT 040V160 9000 FEW015 23/17 Q1017 NOSIG
0,[Partly Cloudy],1997-3-9,[16.0 °C],[],[-],,[65%],[N/A],[1017 hPa],[23.0 °C],[4:00 PM],[10.0 km],[ESE],"[14.8 km/h
		/ 4.1 m/s]",METAR VHHH 090800Z 11008KT 060V150 9999 FEW025 23/16 Q1017 NOSIG
0,[Clear],1997-3-9,[16.0 °C],[],[-],,[78%],[N/A],[1017 hPa],[20.0 °C],[6:00 PM],[9.0 km],[SE],"[24.1 km/h
		/ 6.7 m/s]",METAR VHHH 091000Z 14013KT 9000 SKC 20/16 Q1017 NOSIG
0,[Clear],1997-3-9,[16.0 °C],[],[-],,[73%],[N/A],[1017 hPa],[21.0 °C],[7:00 PM],[9.0 km],[East],"[20.4 km/h
		/ 5.7 m/s]",METAR VHHH 091100Z 10011KT 080V140 9000 SKC 21/16 Q1017 NOSIG
0,[Scattered Clouds],1997-3-9,[16.0 °C],[],[-],,[78%],[N/A],[1017 hPa],[20.0 °C],[8:00 PM],[9.0 km],[East],"[18.5 km/h
		/ 5.1 m/s]",METAR VHHH 091200Z 08010KT 9000 FEW009 SCT030 20/16 Q1017 NOSIG
0,[Scattered Clouds],1997-3-9,[17.0 °C],[],[-],,[83%],[N/A],[1018 hPa],[20.0 °C],[9:00 PM],[9.0 km],[East],"[13.0 km/h
		/ 3.6 m/s]",METAR VHHH 091300Z 10007KT 060V150 9000 FEW007 SCT014 20/17 Q1018 NOSIG
0,[Scattered Clouds],1997-3-9,[18.0 °C],[],[-],,[83%],[N/A],[1018 hPa],[21.0 °C],[10:00 PM],[9.0 km],[East],"[13.0 km/h
		/ 3.6 m/s]",METAR VHHH 091400Z 08007KT 060V120 9000 FEW007 SCT013 21/18 Q1018 NOSIG
0,[Scattered Clouds],1997-3-9,[18.0 °C],[],[-],,[83%],[N/A],[1018 hPa],[21.0 °C],[11:00 PM],[8.0 km],[ENE],"[18.5 km/h
		/ 5.1 m/s]",METAR VHHH 091500Z 07010KT 030V110 8000 FEW007 SCT013 21/18 Q1018 NOSIG
0,[Scattered Clouds],1997-3-10,[18.0 °C],[],[-],,[83%],[N/A],[1018 hPa],[21.0 °C],[12:00 AM],[8.0 km],[East],"[18.5 km/h
		/ 5.1 m/s]",METAR VHHH 091600Z 08010KT 050V110 8000 FEW007 SCT013 21/18 Q1018 NOSIG
0,[Scattered Clouds],1997-3-10,[19.0 °C],[],[-],,[88%],[N/A],[1018 hPa],[21.0 °C],[1:00 AM],[8.0 km],[ENE],"[16.7 km/h
		/ 4.6 m/s]",METAR VHHH 091700Z 07009KT 030V110 8000 FEW007 SCT013 21/19 Q1018 NOSIG
0,[Scattered Clouds],1997-3-10,[19.0 °C],[],[-],,[88%],[N/A],[1018 hPa],[21.0 °C],[2:00 AM],[6.0 km],[ENE],"[7.4 km/h
		/ 2.1 m/s]",METAR VHHH 091800Z 07004KT 330V140 6000 FEW006 SCT013 21/19 Q1018 TEMPO 4000 BR
0,[Scattered Clouds],1997-3-10,[19.0 °C],[],[-],,[94%],[N/A],[1018 hPa],[20.0 °C],[3:00 AM],[7.0 km],[South],"[7.4 km/h
		/ 2.1 m/s]",METAR VHHH 091900Z 18004KT 7000 FEW006 SCT013 20/19 Q1018 TEMPO 4000 BR
0,[Scattered Clouds],1997-3-10,[19.0 °C],[],[-],,[94%],[N/A],[1017 hPa],[20.0 °C],[4:00 AM],[7.0 km],[SSE],"[7.4 km/h
		/ 2.1 m/s]",METAR VHHH 092000Z 15004KT 7000 FEW007 SCT014 20/19 Q1017 TEMPO 4000 BR
0,[Mostly Cloudy],1997-3-10,[19.0 °C],[],[-],,[94%],[N/A],[1017 hPa],[20.0 °C],[5:00 AM],[7.0 km],[South],"[7.4 km/h
		/ 2.1 m/s]",METAR VHHH 092100Z 19004KT 160V240 7000 FEW008 BKN015 20/19 Q1017 TEMPO 4000 BR
0,[Scattered Clouds],1997-3-10,[19.0 °C],[],[-],,[94%],[N/A],[1018 hPa],[20.0 °C],[6:00 AM],[8.0 km],[SE],"[11.1 km/h
		/ 3.1 m/s]",METAR VHHH 092200Z 14006KT 090V180 8000 FEW008 SCT017 20/19 Q1018 TEMPO 4000 BR
0,[Mostly Cloudy],1997-3-10,[19.0 °C],[],[-],,[88%],[N/A],[1019 hPa],[21.0 °C],[7:00 AM],[8.0 km],[South],"[9.3 km/h
		/ 2.6 m/s]",METAR VHHH 092300Z 17005KT 100V230 8000 FEW007 BKN017 21/19 Q1019 TEMPO 4000 BR
0,[Scattered Clouds],1997-3-10,[18.0 °C],[],[-],,[78%],[N/A],[1019 hPa],[22.0 °C],[8:00 AM],[8.0 km],[ENE],"[9.3 km/h
		/ 2.6 m/s]",METAR VHHH 100000Z 07005KT 040V140 8000 FEW010 SCT016 22/18 Q1019 NOSIG
0,[Scattered Clouds],1997-3-10,[18.0 °C],[],[-],,[73%],[N/A],[1020 hPa],[23.0 °C],[9:00 AM],[9.0 km],[East],"[11.1 km/h
		/ 3.1 m/s]",METAR VHHH 100100Z 08006KT 050V110 9000 FEW013 SCT018 23/18 Q1020 NOSIG
0,[Scattered Clouds],1997-3-10,[18.0 °C],[],[-],,[69%],[N/A],[1020 hPa],[24.0 °C],[10:00 AM],[10.0 km],[East],"[13.0 km/h
		/ 3.6 m/s]",METAR VHHH 100200Z 09007KT 030V140 9999 FEW016 SCT022 24/18 Q1020 NOSIG
0,[Scattered Clouds],1997-3-10,[18.0 °C],[],[-],,[61%],[N/A],[1020 hPa],[26.0 °C],[11:00 AM],[10.0 km],[ESE],"[11.1 km/h
		/ 3.1 m/s]",METAR VHHH 100300Z 12006KT 060V200 9999 FEW018 SCT025 26/18 Q1020 NOSIG
0,[Scattered Clouds],1997-3-10,[17.0 °C],[],[-],,[61%],[N/A],[1019 hPa],[25.0 °C],[12:00 PM],[10.0 km],[ENE],"[11.1 km/h
		/ 3.1 m/s]",METAR VHHH 100400Z 07006KT 020V130 9999 FEW020 SCT025 25/17 Q1019 NOSIG
0,[Scattered Clouds],1997-3-10,[17.0 °C],[],[-],,[57%],[N/A],[1018 hPa],[26.0 °C],[1:00 PM],[10.0 km],[SE],"[16.7 km/h
		/ 4.6 m/s]",METAR VHHH 100500Z 13009KT 050V170 9999 FEW020 SCT025 26/17 Q1018 NOSIG
0,[Partly Cloudy],1997-3-10,[18.0 °C],[],[-],,[61%],[N/A],[1017 hPa],[26.0 °C],[2:00 PM],[10.0 km],[SE],"[16.7 km/h
		/ 4.6 m/s]",METAR VHHH 100600Z 14009KT 100V200 9999 FEW020 26/18 Q1017 NOSIG
0,[Partly Cloudy],1997-3-10,[18.0 °C],[],[-],,[61%],[N/A],[1017 hPa],[26.0 °C],[3:00 PM],[10.0 km],[SE],"[22.2 km/h
		/ 6.2 m/s]",METAR VHHH 100700Z 14012KT 100V170 9999 FEW020 26/18 Q1017 NOSIG
0,[Partly Cloudy],1997-3-10,[18.0 °C],[],[-],,[69%],[N/A],[1016 hPa],[24.0 °C],[4:00 PM],[10.0 km],[ESE],"[16.7 km/h
		/ 4.6 m/s]",METAR VHHH 100800Z 11009KT 050V160 9999 FEW020 24/18 Q1016 NOSIG
0,[Partly Cloudy],1997-3-10,[17.0 °C],[],[-],,[61%],[N/A],[1016 hPa],[25.0 °C],[5:00 PM],[10.0 km],[ENE],"[13.0 km/h
		/ 3.6 m/s]",METAR VHHH 100900Z 06007KT 020V100 9999 FEW025 25/17 Q1016 NOSIG
0,[Clear],1997-3-10,[17.0 °C],[],[-],,[65%],[N/A],[1016 hPa],[24.0 °C],[6:00 PM],[-],[SE],"[18.5 km/h
		/ 5.1 m/s]",METAR VHHH 101000Z 13010KT CAVOK 24/17 Q1016 NOSIG
0,[Clear],1997-3-10,[17.0 °C],[],[-],,[69%],[N/A],[1016 hPa],[23.0 °C],[7:00 PM],[-],[SE],"[11.1 km/h
		/ 3.1 m/s]",METAR VHHH 101100Z 13006KT 080V160 CAVOK 23/17 Q1016 NOSIG
0,[Clear],1997-3-10,[18.0 °C],[],[-],,[73%],[N/A],[1017 hPa],[23.0 °C],[8:00 PM],[-],[SE],"[14.8 km/h
		/ 4.1 m/s]",METAR VHHH 101200Z 14008KT 110V210 CAVOK 23/18 Q1017 NOSIG
0,[Partly Cloudy],1997-3-10,[18.0 °C],[],[-],,[73%],[N/A],[1018 hPa],[23.0 °C],[9:00 PM],[10.0 km],[SE],"[16.7 km/h
		/ 4.6 m/s]",METAR VHHH 101300Z 13009KT 9999 FEW020 23/18 Q1018 NOSIG
0,[Partly Cloudy],1997-3-10,[18.0 °C],[],[-],,[83%],[N/A],[1018 hPa],[21.0 °C],[10:00 PM],[10.0 km],[SE],"[16.7 km/h
		/ 4.6 m/s]",METAR VHHH 101400Z 14009KT 100V160 9999 FEW018 21/18 Q1018 NOSIG
0,[Partly Cloudy],1997-3-10,[18.0 °C],[],[-],,[83%],[N/A],[1018 hPa],[21.0 °C],[11:00 PM],[10.0 km],[SE],"[13.0 km/h
		/ 3.6 m/s]",METAR VHHH 101500Z 14007KT 9999 FEW018 21/18 Q1018 NOSIG
0,[Scattered Clouds],1997-3-11,[18.0 °C],[],[-],,[78%],[N/A],[1018 hPa],[22.0 °C],[12:00 AM],[10.0 km],[SE],"[11.1 km/h
		/ 3.1 m/s]",METAR VHHH 101600Z 13006KT 9999 FEW015 SCT030 22/18 Q1018 NOSIG
0,[Mostly Cloudy],1997-3-11,[19.0 °C],[],[-],,[88%],[N/A],[1018 hPa],[21.0 °C],[1:00 AM],[8.0 km],[East],"[7.4 km/h
		/ 2.1 m/s]",METAR VHHH 101700Z 09004KT 060V120 8000 FEW007 SCT014 BKN030 21/19 Q1018 NOSIG
0,[Scattered Clouds],1997-3-11,[19.0 °C],[],[-],,[83%],[N/A],[1017 hPa],[22.0 °C],[2:00 AM],[8.0 km],[East],"[9.3 km/h
		/ 2.6 m/s]",METAR VHHH 101800Z 08005KT 030V120 8000 FEW007 SCT014 22/19 Q1017 NOSIG
0,[Scattered Clouds],1997-3-11,[19.0 °C],[],[-],,[88%],[N/A],[1017 hPa],[21.0 °C],[3:00 AM],[8.0 km],[East],"[13.0 km/h
		/ 3.6 m/s]",METAR VHHH 101900Z 08007KT 060V120 8000 FEW008 SCT020 21/19 Q1017 NOSIG
0,[Scattered Clouds],1997-3-11,[19.0 °C],[],[-],,[88%],[N/A],[1017 hPa],[21.0 °C],[4:00 AM],[8.0 km],[ENE],"[9.3 km/h
		/ 2.6 m/s]",METAR VHHH 102000Z 06005KT 270V090 8000 FEW009 SCT020 21/19 Q1017 NOSIG
0,[Scattered Clouds],1997-3-11,[19.0 °C],[],[-],,[88%],[N/A],[1017 hPa],[21.0 °C],[5:00 AM],[8.0 km],[East],"[9.3 km/h
		/ 2.6 m/s]",METAR VHHH 102100Z 08005KT 8000 FEW009 SCT020 21/19 Q1017 NOSIG
0,[Partly Cloudy],1997-3-11,[18.0 °C],[],[-],,[83%],[N/A],[1017 hPa],[21.0 °C],[6:00 AM],[8.0 km],[ENE],"[11.1 km/h
		/ 3.1 m/s]",METAR VHHH 102200Z 07006KT 8000 FEW010 21/18 Q1017 NOSIG
0,[Scattered Clouds],1997-3-11,[18.0 °C],[],[-],,[78%],[N/A],[1017 hPa],[22.0 °C],[7:00 AM],[8.0 km],[East],"[9.3 km/h
		/ 2.6 m/s]",METAR VHHH 102300Z 09005KT 050V130 8000 FEW090 SCT100 22/18 Q1017 NOSIG
0,[Scattered Clouds],1997-3-11,[19.0 °C],[],[-],,[83%],[N/A],[1018 hPa],[22.0 °C],[8:00 AM],[6.0 km],[East],"[13.0 km/h
		/ 3.6 m/s]",METAR VHHH 110000Z 08007KT 050V110 6000 FEW008 SCT020 22/19 Q1018 NOSIG
0,[Scattered Clouds],1997-3-11,[18.0 °C],[],[-],,[73%],[N/A],[1019 hPa],[23.0 °C],[9:00 AM],[6.0 km],[East],"[11.1 km/h
		/ 3.1 m/s]",METAR VHHH 110100Z 09006KT 040V120 6000 FEW008 SCT016 23/18 Q1019 NOSIG
0,[Scattered Clouds],1997-3-11,[19.0 °C],[],[-],,[73%],[N/A],[1019 hPa],[24.0 °C],[10:00 AM],[9.0 km],[East],"[16.7 km/h
		/ 4.6 m/s]",METAR VHHH 110200Z 08009KT 010V130 9000 FEW013 SCT020 24/19 Q1019 NOSIG
0,[Scattered Clouds],1997-3-11,[18.0 °C],[],[-],,[69%],[N/A],[1019 hPa],[24.0 °C],[11:00 AM],[10.0 km],[East],"[13.0 km/h
		/ 3.6 m/s]",METAR VHHH 110300Z 09007KT 030V150 9999 FEW017 SCT025 24/18 Q1019 NOSIG
0,[Scattered Clouds],1997-3-11,[18.0 °C],[],[-],,[65%],[N/A],[1018 hPa],[25.0 °C],[12:00 PM],[10.0 km],[ESE],"[13.0 km/h
		/ 3.6 m/s]",METAR VHHH 110400Z 12007KT 060V170 9999 FEW016 SCT025 25/18 Q1018 NOSIG
0,[Scattered Clouds],1997-3-11,[18.0 °C],[],[-],,[69%],[N/A],[1017 hPa],[24.0 °C],[1:00 PM],[10.0 km],[SSE],"[20.4 km/h
		/ 5.7 m/s]",METAR VHHH 110500Z 15011KT 9999 FEW022 SCT025 24/18 Q1017 NOSIG
0,[Scattered Clouds],1997-3-11,[18.0 °C],[],[-],,[65%],[N/A],[1016 hPa],[25.0 °C],[2:00 PM],[10.0 km],[SSE],"[20.4 km/h
		/ 5.7 m/s]",METAR VHHH 110600Z 16011KT 9999 FEW022 SCT025 25/18 Q1016 NOSIG
0,[Scattered Clouds],1997-3-11,[19.0 °C],[],[-],,[65%],[N/A],[1015 hPa],[26.0 °C],[3:00 PM],[10.0 km],[SE],"[20.4 km/h
		/ 5.7 m/s]",METAR VHHH 110700Z 14011KT 120V210 9999 FEW022 SCT025 26/19 Q1015 NOSIG
0,[Scattered Clouds],1997-3-11,[19.0 °C],[],[-],,[69%],[N/A],[1015 hPa],[25.0 °C],[4:00 PM],[10.0 km],[SSE],"[18.5 km/h
		/ 5.1 m/s]",METAR VHHH 110800Z 15010KT 130V190 9999 SCT025 25/19 Q1015 NOSIG
0,[Partly Cloudy],1997-3-11,[19.0 °C],[],[-],,[73%],[N/A],[1015 hPa],[24.0 °C],[5:00 PM],[10.0 km],[SSE],"[16.7 km/h
		/ 4.6 m/s]",METAR VHHH 110900Z 15009KT 110V190 9999 FEW017 24/19 Q1015 NOSIG
0,[Partly Cloudy],1997-3-11,[19.0 °C],[],[-],,[83%],[N/A],[1015 hPa],[22.0 °C],[6:00 PM],[10.0 km],[SSE],"[18.5 km/h
		/ 5.1 m/s]",METAR VHHH 111000Z 15010KT 9999 FEW016 22/19 Q1015 NOSIG
0,[Partly Cloudy],1997-3-11,[18.0 °C],[],[-],,[78%],[N/A],[1015 hPa],[22.0 °C],[7:00 PM],[10.0 km],[SSE],"[14.8 km/h
		/ 4.1 m/s]",METAR VHHH 111100Z 16008KT 9999 FEW015 22/18 Q1015 NOSIG
0,[Scattered Clouds],1997-3-11,[19.0 °C],[],[-],,[78%],[N/A],[1015 hPa],[23.0 °C],[8:00 PM],[10.0 km],[SSE],"[9.3 km/h
		/ 2.6 m/s]",METAR VHHH 111200Z 16005KT 100V200 9999 FEW014 SCT025 23/19 Q1015 NOSIG
0,[Scattered Clouds],1997-3-11,[19.0 °C],[],[-],,[83%],[N/A],[1016 hPa],[22.0 °C],[9:00 PM],[10.0 km],[SSE],"[13.0 km/h
		/ 3.6 m/s]",METAR VHHH 111300Z 15007KT 120V180 9999 FEW010 SCT025 22/19 Q1016 NOSIG
0,[Scattered Clouds],1997-3-11,[19.0 °C],[],[-],,[88%],[N/A],[1016 hPa],[21.0 °C],[10:00 PM],[10.0 km],[SSE],"[13.0 km/h
		/ 3.6 m/s]",METAR VHHH 111400Z 16007KT 120V220 9999 FEW008 SCT025 21/19 Q1016 NOSIG
0,[Scattered Clouds],1997-3-11,[19.0 °C],[],[-],,[88%],[N/A],[1016 hPa],[21.0 °C],[11:00 PM],[6.0 km],[SE],"[9.3 km/h
		/ 2.6 m/s]",METAR VHHH 111500Z 14005KT 6000 FEW006 SCT014 21/19 Q1016 NOSIG
0,[Scattered Clouds],1997-3-12,[19.0 °C],[],[-],,[88%],[N/A],[1016 hPa],[21.0 °C],[12:00 AM],[-],[SSE],"[7.4 km/h
		/ 2.1 m/s]",METAR VHHH 111600Z 15004KT 120V220 3800 BR FEW006 SCT014 21/19 Q1016 TEMPO 3000 BR
0,[Patches of Fog],1997-3-12,[20.0 °C],[Fog],[-],,[100%],[N/A],[1015 hPa],[20.0 °C],[1:00 AM],[1.4 km],[South],"[9.3 km/h
		/ 2.6 m/s]",METAR VHHH 111700Z 17005KT 1400 R31/1300VP2000U R13/P2000N BCFG FEW006 SCT012 20/20 Q1015 TEMPO 3000 BR
0,[Patches of Fog],1997-3-12,[20.0 °C],[Fog],[-],,[100%],[N/A],[1015 hPa],[20.0 °C],[2:00 AM],[1.6 km],[SSE],"[11.1 km/h
		/ 3.1 m/s]",METAR VHHH 111800Z 16006KT 1600 R31/0700 R13/1900N BCFG FEW006 SCT012 20/20 Q1015 TEMPO 3000 BR
0,[Fog],1997-3-12,[20.0 °C],[Fog],[-],,[100%],[N/A],[1014 hPa],[20.0 °C],[3:00 AM],[0.9 km],[SSE],"[13.0 km/h
		/ 3.6 m/s]",METAR VHHH 111900Z 16007KT 0900 R31/1200 R13/1600U FG FEW006 SCT012 20/20 Q1014 TEMPO 3000 BR
0,[Fog],1997-3-12,[19.0 °C],[Fog],[-],,[94%],[N/A],[1014 hPa],[20.0 °C],[4:00 AM],[0.9 km],[SE],"[9.3 km/h
		/ 2.6 m/s]",METAR VHHH 112000Z 14005KT 090V190 0900 R31/0900 R13/0800 FG FEW006 SCT012 20/19 Q1014 TEMPO 1500 BCFG
0,[Patches of Fog],1997-3-12,[19.0 °C],[Fog],[-],,[94%],[N/A],[1014 hPa],[20.0 °C],[5:00 AM],[3.0 km],[SSE],"[9.3 km/h
		/ 2.6 m/s]",METAR VHHH 112100Z 15005KT 3000 R31/1000VP2000U R13/P2000N BCFG FEW006 SCT012 20/19 Q1014 TEMPO 900M
0,[Patches of Fog],1997-3-12,[19.0 °C],[Fog],[-],,[94%],[N/A],[1015 hPa],[20.0 °C],[6:00 AM],[2.0 km],[SE],"[11.1 km/h
		/ 3.1 m/s]",METAR VHHH 112200Z 14006KT 2000 BCFG FEW006 SCT012 20/19 Q1015 TEMPO 900 BCFG
0,[Patches of Fog],1997-3-12,[19.0 °C],[Fog],[-],,[94%],[N/A],[1015 hPa],[20.0 °C],[7:00 AM],[2.5 km],[ESE],"[9.3 km/h
		/ 2.6 m/s]",METAR VHHH 112300Z 11005KT 2500 BCFG FEW006 SCT012 20/19 Q1015 TEMPO 900M BCFG
0,[Scattered Clouds],1997-3-12,[20.0 °C],[],[-],,[94%],[N/A],[1016 hPa],[21.0 °C],[8:00 AM],[4.0 km],[SSE],"[11.1 km/h
		/ 3.1 m/s]",METAR VHHH 120000Z 15006KT 4000 BR FEW006 SCT014 21/20 Q1016 TEMPO 1500 BCFG
0,[Patches of Fog],1997-3-12,[20.0 °C],[Fog],[-],,[94%],[N/A],[1016 hPa],[21.0 °C],[9:00 AM],[2.2 km],[SSE],"[14.8 km/h
		/ 4.1 m/s]",METAR VHHH 120100Z 16008KT 130V210 2200SE R31/1000 R13/1100 BCFG FEW004 BKN014 21/20 Q1016 TEMPO 1500 BCFG
0,[Patches of Fog],1997-3-12,[20.0 °C],[Fog],[-],,[94%],[N/A],[1017 hPa],[21.0 °C],[10:00 AM],[2.5 km],[SSE],"[14.8 km/h
		/ 4.1 m/s]",METAR VHHH 120200Z 15008KT 2500SE R31/1200VP2000U R13/0900V1500N BCFG SCT004 SCT014 21/20 Q1017 TEMPO 1500 BCFG
0,[Scattered Clouds],1997-3-12,[20.0 °C],[],[-],,[83%],[N/A],[1017 hPa],[23.0 °C],[11:00 AM],[-],[SSE],"[13.0 km/h
		/ 3.6 m/s]",METAR VHHH 120300Z 15007KT 3200 BR FEW005 SCT014 23/20 Q1017 TEMPO 2800 BR
0,[Scattered Clouds],1997-3-12,[20.0 °C],[],[-],,[74%],[N/A],[1016 hPa],[25.0 °C],[12:00 PM],[4.0 km],[SSE],"[14.8 km/h
		/ 4.1 m/s]",METAR VHHH 120400Z 15008KT 4000SE BR FEW006 SCT016 25/20 Q1016 TEMPO 2800 BR
0,[Scattered Clouds],1997-3-12,[20.0 °C],[],[-],,[74%],[N/A],[1015 hPa],[25.0 °C],[1:00 PM],[7.0 km],[SSE],"[18.5 km/h
		/ 5.1 m/s]",METAR VHHH 120500Z 15010KT 120V190 7000 FEW008 SCT016 25/20 Q1015 TEMPO 2800 BR
0,[Scattered Clouds],1997-3-12,[20.0 °C],[],[-],,[74%],[N/A],[1014 hPa],[25.0 °C],[2:00 PM],[8.0 km],[SE],"[22.2 km/h
		/ 6.2 m/s]",METAR VHHH 120600Z 14012KT 8000 FEW007 SCT016 25/20 Q1014 NOSIG
0,[Scattered Clouds],1997-3-12,[20.0 °C],[],[-],,[74%],[N/A],[1013 hPa],[25.0 °C],[3:00 PM],[10.0 km],[SE],"[22.2 km/h
		/ 6.2 m/s]",METAR VHHH 120700Z 14012KT 9999 FEW008 SCT018 25/20 Q1013 NOSIG
0,[Scattered Clouds],1997-3-12,[20.0 °C],[],[-],,[78%],[N/A],[1012 hPa],[24.0 °C],[4:00 PM],[6.0 km],[SSE],"[18.5 km/h
		/ 5.1 m/s]",METAR VHHH 120800Z 15010KT 100V180 6000 FEW007 SCT080 24/20 Q1012 NOSIG
0,[Mostly Cloudy],1997-3-12,[20.0 °C],[],[-],,[78%],[N/A],[1012 hPa],[24.0 °C],[5:00 PM],[7.0 km],[SSE],"[20.4 km/h
		/ 5.7 m/s]",METAR VHHH 120900Z 15011KT 7000 FEW007 BKN080 24/20 Q1012 NOSIG
0,[Mostly Cloudy],1997-3-12,[20.0 °C],[],[-],,[83%],[N/A],[1012 hPa],[23.0 °C],[6:00 PM],[7.0 km],[SE],"[11.1 km/h
		/ 3.1 m/s]",METAR VHHH 121000Z 13006KT 080V160 7000 FEW006 SCT014 BKN080 23/20 Q1012 TEMPO 4500 BR
0,[Scattered Clouds],1997-3-12,[20.0 °C],[],[-],,[83%],[N/A],[1012 hPa],[23.0 °C],[7:00 PM],[7.0 km],[SSE],"[16.7 km/h
		/ 4.6 m/s]",METAR VHHH 121100Z 15009KT 7000 FEW012 SCT040 23/20 Q1012 TEMPO 4500 BR
0,[Scattered Clouds],1997-3-12,[20.0 °C],[],[-],,[88%],[N/A],[1013 hPa],[22.0 °C],[8:00 PM],[6.0 km],[SSE],"[9.3 km/h
		/ 2.6 m/s]",METAR VHHH 121200Z 16005KT 110V220 6000 FEW012 SCT040 22/20 Q1013 TEMPO 4500 BR
0,[Mostly Cloudy],1997-3-12,[20.0 °C],[],[-],,[88%],[N/A],[1014 hPa],[22.0 °C],[9:00 PM],[-],[SSE],"[14.8 km/h
		/ 4.1 m/s]",METAR VHHH 121300Z 15008KT 4800 BR FEW010 BKN030 22/20 Q1014 TEMPO 4500 BR
0,[Scattered Clouds],1997-3-12,[20.0 °C],[],[-],,[94%],[N/A],[1014 hPa],[21.0 °C],[10:00 PM],[-],[South],"[11.1 km/h
		/ 3.1 m/s]",METAR VHHH 121400Z 17006KT 130V220 3200 R31/0500 R13/1000VP2000U BR FEW010 SCT025 21/20 Q1014 TEMPO 3000 BR
0,[Unknown],1997-3-12,[-],[],[-],,[N/A%],[N/A],[-],[-],[11:00 PM],[2.0 km],[SE],"[9.3 km/h
		/ 2.6 m/s]",METAR VHHH 121500Z 14005KT R31/1400VP2000D R13/P2000N 4200 BR FEW010 BKN025 21/20 Q1014 TEMPO 2000 BR BCFG
0,[Mostly Cloudy],1997-3-13,[20.0 °C],[],[-],[-],[88%],[N/A],[1014 hPa],[22.0 °C],[12:00 AM],[4.5 km],[SE],"[9.3 km/h
		/ 2.6 m/s]",METAR VHHH 121600Z 13005KT 100V170 4500 BR FEW010 BKN025 22/20 Q1014 TEMPO 2000 BR BCFG
0,[Mostly Cloudy],1997-3-13,[20.0 °C],[],[-],[-],[94%],[N/A],[1014 hPa],[21.0 °C],[1:00 AM],[3.0 km],[SSE],"[7.4 km/h
		/ 2.1 m/s]",METAR VHHH 121700Z 15004KT 3000 R31/1800U R13/1700D BR FEW009 BKN025 21/20 Q1014 TEMPO 2000 BR BCFG
0,[Mostly Cloudy],1997-3-13,[21.0 °C],[],[-],[-],[100%],[N/A],[1013 hPa],[21.0 °C],[2:00 AM],[-],[SSE],"[9.3 km/h
		/ 2.6 m/s]",METAR VHHH 121800Z 16005KT 3200 BR FEW007 BKN025 21/21 Q1013 TEMPO 2000 BR BCFG
0,[Mostly Cloudy],1997-3-13,[21.0 °C],[],[-],[-],[100%],[N/A],[1013 hPa],[21.0 °C],[3:00 AM],[6.0 km],[SSE],"[7.4 km/h
		/ 2.1 m/s]",METAR VHHH 121900Z 15004KT 6000 FEW008 BKN025 21/21 Q1013 TEMPO 2000 BR BCFG
0,[Mostly Cloudy],1997-3-13,[21.0 °C],[],[-],[-],[100%],[N/A],[1012 hPa],[21.0 °C],[4:00 AM],[4.5 km],[SSE],"[9.3 km/h
		/ 2.6 m/s]",METAR VHHH 122000Z 16005KT 4500 BR FEW008 BKN025 21/21 Q1012
0,[Mostly Cloudy],1997-3-13,[20.0 °C],[],[-],[-],[94%],[N/A],[1012 hPa],[21.0 °C],[5:00 AM],[4.0 km],[South],"[9.3 km/h
		/ 2.6 m/s]",METAR VHHH 122100Z 17005KT 4000 BR FEW010 BKN025 21/20 Q1012 TEMPO 3000M BR
0,[Mostly Cloudy],1997-3-13,[20.0 °C],[],[-],[-],[94%],[N/A],[1013 hPa],[21.0 °C],[6:00 AM],[4.5 km],[SSE],"[11.1 km/h
		/ 3.1 m/s]",METAR VHHH 122200Z 15006KT 4500 BR FEW009 BKN020 21/20 Q1013 TEMPO 3000M BR
0,[Mostly Cloudy],1997-3-13,[20.0 °C],[],[-],[-],[94%],[N/A],[1014 hPa],[21.0 °C],[7:00 AM],[3.5 km],[SSE],"[11.1 km/h
		/ 3.1 m/s]",METAR VHHH 122300Z 16006KT 120V190 3500 BR FEW006 BKN016 21/20 Q1014 TEMPO 3000M BR
0,[Scattered Clouds],1997-3-13,[20.0 °C],[],[-],[-],[94%],[N/A],[1014 hPa],[21.0 °C],[8:00 AM],[-],[SE],"[11.1 km/h
		/ 3.1 m/s]",METAR VHHH 130000Z 14006KT 3200 BR FEW006 SCT016 21/20 Q1014 TEMPO 1500 BCFG
0,[Scattered Clouds],1997-3-13,[20.0 °C],[],[-],[-],[83%],[N/A],[1015 hPa],[23.0 °C],[9:00 AM],[4.0 km],[SE],"[16.7 km/h
		/ 4.6 m/s]",METAR VHHH 130100Z 13009KT 4000 BR FEW006 SCT016 23/20 Q1015 TEMPO 3000 BR
0,[Scattered Clouds],1997-3-13,[20.0 °C],[],[-],[-],[78%],[N/A],[1015 hPa],[24.0 °C],[10:00 AM],[6.0 km],[SSE],"[16.7 km/h
		/ 4.6 m/s]",METAR VHHH 130200Z 16009KT 130V190 6000 FEW008 SCT080 24/20 Q1015 TEMPO 5000 BR
0,[Scattered Clouds],1997-3-13,[20.0 °C],[],[-],[-],[69%],[N/A],[1015 hPa],[26.0 °C],[11:00 AM],[7.0 km],[SE],"[22.2 km/h
		/ 6.2 m/s]",METAR VHHH 130300Z 14012KT 7000 FEW008 SCT020 26/20 Q1015 NOSIG
0,[Scattered Clouds],1997-3-13,[21.0 °C],[],[-],[-],[74%],[N/A],[1014 hPa],[26.0 °C],[12:00 PM],[10.0 km],[SSE],"[18.5 km/h
		/ 5.1 m/s]",METAR VHHH 130400Z 15010KT 9999 FEW010 SCT020 26/21 Q1014 NOSIG
0,[Scattered Clouds],1997-3-13,[20.0 °C],[],[-],[28.5 °C],[65%],[N/A],[1013 hPa],[27.0 °C],[1:00 PM],[10.0 km],[SE],"[20.4 km/h
		/ 5.7 m/s]",METAR VHHH 130500Z 14011KT 9999 FEW012 SCT025 27/20 Q1013 NOSIG
0,[Scattered Clouds],1997-3-13,[20.0 °C],[],[-],[-],[69%],[N/A],[1011 hPa],[26.0 °C],[3:00 PM],[10.0 km],[SE],"[13.0 km/h
		/ 3.6 m/s]",METAR VHHH 130700Z 14007KT 120V180 9999 FEW016 SCT025 26/20 Q1011 NOSIG
0,[Scattered Clouds],1997-3-13,[19.0 °C],[],[-],[-],[65%],[N/A],[1011 hPa],[26.0 °C],[4:00 PM],[10.0 km],[SE],"[14.8 km/h
		/ 4.1 m/s]",METAR VHHH 130800Z 14008KT 120V180 9999 FEW014 SCT025 26/19 Q1011 NOSIG
0,[Partly Cloudy],1997-3-13,[17.0 °C],[],[-],[-],[61%],[N/A],[1011 hPa],[25.0 °C],[5:00 PM],[10.0 km],[SE],"[13.0 km/h
		/ 3.6 m/s]",METAR VHHH 130900Z 14007KT 9999 FEW012 25/17 Q1011 NOSIG
0,[Partly Cloudy],1997-3-13,[19.0 °C],[],[-],[-],[73%],[N/A],[1011 hPa],[24.0 °C],[6:00 PM],[10.0 km],[SE],"[14.8 km/h
		/ 4.1 m/s]",METAR VHHH 131000Z 13008KT 9999 FEW010 24/19 Q1011 NOSIG
0,[Partly Cloudy],1997-3-13,[19.0 °C],[],[-],[-],[78%],[N/A],[1011 hPa],[23.0 °C],[7:00 PM],[10.0 km],[SE],"[14.8 km/h
		/ 4.1 m/s]",METAR VHHH 131100Z 13008KT 9999 FEW011 23/19 Q1011 NOSIG
0,[Partly Cloudy],1997-3-13,[20.0 °C],[],[-],[-],[83%],[N/A],[1012 hPa],[23.0 °C],[8:00 PM],[10.0 km],[SE],"[9.3 km/h
		/ 2.6 m/s]",METAR VHHH 131200Z 13005KT 9999 FEW011 23/20 Q1012 NOSIG
0,[Partly Cloudy],1997-3-13,[19.0 °C],[],[-],[-],[78%],[N/A],[1012 hPa],[23.0 °C],[9:00 PM],[10.0 km],[SE],"[3.7 km/h
		/ 1.0 m/s]",METAR VHHH 131300Z 13002KT 9999 FEW020 23/19 Q1012 NOSIG
0,[Partly Cloudy],1997-3-13,[19.0 °C],[],[-],[-],[83%],[N/A],[1012 hPa],[22.0 °C],[10:00 PM],[10.0 km],[ESE],"[9.3 km/h
		/ 2.6 m/s]",METAR VHHH 131400Z 11005KT 9999 FEW020 22/19 Q1012 NOSIG
0,[Partly Cloudy],1997-3-13,[20.0 °C],[],[-],[-],[83%],[N/A],[1012 hPa],[23.0 °C],[11:00 PM],[10.0 km],[ESE],"[9.3 km/h
		/ 2.6 m/s]",METAR VHHH 131500Z 12005KT 090V150 9999 FEW020 23/20 Q1012 NOSIG
0,[Mostly Cloudy],1997-3-14,[20.0 °C],[],[-],,[88%],[N/A],[1012 hPa],[22.0 °C],[12:00 AM],[10.0 km],[SE],"[7.4 km/h
		/ 2.1 m/s]",METAR VHHH 131600Z 14004KT 070V170 9999 FEW014 BKN080 22/20 Q1012 NOSIG
0,[Mostly Cloudy],1997-3-14,[20.0 °C],[],[-],,[88%],[N/A],[1012 hPa],[22.0 °C],[1:00 AM],[10.0 km],[Calm],[Calm],METAR VHHH 131700Z 00000KT 9999 FEW014 BKN080 22/20 Q1012 NOSIG
0,[Mostly Cloudy],1997-3-14,[20.0 °C],[],[-],,[88%],[N/A],[1012 hPa],[22.0 °C],[2:00 AM],[10.0 km],[Calm],[Calm],METAR VHHH 131800Z 00000KT 9999 FEW016 BKN080 22/20 Q1012 NOSIG
0,[Mostly Cloudy],1997-3-14,[20.0 °C],[],[-],,[88%],[N/A],[1012 hPa],[22.0 °C],[3:00 AM],[10.0 km],[SSE],"[1.9 km/h
		/ 0.5 m/s]",METAR VHHH 131900Z 15001KT 9999 FEW014 BKN030 22/20 Q1012 NOSIG
0,[Mostly Cloudy],1997-3-14,[20.0 °C],[],[-],,[88%],[N/A],[1012 hPa],[22.0 °C],[4:00 AM],[10.0 km],[SSE],"[7.4 km/h
		/ 2.1 m/s]",METAR VHHH 132000Z 16004KT 9999 FEW013 BKN030 22/20 Q1012 NOSIG
0,[Mostly Cloudy],1997-3-14,[20.0 °C],[],[-],,[94%],[N/A],[1011 hPa],[21.0 °C],[5:00 AM],[10.0 km],[SE],"[11.1 km/h
		/ 3.1 m/s]",METAR VHHH 132100Z 14006KT 9999 FEW013 BKN030 21/20 Q1011 NOSIG
0,[Mostly Cloudy],1997-3-14,[20.0 °C],[],[-],,[94%],[N/A],[1012 hPa],[21.0 °C],[6:00 AM],[10.0 km],[SE],"[7.4 km/h
		/ 2.1 m/s]",METAR VHHH 132200Z 14004KT 9999 FEW015 BKN030 21/20 Q1012 NOSIG
0,[Mostly Cloudy],1997-3-14,[20.0 °C],[],[-],,[94%],[N/A],[1013 hPa],[21.0 °C],[7:00 AM],[9.0 km],[SE],"[9.3 km/h
		/ 2.6 m/s]",METAR VHHH 132300Z 13005KT 9000 FEW010 BKN030 21/20 Q1013 NOSIG
0,[Mostly Cloudy],1997-3-14,[20.0 °C],[],[-],,[88%],[N/A],[1014 hPa],[22.0 °C],[8:00 AM],[8.0 km],[SE],"[16.7 km/h
		/ 4.6 m/s]",METAR VHHH 140000Z 14009KT 8000 FEW010 BKN030 22/20 Q1014 NOSIG
0,[Mostly Cloudy],1997-3-14,[20.0 °C],[],[-],,[83%],[N/A],[1014 hPa],[23.0 °C],[9:00 AM],[8.0 km],[SE],"[14.8 km/h
		/ 4.1 m/s]",METAR VHHH 140100Z 14008KT 8000 FEW010 BKN025 23/20 Q1014 NOSIG
0,[Mostly Cloudy],1997-3-14,[20.0 °C],[],[-],,[74%],[N/A],[1014 hPa],[25.0 °C],[10:00 AM],[8.0 km],[SE],"[16.7 km/h
		/ 4.6 m/s]",METAR VHHH 140200Z 14009KT 8000 FEW009 SCT025 BKN080 25/20 Q1014 NOSIG
0,[Mostly Cloudy],1997-3-14,[20.0 °C],[],[-],,[78%],[N/A],[1014 hPa],[24.0 °C],[11:00 AM],[9.0 km],[SE],"[14.8 km/h
		/ 4.1 m/s]",METAR VHHH 140300Z 14008KT 9000 FEW010 SCT018 BKN080 24/20 Q1014 NOSIG
0,[Mostly Cloudy],1997-3-14,[21.0 °C],[],[-],,[78%],[N/A],[1013 hPa],[25.0 °C],[12:00 PM],[10.0 km],[SE],"[18.5 km/h
		/ 5.1 m/s]",METAR VHHH 140400Z 13010KT 9999 FEW014 SCT020 BKN080 25/21 Q1013 NOSIG
0,[Scattered Clouds],1997-3-14,[20.0 °C],[],[-],,[69%],[N/A],[1013 hPa],[26.0 °C],[1:00 PM],[10.0 km],[SE],"[20.4 km/h
		/ 5.7 m/s]",METAR VHHH 140500Z 13011KT 9999 FEW014 SCT020 26/20 Q1013 NOSIG
0,[Scattered Clouds],1997-3-14,[20.0 °C],[],[-],,[69%],[N/A],[1011 hPa],[26.0 °C],[2:00 PM],[10.0 km],[SE],"[22.2 km/h
		/ 6.2 m/s]",METAR VHHH 140600Z 13012KT 9999 FEW013 SCT022 26/20 Q1011 NOSIG
0,[Scattered Clouds],1997-3-14,[21.0 °C],[],[-],,[74%],[N/A],[1011 hPa],[26.0 °C],[3:00 PM],[10.0 km],[ESE],"[20.4 km/h
		/ 5.7 m/s]",METAR VHHH 140700Z 12011KT 090V150 9999 FEW012 SCT022 26/21 Q1011 NOSIG
0,[Scattered Clouds],1997-3-14,[21.0 °C],[],[-],,[78%],[N/A],[1010 hPa],[25.0 °C],[4:00 PM],[10.0 km],[SE],"[20.4 km/h
		/ 5.7 m/s]",METAR VHHH 140800Z 13011KT 9999 FEW010 SCT022 25/21 Q1010 NOSIG
0,[Scattered Clouds],1997-3-14,[20.0 °C],[],[-],,[74%],[N/A],[1011 hPa],[25.0 °C],[5:00 PM],[10.0 km],[SE],"[18.5 km/h
		/ 5.1 m/s]",METAR VHHH 140900Z 13010KT 9999 FEW010 SCT020 25/20 Q1011 NOSIG
0,[Mostly Cloudy],1997-3-14,[21.0 °C],[],[-],,[83%],[N/A],[1011 hPa],[24.0 °C],[6:00 PM],[10.0 km],[ESE],"[14.8 km/h
		/ 4.1 m/s]",METAR VHHH 141000Z 12008KT 100V160 9999 FEW011 SCT020 BKN100 24/21 Q1011 NOSIG
0,[Mostly Cloudy],1997-3-14,[20.0 °C],[],[-],,[78%],[N/A],[1012 hPa],[24.0 °C],[7:00 PM],[10.0 km],[East],"[7.4 km/h
		/ 2.1 m/s]",METAR VHHH 141100Z 09004KT 080V140 9999 FEW010 SCT018 BKN090 24/20 Q1012 NOSIG
0,[Mostly Cloudy],1997-3-14,[21.0 °C],[],[-],,[83%],[N/A],[1012 hPa],[24.0 °C],[8:00 PM],[10.0 km],[SE],"[13.0 km/h
		/ 3.6 m/s]",METAR VHHH 141200Z 13007KT 9999 FEW010 BKN080 24/21 Q1012 NOSIG
0,[Scattered Clouds],1997-3-14,[20.0 °C],[],[-],,[78%],[N/A],[1013 hPa],[24.0 °C],[9:00 PM],[10.0 km],[SE],"[9.3 km/h
		/ 2.6 m/s]",METAR VHHH 141300Z 13005KT 9999 FEW010 SCT016 24/20 Q1013 NOSIG
0,[Mostly Cloudy],1997-3-14,[20.0 °C],[],[-],,[78%],[N/A],[1014 hPa],[24.0 °C],[10:00 PM],[10.0 km],[SE],"[9.3 km/h
		/ 2.6 m/s]",METAR VHHH 141400Z 13005KT 9999 FEW010 SCT016 BKN035 24/20 Q1014 NOSIG
0,[Scattered Clouds],1997-3-14,[21.0 °C],[],[-],,[83%],[N/A],[1014 hPa],[24.0 °C],[11:00 PM],[10.0 km],[SSE],"[5.6 km/h
		/ 1.5 m/s]",METAR VHHH 141500Z 15003KT 9999 FEW013 SCT020 24/21 Q1014 NOSIG
0,[Scattered Clouds],1997-3-15,[20.0 °C],[],[-],[-],[83%],[N/A],[1014 hPa],[23.0 °C],[12:00 AM],[10.0 km],[ESE],"[3.7 km/h
		/ 1.0 m/s]",METAR VHHH 141600Z 12002KT 9999 FEW015 SCT020 23/20 Q1014 NOSIG
0,[Partly Cloudy],1997-3-15,[20.0 °C],[],[-],[-],[88%],[N/A],[1013 hPa],[22.0 °C],[1:00 AM],[10.0 km],[SE],"[1.9 km/h
		/ 0.5 m/s]",METAR VHHH 141700Z 14001KT 9999 FEW015 22/20 Q1013 NOSIG
0,[Scattered Clouds],1997-3-15,[19.0 °C],[],[-],[-],[88%],[N/A],[1013 hPa],[21.0 °C],[2:00 AM],[10.0 km],[Calm],[Calm],METAR VHHH 141800Z 00000KT 9999 FEW015 SCT080 21/19 Q1013 NOSIG
0,[Scattered Clouds],1997-3-15,[20.0 °C],[],[-],[-],[88%],[N/A],[1013 hPa],[22.0 °C],[3:00 AM],[10.0 km],[SE],"[1.9 km/h
		/ 0.5 m/s]",METAR VHHH 141900Z 14001KT 9999 FEW015 SCT080 22/20 Q1013 NOSIG
0,[Partly Cloudy],1997-3-15,[20.0 °C],[],[-],[-],[94%],[N/A],[1012 hPa],[21.0 °C],[4:00 AM],[10.0 km],[Calm],[Calm],METAR VHHH 142000Z 00000KT 9999 FEW025 21/20 Q1012 NOSIG
0,[Partly Cloudy],1997-3-15,[20.0 °C],[],[-],[-],[88%],[N/A],[1013 hPa],[22.0 °C],[5:00 AM],[10.0 km],[Calm],[Calm],METAR VHHH 142100Z 00000KT 9999 FEW020 22/20 Q1013 NOSIG
0,[Scattered Clouds],1997-3-15,[20.0 °C],[],[-],[-],[94%],[N/A],[1013 hPa],[21.0 °C],[6:00 AM],[10.0 km],[Calm],[Calm],METAR VHHH 142200Z 00000KT 9999 FEW010 SCT300 21/20 Q1013 NOSIG
0,[Scattered Clouds],1997-3-15,[20.0 °C],[],[-],[-],[100%],[N/A],[1014 hPa],[20.0 °C],[7:00 AM],[10.0 km],[Calm],[Calm],METAR VHHH 142300Z 00000KT 9999 FEW014 SCT120 20/20 Q1014 NOSIG
0,[Scattered Clouds],1997-3-15,[20.0 °C],[],[-],[-],[83%],[N/A],[1014 hPa],[23.0 °C],[8:00 AM],[10.0 km],[SE],"[1.9 km/h
		/ 0.5 m/s]",METAR VHHH 150000Z 13001KT 9999 FEW014 SCT080 23/20 Q1014 NOSIG
0,[Scattered Clouds],1997-3-15,[20.0 °C],[],[-],[-],[74%],[N/A],[1015 hPa],[25.0 °C],[9:00 AM],[10.0 km],[East],"[3.7 km/h
		/ 1.0 m/s]",METAR VHHH 150100Z 10002KT 9999 FEW020 SCT300 25/20 Q1015 NOSIG
0,[Scattered Clouds],1997-3-15,[20.0 °C],[],[-],[-],[69%],[N/A],[1015 hPa],[26.0 °C],[10:00 AM],[10.0 km],[ESE],"[9.3 km/h
		/ 2.6 m/s]",METAR VHHH 150200Z 12005KT 090V160 9999 FEW020 SCT300 26/20 Q1015 NOSIG
0,[Scattered Clouds],1997-3-15,[20.0 °C],[],[-],[28.5 °C],[65%],[N/A],[1015 hPa],[27.0 °C],[11:00 AM],[10.0 km],[SE],"[11.1 km/h
		/ 3.1 m/s]",METAR VHHH 150300Z 13006KT 090V150 9999 FEW020 SCT025 27/20 Q1015 NOSIG
0,[Scattered Clouds],1997-3-15,[20.0 °C],[],[-],[28.5 °C],[65%],[N/A],[1015 hPa],[27.0 °C],[12:00 PM],[10.0 km],[East],"[5.6 km/h
		/ 1.5 m/s]",METAR VHHH 150400Z 10003KT 9999 FEW020 SCT025 27/20 Q1015 NOSIG
0,[Scattered Clouds],1997-3-15,[19.0 °C],[],[-],[28.2 °C],[61%],[N/A],[1014 hPa],[27.0 °C],[1:00 PM],[10.0 km],[Variable],"[9.3 km/h
		/ 2.6 m/s]",METAR VHHH 150500Z VRB05KT 130V300 9999 FEW020 SCT025 27/19 Q1014 NOSIG
0,[Scattered Clouds],1997-3-15,[20.0 °C],[],"[42.6 km/h
		/ 11.8 m/s]",[29.7 °C],[62%],[N/A],[1013 hPa],[28.0 °C],[2:00 PM],[10.0 km],[SW],"[14.8 km/h
		/ 4.1 m/s]",METAR VHHH 150600Z 22008G23KT 180V280 9999 FEW020 SCT025 28/20 Q1013 NOSIG
0,[Scattered Clouds],1997-3-15,[20.0 °C],[],[-],[29.7 °C],[62%],[N/A],[1012 hPa],[28.0 °C],[3:00 PM],[10.0 km],[SW],"[13.0 km/h
		/ 3.6 m/s]",METAR VHHH 150700Z 22007KT 190V270 9999 FEW009 SCT025 28/20 Q1012 NOSIG
0,[Scattered Clouds],1997-3-15,[20.0 °C],[],[-],[28.5 °C],[65%],[N/A],[1012 hPa],[27.0 °C],[4:00 PM],[10.0 km],[WSW],"[9.3 km/h
		/ 2.6 m/s]",METAR VHHH 150800Z 24005KT 140V330 9999 FEW018 SCT025 27/20 Q1012 NOSIG
0,[Scattered Clouds],1997-3-15,[20.0 °C],[],[-],[-],[69%],[N/A],[1012 hPa],[26.0 °C],[5:00 PM],[10.0 km],[SW],"[9.3 km/h
		/ 2.6 m/s]",METAR VHHH 150900Z 23005KT 190V360 9999 FEW020 SCT025 26/20 Q1012 NOSIG
0,[Partly Cloudy],1997-3-15,[20.0 °C],[],[-],[-],[69%],[N/A],[1012 hPa],[26.0 °C],[6:00 PM],[10.0 km],[SW],"[11.1 km/h
		/ 3.1 m/s]",METAR VHHH 151000Z 22006KT 9999 FEW025 26/20 Q1012 NOSIG
0,[Partly Cloudy],1997-3-15,[19.0 °C],[],[-],[-],[69%],[N/A],[1013 hPa],[25.0 °C],[7:00 PM],[10.0 km],[SSW],"[9.3 km/h
		/ 2.6 m/s]",METAR VHHH 151100Z 21005KT 180V280 9999 FEW025 25/19 Q1013 NOSIG
0,[Partly Cloudy],1997-3-15,[20.0 °C],[],[-],[-],[74%],[N/A],[1013 hPa],[25.0 °C],[8:00 PM],[10.0 km],[WSW],"[3.7 km/h
		/ 1.0 m/s]",METAR VHHH 151200Z 25002KT 9999 FEW030 25/20 Q1013 NOSIG
0,[Scattered Clouds],1997-3-15,[20.0 °C],[],[-],[-],[74%],[N/A],[1013 hPa],[25.0 °C],[9:00 PM],[10.0 km],[South],"[7.4 km/h
		/ 2.1 m/s]",METAR VHHH 151300Z 17004KT 130V270 9999 FEW030 SCT300 25/20 Q1013 NOSIG
0,[Scattered Clouds],1997-3-15,[19.0 °C],[],[-],[-],[73%],[N/A],[1014 hPa],[24.0 °C],[10:00 PM],[10.0 km],[SE],"[9.3 km/h
		/ 2.6 m/s]",METAR VHHH 151400Z 13005KT 9999 FEW020 SCT030 24/19 Q1014 NOSIG
0,[Partly Cloudy],1997-3-15,[20.0 °C],[],[-],[-],[78%],[N/A],[1014 hPa],[24.0 °C],[11:00 PM],[10.0 km],[SE],"[9.3 km/h
		/ 2.6 m/s]",METAR VHHH 151500Z 13005KT 9999 FEW025 24/20 Q1014 NOSIG
0,[Partly Cloudy],1997-3-16,[20.0 °C],[],[-],,[88%],[N/A],[1014 hPa],[22.0 °C],[12:00 AM],[10.0 km],[SE],"[9.3 km/h
		/ 2.6 m/s]",METAR VHHH 151600Z 13005KT 9999 FEW020 22/20 Q1014 NOSIG
0,[Partly Cloudy],1997-3-16,[20.0 °C],[],[-],,[88%],[N/A],[1015 hPa],[22.0 °C],[1:00 AM],[10.0 km],[SE],"[5.6 km/h
		/ 1.5 m/s]",METAR VHHH 151700Z 13003KT 9999 FEW015 22/20 Q1015 NOSIG
0,[Mostly Cloudy],1997-3-16,[20.0 °C],[],[-],,[88%],[N/A],[1014 hPa],[22.0 °C],[2:00 AM],[9.0 km],[SE],"[7.4 km/h
		/ 2.1 m/s]",METAR VHHH 151800Z 14004KT 9000 FEW008 SCT012 BKN040 22/20 Q1014 NOSIG
0,[Mostly Cloudy],1997-3-16,[21.0 °C],[],[-],,[94%],[N/A],[1014 hPa],[22.0 °C],[3:00 AM],[9.0 km],[SE],"[7.4 km/h
		/ 2.1 m/s]",METAR VHHH 151900Z 13004KT 9000 FEW012 SCT018 BKN080 22/21 Q1014 NOSIG
0,[Scattered Clouds],1997-3-16,[20.0 °C],[],[-],,[94%],[N/A],[1013 hPa],[21.0 °C],[4:00 AM],[9.0 km],[SSE],"[9.3 km/h
		/ 2.6 m/s]",METAR VHHH 152000Z 15005KT 9000 SCT030 21/20 Q1013 NOSIG
0,[Mostly Cloudy],1997-3-16,[20.0 °C],[],[-],,[94%],[N/A],[1013 hPa],[21.0 °C],[5:00 AM],[10.0 km],[SE],"[11.1 km/h
		/ 3.1 m/s]",METAR VHHH 152100Z 13006KT 9999 FEW015 SCT018 BKN025 21/20 Q1013 NOSIG
0,[Mostly Cloudy],1997-3-16,[20.0 °C],[],[-],,[94%],[N/A],[1014 hPa],[21.0 °C],[6:00 AM],[8.0 km],[East],"[9.3 km/h
		/ 2.6 m/s]",METAR VHHH 152200Z 10005KT 8000 FEW012 SCT018 BKN080 21/20 Q1014 NOSIG
0,[Scattered Clouds],1997-3-16,[20.0 °C],[],[-],,[88%],[N/A],[1015 hPa],[22.0 °C],[7:00 AM],[-],[East],"[13.0 km/h
		/ 3.6 m/s]",METAR VHHH 152300Z 08007KT 4800 BR SCT002 SCT014 22/20 Q1015 NOSIG
0,[Mostly Cloudy],1997-3-16,[20.0 °C],[],[-],,[88%],[N/A],[1016 hPa],[22.0 °C],[8:00 AM],[-],[East],"[16.7 km/h
		/ 4.6 m/s]",METAR VHHH 160000Z 08009KT 050V140 4200 BR SCT005 SCT014 BKN120 22/20 Q1016 TEMPO 4000 BR -RA
0,[Mostly Cloudy],1997-3-16,[20.0 °C],[],[-],,[83%],[N/A],[1016 hPa],[23.0 °C],[9:00 AM],[-],[East],"[24.1 km/h
		/ 6.7 m/s]",METAR VHHH 160100Z 08013KT 050V140 3800SE BR SCT006 SCT014 BKN080 23/20 Q1016 TEMPO 4000 BR -RA
0,[Mostly Cloudy],1997-3-16,[19.0 °C],[],[-],,[78%],[N/A],[1017 hPa],[23.0 °C],[10:00 AM],[4.0 km],[East],"[20.4 km/h
		/ 5.7 m/s]",METAR VHHH 160200Z 08011KT 040V130 4000SE BR SCT006 SCT014 BKN080 23/19 Q1017 TEMPO 4000 BR -RA
0,[Mostly Cloudy],1997-3-16,[19.0 °C],[],[-],,[83%],[N/A],[1017 hPa],[22.0 °C],[11:00 AM],[-],[East],"[18.5 km/h
		/ 5.1 m/s]",METAR VHHH 160300Z 08010KT 340V120 4800 BR FEW006 SCT014 BKN080 22/19 Q1017 TEMPO 4000 BR -RA
0,[Mostly Cloudy],1997-3-16,[19.0 °C],[],[-],,[78%],[N/A],[1017 hPa],[23.0 °C],[12:00 PM],[6.0 km],[East],"[20.4 km/h
		/ 5.7 m/s]",METAR VHHH 160400Z 08011KT 020V130 6000 FEW006 SCT014 BKN080 23/19 Q1017 TEMPO 4000 BR -RA
0,[Mostly Cloudy],1997-3-16,[18.0 °C],[],[-],,[78%],[N/A],[1016 hPa],[22.0 °C],[1:00 PM],[8.0 km],[ENE],"[16.7 km/h
		/ 4.6 m/s]",METAR VHHH 160500Z 07009KT 310V140 8000 FEW007 SCT014 BKN080 22/18 Q1016 TEMPO 4000 BR -RA
0,[Mostly Cloudy],1997-3-16,[18.0 °C],[],[-],,[78%],[N/A],[1016 hPa],[22.0 °C],[2:00 PM],[7.0 km],[East],"[13.0 km/h
		/ 3.6 m/s]",METAR VHHH 160600Z 10007KT 030V130 7000 FEW007 SCT016 BKN080 22/18 Q1016 NOSIG
0,[Mostly Cloudy],1997-3-16,[18.0 °C],[],[-],,[78%],[N/A],[1016 hPa],[22.0 °C],[3:00 PM],[8.0 km],[ESE],"[14.8 km/h
		/ 4.1 m/s]",METAR VHHH 160700Z 11008KT 070V150 8000 FEW007 SCT016 BKN080 22/18 Q1016 TEMPO 5000 BR
0,[Mostly Cloudy],1997-3-16,[18.0 °C],[],[-],,[78%],[N/A],[1016 hPa],[22.0 °C],[4:00 PM],[9.0 km],[East],"[11.1 km/h
		/ 3.1 m/s]",METAR VHHH 160800Z 09006KT 9000 FEW007 SCT016 BKN080 22/18 Q1016 TEMPO 4000 -RA
0,[Mostly Cloudy],1997-3-16,[18.0 °C],[],[-],,[83%],[N/A],[1017 hPa],[21.0 °C],[5:00 PM],[10.0 km],[East],"[11.1 km/h
		/ 3.1 m/s]",METAR VHHH 160900Z 08006KT 040V130 9999 FEW008 SCT015 BKN080 21/18 Q1017 WS LDG RWY 13/31 TEMPO VRB15G30KT 3000 TSRA SCT005 FEW012CB BKN040
0,[Light Rain],1997-3-16,[19.0 °C],[Rain],[-],,[88%],[N/A],[1016 hPa],[21.0 °C],[6:00 PM],[7.0 km],[ESE],"[14.8 km/h
		/ 4.1 m/s]",METAR VHHH 161000Z 12008KT 7000 -RA FEW007 SCT012 BKN080 21/19 Q1016 WS LDG RWY 13/31 TEMPO 4000 -RA BR
0,[Mostly Cloudy],1997-3-16,[19.0 °C],[],[-],,[88%],[N/A],[1015 hPa],[21.0 °C],[7:00 PM],[7.0 km],[East],"[22.2 km/h
		/ 6.2 m/s]",METAR VHHH 161100Z 09012KT 7000 FEW006 SCT012 BKN080 21/19 Q1015 TEMPO 4000 -RA
0,[Mostly Cloudy],1997-3-16,[19.0 °C],[],[-],,[88%],[N/A],[1014 hPa],[21.0 °C],[8:00 PM],[7.0 km],[East],"[25.9 km/h
		/ 7.2 m/s]",METAR VHHH 161200Z 08014KT 020V120 7000 FEW006 SCT012 BKN080 21/19 Q1014 WS LDG RWY 13/31 TEMPO 4000 -RA
0,[Light Rain],1997-3-16,[19.0 °C],[Rain],[-],,[88%],[N/A],[1016 hPa],[21.0 °C],[9:00 PM],[7.0 km],[ENE],"[13.0 km/h
		/ 3.6 m/s]",METAR VHHH 161300Z 06007KT 340V150 7000 -RA FEW006 SCT012 BKN080 21/19 Q1016 TEMPO 4000 -RA
0,[Light Rain],1997-3-16,[18.0 °C],[Rain],[-],,[83%],[N/A],[1017 hPa],[21.0 °C],[10:00 PM],[6.0 km],[ENE],"[20.4 km/h
		/ 5.7 m/s]",METAR VHHH 161400Z 07011KT 360V100 6000 -RA FEW006 SCT012 BKN080 21/18 Q1017 TEMPO 4000 -RA
0,[Mostly Cloudy],1997-3-16,[18.0 °C],[],[-],,[83%],[N/A],[1017 hPa],[21.0 °C],[11:00 PM],[7.0 km],[ENE],"[22.2 km/h
		/ 6.2 m/s]",METAR VHHH 161500Z 07012KT 010V120 7000 FEW007 SCT012 BKN080 21/18 Q1017 TEMPO 4000 -RA WS LDG RWY 13/31
0,[Mostly Cloudy],1997-3-17,[17.0 °C],[],[-],,[83%],[N/A],[1018 hPa],[20.0 °C],[12:00 AM],[8.0 km],[East],"[16.7 km/h
		/ 4.6 m/s]",METAR VHHH 161600Z 10009KT 030V150 8000 FEW010 SCT014 BKN080 20/17 Q1018 WS LDG RWY 13/31 NOSIG
0,[Mostly Cloudy],1997-3-17,[17.0 °C],[],[-],,[83%],[N/A],[1017 hPa],[20.0 °C],[1:00 AM],[9.0 km],[ESE],"[20.4 km/h
		/ 5.7 m/s]",METAR VHHH 161700Z 11011KT 9000 FEW010 SCT014 BKN080 20/17 Q1017 WS LDG RWY 13/31 NOSIG
0,[Mostly Cloudy],1997-3-17,[17.0 °C],[],"[38.9 km/h
		/ 10.8 m/s]",,[88%],[N/A],[1017 hPa],[19.0 °C],[2:00 AM],[8.0 km],[East],"[20.4 km/h
		/ 5.7 m/s]",METAR VHHH 161800Z 10011G21KT 060V140 8000 FEW010 SCT014 BKN080 19/17 Q1017 WS LDG RWY 13/31 NOSIG
0,[Mostly Cloudy],1997-3-17,[17.0 °C],[],[-],,[88%],[N/A],[1016 hPa],[19.0 °C],[3:00 AM],[8.0 km],[East],"[16.7 km/h
		/ 4.6 m/s]",METAR VHHH 161900Z 10009KT 060V140 8000 FEW010 SCT014 BKN080 19/17 Q1016 WS LDG RWY 13/31 NOSIG
0,[Mostly Cloudy],1997-3-17,[17.0 °C],[],[-],,[88%],[N/A],[1016 hPa],[19.0 °C],[4:00 AM],[8.0 km],[ESE],"[11.1 km/h
		/ 3.1 m/s]",METAR VHHH 162000Z 11006KT 070V140 8000 FEW010 SCT014 BKN080 19/17 Q1016 NOSIG
0,[Mostly Cloudy],1997-3-17,[17.0 °C],[],[-],,[88%],[N/A],[1017 hPa],[19.0 °C],[5:00 AM],[8.0 km],[NE],"[7.4 km/h
		/ 2.1 m/s]",METAR VHHH 162100Z 05004KT 010V150 8000 FEW010 SCT014 BKN080 19/17 Q1017 NOSIG
0,[Light Rain],1997-3-17,[14.0 °C],[Rain],"[27.8 km/h
		/ 7.7 m/s]",,[77%],[N/A],[1018 hPa],[18.0 °C],[6:00 AM],[8.0 km],[ENE],"[9.3 km/h
		/ 2.6 m/s]",METAR VHHH 162200Z 06005G15KT 350V100 8000 -RA FEW009 SCT014 BKN080 18/14 Q1018 NOSIG
0,[Light Rain],1997-3-17,[16.0 °C],[Rain],[-],,[88%],[N/A],[1018 hPa],[18.0 °C],[7:00 AM],[8.0 km],[ENE],"[13.0 km/h
		/ 3.6 m/s]",METAR VHHH 162300Z 06007KT 010V100 8000 -RA FEW009 SCT014 BKN080 18/16 Q1018 TEMPO 4000 -RA
0,[Mostly Cloudy],1997-3-17,[16.0 °C],[],[-],,[88%],[N/A],[1019 hPa],[18.0 °C],[8:00 AM],[9.0 km],[NNE],"[13.0 km/h
		/ 3.6 m/s]",METAR VHHH 170000Z 03007KT 260V070 9000 FEW008 SCT013 BKN080 18/16 Q1019 WS LDG RWY 13/31 TEMPO 4000 -RA
0,[Mostly Cloudy],1997-3-17,[16.0 °C],[],[-],,[88%],[N/A],[1020 hPa],[18.0 °C],[9:00 AM],[9.0 km],[NE],"[13.0 km/h
		/ 3.6 m/s]",METAR VHHH 170100Z 05007KT 360V100 9000 FEW007 BKN011 BKN080 18/16 Q1020 TEMPO FEW005 BKN010 BKN080
0,[Mostly Cloudy],1997-3-17,[15.0 °C],[],[-],,[78%],[N/A],[1020 hPa],[19.0 °C],[10:00 AM],[10.0 km],[ESE],"[13.0 km/h
		/ 3.6 m/s]",METAR VHHH 170200Z 11007KT 080V150 9999 FEW007 BKN013 BKN080 19/15 Q1020 TEMPO FEW005 BKN010 BKN080
0,[Mostly Cloudy],1997-3-17,[16.0 °C],[],[-],,[83%],[N/A],[1020 hPa],[19.0 °C],[11:00 AM],[10.0 km],[NE],"[9.3 km/h
		/ 2.6 m/s]",METAR VHHH 170300Z 04005KT 350V120 9999 FEW008 BKN014 BKN080 19/16 Q1020 NOSIG
0,[Mostly Cloudy],1997-3-17,[15.0 °C],[],[-],,[78%],[N/A],[1020 hPa],[19.0 °C],[12:00 PM],[10.0 km],[East],"[13.0 km/h
		/ 3.6 m/s]",METAR VHHH 170400Z 08007KT 020V130 9999 FEW009 SCT015 BKN080 19/15 Q1020 NOSIG
0,[Mostly Cloudy],1997-3-17,[16.0 °C],[],[-],,[83%],[N/A],[1019 hPa],[19.0 °C],[1:00 PM],[10.0 km],[NE],"[13.0 km/h
		/ 3.6 m/s]",METAR VHHH 170500Z 04007KT 350V090 9999 FEW011 SCT016 BKN080 19/16 Q1019 NOSIG
0,[Mostly Cloudy],1997-3-17,[15.0 °C],[],[-],,[78%],[N/A],[1018 hPa],[19.0 °C],[2:00 PM],[10.0 km],[NE],"[13.0 km/h
		/ 3.6 m/s]",METAR VHHH 170600Z 04007KT 310V100 9999 SCT012 BKN016 19/15 Q1018 NOSIG
0,[Mostly Cloudy],1997-3-17,[15.0 °C],[],[-],,[78%],[N/A],[1017 hPa],[19.0 °C],[3:00 PM],[10.0 km],[NE],"[13.0 km/h
		/ 3.6 m/s]",METAR VHHH 170700Z 05007KT 010V130 9999 FEW012 SCT018 BKN080 19/15 Q1017 NOSIG
0,[Mostly Cloudy],1997-3-17,[15.0 °C],[],[-],,[78%],[N/A],[1017 hPa],[19.0 °C],[4:00 PM],[10.0 km],[NE],"[13.0 km/h
		/ 3.6 m/s]",METAR VHHH 170800Z 05007KT 020V100 9999 FEW014 SCT020 BKN080 19/15 Q1017 NOSIG
0,[Mostly Cloudy],1997-3-17,[15.0 °C],[],[-],,[78%],[N/A],[1017 hPa],[19.0 °C],[5:00 PM],[10.0 km],[NE],"[13.0 km/h
		/ 3.6 m/s]",METAR VHHH 170900Z 04007KT 340V080 9999 FEW014 SCT018 BKN080 19/15 Q1017 NOSIG
0,[Mostly Cloudy],1997-3-17,[14.0 °C],[],[-],,[73%],[N/A],[1018 hPa],[19.0 °C],[6:00 PM],[10.0 km],[East],"[13.0 km/h
		/ 3.6 m/s]",METAR VHHH 171000Z 10007KT 070V160 9999 FEW015 SCT020 BKN080 19/14 Q1018 NOSIG
0,[Mostly Cloudy],1997-3-17,[14.0 °C],[],[-],,[73%],[N/A],[1018 hPa],[19.0 °C],[7:00 PM],[10.0 km],[ESE],"[13.0 km/h
		/ 3.6 m/s]",METAR VHHH 171100Z 11007KT 060V130 9999 FEW015 SCT020 BKN080 19/14 Q1018 NOSIG
0,[Mostly Cloudy],1997-3-17,[14.0 °C],[],[-],,[73%],[N/A],[1019 hPa],[19.0 °C],[8:00 PM],[10.0 km],[East],"[13.0 km/h
		/ 3.6 m/s]",METAR VHHH 171200Z 10007KT 060V140 9999 FEW015 SCT020 BKN080 19/14 Q1019 NOSIG
0,[Mostly Cloudy],1997-3-17,[14.0 °C],[],[-],,[73%],[N/A],[1019 hPa],[19.0 °C],[9:00 PM],[10.0 km],[East],"[9.3 km/h
		/ 2.6 m/s]",METAR VHHH 171300Z 10005KT 030V140 9999 FEW018 SCT022 BKN080 19/14 Q1019 NOSIG
0,[Mostly Cloudy],1997-3-17,[14.0 °C],[],[-],,[73%],[N/A],[1020 hPa],[19.0 °C],[10:00 PM],[10.0 km],[East],"[16.7 km/h
		/ 4.6 m/s]",METAR VHHH 171400Z 10009KT 060V140 9999 FEW016 SCT020 BKN080 19/14 Q1020 NOSIG
0,[Mostly Cloudy],1997-3-17,[15.0 °C],[],[-],,[78%],[N/A],[1020 hPa],[19.0 °C],[11:00 PM],[10.0 km],[East],"[22.2 km/h
		/ 6.2 m/s]",METAR VHHH 171500Z 10012KT 060V120 9999 FEW014 SCT018 BKN080 19/15 Q1020 NOSIG
0,[Mostly Cloudy],1997-3-18,[15.0 °C],[],[-],,[78%],[N/A],[1019 hPa],[19.0 °C],[12:00 AM],[10.0 km],[East],"[24.1 km/h
		/ 6.7 m/s]",METAR VHHH 171600Z 09013KT 020V130 9999 FEW014 SCT018 BKN080 19/15 Q1019 NOSIG
0,[Mostly Cloudy],1997-3-18,[15.0 °C],[],[-],,[78%],[N/A],[1019 hPa],[19.0 °C],[1:00 AM],[10.0 km],[East],"[16.7 km/h
		/ 4.6 m/s]",METAR VHHH 171700Z 09009KT 030V130 9999 FEW014 SCT018 BKN080 19/15 Q1019 NOSIG
0,[Mostly Cloudy],1997-3-18,[15.0 °C],[],[-],,[78%],[N/A],[1018 hPa],[19.0 °C],[2:00 AM],[10.0 km],[East],"[25.9 km/h
		/ 7.2 m/s]",METAR VHHH 171800Z 10014KT 070V130 9999 FEW015 SCT020 BKN080 19/15 Q1018 NOSIG
0,[Mostly Cloudy],1997-3-18,[15.0 °C],[],[-],,[78%],[N/A],[1018 hPa],[19.0 °C],[3:00 AM],[10.0 km],[East],"[22.2 km/h
		/ 6.2 m/s]",METAR VHHH 171900Z 10012KT 050V140 9999 FEW016 SCT020 BKN080 19/15 Q1018 NOSIG
0,[Mostly Cloudy],1997-3-18,[15.0 °C],[],[-],,[83%],[N/A],[1017 hPa],[18.0 °C],[4:00 AM],[10.0 km],[East],"[18.5 km/h
		/ 5.1 m/s]",METAR VHHH 172000Z 09010KT 040V100 9999 FEW016 SCT020 BKN080 18/15 Q1017 NOSIG
0,[Mostly Cloudy],1997-3-18,[15.0 °C],[],[-],,[83%],[N/A],[1017 hPa],[18.0 °C],[5:00 AM],[10.0 km],[East],"[27.8 km/h
		/ 7.7 m/s]",METAR VHHH 172100Z 09015KT 9999 FEW016 SCT025 BKN080 18/15 Q1017 NOSIG
0,[Mostly Cloudy],1997-3-18,[14.0 °C],[],[-],,[77%],[N/A],[1018 hPa],[18.0 °C],[6:00 AM],[10.0 km],[East],"[22.2 km/h
		/ 6.2 m/s]",METAR VHHH 172200Z 09012KT 9999 FEW016 SCT025 BKN080 18/14 Q1018 NOSIG
0,[Mostly Cloudy],1997-3-18,[14.0 °C],[],[-],,[77%],[N/A],[1019 hPa],[18.0 °C],[7:00 AM],[10.0 km],[East],"[22.2 km/h
		/ 6.2 m/s]",METAR VHHH 172300Z 09012KT 060V130 9999 FEW016 SCT020 BKN080 18/14 Q1019 NOSIG
0,[Mostly Cloudy],1997-3-18,[14.0 °C],[],[-],,[73%],[N/A],[1019 hPa],[19.0 °C],[8:00 AM],[10.0 km],[East],"[25.9 km/h
		/ 7.2 m/s]",METAR VHHH 180000Z 09014KT 050V130 9999 FEW015 SCT020 BKN080 19/14 Q1019 NOSIG
0,[Mostly Cloudy],1997-3-18,[14.0 °C],[],[-],,[73%],[N/A],[1019 hPa],[19.0 °C],[9:00 AM],[10.0 km],[East],"[25.9 km/h
		/ 7.2 m/s]",METAR VHHH 180100Z 09014KT 060V120 9999 FEW015 SCT020 BKN080 19/14 Q1019 NOSIG
0,[Mostly Cloudy],1997-3-18,[14.0 °C],[],[-],,[73%],[N/A],[1019 hPa],[19.0 °C],[10:00 AM],[10.0 km],[East],"[27.8 km/h
		/ 7.7 m/s]",METAR VHHH 180200Z 10015KT 050V120 9999 FEW015 SCT020 BKN080 19/14 Q1019 NOSIG
0,[Mostly Cloudy],1997-3-18,[15.0 °C],[],[-],,[73%],[N/A],[1019 hPa],[20.0 °C],[11:00 AM],[10.0 km],[East],"[22.2 km/h
		/ 6.2 m/s]",METAR VHHH 180300Z 08012KT 030V120 9999 FEW014 SCT018 BKN080 20/15 Q1019 NOSIG
0,[Mostly Cloudy],1997-3-18,[15.0 °C],[],[-],,[78%],[N/A],[1018 hPa],[19.0 °C],[12:00 PM],[10.0 km],[ESE],"[25.9 km/h
		/ 7.2 m/s]",METAR VHHH 180400Z 11014KT 080V140 9999 FEW012 SCT017 BKN080 19/15 Q1018 NOSIG
0,[Mostly Cloudy],1997-3-18,[15.0 °C],[],[-],,[78%],[N/A],[1017 hPa],[19.0 °C],[1:00 PM],[10.0 km],[East],"[18.5 km/h
		/ 5.1 m/s]",METAR VHHH 180500Z 10010KT 030V210 9999 FEW011 SCT016 BKN080 19/15 Q1017 NOSIG
0,[Mostly Cloudy],1997-3-18,[15.0 °C],[],[-],,[78%],[N/A],[1015 hPa],[19.0 °C],[2:00 PM],[10.0 km],[ESE],"[20.4 km/h
		/ 5.7 m/s]",METAR VHHH 180600Z 11011KT 070V120 9999 FEW011 SCT016 BKN080 19/15 Q1015 NOSIG
0,[Mostly Cloudy],1997-3-18,[15.0 °C],[],[-],,[78%],[N/A],[1015 hPa],[19.0 °C],[3:00 PM],[10.0 km],[East],"[24.1 km/h
		/ 6.7 m/s]",METAR VHHH 180700Z 10013KT 070V140 9999 FEW011 SCT016 BKN080 19/15 Q1015 NOSIG
0,[Mostly Cloudy],1997-3-18,[16.0 °C],[],[-],,[83%],[N/A],[1014 hPa],[19.0 °C],[4:00 PM],[10.0 km],[East],"[22.2 km/h
		/ 6.2 m/s]",METAR VHHH 180800Z 09012KT 050V150 9999 FEW011 SCT025 BKN080 19/16 Q1014 NOSIG
0,[Mostly Cloudy],1997-3-18,[16.0 °C],[],[-],,[83%],[N/A],[1014 hPa],[19.0 °C],[5:00 PM],[10.0 km],[East],"[20.4 km/h
		/ 5.7 m/s]",METAR VHHH 180900Z 10011KT 360V140 9999 FEW011 SCT015 BKN080 19/16 Q1014 NOSIG
0,[Mostly Cloudy],1997-3-18,[16.0 °C],[],[-],,[83%],[N/A],[1015 hPa],[19.0 °C],[6:00 PM],[10.0 km],[East],"[18.5 km/h
		/ 5.1 m/s]",METAR VHHH 181000Z 10010KT 040V140 9999 FEW011 SCT015 BKN080 19/16 Q1015 NOSIG
0,[Mostly Cloudy],1997-3-18,[16.0 °C],[],[-],,[83%],[N/A],[1015 hPa],[19.0 °C],[7:00 PM],[10.0 km],[East],"[18.5 km/h
		/ 5.1 m/s]",METAR VHHH 181100Z 09010KT 060V130 9999 FEW010 SCT014 BKN080 19/16 Q1015 NOSIG
0,[Mostly Cloudy],1997-3-18,[16.0 °C],[],[-],,[83%],[N/A],[1015 hPa],[19.0 °C],[8:00 PM],[10.0 km],[East],"[16.7 km/h
		/ 4.6 m/s]",METAR VHHH 181200Z 10009KT 050V140 9999 FEW010 SCT014 BKN080 19/16 Q1015 NOSIG
0,[Overcast],1997-3-18,[17.0 °C],[],[-],,[83%],[N/A],[1015 hPa],[20.0 °C],[9:00 PM],[10.0 km],[East],"[14.8 km/h
		/ 4.1 m/s]",METAR VHHH 181300Z 10008KT 060V130 9999 FEW009 SCT014 OVC080 20/17 Q1015 NOSIG
0,[Overcast],1997-3-18,[17.0 °C],[],[-],,[83%],[N/A],[1016 hPa],[20.0 °C],[10:00 PM],[10.0 km],[East],"[18.5 km/h
		/ 5.1 m/s]",METAR VHHH 181400Z 10010KT 040/130 9999 FEW009 SCT014 OVC080 20/17 Q1016 NOSIG
0,[Overcast],1997-3-18,[17.0 °C],[],[-],,[83%],[N/A],[1015 hPa],[20.0 °C],[11:00 PM],[10.0 km],[East],"[14.8 km/h
		/ 4.1 m/s]",METAR VHHH 181500Z 10008KT 060V130 9999 FEW009 SCT014 OVC080 20/17 Q1015 NOSIG
0,[Overcast],1997-3-19,[18.0 °C],[],[-],,[88%],[N/A],[1015 hPa],[20.0 °C],[12:00 AM],[10.0 km],[East],"[7.4 km/h
		/ 2.1 m/s]",METAR VHHH 181600Z 10004KT 040V160 9999 FEW009 SCT014 OVC080 20/18 Q1015 NOSIG
0,[Overcast],1997-3-19,[18.0 °C],[],[-],,[88%],[N/A],[1014 hPa],[20.0 °C],[1:00 AM],[9.0 km],[ESE],"[14.8 km/h
		/ 4.1 m/s]",METAR VHHH 181700Z 11008KT 070V150 9000 FEW008 SCT013 OVC080 20/18 Q1014 NOSIG
0,[Light Drizzle],1997-3-19,[18.0 °C],[],[-],,[94%],[N/A],[1014 hPa],[19.0 °C],[2:00 AM],[8.0 km],[SE],"[16.7 km/h
		/ 4.6 m/s]",METAR VHHH 181800Z 14009KT 090V170 8000 -DZ FEW008 SCT013 OVC080 19/18 Q1014 NOSIG
0,[Light Drizzle],1997-3-19,[18.0 °C],[],[-],,[94%],[N/A],[1013 hPa],[19.0 °C],[3:00 AM],[9.0 km],[SE],"[14.8 km/h
		/ 4.1 m/s]",METAR VHHH 181900Z 13008KT 090V160 9000 -DZ FEW008 SCT014 OVC080 19/18 Q1013 NOSIG
0,[Light Drizzle],1997-3-19,[18.0 °C],[],[-],,[94%],[N/A],[1012 hPa],[19.0 °C],[4:00 AM],[10.0 km],[SE],"[13.0 km/h
		/ 3.6 m/s]",METAR VHHH 182000Z 14007KT 090V180 9999 -DZ FEW008 SCT014 OVC080 19/18 Q1012 NOSIG
0,[Light Drizzle],1997-3-19,[18.0 °C],[],[-],,[94%],[N/A],[1012 hPa],[19.0 °C],[5:00 AM],[10.0 km],[SE],"[13.0 km/h
		/ 3.6 m/s]",METAR VHHH 182100Z 13007KT 090V160 9999 -DZ FEW008 SCT014 BKN080 19/18 Q1012 NOSIG
0,[Overcast],1997-3-19,[18.0 °C],[],[-],,[94%],[N/A],[1012 hPa],[19.0 °C],[6:00 AM],[10.0 km],[ESE],"[9.3 km/h
		/ 2.6 m/s]",METAR VHHH 182200Z 12005KT 080V150 9999 FEW008 SCT014 OVC080 19/18 Q1012 NOSIG
0,[Overcast],1997-3-19,[18.0 °C],[],[-],,[88%],[N/A],[1013 hPa],[20.0 °C],[7:00 AM],[8.0 km],[SE],"[14.8 km/h
		/ 4.1 m/s]",METAR VHHH 182300Z 13008KT 8000 FEW008 SCT013 OVC080 20/18 Q1013 TEMPO 5000 -RA
0,[Overcast],1997-3-19,[18.0 °C],[],[-],,[88%],[N/A],[1013 hPa],[20.0 °C],[8:00 AM],[9.0 km],[ESE],"[14.8 km/h
		/ 4.1 m/s]",METAR VHHH 190000Z 11008KT 080V150 9000 FEW007 SCT012 OVC080 20/18 Q1013 TEMPO 5000 -RA
0,[Overcast],1997-3-19,[18.0 °C],[],[-],,[88%],[N/A],[1013 hPa],[20.0 °C],[9:00 AM],[8.0 km],[ESE],"[22.2 km/h
		/ 6.2 m/s]",METAR VHHH 190100Z 11012KT 080V140 8000 FEW006 SCT013 OVC080 20/18 Q1013 TEMPO 5000 -RA
0,[Light Rain],1997-3-19,[18.0 °C],[Rain],[-],,[88%],[N/A],[1013 hPa],[20.0 °C],[10:00 AM],[7.0 km],[SE],"[18.5 km/h
		/ 5.1 m/s]",METAR VHHH 190200Z 13010KT 7000 -RA FEW006 SCT013 OVC080 20/18 Q1013 WS LDG RWY 13/31 TEMPO VRB18G30KT 2500 TSRA FEW006 SCT010CB OVC040
0,[Thunderstorms and Rain],1997-3-19,[19.0 °C],"[Rain
	,
Thunderstorm]",[-],,[94%],[N/A],[1014 hPa],[20.0 °C],[11:00 AM],[2.3 km],[SSE],"[16.7 km/h
		/ 4.6 m/s]",METAR VHHH 190300Z 15009KT 120V180 2300 R31/1100VP2000D R13/1900N TSRA FEW006 SCT010CB SCT013 OVC050 20/19 Q1014 RETS TS 6KM TO E MOV E WS LDG RWY 13/31 TEMPO VRB18G30KT 2000 TSRA FEW006 SCT010CB OVC040
0,[Light Rain],1997-3-19,[20.0 °C],[Rain],[-],,[88%],[N/A],[1013 hPa],[22.0 °C],[12:00 PM],[10.0 km],[ESE],"[11.1 km/h
		/ 3.1 m/s]",METAR VHHH 190400Z 11006KT 070V170 9999 -RA FEW006 SCT012 OVC050 22/20 Q1013 RETS TEMPO 4000 RA
0,[Mostly Cloudy],1997-3-19,[19.0 °C],[],[-],,[78%],[N/A],[1012 hPa],[23.0 °C],[1:00 PM],[10.0 km],[SSW],"[13.0 km/h
		/ 3.6 m/s]",METAR VHHH 190500Z 20007KT 160V310 9999 FEW011 SCT015 BKN080 23/19 Q1012 TEMPO 4000 RA
0,[Partly Cloudy],1997-3-19,[18.0 °C],[],[-],,[73%],[N/A],[1011 hPa],[23.0 °C],[2:00 PM],[10.0 km],[WNW],"[11.1 km/h
		/ 3.1 m/s]",METAR VHHH 190600Z 29006KT 240V320 9999 FEW020 23/18 Q1011 NOSIG
0,[Scattered Clouds],1997-3-19,[18.0 °C],[],[-],,[65%],[N/A],[1010 hPa],[25.0 °C],[3:00 PM],[10.0 km],[West],"[18.5 km/h
		/ 5.1 m/s]",METAR VHHH 190700Z 26010KT 220V300 9999 FEW020 SCT300 25/18 Q1010 NOSIG
0,[Mostly Cloudy],1997-3-19,[17.0 °C],[],[-],,[57%],[N/A],[1009 hPa],[26.0 °C],[4:00 PM],[10.0 km],[WSW],"[16.7 km/h
		/ 4.6 m/s]",METAR VHHH 190800Z 25009KT 220V360 9999 FEW020 BKN300 26/17 Q1009 NOSIG
0,[Mostly Cloudy],1997-3-19,[17.0 °C],[],[-],,[61%],[N/A],[1010 hPa],[25.0 °C],[5:00 PM],[10.0 km],[West],"[18.5 km/h
		/ 5.1 m/s]",METAR VHHH 190900Z 27010KT 220V010 9999 FEW025 BKN100 25/17 Q1010 NOSIG
0,[Mostly Cloudy],1997-3-19,[17.0 °C],[],[-],,[65%],[N/A],[1010 hPa],[24.0 °C],[6:00 PM],[10.0 km],[West],"[11.1 km/h
		/ 3.1 m/s]",METAR VHHH 191000Z 27006KT 230V330 9999 FEW035 BKN080 24/17 Q1010 NOSIG
0,[Mostly Cloudy],1997-3-19,[18.0 °C],[],[-],,[73%],[N/A],[1011 hPa],[23.0 °C],[7:00 PM],[8.0 km],[WSW],"[11.1 km/h
		/ 3.1 m/s]",METAR VHHH 191100Z 24006KT 190V340 8000 SCT025 BKN080 23/18 Q1011 TEMPO 4000 -RA
0,[Haze],1997-3-19,[18.0 °C],[],[-],,[78%],[N/A],[1012 hPa],[22.0 °C],[9:00 PM],[-],[NNW],"[11.1 km/h
		/ 3.1 m/s]",METAR VHHH 191300Z 33006KT 4800 HZ FEW018 SCT025 BKN080 22/18 Q1012 TEMPO 4000 -RA
0,[Mostly Cloudy],1997-3-19,[18.0 °C],[],[-],,[78%],[N/A],[1013 hPa],[22.0 °C],[10:00 PM],[-],[NNW],"[5.6 km/h
		/ 1.5 m/s]",METAR VHHH 191400Z 34003KT 4800 BR FEW016 SCT020 BKN080 22/18 Q1013 TEMPO 4000 -RA
0,[Mostly Cloudy],1997-3-19,[16.0 °C],[],[-],,[73%],[N/A],[1013 hPa],[21.0 °C],[11:00 PM],[6.0 km],[SW],"[1.9 km/h
		/ 0.5 m/s]",METAR VHHH 191500Z 23001KT 6000 FEW016 SCT020 BKN080 21/16 Q1013 TEMPO 4000 -RA
0,[Mostly Cloudy],1997-3-20,[16.0 °C],[],[-],,[73%],[N/A],[1013 hPa],[21.0 °C],[12:00 AM],[10.0 km],[NNW],"[14.8 km/h
		/ 4.1 m/s]",METAR VHHH 191600Z 34008KT 250V060 9999 FEW020 SCT030 BKN080 21/16 Q1013 TEMPO 4000 -RA
0,[Light Rain],1997-3-20,[16.0 °C],[Rain],[-],,[78%],[N/A],[1012 hPa],[20.0 °C],[1:00 AM],[10.0 km],[NW],"[14.8 km/h
		/ 4.1 m/s]",METAR VHHH 191700Z 31008KT 290V350 9999 -RA FEW020 SCT025 BKN080 20/16 Q1012 TEMPO 4000 -RA
0,[Mostly Cloudy],1997-3-20,[16.0 °C],[],[-],,[78%],[N/A],[1012 hPa],[20.0 °C],[2:00 AM],[10.0 km],[East],"[7.4 km/h
		/ 2.1 m/s]",METAR VHHH 191800Z 08004KT 040V110 9999 FEW020 SCT030 BKN080 20/16 Q1012 TEMPO 4000 -RA
0,[Mostly Cloudy],1997-3-20,[16.0 °C],[],[-],,[83%],[N/A],[1011 hPa],[19.0 °C],[3:00 AM],[10.0 km],[NW],"[13.0 km/h
		/ 3.6 m/s]",METAR VHHH 191900Z 32007KT 290V350 9999 FEW020 SCT030 BKN080 19/16 Q1011 TEMPO 4000 -RA
0,[Mostly Cloudy],1997-3-20,[15.0 °C],[],[-],,[78%],[N/A],[1011 hPa],[19.0 °C],[4:00 AM],[10.0 km],[NNW],"[3.7 km/h
		/ 1.0 m/s]",METAR VHHH 192000Z 34002KT 9999 FEW016 BKN040 19/15 Q1011 NOSIG
0,[Mostly Cloudy],1997-3-20,[14.0 °C],[],[-],,[73%],[N/A],[1012 hPa],[19.0 °C],[5:00 AM],[10.0 km],[NNW],"[1.9 km/h
		/ 0.5 m/s]",METAR VHHH 192100Z 33001KT 9999 FEW016 BKN030 19/14 Q1012 WS LDG RWY 13 NOSIG
0,[Mostly Cloudy],1997-3-20,[14.0 °C],[],[-],,[73%],[N/A],[1012 hPa],[19.0 °C],[6:00 AM],[10.0 km],[East],"[5.6 km/h
		/ 1.5 m/s]",METAR VHHH 192200Z 10003KT 9999 FEW016 BKN030 19/14 Q1012 WS LDG RWY 13 NOSIG
0,[Mostly Cloudy],1997-3-20,[13.0 °C],[],[-],,[68%],[N/A],[1013 hPa],[19.0 °C],[7:00 AM],[10.0 km],[NW],"[3.7 km/h
		/ 1.0 m/s]",METAR VHHH 192300Z 31002KT 9999 FEW016 SCT025 BKN080 19/13 Q1013 NOSIG
0,[Mostly Cloudy],1997-3-20,[13.0 °C],[],[-],,[68%],[N/A],[1013 hPa],[19.0 °C],[8:00 AM],[10.0 km],[West],"[1.9 km/h
		/ 0.5 m/s]",METAR VHHH 200000Z 28001KT 9999 SCT025 BKN080 19/13 Q1013 NOSIG
0,[Mostly Cloudy],1997-3-20,[13.0 °C],[],[-],,[68%],[N/A],[1014 hPa],[19.0 °C],[9:00 AM],[10.0 km],[South],"[11.1 km/h
		/ 3.1 m/s]",METAR VHHH 200100Z 18006KT 140V250 9999 SCT025 BKN080 19/13 Q1014 TEMPO 4000 RA
0,[Mostly Cloudy],1997-3-20,[13.0 °C],[],[-],,[64%],[N/A],[1015 hPa],[20.0 °C],[10:00 AM],[10.0 km],[SSE],"[11.1 km/h
		/ 3.1 m/s]",METAR VHHH 200200Z 16006KT 140V200 9999 FEW020 SCT025 BKN080 20/13 Q1015 TEMPO 4000 RA
0,[Mostly Cloudy],1997-3-20,[14.0 °C],[],[-],,[68%],[N/A],[1014 hPa],[20.0 °C],[11:00 AM],[10.0 km],[SE],"[9.3 km/h
		/ 2.6 m/s]",METAR VHHH 200300Z 13005KT 110V170 9999 FEW018 SCT025 BKN080 20/14 Q1014 NOSIG
0,[Mostly Cloudy],1997-3-20,[15.0 °C],[],[-],,[73%],[N/A],[1014 hPa],[20.0 °C],[12:00 PM],[10.0 km],[SSE],"[9.3 km/h
		/ 2.6 m/s]",METAR VHHH 200400Z 15005KT 060V220 9999 FEW020 SCT025 BKN080 20/15 Q1014 NOSIG
0,[Mostly Cloudy],1997-3-20,[14.0 °C],[],[-],,[68%],[N/A],[1013 hPa],[20.0 °C],[1:00 PM],[10.0 km],[NE],"[13.0 km/h
		/ 3.6 m/s]",METAR VHHH 200500Z 05007KT 350V090 9999 FEW020 SCT025 BKN080 20/14 Q1013 NOSIG
0,[Light Rain],1997-3-20,[15.0 °C],[Rain],[-],,[73%],[N/A],[1012 hPa],[20.0 °C],[2:00 PM],[10.0 km],[East],"[14.8 km/h
		/ 4.1 m/s]",METAR VHHH 200600Z 08008KT 360V150 9999 -RA SCT020 SCT030 BKN080 20/15 Q1012 NOSIG
0,[Mostly Cloudy],1997-3-20,[14.0 °C],[],[-],,[73%],[N/A],[1012 hPa],[19.0 °C],[3:00 PM],[10.0 km],[East],"[16.7 km/h
		/ 4.6 m/s]",METAR VHHH 200700Z 10009KT 070V170 9999 FEW018 SCT025 BKN080 19/14 Q1012 NOSIG
0,[Mostly Cloudy],1997-3-20,[14.0 °C],[],[-],,[73%],[N/A],[1012 hPa],[19.0 °C],[4:00 PM],[10.0 km],[SE],"[13.0 km/h
		/ 3.6 m/s]",METAR VHHH 200800Z 13007KT 340V200 9999 FEW018 SCT025 BKN080 19/14 Q1012 TEMPO 4000 RA
0,[Mostly Cloudy],1997-3-20,[15.0 °C],[],[-],,[78%],[N/A],[1013 hPa],[19.0 °C],[5:00 PM],[8.0 km],[East],"[13.0 km/h
		/ 3.6 m/s]",METAR VHHH 200900Z 10007KT 070V150 8000 FEW018 SCT025 BKN080 19/15 Q1013 SIG TKOF RWY 13/31 TEMPO VRB15G28KT 2000 +TSRA FEW008 FEW014CB BKN030
0,[Rain],1997-3-20,[15.0 °C],[Rain],[-],,[88%],[N/A],[1013 hPa],[17.0 °C],[6:00 PM],[-],[NNW],"[1.9 km/h
		/ 0.5 m/s]",METAR VHHH 201000Z 34001KT 3800 RA FEW009 FEW013CB SCT025 BKN080 17/15 Q1013 RETS WS LDG RWY 13/31 TEMPO VRB15G28KT 2000 +TSRA FEW008 FEW014CB BKN030
0,[Mostly Cloudy],1997-3-20,[15.0 °C],[],[-],,[83%],[N/A],[1012 hPa],[18.0 °C],[7:00 PM],[10.0 km],[SE],"[16.7 km/h
		/ 4.6 m/s]",METAR VHHH 201100Z 13009KT 9999 FEW010 SCT014 BKN080 18/15 Q1012 TEMPO 4000 RA
0,[Scattered Clouds],1997-3-20,[15.0 °C],[],[-],,[78%],[N/A],[1012 hPa],[19.0 °C],[8:00 PM],[10.0 km],[SE],"[13.0 km/h
		/ 3.6 m/s]",METAR VHHH 201200Z 14007KT 090V190 9999 FEW011 SCT090 19/15 Q1012 TEMPO 4000 RA
0,[Mostly Cloudy],1997-3-20,[15.0 °C],[],[-],,[83%],[N/A],[1014 hPa],[18.0 °C],[9:00 PM],[10.0 km],[SE],"[11.1 km/h
		/ 3.1 m/s]",METAR VHHH 201300Z 13006KT 100V190 9999 FEW012 SCT020 BKN080 18/15 Q1014 NOSIG
0,[Mostly Cloudy],1997-3-20,[16.0 °C],[],[-],,[83%],[N/A],[1014 hPa],[19.0 °C],[10:00 PM],[10.0 km],[ENE],"[5.6 km/h
		/ 1.5 m/s]",METAR VHHH 201400Z 06003KT 360V200 9999 FEW011 SCT018 BKN080 19/16 Q1014 NOSIG
0,[Mostly Cloudy],1997-3-20,[16.0 °C],[],[-],,[88%],[N/A],[1014 hPa],[18.0 °C],[11:00 PM],[10.0 km],[ESE],"[14.8 km/h
		/ 4.1 m/s]",METAR VHHH 201500Z 12008KT 020V220 9999 FEW011 SCT018 BKN080 18/16 Q1014 NOSIG
0,[Mostly Cloudy],1997-3-21,[16.0 °C],[],[-],,[83%],[N/A],[1014 hPa],[19.0 °C],[12:00 AM],[10.0 km],[SE],"[11.1 km/h
		/ 3.1 m/s]",METAR VHHH 201600Z 13006KT 070V210 9999 FEW012 SCT020 BKN080 19/16 Q1014 NOSIG
0,[Mostly Cloudy],1997-3-21,[16.0 °C],[],[-],,[83%],[N/A],[1013 hPa],[19.0 °C],[1:00 AM],[10.0 km],[SSE],"[18.5 km/h
		/ 5.1 m/s]",METAR VHHH 201700Z 15010KT 080V190 9999 FEW012 SCT020 BKN080 19/16 Q1013 NOSIG
0,[Mostly Cloudy],1997-3-21,[16.0 °C],[],[-],,[83%],[N/A],[1013 hPa],[19.0 °C],[2:00 AM],[10.0 km],[SE],"[14.8 km/h
		/ 4.1 m/s]",METAR VHHH 201800Z 13008KT 090V160 9999 FEW011 SCT018 BKN080 19/16 Q1013 NOSIG
0,[Light Rain],1997-3-21,[16.0 °C],[Rain],[-],,[88%],[N/A],[1012 hPa],[18.0 °C],[3:00 AM],[10.0 km],[ESE],"[20.4 km/h
		/ 5.7 m/s]",METAR VHHH 201900Z 11011KT 080V150 9999 -RA FEW010 SCT018 BKN080 18/16 Q1012 NOSIG
0,[Mostly Cloudy],1997-3-21,[16.0 °C],[],[-],,[88%],[N/A],[1012 hPa],[18.0 °C],[4:00 AM],[10.0 km],[SE],"[18.5 km/h
		/ 5.1 m/s]",METAR VHHH 202000Z 13010KT 9999 FEW010 SCT018 BKN080 18/16 Q1012 NOSIG
0,[Light Rain],1997-3-21,[16.0 °C],[Rain],[-],,[88%],[N/A],[1012 hPa],[18.0 °C],[5:00 AM],[10.0 km],[ESE],"[24.1 km/h
		/ 6.7 m/s]",METAR VHHH 202100Z 12013KT 9999 -RA FEW009 SCT018 BKN080 18/16 Q1012 NOSIG
0,[Mostly Cloudy],1997-3-21,[16.0 °C],[],[-],,[88%],[N/A],[1012 hPa],[18.0 °C],[6:00 AM],[10.0 km],[ESE],"[22.2 km/h
		/ 6.2 m/s]",METAR VHHH 202200Z 12012KT 9999 FEW009 SCT018 BKN080 18/16 Q1012 NOSIG
0,[Mostly Cloudy],1997-3-21,[16.0 °C],[],"[38.9 km/h
		/ 10.8 m/s]",,[88%],[N/A],[1012 hPa],[18.0 °C],[7:00 AM],[10.0 km],[ESE],"[20.4 km/h
		/ 5.7 m/s]",METAR VHHH 202300Z 12011G21KT 9999 FEW008 SCT018 BKN080 18/16 Q1012 NOSIG
0,[Mostly Cloudy],1997-3-21,[17.0 °C],[],[-],,[88%],[N/A],[1013 hPa],[19.0 °C],[8:00 AM],[8.0 km],[ESE],"[18.5 km/h
		/ 5.1 m/s]",METAR VHHH 210000Z 12010KT 070V160 8000 FEW006 SCT015 BKN080 19/17 Q1013 NOSIG
0,[Light Rain],1997-3-21,[17.0 °C],[Rain],[-],,[88%],[N/A],[1013 hPa],[19.0 °C],[9:00 AM],[7.0 km],[ESE],"[18.5 km/h
		/ 5.1 m/s]",METAR VHHH 210100Z 12010KT 080V160 7000 -RA FEW005 SCT015 BKN080 19/17 Q1013 WS LDG RWY 13/31 TEMPO VRB15G28KT 2000 TSRA FEW004 FEW012CB BKN025
0,[Mostly Cloudy],1997-3-21,[18.0 °C],[],[-],,[88%],[N/A],[1013 hPa],[20.0 °C],[10:00 AM],[8.0 km],[ESE],"[18.5 km/h
		/ 5.1 m/s]",METAR VHHH 210200Z 12010KT 090V160 8000 SCT007 SCT015 BKN080 20/18 Q1013 WS LDG RWY 13/31 TEMPO VRB15G28KT 2000 TSRA FEW004 FEW012CB BKN025
0,[Light Rain],1997-3-21,[18.0 °C],[Rain],[-],,[88%],[N/A],[1012 hPa],[20.0 °C],[12:00 PM],[6.0 km],[SE],"[18.5 km/h
		/ 5.1 m/s]",METAR VHHH 210400Z 13010KT 090V160 6000 -RA SCT004 SCT014 BKN080 20/18 Q1012 WS LDG RWY 13/31 TEMPO VRB15G28KT 2000 TSRA FEW004 FEW012CB BKN025
0,[Light Rain],1997-3-21,[19.0 °C],[Rain],[-],,[94%],[N/A],[1011 hPa],[20.0 °C],[1:00 PM],[6.0 km],[SE],"[16.7 km/h
		/ 4.6 m/s]",METAR VHHH 210500Z 13009KT 080V160 6000 -RA SCT004 SCT015 BKN080 20/19 Q1011 WS LDG RWY 13/31 TEMPO VRB15G28KT 2000 TSRA FEW004 FEW012CB BKN025
0,[Mostly Cloudy],1997-3-21,[19.0 °C],[],[-],,[94%],[N/A],[1010 hPa],[20.0 °C],[2:00 PM],[8.0 km],[SSE],"[18.5 km/h
		/ 5.1 m/s]",METAR VHHH 210600Z 15010KT 8000 FEW004 SCT012 BKN080 20/19 Q1010 TEMPO 4000 RA
0,[Mostly Cloudy],1997-3-21,[19.0 °C],[],[-],,[88%],[N/A],[-],[21.0 °C],[3:00 PM],[6.0 km],[SSE],"[18.5 km/h
		/ 5.1 m/s]",METAR VHHH 210700Z 15010KT 130V200 6000 FEW004 SCT012 BKN080 21/19 1009 TEMPO 4000 RA
0,[Mostly Cloudy],1997-3-21,[19.0 °C],[],[-],,[88%],[N/A],[1009 hPa],[21.0 °C],[4:00 PM],[6.0 km],[SSE],"[14.8 km/h
		/ 4.1 m/s]",METAR VHHH 210800Z 15008KT 6000 FEW004 SCT012 BKN080 21/19 Q1009 NOSIG
0,[Light Rain],1997-3-21,[19.0 °C],[Rain],[-],,[88%],[N/A],[1009 hPa],[21.0 °C],[5:00 PM],[6.0 km],[SSE],"[18.5 km/h
		/ 5.1 m/s]",METAR VHHH 210900Z 15010KT 6000 -RA FEW005 SCT012 BKN080 21/19 Q1009 NOSIG
0,[Light Rain],1997-3-21,[19.0 °C],[Rain],[-],,[94%],[N/A],[1009 hPa],[20.0 °C],[6:00 PM],[4.5 km],[SSE],"[16.7 km/h
		/ 4.6 m/s]",METAR VHHH 211000Z 16009KT 4500 -RA BR FEW005 SCT012 BKN080 20/19 Q1009 TEMPO 4000 -RA BR
0,[Mostly Cloudy],1997-3-21,[19.0 °C],[],[-],,[94%],[N/A],[1009 hPa],[20.0 °C],[7:00 PM],[7.0 km],[SE],"[18.5 km/h
		/ 5.1 m/s]",METAR VHHH 211100Z 14010KT 7000 FEW006 SCT012 BKN080 20/19 Q1009 TEMPO 4000 -RA BR
0,[Mostly Cloudy],1997-3-21,[19.0 °C],[],[-],,[88%],[N/A],[1010 hPa],[21.0 °C],[8:00 PM],[7.0 km],[SE],"[11.1 km/h
		/ 3.1 m/s]",METAR VHHH 211200Z 14006KT 7000 FEW004 SCT012 BKN080 21/19 Q1010 TEMPO 4000 -RA BR
0,[Mostly Cloudy],1997-3-21,[19.0 °C],[],[-],,[94%],[N/A],[1011 hPa],[20.0 °C],[9:00 PM],[7.0 km],[SE],"[14.8 km/h
		/ 4.1 m/s]",METAR VHHH 211300Z 14008KT 7000 FEW005 SCT014 BKN080 20/19 Q1011 TEMPO 4000 -RA
0,[Mostly Cloudy],1997-3-21,[19.0 °C],[],[-],,[94%],[N/A],[1011 hPa],[20.0 °C],[10:00 PM],[6.0 km],[SE],"[20.4 km/h
		/ 5.7 m/s]",METAR VHHH 211400Z 14011KT 6000 FEW005 SCT013 BKN080 20/19 Q1011 TEMPO 4000 -RA
0,[Mostly Cloudy],1997-3-21,[19.0 °C],[],[-],,[94%],[N/A],[1012 hPa],[20.0 °C],[11:00 PM],[-],[SE],"[14.8 km/h
		/ 4.1 m/s]",METAR VHHH 211500Z 14008KT 4800 BR FEW004 SCT012 BKN080 20/19 Q1012 TEMPO 4000 -RA
0,[Mostly Cloudy],1997-3-22,[19.0 °C],[],[-],,[94%],[N/A],[1011 hPa],[20.0 °C],[12:00 AM],[4.0 km],[SSE],"[11.1 km/h
		/ 3.1 m/s]",METAR VHHH 211600Z 16006KT 130V200 4000 BR FEW003 SCT012 BKN080 20/19 Q1011 TEMPO 2500 BR
0,[Mostly Cloudy],1997-3-22,[19.0 °C],[],[-],,[94%],[N/A],[1011 hPa],[20.0 °C],[1:00 AM],[-],[SSE],"[13.0 km/h
		/ 3.6 m/s]",METAR VHHH 211700Z 15007KT 3200 BR SCT003 SCT010 BKN080 20/19 Q1011 TEMPO 2500 BR
0,[Mostly Cloudy],1997-3-22,[19.0 °C],[],[-],,[94%],[N/A],[1010 hPa],[20.0 °C],[2:00 AM],[-],[SE],"[11.1 km/h
		/ 3.1 m/s]",METAR VHHH 211800Z 14006KT 3800 BR SCT004 SCT012 BKN080 20/19 Q1010 TEMPO 2500 BR
0,[Light Rain],1997-3-22,[19.0 °C],[Rain],[-],,[94%],[N/A],[1009 hPa],[20.0 °C],[3:00 AM],[4.0 km],[SE],"[14.8 km/h
		/ 4.1 m/s]",METAR VHHH 211900Z 14008KT 4000 -RA BR SCT005 SCT012 BKN080 20/19 Q1009 TEMPO 2500 BR
0,[Mostly Cloudy],1997-3-22,[19.0 °C],[],[-],,[94%],[N/A],[1009 hPa],[20.0 °C],[4:00 AM],[2.0 km],[SE],"[14.8 km/h
		/ 4.1 m/s]",METAR VHHH 212000Z 14008KT 2000 BR SCT003 SCT012 BKN080 20/19 Q1009 TEMPO 2500 BR
0,[Light Rain],1997-3-22,[20.0 °C],[Rain],[-],,[100%],[N/A],[1009 hPa],[20.0 °C],[5:00 AM],[2.5 km],[SSW],"[11.1 km/h
		/ 3.1 m/s]",METAR VHHH 212100Z 20006KT 150V220 2500 -RA BR SCT003 SCT012 BKN080 20/20 Q1009 TEMPO 1200 BCFG FEW003 SCT008 BKN080
0,[Mostly Cloudy],1997-3-22,[19.0 °C],[],[-],,[94%],[N/A],[-],[20.0 °C],[6:00 AM],[1.5 km],[Calm],[Calm],METAR VHHH 212200Z 00000KT 1500 BR SCT005 SCT012 BKN080 20/19 TEMPO 1500 -RA BR
0,[Light Rain],1997-3-22,[19.0 °C],[Rain],[-],,[94%],[N/A],[1010 hPa],[20.0 °C],[7:00 AM],[2.0 km],[SE],"[1.9 km/h
		/ 0.5 m/s]",METAR VHHH 212300Z 13001KT 2000 -RA BR SCT005 SCT013 BKN080 20/19 Q1010 TEMPO 1500 -RA BR
0,[Mostly Cloudy],1997-3-22,[20.0 °C],[],[-],,[100%],[N/A],[1011 hPa],[20.0 °C],[8:00 AM],[-],[SE],"[13.0 km/h
		/ 3.6 m/s]",METAR VHHH 220000Z 14007KT 110V180 3600 BR SCT005 SCT013 BKN080 20/20 Q1011 TEMPO 1500 BR -RA
0,[Mostly Cloudy],1997-3-22,[20.0 °C],[],[-],,[94%],[N/A],[1011 hPa],[21.0 °C],[9:00 AM],[3.5 km],[SSE],"[14.8 km/h
		/ 4.1 m/s]",METAR VHHH 220100Z 15008KT 3500NW BR FEW004 SCT012 BKN080 21/20 Q1011 TEMPO 3000 -RA BR
0,[Mostly Cloudy],1997-3-22,[20.0 °C],[],[-],,[94%],[N/A],[1011 hPa],[21.0 °C],[10:00 AM],[4.0 km],[SSE],"[9.3 km/h
		/ 2.6 m/s]",METAR VHHH 220200Z 15005KT 4000NW BR FEW008 SCT014 BKN080 21/20 Q1011 TEMPO 3000 -RA BR
0,[Mostly Cloudy],1997-3-22,[20.0 °C],[],[-],,[88%],[N/A],[1011 hPa],[22.0 °C],[11:00 AM],[-],[SSW],"[3.7 km/h
		/ 1.0 m/s]",METAR VHHH 220300Z 21002KT 3200 BR FEW009 SCT014 BKN080 22/20 Q1011 TEMPO 3000 -RA BR
0,[Mostly Cloudy],1997-3-22,[20.0 °C],[],[-],,[83%],[N/A],[1011 hPa],[23.0 °C],[12:00 PM],[2.5 km],[WSW],"[9.3 km/h
		/ 2.6 m/s]",METAR VHHH 220400Z 25005KT 200V300 2500 BR FEW007 SCT014 BKN080 23/20 Q1011 TEMPO 1500 -RA BR
0,[Light Rain],1997-3-22,[19.0 °C],[Rain],[-],,[94%],[N/A],[1011 hPa],[20.0 °C],[1:00 PM],[1.6 km],[WSW],"[20.4 km/h
		/ 5.7 m/s]",METAR VHHH 220500Z 25011KT 1600 -RA BR FEW007 SCT014 BKN080 20/19 Q1011 TEMPO 0600 FG
0,[Mostly Cloudy],1997-3-22,[19.0 °C],[Rain],[-],,[94%],[N/A],[1009 hPa],[20.0 °C],[2:00 PM],[2.2 km],[West],"[22.2 km/h
		/ 6.2 m/s]",METAR VHHH 220600Z 26012KT 210V280 2200 BR -RA SCT006 SCT012 BKN080 20/19 Q1009 TEMPO 1000 BR/-RA SCT005 BKN012
0,[Light Drizzle],1997-3-22,[18.0 °C],[],[-],,[94%],[N/A],[1009 hPa],[19.0 °C],[3:00 PM],[1.0 km],[West],"[24.1 km/h
		/ 6.7 m/s]",METAR VHHH 220700Z 26013KT 220V300 1000 -DZ BR SCT006 SCT012 BKN080 19/18 Q1009 TEMPO 1000 -RA/BR SCT005 BKN012
0,[Mostly Cloudy],1997-3-22,[18.0 °C],[],[-],,[94%],[N/A],[1009 hPa],[19.0 °C],[4:00 PM],[2.0 km],[WSW],"[25.9 km/h
		/ 7.2 m/s]",METAR VHHH 220800Z 25014KT 200V310 2000 BR FEW006 SCT012 BKN080 19/18 Q1009 TEMPO 1000 -RA/BR SCT005 BKN012
0,[Mostly Cloudy],1997-3-22,[17.0 °C],[],[-],,[88%],[N/A],[1009 hPa],[19.0 °C],[5:00 PM],[2.8 km],[West],"[20.4 km/h
		/ 5.7 m/s]",METAR VHHH 220900Z 26011KT 240V300 2800 BR FEW006 SCT012 BKN080 19/17 Q1009 TEMPO 1500 -RA/BR FEW005 BKN012
0,[Mostly Cloudy],1997-3-22,[16.0 °C],[],[-],,[83%],[N/A],[1010 hPa],[19.0 °C],[6:00 PM],[4.0 km],[NNW],"[9.3 km/h
		/ 2.6 m/s]",METAR VHHH 221000Z 33005KT 250V360 4000 BR FEW006 SCT012 BKN080 19/16 Q1010 TEMPO 2000 -RA/BR
0,[Mostly Cloudy],1997-3-22,[16.0 °C],[],[-],,[78%],[N/A],[1010 hPa],[20.0 °C],[7:00 PM],[6.0 km],[WNW],"[11.1 km/h
		/ 3.1 m/s]",METAR VHHH 221100Z 29006KT 250V330 6000 FEW007 SCT015 BKN080 20/16 Q1010 TEMPO 3000 -RA/BR
0,[Mostly Cloudy],1997-3-22,[16.0 °C],[],[-],,[83%],[N/A],[1011 hPa],[19.0 °C],[8:00 PM],[7.0 km],[West],"[16.7 km/h
		/ 4.6 m/s]",METAR VHHH 221200Z 28009KT 250V310 7000 FEW010 SCT015 BKN080 19/16 Q1011 TEMPO 5000 -RA
0,[Mostly Cloudy],1997-3-22,[16.0 °C],[],[-],,[78%],[N/A],[1012 hPa],[20.0 °C],[9:00 PM],[10.0 km],[WSW],"[18.5 km/h
		/ 5.1 m/s]",METAR VHHH 221300Z 25010KT 200V290 9999 FEW012 SCT025 BKN080 20/16 Q1012 TEMPO 5000 -RA
0,[Light Rain],1997-3-22,[15.0 °C],[Rain],[-],,[78%],[N/A],[1013 hPa],[19.0 °C],[10:00 PM],[10.0 km],[NW],"[18.5 km/h
		/ 5.1 m/s]",METAR VHHH 221400Z 31010KT 9999 -RA FEW014 SCT025 BKN080 19/15 Q1013 NOSIG
0,[Mostly Cloudy],1997-3-22,[14.0 °C],[],[-],,[77%],[N/A],[1013 hPa],[18.0 °C],[11:00 PM],[10.0 km],[Variable],"[1.9 km/h
		/ 0.5 m/s]",METAR VHHH 221500Z VRB01KT 9999 FEW016 SCT025 BKN080 18/14 Q1013 NOSIG
0,[Light Rain],1997-3-23,[14.0 °C],[Rain],[-],,[82%],[N/A],[1013 hPa],[17.0 °C],[12:00 AM],[10.0 km],[ENE],"[11.1 km/h
		/ 3.1 m/s]",METAR VHHH 221600Z 07006KT 340V100 9999 -RA FEW016 SCT025 BKN080 17/14 Q1013 TEMPO 4000 -RA BR
0,[Mostly Cloudy],1997-3-23,[13.0 °C],[],[-],,[77%],[N/A],[1013 hPa],[17.0 °C],[1:00 AM],[10.0 km],[NNE],"[3.7 km/h
		/ 1.0 m/s]",METAR VHHH 221700Z 03002KT 9999 FEW016 SCT025 BKN080 17/13 Q1013 TEMPO 4000 -RA BR
0,[Mostly Cloudy],1997-3-23,[13.0 °C],[],[-],,[77%],[N/A],[1013 hPa],[17.0 °C],[2:00 AM],[10.0 km],[South],"[1.9 km/h
		/ 0.5 m/s]",METAR VHHH 221800Z 18001KT 9999 FEW018 SCT025 BKN080 17/13 Q1013 TEMPO 4000 -RA BR
0,[Mostly Cloudy],1997-3-23,[13.0 °C],[],[-],,[77%],[N/A],[1013 hPa],[17.0 °C],[3:00 AM],[10.0 km],[SE],"[13.0 km/h
		/ 3.6 m/s]",METAR VHHH 221900Z 14007KT 9999 FEW020 SCT025 BKN080 17/13 Q1013 TEMPO 4000 -RA BR
0,[Mostly Cloudy],1997-3-23,[13.0 °C],[],[-],,[77%],[N/A],[1013 hPa],[17.0 °C],[4:00 AM],[10.0 km],[NW],"[7.4 km/h
		/ 2.1 m/s]",METAR VHHH 222000Z 31004KT 280V010 9999 FEW020 SCT025 BKN080 17/13 Q1013 TEMPO 4000 -RA BR
0,[Mostly Cloudy],1997-3-23,[12.0 °C],[],[-],,[72%],[N/A],[1013 hPa],[17.0 °C],[5:00 AM],[10.0 km],[NNW],"[1.9 km/h
		/ 0.5 m/s]",METAR VHHH 222100Z 34001KT 240V360 9999 FEW020 SCT025 BKN080 17/12 Q1013 TEMPO 4000 -RA BR
0,[Mostly Cloudy],1997-3-23,[12.0 °C],[],[-],,[72%],[N/A],[1013 hPa],[17.0 °C],[6:00 AM],[10.0 km],[WNW],"[1.9 km/h
		/ 0.5 m/s]",METAR VHHH 222200Z 30001KT 9999 FEW020 SCT025 BKN080 17/12 Q1013 TEMPO 4000 -RA BR
0,[Mostly Cloudy],1997-3-23,[12.0 °C],[],[-],,[72%],[N/A],[1014 hPa],[17.0 °C],[7:00 AM],[10.0 km],[East],"[11.1 km/h
		/ 3.1 m/s]",METAR VHHH 222300Z 08006KT 9999 FEW018 SCT025 BKN080 17/12 Q1014 NOSIG
0,[Mostly Cloudy],1997-3-23,[12.0 °C],[],[-],,[72%],[N/A],[1015 hPa],[17.0 °C],[8:00 AM],[10.0 km],[East],"[9.3 km/h
		/ 2.6 m/s]",METAR VHHH 230000Z 08005KT 030V140 9999 FEW020 SCT025 BKN080 17/12 Q1015 NOSIG
0,[Mostly Cloudy],1997-3-23,[12.0 °C],[],[-],,[72%],[N/A],[1016 hPa],[17.0 °C],[9:00 AM],[10.0 km],[ENE],"[9.3 km/h
		/ 2.6 m/s]",METAR VHHH 230100Z 07005KT 350V010 9999 FEW018 SCT025 BKN080 17/12 Q1016 WS LDG RWY 13/31 SIG SINKING WS IN RWY13 ARRIVAL PATH IN TURNING FINAL REPORTED BY A B747 AT 0004UTC NOSIG
0,[Mostly Cloudy],1997-3-23,[12.0 °C],[],[-],,[72%],[N/A],[1016 hPa],[17.0 °C],[10:00 AM],[10.0 km],[ENE],"[13.0 km/h
		/ 3.6 m/s]",METAR VHHH 230200Z 07007KT 340V120 9999 FEW020 SCT025 BKN080 17/12 Q1016 WS LDG RWY 13/31 SIG SINKING WS IN RWY13 ARRIVAL PATH IN TURNING FINAL REPORTED BY A B747 AT 0004UTC NOSIG
0,[Mostly Cloudy],1997-3-23,[12.0 °C],[],[-],,[72%],[N/A],[1017 hPa],[17.0 °C],[11:00 AM],[10.0 km],[NE],"[11.1 km/h
		/ 3.1 m/s]",METAR VHHH 230300Z 05006KT 350V120 9999 FEW016 SCT025 BKN080 17/12 Q1017 WS LDG RWY 13/31 TEMPO 5000 -RA
0,[Mostly Cloudy],1997-3-23,[13.0 °C],[],[-],,[77%],[N/A],[1016 hPa],[17.0 °C],[12:00 PM],[10.0 km],[Variable],"[1.9 km/h
		/ 0.5 m/s]",METAR VHHH 230400Z VRB01KT 9999 FEW020 SCT025 BKN080 17/13 Q1016 WS LDG RWY 13/31 TEMPO 5000 -RA
0,[Mostly Cloudy],1997-3-23,[13.0 °C],[],[-],,[73%],[N/A],[1016 hPa],[18.0 °C],[1:00 PM],[10.0 km],[ESE],"[3.7 km/h
		/ 1.0 m/s]",METAR VHHH 230500Z 12002KT 9999 FEW016 SCT025 BKN080 18/13 Q1016 TEMPO 5000 -RA
0,[Light Rain],1997-3-23,[14.0 °C],[Rain],[-],,[82%],[N/A],[1016 hPa],[17.0 °C],[2:00 PM],[10.0 km],[ENE],"[1.9 km/h
		/ 0.5 m/s]",METAR VHHH 230600Z 07001KT 9999 -RA FEW018 SCT025 BKN080 17/14 Q1016 WS LDG RWY 13 TEMPO 5000 -RA
0,[Mostly Cloudy],1997-3-23,[14.0 °C],[],[-],,[77%],[N/A],[1014 hPa],[18.0 °C],[3:00 PM],[10.0 km],[East],"[13.0 km/h
		/ 3.6 m/s]",METAR VHHH 230700Z 08007KT 320V170 9999 FEW016 SCT025 BKN080 18/14 Q1014 WS LDG RWY 13 TEMPO 5000 -RA
0,[Mostly Cloudy],1997-3-23,[13.0 °C],[],[-],,[73%],[N/A],[1015 hPa],[18.0 °C],[4:00 PM],[10.0 km],[ENE],"[14.8 km/h
		/ 4.1 m/s]",METAR VHHH 230800Z 07008KT 020V130 9999 FEW018 SCT025 BKN080 18/13 Q1015 TEMPO 5000 -RA
0,[Mostly Cloudy],1997-3-23,[13.0 °C],[],[-],,[68%],[N/A],[1015 hPa],[19.0 °C],[5:00 PM],[10.0 km],[East],"[13.0 km/h
		/ 3.6 m/s]",METAR VHHH 230900Z 10007KT 010V190 9999 FEW018 SCT025 BKN080 19/13 Q1015 TEMPO 5000 -RA
0,[Mostly Cloudy],1997-3-23,[13.0 °C],[],[-],,[68%],[N/A],[1016 hPa],[19.0 °C],[6:00 PM],[10.0 km],[ENE],"[7.4 km/h
		/ 2.1 m/s]",METAR VHHH 231000Z 07004KT 340V150 9999 FEW020 SCT025 BKN080 19/13 Q1016 NOSIG
0,[Mostly Cloudy],1997-3-23,[13.0 °C],[],[-],,[73%],[N/A],[1016 hPa],[18.0 °C],[7:00 PM],[10.0 km],[ENE],"[11.1 km/h
		/ 3.1 m/s]",METAR VHHH 231100Z 07006KT 340V140 9999 FEW018 SCT025 BKN080 18/13 Q1016 NOSIG
0,[Mostly Cloudy],1997-3-23,[14.0 °C],[],[-],,[77%],[N/A],[1018 hPa],[18.0 °C],[8:00 PM],[10.0 km],[ESE],"[13.0 km/h
		/ 3.6 m/s]",METAR VHHH 231200Z 12007KT 080V160 9999 FEW016 SCT025 BKN080 18/14 Q1018 NOSIG
0,[Mostly Cloudy],1997-3-23,[14.0 °C],[],[-],,[77%],[N/A],[1019 hPa],[18.0 °C],[10:00 PM],[10.0 km],[East],"[14.8 km/h
		/ 4.1 m/s]",METAR VHHH 231400Z 08008KT 010V170 9999 FEW016 SCT025 BKN080 18/14 Q1019 NOSIG
0,[Light Drizzle],1997-3-24,[15.0 °C],[],[-],,[88%],[N/A],[1019 hPa],[17.0 °C],[12:00 AM],[8.0 km],[ESE],"[14.8 km/h
		/ 4.1 m/s]",METAR VHHH 231600Z 11008KT 080V150 8000 -DZ SCT010 SCT016 BKN080 17/15 Q1019 NOSIG
0,[Mostly Cloudy],1997-3-24,[14.0 °C],[],"[44.4 km/h
		/ 12.3 m/s]",,[82%],[N/A],[1017 hPa],[17.0 °C],[2:00 AM],[10.0 km],[ESE],"[25.9 km/h
		/ 7.2 m/s]",METAR VHHH 231800Z 11014G24KT 070V150 9999 FEW010 SCT015 BKN080 17/14 Q1017 NOSIG
0,[Light Drizzle],1997-3-24,[14.0 °C],[],"[57.4 km/h
		/ 15.9 m/s]",,[88%],[N/A],[1018 hPa],[16.0 °C],[3:00 AM],[9.0 km],[ESE],"[25.9 km/h
		/ 7.2 m/s]",METAR VHHH 231900Z 11014G31KT 050V150 9000 -DZ FEW010 SCT015 BKN080 16/14 Q1018 WS LDG RWY 13/31 NOSIG
0,[Mostly Cloudy],1997-3-24,[8.0 °C],[],"[50.0 km/h
		/ 13.9 m/s]",,[55%],[N/A],[1019 hPa],[17.0 °C],[5:00 AM],[10.0 km],[ESE],"[29.6 km/h
		/ 8.2 m/s]",METAR VHHH 232100Z 11016G27KT 060V140 9999 SCT020 BKN080 17/08 Q1019 WS LDG RWY 13/31 NOSIG
0,[Mostly Cloudy],1997-3-24,[8.0 °C],[],[-],,[55%],[N/A],[1019 hPa],[17.0 °C],[6:00 AM],[10.0 km],[ESE],"[22.2 km/h
		/ 6.2 m/s]",METAR VHHH 232200Z 11012KT 050V130 9999 SCT020 BKN080 17/08 Q1019 WS LDG RWY 13/31 NOSIG
0,[Mostly Cloudy],1997-3-24,[5.0 °C],[],[-],,[45%],[N/A],[1021 hPa],[17.0 °C],[8:00 AM],[10.0 km],[East],"[18.5 km/h
		/ 5.1 m/s]",METAR VHHH 240000Z 10010KT 040V150 9999 FEW025 SCT040 BKN080 17/05 Q1021 WS LDG RWY 13/31 NOSIG
0,[Mostly Cloudy],1997-3-24,[7.0 °C],[],"[40.7 km/h
		/ 11.3 m/s]",,[52%],[N/A],[1022 hPa],[17.0 °C],[9:00 AM],[10.0 km],[ESE],"[22.2 km/h
		/ 6.2 m/s]",METAR VHHH 240100Z 11012G22KT 060V160 9999 SCT025 SCT035 BKN080 17/07 Q1022 WS LDG RWY 13/31 NOSIG
0,[Mostly Cloudy],1997-3-24,[7.0 °C],[],"[53.7 km/h
		/ 14.9 m/s]",,[49%],[N/A],[1020 hPa],[18.0 °C],[12:00 PM],[10.0 km],[ESE],"[29.6 km/h
		/ 8.2 m/s]",METAR VHHH 240400Z 12016G29KT 070V150 9999 FEW022 SCT035 BKN080 18/07 Q1020 WS LDG RWY 13/31 NOSIG
0,[Mostly Cloudy],1997-3-24,[9.0 °C],[],[-],,[52%],[N/A],[1019 hPa],[19.0 °C],[2:00 PM],[10.0 km],[East],"[29.6 km/h
		/ 8.2 m/s]",METAR VHHH 240600Z 10016KT 060V130 9999 FEW025 SCT035 BKN080 19/09 Q1019 WS LDG RWY 13/31 NOSIG
0,[Mostly Cloudy],1997-3-24,[10.0 °C],[],[-],,[56%],[N/A],[1018 hPa],[19.0 °C],[3:00 PM],[10.0 km],[East],"[31.5 km/h
		/ 8.7 m/s]",METAR VHHH 240700Z 10017KT 050V140 9999 FEW025 SCT035 BKN080 19/10 Q1018 WS LDG RWY 13/31 NOSIG
0,[Mostly Cloudy],1997-3-24,[12.0 °C],[],"[46.3 km/h
		/ 12.9 m/s]",,[68%],[N/A],[1018 hPa],[18.0 °C],[4:00 PM],[10.0 km],[East],"[27.8 km/h
		/ 7.7 m/s]",METAR VHHH 240800Z 09015G25KT 040V140 9999 FEW018 SCT025 BKN080 18/12 Q1018 WS LDG RWY 13/31 NOSIG
0,[Mostly Cloudy],1997-3-24,[12.0 °C],[],"[50.0 km/h
		/ 13.9 m/s]",,[68%],[N/A],[1018 hPa],[18.0 °C],[5:00 PM],[10.0 km],[East],"[29.6 km/h
		/ 8.2 m/s]",METAR VHHH 240900Z 10016G27KT 060V140 9999 FEW016 SCT022 BKN080 18/12 Q1018 WS LDG RWY 13/31 NOSIG
0,[Light Rain],1997-3-24,[15.0 °C],[Rain],"[50.0 km/h
		/ 13.9 m/s]",,[88%],[N/A],[1019 hPa],[17.0 °C],[8:00 PM],[6.0 km],[East],"[29.6 km/h
		/ 8.2 m/s]",METAR VHHH 241200Z 10016G27KT 070V140 6000 -RA FEW012 SCT017 BKN080 17/15 Q1019 WS LDG RWY 13/31 TEMPO VIS 4000 FBL RAIN
0,[Light Rain],1997-3-24,[15.0 °C],[Rain],"[46.3 km/h
		/ 12.9 m/s]",,[88%],[N/A],[1020 hPa],[17.0 °C],[10:00 PM],[6.0 km],[East],"[27.8 km/h
		/ 7.7 m/s]",METAR VHHH 241400Z 09015G25KT 040V140 6000 -RA FEW012 SCT017 BKN080 17/15 Q1020 WS LDG RWY 13/31 TEMPO 4000 -RA
0,[Light Rain],1997-3-24,[15.0 °C],[Rain],"[44.4 km/h
		/ 12.3 m/s]",,[88%],[N/A],[1020 hPa],[17.0 °C],[11:00 PM],[7.0 km],[East],"[25.9 km/h
		/ 7.2 m/s]",METAR VHHH 241500Z 10014G24KT 050V130 7000 -RA FEW011 SCT017 BKN080 17/15 Q1020 WS LDG RWY 13/31 TEMPO 4000 -RA
0,[Mostly Cloudy],1997-3-25,[14.0 °C],[],"[48.2 km/h
		/ 13.4 m/s]",,[82%],[N/A],[1019 hPa],[17.0 °C],[12:00 AM],[7.0 km],[East],"[29.6 km/h
		/ 8.2 m/s]",METAR VHHH 241600Z 10016G26KT 050V130 7000 FEW010 SCT017 BKN080 17/14 Q1019 WS LDG RWY 13/31 TEMPO 4000 -RA
0,[Light Rain],1997-3-25,[14.0 °C],[Rain],[-],,[88%],[N/A],[1019 hPa],[16.0 °C],[1:00 AM],[6.0 km],[East],"[24.1 km/h
		/ 6.7 m/s]",METAR VHHH 241700Z 09013KT 050V130 6000 -RA FEW010 SCT017 BKN080 16/14 Q1019 WS LDG RWY 13/31 TEMPO 4000 -RA
0,[Mostly Cloudy],1997-3-25,[13.0 °C],[],"[46.3 km/h
		/ 12.9 m/s]",,[82%],[N/A],[1018 hPa],[16.0 °C],[2:00 AM],[8.0 km],[East],"[25.9 km/h
		/ 7.2 m/s]",METAR VHHH 241800Z 10014G25KT 060V150 8000 FEW013 SCT017 BKN080 16/13 Q1018 WS LDG RWY 13/31 TEMPO 4000 -RA
0,[Mostly Cloudy],1997-3-25,[13.0 °C],[],[-],,[77%],[N/A],[1017 hPa],[17.0 °C],[3:00 AM],[10.0 km],[East],"[20.4 km/h
		/ 5.7 m/s]",METAR VHHH 241900Z 09011KT 050V150 9999 FEW013 SCT020 BKN080 17/13 Q1017 WS LDG RWY 13/31 TEMPO 4000 -RA
0,[Mostly Cloudy],1997-3-25,[14.0 °C],[],[-],,[82%],[N/A],[1017 hPa],[17.0 °C],[4:00 AM],[10.0 km],[ESE],"[22.2 km/h
		/ 6.2 m/s]",METAR VHHH 242000Z 11012KT 360V140 9999 FEW014 SCT020 BKN080 17/14 Q1017 WS LDG RWY 13/31 TEMPO 4000 -RA
0,[Mostly Cloudy],1997-3-25,[13.0 °C],[],[-],,[77%],[N/A],[1018 hPa],[17.0 °C],[5:00 AM],[10.0 km],[East],"[20.4 km/h
		/ 5.7 m/s]",METAR VHHH 242100Z 10011KT 040V160 9999 FEW014 SCT020 BKN080 17/13 Q1018 WS LDG RWY 13/31 TEMPO 4000 -RA
0,[Mostly Cloudy],1997-3-25,[13.0 °C],[],[-],,[77%],[N/A],[1019 hPa],[17.0 °C],[6:00 AM],[10.0 km],[ESE],"[18.5 km/h
		/ 5.1 m/s]",METAR VHHH 242200Z 11010KT 040V150 9999 FEW014 SCT020 BKN080 17/13 Q1019 WS LDG RWY 13/31 NOSIG
0,[Light Rain],1997-3-25,[13.0 °C],[Rain],"[46.3 km/h
		/ 12.9 m/s]",,[77%],[N/A],[1019 hPa],[17.0 °C],[7:00 AM],[10.0 km],[ESE],"[27.8 km/h
		/ 7.7 m/s]",METAR VHHH 242300Z 11015G25KT 070V130 9999 -RA FEW015 SCT020 BKN080 17/13 Q1019 WS LDG RWY 13/31 NOSIG
0,[Mostly Cloudy],1997-3-25,[13.0 °C],[],[-],,[77%],[N/A],[1019 hPa],[17.0 °C],[8:00 AM],[10.0 km],[East],"[25.9 km/h
		/ 7.2 m/s]",METAR VHHH 250000Z 10014KT 040V140 9999 FEW016 SCT022 BKN080 17/13 Q1019 WS LDG RWY 13/31 NOSIG
0,[Mostly Cloudy],1997-3-25,[13.0 °C],[],[-],,[73%],[N/A],[1019 hPa],[18.0 °C],[9:00 AM],[10.0 km],[ESE],"[29.6 km/h
		/ 8.2 m/s]",METAR VHHH 250100Z 11016KT 060V140 9999 FEW016 SCT022 BKN080 18/13 Q1019 WS LDG RWY 13/31 NOSIG
0,[Mostly Cloudy],1997-3-25,[13.0 °C],[],[-],,[68%],[N/A],[1020 hPa],[19.0 °C],[10:00 AM],[10.0 km],[East],"[20.4 km/h
		/ 5.7 m/s]",METAR VHHH 250200Z 10011KT 050V140 9999 FEW018 SCT022 BKN080 19/13 Q1020 NOSIG
0,[Mostly Cloudy],1997-3-25,[13.0 °C],[],[-],,[68%],[N/A],[1020 hPa],[19.0 °C],[11:00 AM],[10.0 km],[East],"[22.2 km/h
		/ 6.2 m/s]",METAR VHHH 250300Z 10012KT 050V140 9999 FEW018 SCT022 BKN080 19/13 Q1020 NOSIG
0,[Mostly Cloudy],1997-3-25,[14.0 °C],[],[-],,[68%],[N/A],[1019 hPa],[20.0 °C],[12:00 PM],[10.0 km],[East],"[24.1 km/h
		/ 6.7 m/s]",METAR VHHH 250400Z 10013KT 050V150 9999 FEW016 SCT022 BKN080 20/14 Q1019 NOSIG
0,[Mostly Cloudy],1997-3-25,[14.0 °C],[],[-],,[68%],[N/A],[1018 hPa],[20.0 °C],[1:00 PM],[10.0 km],[East],"[18.5 km/h
		/ 5.1 m/s]",METAR VHHH 250500Z 10010KT 030V150 9999 FEW016 SCT020 BKN080 20/14 Q1018 NOSIG
0,[Mostly Cloudy],1997-3-25,[14.0 °C],[],[-],,[68%],[N/A],[1018 hPa],[20.0 °C],[2:00 PM],[10.0 km],[East],"[18.5 km/h
		/ 5.1 m/s]",METAR VHHH 250600Z 10010KT 060V150 9999 FEW015 SCT020 BKN080 20/14 Q1018 NOSIG
0,[Mostly Cloudy],1997-3-25,[15.0 °C],[],[-],,[68%],[N/A],[1018 hPa],[21.0 °C],[3:00 PM],[10.0 km],[East],"[20.4 km/h
		/ 5.7 m/s]",METAR VHHH 250700Z 10011KT 9999 FEW015 SCT020 BKN080 21/15 Q1018 NOSIG
0,[Mostly Cloudy],1997-3-25,[15.0 °C],[],[-],,[73%],[N/A],[1017 hPa],[20.0 °C],[4:00 PM],[10.0 km],[East],"[14.8 km/h
		/ 4.1 m/s]",METAR VHHH 250800Z 08008KT 010V140 9999 FEW018 SCT025 BKN080 20/15 Q1017 NOSIG
0,[Mostly Cloudy],1997-3-25,[14.0 °C],[],[-],,[68%],[N/A],[1017 hPa],[20.0 °C],[5:00 PM],[10.0 km],[ESE],"[13.0 km/h
		/ 3.6 m/s]",METAR VHHH 250900Z 11007KT 070V140 9999 FEW018 SCT025 BKN080 20/14 Q1017 NOSIG
0,[Mostly Cloudy],1997-3-25,[14.0 °C],[],[-],,[68%],[N/A],[1017 hPa],[20.0 °C],[6:00 PM],[10.0 km],[East],"[13.0 km/h
		/ 3.6 m/s]",METAR VHHH 251000Z 10007KT 070V130 9999 FEW016 SCT025 BKN080 20/14 Q1017 NOSIG
0,[Mostly Cloudy],1997-3-25,[15.0 °C],[],[-],,[73%],[N/A],[1018 hPa],[20.0 °C],[7:00 PM],[10.0 km],[East],"[14.8 km/h
		/ 4.1 m/s]",METAR VHHH 251100Z 10008KT 060V120 9999 FEW016 SCT025 BKN080 20/15 Q1018 NOSIG
0,[Mostly Cloudy],1997-3-25,[15.0 °C],[],[-],,[73%],[N/A],[1018 hPa],[20.0 °C],[8:00 PM],[10.0 km],[East],"[14.8 km/h
		/ 4.1 m/s]",METAR VHHH 251200Z 10008KT 060V130 9999 FEW016 SCT025 BKN080 20/15 Q1018 NOSIG
0,[Mostly Cloudy],1997-3-25,[15.0 °C],[],[-],,[73%],[N/A],[1019 hPa],[20.0 °C],[9:00 PM],[10.0 km],[East],"[16.7 km/h
		/ 4.6 m/s]",METAR VHHH 251300Z 10009KT 070V130 9999 FEW016 SCT025 BKN080 20/15 Q1019 NOSIG
0,[Mostly Cloudy],1997-3-25,[16.0 °C],[],[-],,[78%],[N/A],[1019 hPa],[20.0 °C],[10:00 PM],[10.0 km],[East],"[14.8 km/h
		/ 4.1 m/s]",METAR VHHH 251400Z 10008KT 060V130 9999 FEW016 SCT020 BKN080 20/16 Q1019 NOSIG
0,[Mostly Cloudy],1997-3-25,[16.0 °C],[],[-],,[78%],[N/A],[1020 hPa],[20.0 °C],[11:00 PM],[10.0 km],[ESE],"[13.0 km/h
		/ 3.6 m/s]",METAR VHHH 251500Z 11007KT 070V150 9999 FEW016 SCT020 BKN080 20/16 Q1020 NOSIG
0,[Mostly Cloudy],1997-3-26,[16.0 °C],[],[-],,[78%],[N/A],[1019 hPa],[20.0 °C],[12:00 AM],[10.0 km],[East],"[9.3 km/h
		/ 2.6 m/s]",METAR VHHH 251600Z 10005KT 070V140 9999 FEW016 SCT025 BKN080 20/16 Q1019 NOSIG
0,[Mostly Cloudy],1997-3-26,[17.0 °C],[],[-],,[83%],[N/A],[1019 hPa],[20.0 °C],[1:00 AM],[10.0 km],[East],"[14.8 km/h
		/ 4.1 m/s]",METAR VHHH 251700Z 10008KT 080V140 9999 FEW016 SCT025 BKN080 20/17 Q1019 NOSIG
0,[Mostly Cloudy],1997-3-26,[17.0 °C],[],[-],,[83%],[N/A],[1018 hPa],[20.0 °C],[2:00 AM],[10.0 km],[ESE],"[11.1 km/h
		/ 3.1 m/s]",METAR VHHH 251800Z 11006KT 9999 FEW016 SCT030 BKN080 20/17 Q1018 NOSIG
0,[Scattered Clouds],1997-3-26,[16.0 °C],[],[-],,[78%],[N/A],[1018 hPa],[20.0 °C],[3:00 AM],[10.0 km],[East],"[13.0 km/h
		/ 3.6 m/s]",METAR VHHH 251900Z 09007KT 050V120 9999 FEW016 SCT080 20/16 Q1018 NOSIG
0,[Mostly Cloudy],1997-3-26,[17.0 °C],[],[-],,[83%],[N/A],[1017 hPa],[20.0 °C],[4:00 AM],[10.0 km],[SE],"[14.8 km/h
		/ 4.1 m/s]",METAR VHHH 252000Z 13008KT 9999 FEW016 SCT030 BKN080 20/17 Q1017 NOSIG
0,[Mostly Cloudy],1997-3-26,[17.0 °C],[],[-],,[83%],[N/A],[1017 hPa],[20.0 °C],[5:00 AM],[10.0 km],[ESE],"[7.4 km/h
		/ 2.1 m/s]",METAR VHHH 252100Z 12004KT 090V180 9999 FEW016 BKN080 20/17 Q1017 NOSIG
0,[Scattered Clouds],1997-3-26,[17.0 °C],[],[-],,[88%],[N/A],[1018 hPa],[19.0 °C],[6:00 AM],[10.0 km],[SE],"[11.1 km/h
		/ 3.1 m/s]",METAR VHHH 252200Z 13006KT 9999 FEW016 SCT080 19/17 Q1018 NOSIG
0,[Scattered Clouds],1997-3-26,[17.0 °C],[],[-],,[83%],[N/A],[1018 hPa],[20.0 °C],[7:00 AM],[10.0 km],[SE],"[16.7 km/h
		/ 4.6 m/s]",METAR VHHH 252300Z 14009KT 9999 FEW015 SCT030 20/17 Q1018 NOSIG
0,[Scattered Clouds],1997-3-26,[17.0 °C],[],[-],,[78%],[N/A],[1019 hPa],[21.0 °C],[8:00 AM],[10.0 km],[SE],"[11.1 km/h
		/ 3.1 m/s]",METAR VHHH 260000Z 13006KT 040V160 9999 FEW015 SCT025 21/17 Q1019 NOSIG
0,[Scattered Clouds],1997-3-26,[17.0 °C],[],[-],,[69%],[N/A],[1020 hPa],[23.0 °C],[9:00 AM],[10.0 km],[ESE],"[11.1 km/h
		/ 3.1 m/s]",METAR VHHH 260100Z 11006KT 060V160 9999 FEW015 SCT025 23/17 Q1020 NOSIG
0,[Scattered Clouds],1997-3-26,[17.0 °C],[],[-],,[69%],[N/A],[1020 hPa],[23.0 °C],[10:00 AM],[10.0 km],[ESE],"[11.1 km/h
		/ 3.1 m/s]",METAR VHHH 260200Z 11006KT 010V180 9999 FEW015 SCT022 23/17 Q1020 NOSIG
0,[Scattered Clouds],1997-3-26,[17.0 °C],[],[-],,[65%],[N/A],[1020 hPa],[24.0 °C],[11:00 AM],[10.0 km],[ESE],"[11.1 km/h
		/ 3.1 m/s]",METAR VHHH 260300Z 12006KT 040V150 9999 FEW016 SCT025 24/17 Q1020 NOSIG
0,[Scattered Clouds],1997-3-26,[18.0 °C],[],[-],,[61%],[N/A],[1020 hPa],[26.0 °C],[12:00 PM],[10.0 km],[SE],"[13.0 km/h
		/ 3.6 m/s]",METAR VHHH 260400Z 13007KT 070V170 9999 FEW018 SCT025 26/18 Q1020 NOSIG
0,[Scattered Clouds],1997-3-26,[17.0 °C],[],[-],,[61%],[N/A],[1019 hPa],[25.0 °C],[1:00 PM],[10.0 km],[SE],"[22.2 km/h
		/ 6.2 m/s]",METAR VHHH 260500Z 14012KT 9999 SCT025 SCT080 25/17 Q1019 NOSIG
0,[Scattered Clouds],1997-3-26,[18.0 °C],[],[-],,[61%],[N/A],[1018 hPa],[26.0 °C],[2:00 PM],[10.0 km],[SSE],"[24.1 km/h
		/ 6.7 m/s]",METAR VHHH 260600Z 15013KT 130V200 9999 FEW025 SCT300 26/18 Q1018 NOSIG
0,[Mostly Cloudy],1997-3-26,[17.0 °C],[],[-],,[61%],[N/A],[1017 hPa],[25.0 °C],[3:00 PM],[10.0 km],[SE],"[22.2 km/h
		/ 6.2 m/s]",METAR VHHH 260700Z 14012KT 9999 FEW025 BKN080 25/17 Q1017 NOSIG
0,[Partly Cloudy],1997-3-26,[17.0 °C],[],[-],,[61%],[N/A],[1017 hPa],[25.0 °C],[4:00 PM],[10.0 km],[SE],"[24.1 km/h
		/ 6.7 m/s]",METAR VHHH 260800Z 14013KT 9999 FEW020 25/17 Q1017 NOSIG
0,[Partly Cloudy],1997-3-26,[17.0 °C],[],[-],,[69%],[N/A],[1017 hPa],[23.0 °C],[5:00 PM],[10.0 km],[SE],"[25.9 km/h
		/ 7.2 m/s]",METAR VHHH 260900Z 14014KT 9999 FEW020 23/17 Q1017 NOSIG
0,[Scattered Clouds],1997-3-26,[17.0 °C],[],[-],,[73%],[N/A],[1018 hPa],[22.0 °C],[7:00 PM],[10.0 km],[SE],"[20.4 km/h
		/ 5.7 m/s]",METAR VHHH 261100Z 14011KT 9999 FEW025 SCT080 22/17 Q1018 NOSIG
0,[Clear],1997-3-26,[17.0 °C],[],[-],,[73%],[N/A],[1018 hPa],[22.0 °C],[8:00 PM],[-],[SE],"[13.0 km/h
		/ 3.6 m/s]",METAR VHHH 261200Z 14007KT 120V190 CAVOK 22/17 Q1018 NOSIG
0,[Clear],1997-3-26,[17.0 °C],[],[-],,[73%],[N/A],[1019 hPa],[22.0 °C],[9:00 PM],[-],[SE],"[13.0 km/h
		/ 3.6 m/s]",METAR VHHH 261300Z 14007KT CAVOK 22/17 Q1019 NOSIG
0,[Scattered Clouds],1997-3-26,[17.0 °C],[],[-],,[73%],[N/A],[1020 hPa],[22.0 °C],[10:00 PM],[10.0 km],[ESE],"[11.1 km/h
		/ 3.1 m/s]",METAR VHHH 261400Z 11006KT 9999 FEW025 SCT080 22/17 Q1020 NOSIG
0,[Scattered Clouds],1997-3-26,[18.0 °C],[],[-],,[78%],[N/A],[1020 hPa],[22.0 °C],[11:00 PM],[10.0 km],[ESE],"[5.6 km/h
		/ 1.5 m/s]",METAR VHHH 261500Z 11003KT 9999 FEW014 SCT080 22/18 Q1020 NOSIG
0,[Mostly Cloudy],1997-3-27,[18.0 °C],[],[-],,[83%],[N/A],[1020 hPa],[21.0 °C],[12:00 AM],[10.0 km],[East],"[11.1 km/h
		/ 3.1 m/s]",METAR VHHH 261600Z 09006KT 050V130 9999 FEW010 SCT015 BKN080 21/18 Q1020 NOSIG
0,[Mostly Cloudy],1997-3-27,[19.0 °C],[],[-],,[88%],[N/A],[1020 hPa],[21.0 °C],[1:00 AM],[10.0 km],[East],"[14.8 km/h
		/ 4.1 m/s]",METAR VHHH 261700Z 08008KT 030V210 9999 FEW010 SCT015 BKN080 21/19 Q1020 NOSIG
0,[Mostly Cloudy],1997-3-27,[18.0 °C],[],[-],,[83%],[N/A],[1019 hPa],[21.0 °C],[2:00 AM],[10.0 km],[East],"[22.2 km/h
		/ 6.2 m/s]",METAR VHHH 261800Z 08012KT 030V110 9999 FEW010 SCT015 BKN080 21/18 Q1019 NOSIG
0,[Mostly Cloudy],1997-3-27,[17.0 °C],[],[-],,[83%],[N/A],[1019 hPa],[20.0 °C],[3:00 AM],[10.0 km],[ENE],"[13.0 km/h
		/ 3.6 m/s]",METAR VHHH 261900Z 07007KT 320V120 9999 FEW010 SCT015 BKN080 20/17 Q1019 NOSIG
0,[Mostly Cloudy],1997-3-27,[16.0 °C],[],[-],,[78%],[N/A],[1018 hPa],[20.0 °C],[4:00 AM],[10.0 km],[East],"[18.5 km/h
		/ 5.1 m/s]",METAR VHHH 262000Z 09010KT 040V140 9999 FEW010 SCT016 BKN080 20/16 Q1018 NOSIG
0,[Scattered Clouds],1997-3-27,[15.0 °C],[],[-],,[78%],[N/A],[1018 hPa],[19.0 °C],[5:00 AM],[10.0 km],[East],"[22.2 km/h
		/ 6.2 m/s]",METAR VHHH 262100Z 10012KT 070V160 9999 FEW010 SCT016 19/15 Q1018 NOSIG
0,[Scattered Clouds],1997-3-27,[15.0 °C],[],"[38.9 km/h
		/ 10.8 m/s]",,[78%],[N/A],[1018 hPa],[19.0 °C],[6:00 AM],[10.0 km],[East],"[20.4 km/h
		/ 5.7 m/s]",METAR VHHH 262200Z 09011G21KT 050V130 9999 SCT014 19/15 Q1018 NOSIG
0,[Scattered Clouds],1997-3-27,[15.0 °C],[],[-],,[78%],[N/A],[1019 hPa],[19.0 °C],[7:00 AM],[10.0 km],[ESE],"[22.2 km/h
		/ 6.2 m/s]",METAR VHHH 262300Z 11012KT 080V150 9999 FEW016 SCT080 19/15 Q1019 NOSIG
0,[Scattered Clouds],1997-3-27,[16.0 °C],[],"[50.0 km/h
		/ 13.9 m/s]",,[78%],[N/A],[1019 hPa],[20.0 °C],[8:00 AM],[10.0 km],[East],"[29.6 km/h
		/ 8.2 m/s]",METAR VHHH 270000Z 10016G27KT 060V130 9999 FEW016 SCT080 20/16 Q1019 NOSIG
0,[Mostly Cloudy],1997-3-27,[16.0 °C],[],[-],,[73%],[N/A],[1019 hPa],[21.0 °C],[9:00 AM],[9.0 km],[East],"[33.3 km/h
		/ 9.3 m/s]",METAR VHHH 270100Z 10018KT 9000 FEW016 BKN080 21/16 Q1019 WS LDG RWY 13/31 NOSIG
0,[Scattered Clouds],1997-3-27,[15.0 °C],[],[-],,[68%],[N/A],[1020 hPa],[21.0 °C],[10:00 AM],[10.0 km],[East],"[27.8 km/h
		/ 7.7 m/s]",METAR VHHH 270200Z 10015KT 070V130 9999 FEW016 SCT080 21/15 Q1020 WS LDG RWY 13/31 NOSIG
0,[Mostly Cloudy],1997-3-27,[15.0 °C],[],"[48.2 km/h
		/ 13.4 m/s]",,[68%],[N/A],[1020 hPa],[21.0 °C],[11:00 AM],[10.0 km],[East],"[27.8 km/h
		/ 7.7 m/s]",METAR VHHH 270300Z 10015G26KT 070V130 9999 FEW018 BKN080 21/15 Q1020 WS LDG RWY 13/31 NOSIG
0,[Mostly Cloudy],1997-3-27,[15.0 °C],[],"[44.4 km/h
		/ 12.3 m/s]",,[64%],[N/A],[1019 hPa],[22.0 °C],[12:00 PM],[9.0 km],[East],"[24.1 km/h
		/ 6.7 m/s]",METAR VHHH 270400Z 10013G24KT 060V150 9000 FEW020 SCT025 BKN080 22/15 Q1019 WS LDG RWY 13/31 NOSIG
0,[Mostly Cloudy],1997-3-27,[13.0 °C],[],[-],,[60%],[N/A],[1018 hPa],[21.0 °C],[1:00 PM],[10.0 km],[East],"[35.2 km/h
		/ 9.8 m/s]",METAR VHHH 270500Z 10019KT 060V150 9999 FEW025 BKN080 21/13 Q1018 WS LDG RWY 13/31 NOSIG
0,[Mostly Cloudy],1997-3-27,[14.0 °C],[],[-],,[64%],[N/A],[1017 hPa],[21.0 °C],[2:00 PM],[10.0 km],[ESE],"[24.1 km/h
		/ 6.7 m/s]",METAR VHHH 270600Z 11013KT 070V170 9999 FEW022 BKN030 21/14 Q1017 WS LDG RWY 13/31 NOSIG
0,[Mostly Cloudy],1997-3-27,[14.0 °C],[],[-],,[64%],[N/A],[1017 hPa],[21.0 °C],[3:00 PM],[8.0 km],[ESE],"[13.0 km/h
		/ 3.6 m/s]",METAR VHHH 270700Z 12007KT 050V180 8000 FEW020 BKN028 21/14 Q1017 WS LDG RWY 13/31 NOSIG
0,[Mostly Cloudy],1997-3-27,[15.0 °C],[],[-],,[73%],[N/A],[1016 hPa],[20.0 °C],[4:00 PM],[8.0 km],[ESE],"[16.7 km/h
		/ 4.6 m/s]",METAR VHHH 270800Z 12009KT 080V180 8000 FEW015 SCT025 BKN040 20/15 Q1016 NOSIG
0,[Mostly Cloudy],1997-3-27,[15.0 °C],[],[-],,[73%],[N/A],[1016 hPa],[20.0 °C],[5:00 PM],[8.0 km],[ESE],"[20.4 km/h
		/ 5.7 m/s]",METAR VHHH 270900Z 11011KT 080V150 8000 FEW015 SCT025 BKN050 20/15 Q1016 NOSIG
0,[Mostly Cloudy],1997-3-27,[14.0 °C],[],[-],,[68%],[N/A],[1017 hPa],[20.0 °C],[7:00 PM],[8.0 km],[ESE],"[20.4 km/h
		/ 5.7 m/s]",METAR VHHH 271100Z 11011KT 060V160 8000 FEW015 SCT025 BKN080 20/14 Q1017 NOSIG
0,[Mostly Cloudy],1997-3-27,[15.0 °C],[],[-],,[73%],[N/A],[1018 hPa],[20.0 °C],[8:00 PM],[10.0 km],[ESE],"[22.2 km/h
		/ 6.2 m/s]",METAR VHHH 271200Z 12012KT 080V150 9999 FEW025 BKN080 20/15 Q1018 NOSIG
0,[Mostly Cloudy],1997-3-27,[14.0 °C],[],[-],,[68%],[N/A],[1018 hPa],[20.0 °C],[9:00 PM],[10.0 km],[ESE],"[18.5 km/h
		/ 5.1 m/s]",METAR VHHH 271300Z 11010KT 060V150 9999 FEW025 BKN080 20/14 Q1018 NOSIG
0,[Mostly Cloudy],1997-3-27,[15.0 °C],[],[-],,[73%],[N/A],[1018 hPa],[20.0 °C],[10:00 PM],[10.0 km],[East],"[18.5 km/h
		/ 5.1 m/s]",METAR VHHH 271400Z 10010KT 070V130 9999 FEW020 BKN080 20/15 Q1018 NOSIG
0,[Mostly Cloudy],1997-3-27,[15.0 °C],[],[-],,[73%],[N/A],[1018 hPa],[20.0 °C],[11:00 PM],[10.0 km],[ESE],"[14.8 km/h
		/ 4.1 m/s]",METAR VHHH 271500Z 11008KT 070V140 9999 FEW015 SCT020 BKN080 20/15 Q1018 NOSIG
0,[Mostly Cloudy],1997-3-28,[15.0 °C],[],[-],,[73%],[N/A],[1018 hPa],[20.0 °C],[12:00 AM],[10.0 km],[ESE],"[18.5 km/h
		/ 5.1 m/s]",METAR VHHH 271600Z 11010KT 070V160 9999 FEW012 SCT016 BKN080 20/15 Q1018 NOSIG
0,[Mostly Cloudy],1997-3-28,[15.0 °C],[],[-],,[78%],[N/A],[1017 hPa],[19.0 °C],[1:00 AM],[10.0 km],[ESE],"[16.7 km/h
		/ 4.6 m/s]",METAR VHHH 271700Z 11009KT 080V160 9999 FEW012 SCT016 BKN080 19/15 Q1017 NOSIG
0,[Mostly Cloudy],1997-3-28,[16.0 °C],[],[-],,[83%],[N/A],[1016 hPa],[19.0 °C],[2:00 AM],[10.0 km],[East],"[14.8 km/h
		/ 4.1 m/s]",METAR VHHH 271800Z 10008KT 060V150 9999 FEW010 SCT014 BKN080 19/16 Q1016 NOSIG
0,[Mostly Cloudy],1997-3-28,[16.0 °C],[],[-],,[83%],[N/A],[1015 hPa],[19.0 °C],[3:00 AM],[10.0 km],[East],"[20.4 km/h
		/ 5.7 m/s]",METAR VHHH 271900Z 10011KT 030V160 9999 FEW010 SCT014 BKN080 19/16 Q1015 NOSIG
0,[Mostly Cloudy],1997-3-28,[16.0 °C],[],[-],,[83%],[N/A],[1015 hPa],[19.0 °C],[4:00 AM],[10.0 km],[ESE],"[18.5 km/h
		/ 5.1 m/s]",METAR VHHH 272000Z 11010KT 060V160 9999 FEW010 SCT014 BKN080 19/16 Q1015 NOSIG
0,[Mostly Cloudy],1997-3-28,[16.0 °C],[],[-],,[83%],[N/A],[1015 hPa],[19.0 °C],[5:00 AM],[10.0 km],[ESE],"[16.7 km/h
		/ 4.6 m/s]",METAR VHHH 272100Z 11009KT 350V170 9999 FEW010 SCT014 BKN080 19/16 Q1015 NOSIG
0,[Mostly Cloudy],1997-3-28,[16.0 °C],[],[-],,[83%],[N/A],[1015 hPa],[19.0 °C],[6:00 AM],[10.0 km],[ESE],"[22.2 km/h
		/ 6.2 m/s]",METAR VHHH 272200Z 11012KT 060V150 9999 FEW008 SCT012 BKN080 19/16 Q1015 NOSIG
0,[Mostly Cloudy],1997-3-28,[16.0 °C],[],[-],,[83%],[N/A],[1016 hPa],[19.0 °C],[7:00 AM],[6.0 km],[ESE],"[11.1 km/h
		/ 3.1 m/s]",METAR VHHH 272300Z 11006KT 010V150 6000 FEW008 SCT012 BKN080 19/16 Q1016 TEMPO 5000M -RA
0,[Light Rain],1997-3-28,[16.0 °C],[Rain],[-],,[83%],[N/A],[1016 hPa],[19.0 °C],[8:00 AM],[6.0 km],[ESE],"[13.0 km/h
		/ 3.6 m/s]",METAR VHHH 280000Z 12007KT 080V170 6000 -RA FEW006 SCT012 BKN080 19/16 Q1016 TEMPO 5000 -RA
0,[Mostly Cloudy],1997-3-28,[16.0 °C],[],[-],,[78%],[N/A],[1016 hPa],[20.0 °C],[9:00 AM],[6.0 km],[East],"[18.5 km/h
		/ 5.1 m/s]",METAR VHHH 280100Z 10010KT 050V150 6000 FEW006 SCT014 BKN080 20/16 Q1016 TEMPO 4500 -RA
0,[Mostly Cloudy],1997-3-28,[16.0 °C],[],[-],,[83%],[N/A],[1016 hPa],[19.0 °C],[10:00 AM],[7.0 km],[ESE],"[18.5 km/h
		/ 5.1 m/s]",METAR VHHH 280200Z 11010KT 060V150 7000 FEW006 SCT014 BKN080 19/16 Q1016 TEMPO 4500 -RA
0,[Mostly Cloudy],1997-3-28,[17.0 °C],[],[-],,[88%],[N/A],[1016 hPa],[19.0 °C],[11:00 AM],[6.0 km],[ESE],"[14.8 km/h
		/ 4.1 m/s]",METAR VHHH 280300Z 11008KT 060V150 6000 FEW006 SCT012 BKN080 19/17 Q1016 TEMPO 4500 -RA
0,[Mostly Cloudy],1997-3-28,[17.0 °C],[],[-],,[83%],[N/A],[1017 hPa],[20.0 °C],[12:00 PM],[6.0 km],[ESE],"[18.5 km/h
		/ 5.1 m/s]",METAR VHHH 280400Z 11010KT 080V150 6000 FEW005 SCT012 BKN080 20/17 Q1017 TEMPO 4500 -RA
0,[Mostly Cloudy],1997-3-28,[17.0 °C],[],[-],,[78%],[N/A],[1014 hPa],[21.0 °C],[1:00 PM],[7.0 km],[ESE],"[16.7 km/h
		/ 4.6 m/s]",METAR VHHH 280500Z 11009KT 060V150 7000 FEW006 SCT012 BKN080 21/17 Q1014 TEMPO 4500 -RA
0,[Mostly Cloudy],1997-3-28,[17.0 °C],[],[-],,[78%],[N/A],[1014 hPa],[21.0 °C],[2:00 PM],[7.0 km],[East],"[14.8 km/h
		/ 4.1 m/s]",METAR VHHH 280600Z 09008KT 050V140 7000 FEW006 SCT012 BKN080 21/17 Q1014 NOSIG
0,[Light Rain],1997-3-28,[18.0 °C],[Rain],[-],,[83%],[N/A],[1013 hPa],[21.0 °C],[3:00 PM],[6.0 km],[ESE],"[18.5 km/h
		/ 5.1 m/s]",METAR VHHH 280700Z 11010KT 080V150 6000 -RA FEW006 SCT012 BKN080 21/18 Q1013 TEMPO 4000 -RA
0,[Mostly Cloudy],1997-3-28,[17.0 °C],[],[-],,[78%],[N/A],[1012 hPa],[21.0 °C],[4:00 PM],[7.0 km],[ESE],"[14.8 km/h
		/ 4.1 m/s]",METAR VHHH 280800Z 12008KT 080V150 7000 FEW006 SCT012 BKN080 21/17 Q1012 TEMPO 4000 -RA
0,[Light Rain],1997-3-28,[18.0 °C],[Rain],[-],,[88%],[N/A],[1012 hPa],[20.0 °C],[5:00 PM],[6.0 km],[ESE],"[11.1 km/h
		/ 3.1 m/s]",METAR VHHH 280900Z 11006KT 060V140 6000 -RA FEW006 SCT012 BKN080 20/18 Q1012 TEMPO 3000 RA
0,[Light Rain],1997-3-28,[18.0 °C],[Rain],[-],,[94%],[N/A],[1013 hPa],[19.0 °C],[6:00 PM],[-],[SE],"[11.1 km/h
		/ 3.1 m/s]",METAR VHHH 281000Z 13006KT 070V160 3800 -RA FEW006 SCT012 BKN080 19/18 Q1013 TEMPO 3000 RA
0,[Rain],1997-3-28,[18.0 °C],[Rain],[-],,[88%],[N/A],[1012 hPa],[20.0 °C],[7:00 PM],[-],[ESE],"[18.5 km/h
		/ 5.1 m/s]",METAR VHHH 281100Z 12010KT 4200 RA BR FEW006 SCT012 BKN080 20/18 Q1012 RERA TEMPO 3000 RA
0,[Light Rain],1997-3-28,[18.0 °C],[Rain],[-],,[88%],[N/A],[1013 hPa],[20.0 °C],[8:00 PM],[6.0 km],[SE],"[13.0 km/h
		/ 3.6 m/s]",METAR VHHH 281200Z 14007KT 6000 -RA FEW006 SCT012 BKN080 20/18 Q1013 RERA TEMPO 3000 RA
0,[Light Rain],1997-3-28,[18.0 °C],[Rain],[-],,[88%],[N/A],[1014 hPa],[20.0 °C],[9:00 PM],[6.0 km],[SE],"[14.8 km/h
		/ 4.1 m/s]",METAR VHHH 281300Z 14008KT 6000 -RA FEW005 SCT012 BKN080 20/18 Q1014 TEMPO 4000 -RA
0,[Mostly Cloudy],1997-3-28,[18.0 °C],[],[-],,[88%],[N/A],[1014 hPa],[20.0 °C],[10:00 PM],[7.0 km],[SE],"[11.1 km/h
		/ 3.1 m/s]",METAR VHHH 281400Z 14006KT 7000 FEW007 SCT014 BKN080 20/18 Q1014 TEMPO 4000 -RA
0,[Light Rain],1997-3-28,[18.0 °C],[Rain],[-],,[88%],[N/A],[1014 hPa],[20.0 °C],[11:00 PM],[6.0 km],[SE],"[13.0 km/h
		/ 3.6 m/s]",METAR VHHH 281500Z 14007KT 6000 -RA FEW007 SCT014 BKN080 20/18 Q1014 TEMPO 4000 -RA
0,[Light Rain],1997-3-29,[18.0 °C],[Rain],[-],,[88%],[N/A],[1014 hPa],[20.0 °C],[12:00 AM],[6.0 km],[SE],"[14.8 km/h
		/ 4.1 m/s]",METAR VHHH 281600Z 13008KT 110V180 6000 -RA FEW007 SCT012 BKN080 20/18 Q1014 TEMPO 4000 -RA
0,[Light Rain],1997-3-29,[18.0 °C],[Rain],[-],,[94%],[N/A],[1013 hPa],[19.0 °C],[1:00 AM],[6.0 km],[SSE],"[13.0 km/h
		/ 3.6 m/s]",METAR VHHH 281700Z 15007KT 6000 -RA61 FEW007 SCT012 BKN080 19/18 Q1013 TEMPO 4000 -RA
0,[Mostly Cloudy],1997-3-29,[18.0 °C],[],[-],,[94%],[N/A],[1012 hPa],[19.0 °C],[2:00 AM],[7.0 km],[SE],"[7.4 km/h
		/ 2.1 m/s]",METAR VHHH 281800Z 14004KT 090V160 7000 FEW007 SCT014 BKN090 19/18 Q1012 TEMPO 4000 -RA
0,[Mostly Cloudy],1997-3-29,[18.0 °C],[],[-],,[94%],[N/A],[1012 hPa],[19.0 °C],[3:00 AM],[6.0 km],[ESE],"[11.1 km/h
		/ 3.1 m/s]",METAR VHHH 281900Z 12006KT 6000 FEW007 SCT014 BKN080 19/18 Q1012 TEMPO 4000 -RA
0,[Mostly Cloudy],1997-3-29,[19.0 °C],[],[-],,[94%],[N/A],[1012 hPa],[20.0 °C],[4:00 AM],[6.0 km],[ESE],"[11.1 km/h
		/ 3.1 m/s]",METAR VHHH 282000Z 12006KT 090V160 6000 FEW007 SCT014 BKN080 20/19 Q1012 TEMPO 4000 -RA
0,[Light Thunderstorms and Rain],1997-3-29,[19.0 °C],"[Rain
	,
Thunderstorm]",[-],,[94%],[N/A],[1013 hPa],[20.0 °C],[5:00 AM],[6.0 km],[SSE],"[5.6 km/h
		/ 1.5 m/s]",METAR VHHH 282100Z 15003KT 6000 -TSRA FEW007 FEW015CB SCT015 BKN080 20/19 Q1013 WS LDG RWY 13/31 TEMPO VRB15G28KT 2500 TSRA FEW005 FEW012CB SCT015
0,[Thunderstorms and Rain],1997-3-29,[19.0 °C],"[Rain
	,
Thunderstorm]",[-],,[94%],[N/A],[1013 hPa],[20.0 °C],[6:00 AM],[4.5 km],[SSE],"[13.0 km/h
		/ 3.6 m/s]",METAR VHHH 282200Z 16007KT 4500 TSRA FEW005 FEW012CB SCT015 BKN080 20/19 Q1013 WS LDG RWY 13/31 TEMPO VRB15G28KT 2500 TSRA FEW005 FEW012CB SCT015
0,[Thunderstorms and Rain],1997-3-29,[19.0 °C],"[Rain
	,
Thunderstorm]",[-],,[94%],[N/A],[1013 hPa],[20.0 °C],[7:00 AM],[-],[SE],"[14.8 km/h
		/ 4.1 m/s]",METAR VHHH 282300Z 13008KT 4800 TSRA FEW005 FEW012CB SCT017 BKN080 20/19 Q1013 WS LDG RWY 13/31 TEMPO VRB15G28KT 2500 TSRA FEW005 FEW012CB SCT015
0,[Mostly Cloudy],1997-3-29,[19.0 °C],[],[-],,[88%],[N/A],[1014 hPa],[21.0 °C],[8:00 AM],[7.0 km],[SSE],"[3.7 km/h
		/ 1.0 m/s]",METAR VHHH 290000Z 15002KT 7000 FEW005 SCT014 BKN080 21/19 Q1014 RETS WS LDG RWY 13/31 TEMPO VRB15G28KT 2500 TSRA FEW005 FEW012CB SCT015
0,[Mostly Cloudy],1997-3-29,[19.0 °C],[],[-],,[88%],[N/A],[1015 hPa],[21.0 °C],[9:00 AM],[6.0 km],[East],"[9.3 km/h
		/ 2.6 m/s]",METAR VHHH 290100Z 09005KT 050V160 6000 FEW005 SCT014 BKN080 21/19 Q1015 NOSIG
0,[Mostly Cloudy],1997-3-29,[19.0 °C],[],[-],,[88%],[N/A],[1016 hPa],[21.0 °C],[10:00 AM],[7.0 km],[SSE],"[7.4 km/h
		/ 2.1 m/s]",METAR VHHH 290200Z 16004KT 110V250 7000 FEW005 SCT014 BKN080 21/19 Q1016 NOSIG
0,[Mostly Cloudy],1997-3-29,[19.0 °C],[],[-],,[88%],[N/A],[1015 hPa],[21.0 °C],[11:00 AM],[7.0 km],[SSE],"[11.1 km/h
		/ 3.1 m/s]",METAR VHHH 290300Z 15006KT 120V180 7000 FEW005 SCT014 BKN080 21/19 Q1015 NOSIG
0,[Mostly Cloudy],1997-3-29,[19.0 °C],[],[-],,[83%],[N/A],[1015 hPa],[22.0 °C],[12:00 PM],[7.0 km],[SE],"[9.3 km/h
		/ 2.6 m/s]",METAR VHHH 290400Z 13005KT 090V160 7000 FEW005 SCT014 BKN080 22/19 Q1015 TEMPO 3000 BR
0,[Mostly Cloudy],1997-3-29,[19.0 °C],[],[-],,[83%],[N/A],[1014 hPa],[22.0 °C],[1:00 PM],[7.0 km],[SSE],"[16.7 km/h
		/ 4.6 m/s]",METAR VHHH 290500Z 15009KT 110V210 7000 FEW005 SCT014 BKN080 22/19 Q1014 TEMPO 3000 BR
0,[Mostly Cloudy],1997-3-29,[20.0 °C],[],[-],,[83%],[N/A],[1014 hPa],[23.0 °C],[2:00 PM],[6.0 km],[East],"[11.1 km/h
		/ 3.1 m/s]",METAR VHHH 290600Z 08006KT 050V140 6000 FEW010 SCT016 BKN080 23/20 Q1014 TEMPO 4500 BR
0,[Mostly Cloudy],1997-3-29,[19.0 °C],[],[-],,[73%],[N/A],[1014 hPa],[24.0 °C],[3:00 PM],[7.0 km],[East],"[16.7 km/h
		/ 4.6 m/s]",METAR VHHH 290700Z 08009KT 7000 FEW008 SCT014 BKN080 24/19 Q1014 NOSIG
0,[Scattered Clouds],1997-3-29,[19.0 °C],[],[-],,[78%],[N/A],[1014 hPa],[23.0 °C],[4:00 PM],[6.0 km],[East],"[14.8 km/h
		/ 4.1 m/s]",METAR VHHH 290800Z 08008KT 6000 FEW009 SCT020 23/19 Q1014 NOSIG
0,[Scattered Clouds],1997-3-29,[20.0 °C],[],[-],,[83%],[N/A],[1014 hPa],[23.0 °C],[5:00 PM],[8.0 km],[ESE],"[9.3 km/h
		/ 2.6 m/s]",METAR VHHH 290900Z 12005KT 080V150 8000 FEW012 SCT016 23/20 Q1014 NOSIG
0,[Partly Cloudy],1997-3-29,[19.0 °C],[],[-],,[78%],[N/A],[1014 hPa],[23.0 °C],[6:00 PM],[8.0 km],[East],"[11.1 km/h
		/ 3.1 m/s]",METAR VHHH 291000Z 08006KT 060V120 8000 FEW012 23/19 Q1014 NOSIG
0,[Scattered Clouds],1997-3-29,[19.0 °C],[],[-],,[83%],[N/A],[1015 hPa],[22.0 °C],[7:00 PM],[10.0 km],[East],"[14.8 km/h
		/ 4.1 m/s]",METAR VHHH 291100Z 08008KT 9999 FEW009 SCT016 22/19 Q1015 NOSIG
0,[Scattered Clouds],1997-3-29,[19.0 °C],[],[-],,[88%],[N/A],[1015 hPa],[21.0 °C],[8:00 PM],[10.0 km],[East],"[13.0 km/h
		/ 3.6 m/s]",METAR VHHH 291200Z 10007KT 050V130 9999 FEW008 SCT014 21/19 Q1015 NOSIG
0,[Scattered Clouds],1997-3-29,[19.0 °C],[],[-],,[83%],[N/A],[1016 hPa],[22.0 °C],[9:00 PM],[10.0 km],[ESE],"[9.3 km/h
		/ 2.6 m/s]",METAR VHHH 291300Z 11005KT 070V140 9999 FEW008 SCT014 22/19 Q1016 NOSIG
0,[Scattered Clouds],1997-3-29,[19.0 °C],[],[-],,[88%],[N/A],[1016 hPa],[21.0 °C],[10:00 PM],[10.0 km],[East],"[7.4 km/h
		/ 2.1 m/s]",METAR VHHH 291400Z 09004KT 060V120 9999 FEW008 SCT014 21/19 Q1016 NOSIG
0,[Partly Cloudy],1997-3-29,[19.0 °C],[],[-],,[83%],[N/A],[1017 hPa],[22.0 °C],[11:00 PM],[10.0 km],[ESE],"[3.7 km/h
		/ 1.0 m/s]",METAR VHHH 291500Z 11002KT 9999 FEW008 22/19 Q1017 NOSIG
0,[Partly Cloudy],1997-3-30,[19.0 °C],[],[-],,[83%],[N/A],[1017 hPa],[22.0 °C],[12:00 AM],[10.0 km],[SE],"[9.3 km/h
		/ 2.6 m/s]",METAR VHHH 291600Z 13005KT 090V170 9999 FEW008 22/19 Q1017 NOSIG
0,[Partly Cloudy],1997-3-30,[19.0 °C],[],[-],,[94%],[N/A],[1016 hPa],[20.0 °C],[1:00 AM],[10.0 km],[SE],"[3.7 km/h
		/ 1.0 m/s]",METAR VHHH 291700Z 13002KT 9999 FEW008 20/19 Q1016 NOSIG
0,[Partly Cloudy],1997-3-30,[18.0 °C],[],[-],,[94%],[N/A],[1016 hPa],[19.0 °C],[2:00 AM],[10.0 km],[SE],"[7.4 km/h
		/ 2.1 m/s]",METAR VHHH 291800Z 14004KT 9999 FEW009 19/18 Q1016 NOSIG
0,[Partly Cloudy],1997-3-30,[19.0 °C],[],[-],,[100%],[N/A],[1016 hPa],[19.0 °C],[3:00 AM],[10.0 km],[SE],"[7.4 km/h
		/ 2.1 m/s]",METAR VHHH 291900Z 13004KT 9999 FEW012 19/19 Q1016 NOSIG
0,[Partly Cloudy],1997-3-30,[18.0 °C],[],[-],,[100%],[N/A],[1016 hPa],[18.0 °C],[4:00 AM],[10.0 km],[SE],"[1.9 km/h
		/ 0.5 m/s]",METAR VHHH 292000Z 14001KT 9999 FEW012 18/18 Q1016 NOSIG
0,[Partly Cloudy],1997-3-30,[18.0 °C],[],[-],,[94%],[N/A],[1016 hPa],[19.0 °C],[5:00 AM],[10.0 km],[SE],"[13.0 km/h
		/ 3.6 m/s]",METAR VHHH 292100Z 14007KT 9999 FEW020 19/18 Q1016 NOSIG
0,[Partly Cloudy],1997-3-30,[18.0 °C],[],[-],,[94%],[N/A],[1017 hPa],[19.0 °C],[6:00 AM],[10.0 km],[ESE],"[9.3 km/h
		/ 2.6 m/s]",METAR VHHH 292200Z 12005KT 9999 FEW017 19/18 Q1017 NOSIG
0,[Partly Cloudy],1997-3-30,[19.0 °C],[],[-],,[83%],[N/A],[1019 hPa],[22.0 °C],[8:00 AM],[10.0 km],[SSE],"[3.7 km/h
		/ 1.0 m/s]",METAR VHHH 300000Z 15002KT 9999 FEW014 22/19 Q1019 NOSIG
0,[Partly Cloudy],1997-3-30,[19.0 °C],[],[-],,[73%],[N/A],[1019 hPa],[24.0 °C],[9:00 AM],[10.0 km],[East],"[11.1 km/h
		/ 3.1 m/s]",METAR VHHH 300100Z 10006KT 9999 FEW014 24/19 Q1019 NOSIG
0,[Partly Cloudy],1997-3-30,[18.0 °C],[],[-],,[65%],[N/A],[1019 hPa],[25.0 °C],[10:00 AM],[10.0 km],[ENE],"[7.4 km/h
		/ 2.1 m/s]",METAR VHHH 300200Z 07004KT 030V130 9999 FEW020 25/18 Q1019 NOSIG
0,[Partly Cloudy],1997-3-30,[18.0 °C],[],[-],,[61%],[N/A],[1019 hPa],[26.0 °C],[11:00 AM],[10.0 km],[East],"[13.0 km/h
		/ 3.6 m/s]",METAR VHHH 300300Z 10007KT 040V130 9999 FEW025 26/18 Q1019 NOSIG
0,[Partly Cloudy],1997-3-30,[16.0 °C],[],[-],,[54%],[N/A],[1018 hPa],[26.0 °C],[12:00 PM],[10.0 km],[East],"[25.9 km/h
		/ 7.2 m/s]",METAR VHHH 300400Z 09014KT 060V130 9999 FEW025 26/16 Q1018 NOSIG
0,[Partly Cloudy],1997-3-30,[17.0 °C],[],[-],,[57%],[N/A],[1018 hPa],[26.0 °C],[1:00 PM],[10.0 km],[East],"[18.5 km/h
		/ 5.1 m/s]",METAR VHHH 300500Z 09010KT 030V120 9999 FEW025 26/17 Q1018 NOSIG
0,[Partly Cloudy],1997-3-30,[16.0 °C],[],[-],,[54%],[N/A],[1017 hPa],[26.0 °C],[2:00 PM],[10.0 km],[East],"[25.9 km/h
		/ 7.2 m/s]",METAR VHHH 300600Z 09014KT 9999 FEW025 26/16 Q1017 WS LDG RWY 13/31 NOSIG
0,[Partly Cloudy],1997-3-30,[16.0 °C],[],[-],,[57%],[N/A],[1017 hPa],[25.0 °C],[3:00 PM],[10.0 km],[ENE],"[20.4 km/h
		/ 5.7 m/s]",METAR VHHH 300700Z 07011KT 010V130 9999 FEW025 25/16 Q1017 NOSIG
0,[Partly Cloudy],1997-3-30,[16.0 °C],[],[-],,[61%],[N/A],[1016 hPa],[24.0 °C],[4:00 PM],[10.0 km],[East],"[24.1 km/h
		/ 6.7 m/s]",METAR VHHH 300800Z 10013KT 050V130 9999 FEW025 24/16 Q1016 WS LDG RWY 13/31 NOSIG
0,[Partly Cloudy],1997-3-30,[15.0 °C],[],[-],,[57%],[N/A],[1017 hPa],[24.0 °C],[5:00 PM],[10.0 km],[East],"[18.5 km/h
		/ 5.1 m/s]",METAR VHHH 300900Z 08010KT 030V110 9999 FEW025 24/15 Q1017 NOSIG
0,[Partly Cloudy],1997-3-30,[17.0 °C],[],[-],,[73%],[N/A],[1017 hPa],[22.0 °C],[6:00 PM],[10.0 km],[East],"[20.4 km/h
		/ 5.7 m/s]",METAR VHHH 301000Z 09011KT 040V120 9999 FEW016 22/17 Q1017 WS LDG RWY 13/31 NOSIG
0,[Partly Cloudy],1997-3-30,[18.0 °C],[],[-],,[73%],[N/A],[1017 hPa],[23.0 °C],[7:00 PM],[10.0 km],[East],"[13.0 km/h
		/ 3.6 m/s]",METAR VHHH 301100Z 09007KT 060V120 9999 FEW013 23/18 Q1017 NOSIG
0,[Partly Cloudy],1997-3-30,[17.0 °C],[],[-],,[73%],[N/A],[1018 hPa],[22.0 °C],[8:00 PM],[10.0 km],[East],"[13.0 km/h
		/ 3.6 m/s]",METAR VHHH 301200Z 09007KT 050V120 9999 FEW020 22/17 Q1018 NOSIG
0,[Partly Cloudy],1997-3-30,[16.0 °C],[],[-],,[69%],[N/A],[1019 hPa],[22.0 °C],[9:00 PM],[10.0 km],[East],"[14.8 km/h
		/ 4.1 m/s]",METAR VHHH 301300Z 10008KT 060V140 9999 FEW020 22/16 Q1019 NOSIG
0,[Partly Cloudy],1997-3-30,[16.0 °C],[],[-],,[69%],[N/A],[1019 hPa],[22.0 °C],[10:00 PM],[10.0 km],[East],"[18.5 km/h
		/ 5.1 m/s]",METAR VHHH 301400Z 10010KT 060V130 9999 FEW020 22/16 Q1019 NOSIG
0,[Partly Cloudy],1997-3-30,[17.0 °C],[],[-],,[73%],[N/A],[1019 hPa],[22.0 °C],[11:00 PM],[10.0 km],[East],"[16.7 km/h
		/ 4.6 m/s]",METAR VHHH 301500Z 08009KT 010V130 9999 FEW020 22/17 Q1019 NOSIG
0,[Partly Cloudy],1997-3-31,[17.0 °C],[],[-],,[78%],[N/A],[1019 hPa],[21.0 °C],[12:00 AM],[10.0 km],[East],"[16.7 km/h
		/ 4.6 m/s]",METAR VHHH 301600Z 09009KT 040V160 9999 FEW012 21/17 Q1019 NOSIG
0,[Scattered Clouds],1997-3-31,[17.0 °C],[],[-],,[83%],[N/A],[1019 hPa],[20.0 °C],[1:00 AM],[10.0 km],[East],"[18.5 km/h
		/ 5.1 m/s]",METAR VHHH 301700Z 10010KT 060V130 9999 FEW012 SCT018 20/17 Q1019 NOSIG
0,[Scattered Clouds],1997-3-31,[16.0 °C],[],[-],,[78%],[N/A],[1019 hPa],[20.0 °C],[2:00 AM],[10.0 km],[East],"[14.8 km/h
		/ 4.1 m/s]",METAR VHHH 301800Z 08008KT 360V160 9999 SCT015 20/16 Q1019 NOSIG
0,[Scattered Clouds],1997-3-31,[16.0 °C],[],[-],,[78%],[N/A],[1018 hPa],[20.0 °C],[3:00 AM],[7.0 km],[ESE],"[18.5 km/h
		/ 5.1 m/s]",METAR VHHH 301900Z 11010KT 050V170 7000 FEW016 SCT020 20/16 Q1018 WS LDG RWY 13/31 NOSIG
0,[Scattered Clouds],1997-3-31,[15.0 °C],[],"[42.6 km/h
		/ 11.8 m/s]",,[73%],[N/A],[1017 hPa],[20.0 °C],[4:00 AM],[7.0 km],[East],"[22.2 km/h
		/ 6.2 m/s]",METAR VHHH 302000Z 10012G23KT 050V150 7000 FEW016 SCT020 20/15 Q1017 WS LDG RWY 13/31 NOSIG
0,[Scattered Clouds],1997-3-31,[15.0 °C],[],"[48.2 km/h
		/ 13.4 m/s]",,[78%],[N/A],[1017 hPa],[19.0 °C],[5:00 AM],[6.0 km],[East],"[24.1 km/h
		/ 6.7 m/s]",METAR VHHH 302100Z 10013G26KT 030V150 6000 FEW015 SCT020 19/15 Q1017 WS LDG RWY 13/31 NOSIG
0,[Scattered Clouds],1997-3-31,[15.0 °C],[],[-],,[78%],[N/A],[1018 hPa],[19.0 °C],[6:00 AM],[-],[ESE],"[18.5 km/h
		/ 5.1 m/s]",METAR VHHH 302200Z 11010KT 050V130 4800 BR FEW016 SCT020 19/15 Q1018 WS LDG RWY 13/31 TEMPO 4500 BR NOSIG
0,[Scattered Clouds],1997-3-31,[15.0 °C],[],"[44.4 km/h
		/ 12.3 m/s]",,[78%],[N/A],[1018 hPa],[19.0 °C],[7:00 AM],[-],[East],"[24.1 km/h
		/ 6.7 m/s]",METAR VHHH 302300Z 10013G24KT 040V150 4800 BR SCT016 19/15 Q1018 WS LDG RWY 13/31 TEMPO 4500 BR
0,[Haze],1997-3-31,[16.0 °C],[],[-],,[78%],[N/A],[1019 hPa],[20.0 °C],[8:00 AM],[-],[ESE],"[20.4 km/h
		/ 5.7 m/s]",METAR VHHH 310000Z 11011KT 070V140 4800 HZ FEW014 SCT018 20/16 Q1019 WS LDG RWY 13/31 TEMPO 4500 BR
0,[Haze],1997-3-31,[15.0 °C],[],[-],,[68%],[N/A],[1019 hPa],[21.0 °C],[9:00 AM],[4.5 km],[East],"[25.9 km/h
		/ 7.2 m/s]",METAR VHHH 310100Z 10014KT 060V140 4500 HZ FEW012 SCT018 21/15 Q1019 WS LDG RWY 13/31 TEMPO 4500 BR
0,[Haze],1997-3-31,[16.0 °C],[],[-],,[73%],[N/A],[1019 hPa],[21.0 °C],[10:00 AM],[3.5 km],[East],"[24.1 km/h
		/ 6.7 m/s]",METAR VHHH 310200Z 10013KT 060V130 3500SE HZ FEW012 SCT018 21/16 Q1019 WS LDG RWY 13/31 TEMPO 4000 BR
0,[Haze],1997-3-31,[16.0 °C],[],"[46.3 km/h
		/ 12.9 m/s]",,[69%],[N/A],[1019 hPa],[22.0 °C],[11:00 AM],[4.0 km],[East],"[25.9 km/h
		/ 7.2 m/s]",METAR VHHH 310300Z 09014G25KT 060V150 4000 HZ FEW012 SCT018 22/16 Q1019 WS LDG RWY 13/31 TEMPO 4000 BR
0,[Haze],1997-3-31,[16.0 °C],[],"[46.3 km/h
		/ 12.9 m/s]",,[65%],[N/A],[1018 hPa],[23.0 °C],[12:00 PM],[4.5 km],[East],"[24.1 km/h
		/ 6.7 m/s]",METAR VHHH 310400Z 10013G25KT 020V150 4500 HZ FEW014 23/16 Q1018 WS LDG RWY 13/31 TEMPO 4000 BR
0,[Haze],1997-3-31,[16.0 °C],[],"[46.3 km/h
		/ 12.9 m/s]",,[65%],[N/A],[1017 hPa],[23.0 °C],[1:00 PM],[4.5 km],[East],"[27.8 km/h
		/ 7.7 m/s]",METAR VHHH 310500Z 09015G25KT 060V130 4500 HZ FEW014 SCT020 23/16 Q1017 WS LDG RWY 13/31 TEMPO 4000 BR
0,[Haze],1997-3-31,[17.0 °C],[],[-],,[65%],[N/A],[1017 hPa],[24.0 °C],[2:00 PM],[4.5 km],[East],"[22.2 km/h
		/ 6.2 m/s]",METAR VHHH 310600Z 10012KT 060V120 4500 HZ FEW018 24/17 Q1017 WS LDG RWY 13/31 TEMPO 4000 HZ
0,[Haze],1997-3-31,[16.0 °C],[],[-],,[65%],[N/A],[1016 hPa],[23.0 °C],[3:00 PM],[-],[East],"[18.5 km/h
		/ 5.1 m/s]",METAR VHHH 310700Z 10010KT 060V150 4800 HZ05 FEW018 SCT025 23/16 Q1016 WS LDG RWY 13/31 TEMPO 4000 HZ
0,[Haze],1997-3-31,[16.0 °C],[],[-],,[69%],[N/A],[1016 hPa],[22.0 °C],[4:00 PM],[-],[East],"[16.7 km/h
		/ 4.6 m/s]",METAR VHHH 310800Z 09009KT 060V120 4800 HZ FEW018 SCT300 22/16 Q1016 WS LDG RWY 13/31 TEMPO 4000 HZ
0,[Haze],1997-3-31,[17.0 °C],[],[-],,[73%],[N/A],[1016 hPa],[22.0 °C],[5:00 PM],[4.5 km],[East],"[16.7 km/h
		/ 4.6 m/s]",METAR VHHH 310900Z 09009KT 050V120 4500 HZ FEW016 SCT300 22/17 Q1016 WS LDG RWY 13/31 TEMPO 4000 HZ
0,[Haze],1997-3-31,[17.0 °C],[],[-],,[73%],[N/A],[1016 hPa],[22.0 °C],[6:00 PM],[4.5 km],[East],"[20.4 km/h
		/ 5.7 m/s]",METAR VHHH 311000Z 09011KT 060V130 4500 HZ FEW015 SCT030 22/17 Q1016 TEMPO 4000 HZ
0,[Scattered Clouds],1997-3-31,[17.0 °C],[],[-],,[78%],[N/A],[1017 hPa],[21.0 °C],[8:00 PM],[6.0 km],[East],"[16.7 km/h
		/ 4.6 m/s]",METAR VHHH 311200Z 09009KT 050V140 6000 FEW013 SCT018 21/17 Q1017 TEMPO 4000 HZ
0,[Scattered Clouds],1997-3-31,[18.0 °C],[],[-],,[83%],[N/A],[1017 hPa],[21.0 °C],[9:00 PM],[7.0 km],[East],"[14.8 km/h
		/ 4.1 m/s]",METAR VHHH 311300Z 09008KT 030V150 7000 FEW012 SCT018 21/18 Q1017 NOSIG
0,[Scattered Clouds],1997-3-31,[17.0 °C],[],[-],,[78%],[N/A],[1018 hPa],[21.0 °C],[10:00 PM],[7.0 km],[East],"[13.0 km/h
		/ 3.6 m/s]",METAR VHHH 311400Z 08007KT 330V140 7000 FEW012 SCT018 21/17 Q1018 NOSIG
0,[Scattered Clouds],1997-3-31,[17.0 °C],[],[-],,[78%],[N/A],[1018 hPa],[21.0 °C],[11:00 PM],[7.0 km],[East],"[18.5 km/h
		/ 5.1 m/s]",METAR VHHH 311500Z 09010KT 040V120 7000 FEW012 SCT018 21/17 Q1018 NOSIG
